{
  "id": 874415451,
  "type": "Feature",
  "properties": {
    "date:inception_lower": "2011-06-01",
    "date:inception_upper": "2011-06-01",
    "edtf:cessation": "",
    "edtf:inception": "2011-06-01",
    "geom:area": 0,
    "geom:bbox": "-2.399457,51.054928,-2.399457,51.054928",
    "geom:latitude": 51.054928,
    "geom:longitude": -2.399457,
    "iso:country": "GB",
    "mz:hierarchy_label": 1,
    "mz:is_current": 1,
    "os:country_code": "E92000001",
    "os:county_code": "E99999999",
    "os:district_code": "E06000066",
    "os:positional_quality_indicator": "1",
    "os:region_code": "E12000009",
    "src:geom": "os",
    "wof:belongsto": [
      85633159,
      102191581,
      136253055,
      1864205691,
      1360699059,
      404435715,
      101852507,
      1880762071,
      404227469,
      1880773145
    ],
    "wof:breaches": [],
    "wof:country": "GB",
    "wof:created": 1468874088,
    "wof:geomhash": "a04aed51d8ca5c041aed0b0e9e87f005",
    "wof:hierarchy": [
      {
        "continent_id": 102191581,
        "country_id": 85633159,
        "county_id": 1360699059,
        "empire_id": 136253055,
        "localadmin_id": 404435715,
        "locality_id": 101852507,
        "macrocounty_id": 1880762071,
        "macroregion_id": 404227469,
        "postalcode_id": 874415451,
        "region_id": 1880773145
      },
      {
        "continent_id": 102191581,
        "country_id": 85633159,
        "empire_id": 136253055,
        "postalcode_id": 874415451,
        "postalregion_id": 1864205691
      }
    ],
    "wof:id": 874415451,
    "wof:lastmodified": 1763547939,
    "wof:name": "BA9 9FR",
    "wof:parent_id": 101852507,
    "wof:placetype": "postalcode",
    "wof:repo": "whosonfirst-data-postalcode-gb",
    "wof:superseded_by": [],
    "wof:supersedes": [],
    "wof:tags": []
  },
  "bbox": [
    -2.399457,
    51.054928,
    -2.399457,
    51.054928
  ],
  "geometry": {"coordinates":[-2.399457,51.054928],"type":"Point"}
}
