{
  "id": 874499065,
  "type": "Feature",
  "properties": {
    "date:inception_lower": "2011-10-01",
    "date:inception_upper": "2011-10-01",
    "edtf:cessation": "",
    "edtf:inception": "2011-10-01",
    "geom:area": 0,
    "geom:bbox": "-0.619838,52.332330,-0.619838,52.332330",
    "geom:latitude": 52.33233,
    "geom:longitude": -0.619838,
    "iso:country": "GB",
    "mz:hierarchy_label": 1,
    "mz:is_current": 1,
    "os:country_code": "E92000001",
    "os:county_code": "E99999999",
    "os:district_code": "E06000061",
    "os:positional_quality_indicator": "1",
    "os:region_code": "E12000004",
    "src:geom": "os",
    "wof:belongsto": [
      85633159,
      102191581,
      136253055,
      1864209257,
      1880773237,
      404448195,
      101853571,
      1880762029,
      404227469,
      1880773265
    ],
    "wof:breaches": [],
    "wof:country": "GB",
    "wof:created": 1468890755,
    "wof:geomhash": "acbb4d11861d40d61bd68c8f33a22701",
    "wof:hierarchy": [
      {
        "continent_id": 102191581,
        "country_id": 85633159,
        "county_id": 1880773237,
        "empire_id": 136253055,
        "localadmin_id": 404448195,
        "locality_id": 101853571,
        "macrocounty_id": 1880762029,
        "macroregion_id": 404227469,
        "postalcode_id": 874499065,
        "region_id": 1880773265
      },
      {
        "continent_id": 102191581,
        "country_id": 85633159,
        "empire_id": 136253055,
        "postalcode_id": 874499065,
        "postalregion_id": 1864209257
      }
    ],
    "wof:id": 874499065,
    "wof:lastmodified": 1763547946,
    "wof:name": "NN9 5GR",
    "wof:parent_id": 101853571,
    "wof:placetype": "postalcode",
    "wof:repo": "whosonfirst-data-postalcode-gb",
    "wof:superseded_by": [],
    "wof:supersedes": [],
    "wof:tags": []
  },
  "bbox": [
    -0.619838,
    52.33233,
    -0.619838,
    52.33233
  ],
  "geometry": {"coordinates":[-0.619838,52.33233],"type":"Point"}
}
