{
  "id": 504433419,
  "type": "Feature",
  "properties": {
    "date:inception_lower": "1995-07-01",
    "date:inception_upper": "1995-07-01",
    "edtf:cessation": "",
    "edtf:inception": "1995-07-01",
    "geom:area": 0,
    "geom:bbox": "-7.285823,57.476774,-7.285823,57.476774",
    "geom:latitude": 57.476774,
    "geom:longitude": -7.285823,
    "gp:parent_id": "12696213",
    "iso:country": "GB",
    "mz:hierarchy_label": 1,
    "mz:is_current": 1,
    "os:country_code": "S92000003",
    "os:county_code": "S99999999",
    "os:district_code": "S12000013",
    "os:positional_quality_indicator": "1",
    "os:region_code": "S99999999",
    "src:geom": "os",
    "wof:belongsto": [
      85633159,
      102191581,
      136253055,
      1864207729,
      1360699007,
      1880762027,
      404227471,
      1880773097
    ],
    "wof:breaches": [],
    "wof:concordances": {
      "gp:id": "27370772"
    },
    "wof:country": "GB",
    "wof:created": 1583701246,
    "wof:geomhash": "331b8a433e6a1d4c0f5c98635c52ddbb",
    "wof:hierarchy": [
      {
        "continent_id": 102191581,
        "country_id": 85633159,
        "county_id": 1360699007,
        "empire_id": 136253055,
        "macrocounty_id": 1880762027,
        "macroregion_id": 404227471,
        "postalcode_id": 504433419,
        "region_id": 1880773097
      },
      {
        "continent_id": 102191581,
        "country_id": 85633159,
        "empire_id": 136253055,
        "postalcode_id": 504433419,
        "postalregion_id": 1864207729
      }
    ],
    "wof:id": 504433419,
    "wof:lastmodified": 1763548142,
    "wof:name": "HS7 5QR",
    "wof:parent_id": 1360699007,
    "wof:placetype": "postalcode",
    "wof:repo": "whosonfirst-data-postalcode-gb",
    "wof:superseded_by": [],
    "wof:supersedes": [],
    "wof:tags": []
  },
  "bbox": [
    -7.285823,
    57.476774,
    -7.285823,
    57.476774
  ],
  "geometry": {"coordinates":[-7.285823,57.476774],"type":"Point"}
}
