{
  "id": 487646427,
  "type": "Feature",
  "properties": {
    "date:inception_lower": "1980-01-01",
    "date:inception_upper": "1980-01-01",
    "edtf:cessation": "",
    "edtf:inception": "1980-01-01",
    "geom:area": 0,
    "geom:bbox": "-2.130324,51.005245,-2.130324,51.005245",
    "geom:latitude": 51.005245,
    "geom:longitude": -2.130324,
    "gp:parent_id": "27934",
    "iso:country": "GB",
    "mz:hierarchy_label": 1,
    "mz:is_current": 1,
    "os:country_code": "E92000001",
    "os:county_code": "E99999999",
    "os:district_code": "E06000054",
    "os:positional_quality_indicator": "1",
    "os:region_code": "E12000009",
    "src:geom": "os",
    "wof:belongsto": [
      85633159,
      102191581,
      136253055,
      1864210715,
      1360698937,
      404442631,
      1209844875,
      1880762017,
      404227469,
      1880773035
    ],
    "wof:breaches": [],
    "wof:concordances": {
      "gp:id": "27969660"
    },
    "wof:country": "GB",
    "wof:created": 1583701103,
    "wof:geomhash": "d9f34d5787e5688c38a7a1b1a0ce0ec5",
    "wof:hierarchy": [
      {
        "continent_id": 102191581,
        "country_id": 85633159,
        "county_id": 1360698937,
        "empire_id": 136253055,
        "localadmin_id": 404442631,
        "locality_id": 1209844875,
        "macrocounty_id": 1880762017,
        "macroregion_id": 404227469,
        "postalcode_id": 487646427,
        "region_id": 1880773035
      },
      {
        "continent_id": 102191581,
        "country_id": 85633159,
        "empire_id": 136253055,
        "postalcode_id": 487646427,
        "postalregion_id": 1864210715
      }
    ],
    "wof:id": 487646427,
    "wof:lastmodified": 1763548734,
    "wof:name": "SP7 9NF",
    "wof:parent_id": 1209844875,
    "wof:placetype": "postalcode",
    "wof:repo": "whosonfirst-data-postalcode-gb",
    "wof:superseded_by": [],
    "wof:supersedes": [],
    "wof:tags": []
  },
  "bbox": [
    -2.130324,
    51.005245,
    -2.130324,
    51.005245
  ],
  "geometry": {"coordinates":[-2.130324,51.005245],"type":"Point"}
}
