{
  "id": 504574799,
  "type": "Feature",
  "properties": {
    "date:inception_lower": "1994-02-01",
    "date:inception_upper": "1994-02-01",
    "edtf:cessation": "",
    "edtf:inception": "1994-02-01",
    "geom:area": 0,
    "geom:bbox": "-3.926583,57.127759,-3.926583,57.127759",
    "geom:latitude": 57.127759,
    "geom:longitude": -3.926583,
    "gp:parent_id": "25079",
    "iso:country": "GB",
    "mz:hierarchy_label": 1,
    "mz:is_current": 1,
    "os:country_code": "S92000003",
    "os:county_code": "S99999999",
    "os:district_code": "S12000017",
    "os:positional_quality_indicator": "1",
    "os:region_code": "S99999999",
    "src:geom": "os",
    "wof:belongsto": [
      85633159,
      102191581,
      136253055,
      1864209763,
      1360699045,
      1880762005,
      404227471,
      1880773131
    ],
    "wof:breaches": [],
    "wof:concordances": {
      "gp:id": "27762174"
    },
    "wof:country": "GB",
    "wof:created": 1583701442,
    "wof:geomhash": "6a16bb9684b6e8d006b616700b62d952",
    "wof:hierarchy": [
      {
        "continent_id": 102191581,
        "country_id": 85633159,
        "county_id": 1360699045,
        "empire_id": 136253055,
        "macrocounty_id": 1880762005,
        "macroregion_id": 404227471,
        "postalcode_id": 504574799,
        "region_id": 1880773131
      },
      {
        "continent_id": 102191581,
        "country_id": 85633159,
        "empire_id": 136253055,
        "postalcode_id": 504574799,
        "postalregion_id": 1864209763
      }
    ],
    "wof:id": 504574799,
    "wof:lastmodified": 1763548061,
    "wof:name": "PH21 1QA",
    "wof:parent_id": 1360699045,
    "wof:placetype": "postalcode",
    "wof:repo": "whosonfirst-data-postalcode-gb",
    "wof:superseded_by": [],
    "wof:supersedes": [],
    "wof:tags": []
  },
  "bbox": [
    -3.926583,
    57.127759,
    -3.926583,
    57.127759
  ],
  "geometry": {"coordinates":[-3.926583,57.127759],"type":"Point"}
}
