{
  "id": 1998352425,
  "type": "Feature",
  "properties": {
    "date:inception_lower": "2024-11-01",
    "date:inception_upper": "2024-11-01",
    "edtf:cessation": "",
    "edtf:inception": "2024-11-01",
    "geom:area": 0,
    "geom:bbox": "-3.172773,55.879241,-3.172773,55.879241",
    "geom:latitude": 55.879241,
    "geom:longitude": -3.172773,
    "iso:country": "GB",
    "mz:hierarchy_label": 1,
    "mz:is_current": 1,
    "os:country_code": "S92000003",
    "os:county_code": "S99999999",
    "os:district_code": "S12000019",
    "os:positional_quality_indicator": "2",
    "os:region_code": "S99999999",
    "src:geom": "os",
    "wof:belongsto": [
      102191581,
      85633159,
      1360698791,
      136253055,
      1880762083,
      404227471,
      1880772919,
      1864207055
    ],
    "wof:breaches": [],
    "wof:country": "GB",
    "wof:created": 1763549389,
    "wof:geomhash": "4a8b5ed1873741657edb3d87abe3759b",
    "wof:hierarchy": [
      {
        "continent_id": 102191581,
        "country_id": 85633159,
        "county_id": 1360698791,
        "empire_id": 136253055,
        "macrocounty_id": 1880762083,
        "macroregion_id": 404227471,
        "postalcode_id": 1998352425,
        "region_id": 1880772919
      },
      {
        "continent_id": 102191581,
        "country_id": 85633159,
        "empire_id": 136253055,
        "postalcode_id": 1998352425,
        "postalregion_id": 1864207055
      }
    ],
    "wof:id": 1998352425,
    "wof:lastmodified": 1763549389,
    "wof:name": "EH20 9FR",
    "wof:parent_id": 1360698791,
    "wof:placetype": "postalcode",
    "wof:repo": "whosonfirst-data-postalcode-gb",
    "wof:superseded_by": [],
    "wof:supersedes": [],
    "wof:tags": []
  },
  "bbox": [
    -3.172773,
    55.879241,
    -3.172773,
    55.879241
  ],
  "geometry": {"coordinates":[-3.172773,55.879241],"type":"Point"}
}
