{
  "id": 438061477,
  "type": "Feature",
  "properties": {
    "date:inception_lower": "1980-01-01",
    "date:inception_upper": "1980-01-01",
    "edtf:cessation": "",
    "edtf:inception": "1980-01-01",
    "geom:area": 0,
    "geom:bbox": "-2.384562,51.367640,-2.384562,51.367640",
    "geom:latitude": 51.36764,
    "geom:longitude": -2.384562,
    "gp:parent_id": "12056",
    "iso:country": "GB",
    "mz:hierarchy_label": 1,
    "mz:is_current": 1,
    "os:country_code": "E92000001",
    "os:county_code": "E99999999",
    "os:district_code": "E06000022",
    "os:positional_quality_indicator": "1",
    "os:region_code": "E12000009",
    "src:geom": "os",
    "wof:belongsto": [
      85633159,
      102191581,
      136253055,
      1864205669,
      1360698775,
      101750387,
      1880762071,
      404227469,
      1880773145
    ],
    "wof:breaches": [],
    "wof:concordances": {
      "gp:id": "26485944"
    },
    "wof:country": "GB",
    "wof:created": 1583701176,
    "wof:geomhash": "4270188f14fdc78fce11589bd0018be8",
    "wof:hierarchy": [
      {
        "continent_id": 102191581,
        "country_id": 85633159,
        "county_id": 1360698775,
        "empire_id": 136253055,
        "locality_id": 101750387,
        "macrocounty_id": 1880762071,
        "macroregion_id": 404227469,
        "postalcode_id": 438061477,
        "region_id": 1880773145
      },
      {
        "continent_id": 102191581,
        "country_id": 85633159,
        "empire_id": 136253055,
        "postalcode_id": 438061477,
        "postalregion_id": 1864205669
      }
    ],
    "wof:id": 438061477,
    "wof:lastmodified": 1763548118,
    "wof:name": "BA2 2NQ",
    "wof:parent_id": 101750387,
    "wof:placetype": "postalcode",
    "wof:repo": "whosonfirst-data-postalcode-gb",
    "wof:superseded_by": [],
    "wof:supersedes": [],
    "wof:tags": []
  },
  "bbox": [
    -2.384562,
    51.36764,
    -2.384562,
    51.36764
  ],
  "geometry": {"coordinates":[-2.384562,51.36764],"type":"Point"}
}
