{
  "id": 1947758993,
  "type": "Feature",
  "properties": {
    "date:inception_lower": "2024-06-01",
    "date:inception_upper": "2024-06-01",
    "edtf:cessation": "",
    "edtf:inception": "2024-06-01",
    "geom:area": 0,
    "geom:bbox": "-1.361102,53.382710,-1.361102,53.382710",
    "geom:latitude": 53.38271,
    "geom:longitude": -1.361102,
    "iso:country": "GB",
    "mz:hierarchy_label": 1,
    "mz:is_current": 1,
    "os:country_code": "E92000001",
    "os:county_code": "E99999999",
    "os:district_code": "E08000018",
    "os:positional_quality_indicator": "1",
    "os:region_code": "E12000003",
    "src:geom": "os",
    "wof:belongsto": [
      1360698851,
      404432129,
      1293425193,
      1880761997,
      102191581,
      85633159,
      136253055,
      1864210235
    ],
    "wof:breaches": [],
    "wof:country": "GB",
    "wof:created": 1736334445,
    "wof:geomhash": "2e1ad6042b01c8dd1aed0bf5261da857",
    "wof:hierarchy": [
      {
        "continent_id": -1,
        "country_id": -1,
        "county_id": 1360698851,
        "localadmin_id": 404432129,
        "locality_id": 1293425193,
        "macrocounty_id": 1880761997,
        "postalcode_id": 1947758993,
        "region_id": -1
      },
      {
        "continent_id": 102191581,
        "country_id": 85633159,
        "empire_id": 136253055,
        "postalcode_id": 1947758993,
        "postalregion_id": 1864210235
      }
    ],
    "wof:id": 1947758993,
    "wof:lastmodified": 1763547899,
    "wof:name": "S60 8ER",
    "wof:parent_id": 1293425193,
    "wof:placetype": "postalcode",
    "wof:repo": "whosonfirst-data-postalcode-gb",
    "wof:superseded_by": [],
    "wof:supersedes": [],
    "wof:tags": []
  },
  "bbox": [
    -1.361102,
    53.38271,
    -1.361102,
    53.38271
  ],
  "geometry": {"coordinates":[-1.361102,53.38271],"type":"Point"}
}
