{
  "id": 454051147,
  "type": "Feature",
  "properties": {
    "date:inception_lower": "1980-01-01",
    "date:inception_upper": "1980-01-01",
    "edtf:cessation": "",
    "edtf:inception": "1980-01-01",
    "geom:area": 0,
    "geom:bbox": "-2.756882,54.606581,-2.756882,54.606581",
    "geom:latitude": 54.606581,
    "geom:longitude": -2.756882,
    "gp:parent_id": "11250",
    "iso:country": "GB",
    "mz:hierarchy_label": 1,
    "mz:is_current": 1,
    "os:country_code": "E92000001",
    "os:county_code": "E99999999",
    "os:district_code": "E06000064",
    "os:positional_quality_indicator": "1",
    "os:region_code": "E12000002",
    "src:geom": "os",
    "wof:belongsto": [
      85633159,
      102191581,
      136253055,
      1864206055,
      1880773235,
      404453895,
      1125908205,
      1880761989,
      404227469,
      1880773269
    ],
    "wof:breaches": [],
    "wof:concordances": {
      "gp:id": "27013465"
    },
    "wof:country": "GB",
    "wof:created": 1583701086,
    "wof:geomhash": "f51e7b34b494ea42808680975f9ec298",
    "wof:hierarchy": [
      {
        "continent_id": 102191581,
        "country_id": 85633159,
        "county_id": 1880773235,
        "empire_id": 136253055,
        "localadmin_id": 404453895,
        "locality_id": 1125908205,
        "macrocounty_id": 1880761989,
        "macroregion_id": 404227469,
        "postalcode_id": 454051147,
        "region_id": 1880773269
      },
      {
        "continent_id": 102191581,
        "country_id": 85633159,
        "empire_id": 136253055,
        "postalcode_id": 454051147,
        "postalregion_id": 1864206055
      }
    ],
    "wof:id": 454051147,
    "wof:lastmodified": 1763548526,
    "wof:name": "CA10 2PJ",
    "wof:parent_id": 1125908205,
    "wof:placetype": "postalcode",
    "wof:repo": "whosonfirst-data-postalcode-gb",
    "wof:superseded_by": [],
    "wof:supersedes": [],
    "wof:tags": []
  },
  "bbox": [
    -2.756882,
    54.606581,
    -2.756882,
    54.606581
  ],
  "geometry": {"coordinates":[-2.756882,54.606581],"type":"Point"}
}
