{
  "id": 1712680581,
  "type": "Feature",
  "properties": {
    "date:cessation_lower": "1990-12-01",
    "date:cessation_upper": "1990-12-01",
    "date:inception_lower": "1990-02-01",
    "date:inception_upper": "1990-02-01",
    "edtf:cessation": "1990-12-01",
    "edtf:inception": "1990-02-01",
    "geom:area": 0,
    "geom:bbox": "-2.130920,52.454795,-2.130920,52.454795",
    "geom:latitude": 52.454795,
    "geom:longitude": -2.13092,
    "iso:country": "GB",
    "mz:hierarchy_label": 1,
    "mz:is_current": 0,
    "os:country_code": "E92000001",
    "os:county_code": "E99999999",
    "os:district_code": "E08000027",
    "os:positional_quality_indicator": "8",
    "os:region_code": "E12000005",
    "src:geom": "os",
    "wof:belongsto": [
      85633159,
      102191581,
      136253055,
      1864206917,
      1360698933,
      1360817295,
      1125999239,
      1880762069
    ],
    "wof:breaches": [],
    "wof:country": "GB",
    "wof:created": 1583798838,
    "wof:geomhash": "3cae38017582075b194fb59bc7d35c57",
    "wof:hierarchy": [
      {
        "continent_id": -1,
        "country_id": -1,
        "county_id": 1360698933,
        "localadmin_id": 1360817295,
        "locality_id": 1125999239,
        "macrocounty_id": 1880762069,
        "postalcode_id": 1712680581,
        "region_id": -1
      },
      {
        "continent_id": 102191581,
        "country_id": 85633159,
        "empire_id": 136253055,
        "postalcode_id": 1712680581,
        "postalregion_id": 1864206917
      }
    ],
    "wof:id": 1712680581,
    "wof:lastmodified": 1763548690,
    "wof:name": "DY9 7PW",
    "wof:parent_id": 1125999239,
    "wof:placetype": "postalcode",
    "wof:repo": "whosonfirst-data-postalcode-gb",
    "wof:superseded_by": [],
    "wof:supersedes": [],
    "wof:tags": []
  },
  "bbox": [
    -2.13092,
    52.454795,
    -2.13092,
    52.454795
  ],
  "geometry": {"coordinates":[-2.13092,52.454795],"type":"Point"}
}
