{
  "id": 471202107,
  "type": "Feature",
  "properties": {
    "date:inception_lower": "1980-01-01",
    "date:inception_upper": "1980-01-01",
    "edtf:cessation": "",
    "edtf:inception": "1980-01-01",
    "geom:area": 0,
    "geom:bbox": "1.362719,52.732009,1.362719,52.732009",
    "geom:latitude": 52.732009,
    "geom:longitude": 1.362719,
    "iso:country": "GB",
    "mz:hierarchy_label": 1,
    "mz:is_current": 1,
    "os:country_code": "E92000001",
    "os:county_code": "E10000020",
    "os:district_code": "E07000144",
    "os:positional_quality_indicator": "1",
    "os:region_code": "E12000006",
    "src:geom": "os",
    "wof:belongsto": [
      85633159,
      102191581,
      136253055,
      1864209307,
      1880771709,
      404442397,
      101875501,
      1880762037,
      404227469,
      1880762699
    ],
    "wof:breaches": [],
    "wof:concordances": {
      "gp:id": "27677618"
    },
    "wof:country": "GB",
    "wof:created": 1583701393,
    "wof:geomhash": "02cf73f13017284ee945c27f62f950aa",
    "wof:hierarchy": [
      {
        "continent_id": 102191581,
        "country_id": 85633159,
        "county_id": 1880771709,
        "empire_id": 136253055,
        "localadmin_id": 404442397,
        "locality_id": 101875501,
        "macrocounty_id": 1880762037,
        "macroregion_id": 404227469,
        "postalcode_id": 471202107,
        "region_id": 1880762699
      },
      {
        "continent_id": 102191581,
        "country_id": 85633159,
        "empire_id": 136253055,
        "postalcode_id": 471202107,
        "postalregion_id": 1864209307
      }
    ],
    "wof:id": 471202107,
    "wof:lastmodified": 1763548124,
    "wof:name": "NR12 7HP",
    "wof:parent_id": 101875501,
    "wof:placetype": "postalcode",
    "wof:repo": "whosonfirst-data-postalcode-gb",
    "wof:superseded_by": [],
    "wof:supersedes": [],
    "wof:tags": []
  },
  "bbox": [
    1.362719,
    52.732009,
    1.362719,
    52.732009
  ],
  "geometry": {"coordinates":[1.362719,52.732009],"type":"Point"}
}
