{
  "id": 1712809337,
  "type": "Feature",
  "properties": {
    "date:cessation_lower": "1997-06-01",
    "date:cessation_upper": "1997-06-01",
    "date:inception_lower": "1993-01-01",
    "date:inception_upper": "1993-01-01",
    "edtf:cessation": "1997-06-01",
    "edtf:inception": "1993-01-01",
    "geom:area": 0,
    "geom:bbox": "-3.050755,53.281331,-3.050755,53.281331",
    "geom:latitude": 53.281331,
    "geom:longitude": -3.050755,
    "iso:country": "GB",
    "mz:hierarchy_label": 1,
    "mz:is_current": 0,
    "os:country_code": "E92000001",
    "os:county_code": "E99999999",
    "os:district_code": "E06000050",
    "os:positional_quality_indicator": "8",
    "os:region_code": "E12000002",
    "src:geom": "os",
    "wof:belongsto": [
      102191581,
      85633159,
      1360698923,
      136253055,
      404452779,
      101871965,
      1880762135,
      404227469,
      1880773021
    ],
    "wof:breaches": [],
    "wof:country": "GB",
    "wof:created": 1583804547,
    "wof:geomhash": "6e7a5aaa6f6c817fe45ee5ad198a71a9",
    "wof:hierarchy": [
      {
        "continent_id": 102191581,
        "country_id": 85633159,
        "county_id": 1360698923,
        "empire_id": 136253055,
        "localadmin_id": 404452779,
        "locality_id": 101871965,
        "macrocounty_id": 1880762135,
        "macroregion_id": 404227469,
        "postalcode_id": 1712809337,
        "region_id": 1880773021
      }
    ],
    "wof:id": 1712809337,
    "wof:lastmodified": 1763548659,
    "wof:name": "L64 4HD",
    "wof:parent_id": 101871965,
    "wof:placetype": "postalcode",
    "wof:repo": "whosonfirst-data-postalcode-gb",
    "wof:superseded_by": [],
    "wof:supersedes": [],
    "wof:tags": []
  },
  "bbox": [
    -3.050755,
    53.281331,
    -3.050755,
    53.281331
  ],
  "geometry": {"coordinates":[-3.050755,53.281331],"type":"Point"}
}
