{
  "id": 488287057,
  "type": "Feature",
  "properties": {
    "date:inception_lower": "2008-11-01",
    "date:inception_upper": "2008-11-01",
    "edtf:cessation": "",
    "edtf:inception": "2008-11-01",
    "geom:area": 0,
    "geom:bbox": "-2.509374,53.065759,-2.509374,53.065759",
    "geom:latitude": 53.065759,
    "geom:longitude": -2.509374,
    "gp:parent_id": "12695889",
    "iso:country": "GB",
    "mz:hierarchy_label": 1,
    "mz:is_current": 1,
    "os:country_code": "E92000001",
    "os:county_code": "E99999999",
    "os:district_code": "E06000049",
    "os:positional_quality_indicator": "1",
    "os:region_code": "E12000002",
    "src:geom": "os",
    "wof:belongsto": [
      85633159,
      102191581,
      136253055,
      1864206559,
      1360698929,
      404440827,
      101871971,
      1880762135,
      404227469,
      1880773021
    ],
    "wof:breaches": [],
    "wof:concordances": {
      "gp:id": "56138229"
    },
    "wof:country": "GB",
    "wof:created": 1583701303,
    "wof:geomhash": "285882f0171b5ce42f81d58f65b847e0",
    "wof:hierarchy": [
      {
        "continent_id": 102191581,
        "country_id": 85633159,
        "county_id": 1360698929,
        "empire_id": 136253055,
        "localadmin_id": 404440827,
        "locality_id": 101871971,
        "macrocounty_id": 1880762135,
        "macroregion_id": 404227469,
        "postalcode_id": 488287057,
        "region_id": 1880773021
      },
      {
        "continent_id": 102191581,
        "country_id": 85633159,
        "empire_id": 136253055,
        "postalcode_id": 488287057,
        "postalregion_id": 1864206559
      }
    ],
    "wof:id": 488287057,
    "wof:lastmodified": 1763548447,
    "wof:name": "CW5 6GJ",
    "wof:parent_id": 101871971,
    "wof:placetype": "postalcode",
    "wof:repo": "whosonfirst-data-postalcode-gb",
    "wof:superseded_by": [],
    "wof:supersedes": [],
    "wof:tags": []
  },
  "bbox": [
    -2.509374,
    53.065759,
    -2.509374,
    53.065759
  ],
  "geometry": {"coordinates":[-2.509374,53.065759],"type":"Point"}
}
