{
  "id": 455020151,
  "type": "Feature",
  "properties": {
    "date:inception_lower": "1980-01-01",
    "date:inception_upper": "1980-01-01",
    "edtf:cessation": "",
    "edtf:inception": "1980-01-01",
    "geom:area": 0,
    "geom:bbox": "-1.208770,52.461028,-1.208770,52.461028",
    "geom:latitude": 52.461028,
    "geom:longitude": -1.20877,
    "iso:country": "GB",
    "mz:hierarchy_label": 1,
    "mz:is_current": 1,
    "os:country_code": "E92000001",
    "os:county_code": "E10000018",
    "os:district_code": "E07000131",
    "os:positional_quality_indicator": "1",
    "os:region_code": "E12000004",
    "src:geom": "os",
    "wof:belongsto": [
      85633159,
      102191581,
      136253055,
      1864208409,
      1880771563,
      404436119,
      101853103,
      1880762051,
      404227469,
      1880773085
    ],
    "wof:breaches": [],
    "wof:concordances": {
      "gp:id": "27474950"
    },
    "wof:country": "GB",
    "wof:created": 1583701067,
    "wof:geomhash": "f9631b75608701cae67086949e57f380",
    "wof:hierarchy": [
      {
        "continent_id": 102191581,
        "country_id": 85633159,
        "county_id": 1880771563,
        "empire_id": 136253055,
        "localadmin_id": 404436119,
        "locality_id": 101853103,
        "macrocounty_id": 1880762051,
        "macroregion_id": 404227469,
        "postalcode_id": 455020151,
        "region_id": 1880773085
      },
      {
        "continent_id": 102191581,
        "country_id": 85633159,
        "empire_id": 136253055,
        "postalcode_id": 455020151,
        "postalregion_id": 1864208409
      }
    ],
    "wof:id": 455020151,
    "wof:lastmodified": 1763547945,
    "wof:name": "LE17 4RR",
    "wof:parent_id": 101853103,
    "wof:placetype": "postalcode",
    "wof:repo": "whosonfirst-data-postalcode-gb",
    "wof:superseded_by": [],
    "wof:supersedes": [],
    "wof:tags": []
  },
  "bbox": [
    -1.20877,
    52.461028,
    -1.20877,
    52.461028
  ],
  "geometry": {"coordinates":[-1.20877,52.461028],"type":"Point"}
}
