{
  "id": 454989361,
  "type": "Feature",
  "properties": {
    "date:inception_lower": "2003-08-01",
    "date:inception_upper": "2003-08-01",
    "edtf:cessation": "",
    "edtf:inception": "2003-08-01",
    "geom:area": 0,
    "geom:bbox": "-3.378180,54.281782,-3.378180,54.281782",
    "geom:latitude": 54.281782,
    "geom:longitude": -3.37818,
    "gp:parent_id": "13251",
    "iso:country": "GB",
    "mz:hierarchy_label": 1,
    "mz:is_current": 1,
    "os:country_code": "E92000001",
    "os:county_code": "E99999999",
    "os:district_code": "E06000063",
    "os:positional_quality_indicator": "1",
    "os:region_code": "E12000002",
    "src:geom": "os",
    "wof:belongsto": [
      85633159,
      102191581,
      136253055,
      1864208343,
      1880773239,
      404444335,
      1125859395,
      1880761989,
      404227469,
      1880773269
    ],
    "wof:breaches": [],
    "wof:concordances": {
      "gp:id": "28241771"
    },
    "wof:country": "GB",
    "wof:created": 1583701766,
    "wof:geomhash": "cdac48be4b05d0d95514c0673d054996",
    "wof:hierarchy": [
      {
        "continent_id": 102191581,
        "country_id": 85633159,
        "county_id": 1880773239,
        "empire_id": 136253055,
        "localadmin_id": 404444335,
        "locality_id": 1125859395,
        "macrocounty_id": 1880761989,
        "macroregion_id": 404227469,
        "postalcode_id": 454989361,
        "region_id": 1880773269
      },
      {
        "continent_id": 102191581,
        "country_id": 85633159,
        "empire_id": 136253055,
        "postalcode_id": 454989361,
        "postalregion_id": 1864208343
      }
    ],
    "wof:id": 454989361,
    "wof:lastmodified": 1763548551,
    "wof:name": "LA19 5SA",
    "wof:parent_id": 1125859395,
    "wof:placetype": "postalcode",
    "wof:repo": "whosonfirst-data-postalcode-gb",
    "wof:superseded_by": [],
    "wof:supersedes": [],
    "wof:tags": []
  },
  "bbox": [
    -3.37818,
    54.281782,
    -3.37818,
    54.281782
  ],
  "geometry": {"coordinates":[-3.37818,54.281782],"type":"Point"}
}
