{
  "id": 38749815,
  "type": "Feature",
  "properties": {
    "date:cessation_lower": "1981-12-01",
    "date:cessation_upper": "1981-12-01",
    "date:inception_lower": "1980-01-01",
    "date:inception_upper": "1980-01-01",
    "edtf:cessation": "1981-12-01",
    "edtf:inception": "1980-01-01",
    "geom:area": 0,
    "geom:bbox": "-3.213410,50.862484,-3.213410,50.862484",
    "geom:latitude": 50.862484,
    "geom:longitude": -3.21341,
    "iso:country": "GB",
    "mz:hierarchy_label": 1,
    "mz:is_current": 0,
    "os:country_code": "E92000001",
    "os:county_code": "E10000008",
    "os:district_code": "E07000040",
    "os:positional_quality_indicator": "8",
    "os:region_code": "E12000009",
    "src:geom": "os",
    "wof:belongsto": [
      85633159,
      102191581,
      136253055,
      1864207189,
      1880771397,
      404437021,
      1126014421,
      1880762149,
      404227469,
      1880762683
    ],
    "wof:breaches": [],
    "wof:country": "GB",
    "wof:created": 1583793839,
    "wof:geomhash": "bef61e88f108964271c19fdf7c9b6f70",
    "wof:hierarchy": [
      {
        "continent_id": 102191581,
        "country_id": 85633159,
        "county_id": 1880771397,
        "empire_id": 136253055,
        "localadmin_id": 404437021,
        "locality_id": 1126014421,
        "macrocounty_id": 1880762149,
        "macroregion_id": 404227469,
        "postalcode_id": 38749815,
        "region_id": 1880762683
      },
      {
        "continent_id": 102191581,
        "country_id": 85633159,
        "empire_id": 136253055,
        "postalcode_id": 38749815,
        "postalregion_id": 1864207189
      }
    ],
    "wof:id": 38749815,
    "wof:lastmodified": 1763548626,
    "wof:name": "EX14 0RJ",
    "wof:parent_id": 1126014421,
    "wof:placetype": "postalcode",
    "wof:repo": "whosonfirst-data-postalcode-gb",
    "wof:superseded_by": [],
    "wof:supersedes": [],
    "wof:tags": []
  },
  "bbox": [
    -3.21341,
    50.862484,
    -3.21341,
    50.862484
  ],
  "geometry": {"coordinates":[-3.21341,50.862484],"type":"Point"}
}
