{
  "id": 438239375,
  "type": "Feature",
  "properties": {
    "date:inception_lower": "2005-11-01",
    "date:inception_upper": "2005-11-01",
    "edtf:cessation": "",
    "edtf:inception": "2005-11-01",
    "geom:area": 0,
    "geom:bbox": "-0.261260,50.830855,-0.261260,50.830855",
    "geom:latitude": 50.830855,
    "geom:longitude": -0.26126,
    "iso:country": "GB",
    "mz:hierarchy_label": 1,
    "mz:is_current": 1,
    "os:country_code": "E92000001",
    "os:county_code": "E10000032",
    "os:district_code": "E07000223",
    "os:positional_quality_indicator": "1",
    "os:region_code": "E12000008",
    "src:geom": "os",
    "wof:belongsto": [
      102191581,
      85633159,
      136253055,
      1864205917,
      1880771683,
      1360817173,
      101750325,
      1880762061
    ],
    "wof:breaches": [],
    "wof:concordances": {
      "gp:id": "28848381"
    },
    "wof:country": "GB",
    "wof:created": 1583701424,
    "wof:geomhash": "f55e9632d8db56a608a42bdd492ee926",
    "wof:hierarchy": [
      {
        "continent_id": -1,
        "country_id": -1,
        "county_id": 1880771683,
        "localadmin_id": 1360817173,
        "locality_id": 101750325,
        "macrocounty_id": 1880762061,
        "postalcode_id": 438239375,
        "region_id": -1
      },
      {
        "continent_id": 102191581,
        "country_id": 85633159,
        "empire_id": 136253055,
        "postalcode_id": 438239375,
        "postalregion_id": 1864205917
      }
    ],
    "wof:id": 438239375,
    "wof:lastmodified": 1763548127,
    "wof:name": "BN43 5JG",
    "wof:parent_id": 101750325,
    "wof:placetype": "postalcode",
    "wof:repo": "whosonfirst-data-postalcode-gb",
    "wof:superseded_by": [],
    "wof:supersedes": [],
    "wof:tags": []
  },
  "bbox": [
    -0.26126,
    50.830855,
    -0.26126,
    50.830855
  ],
  "geometry": {"coordinates":[-0.26126,50.830855],"type":"Point"}
}
