{
  "id": 1160758126,
  "type": "Feature",
  "properties": {
    "date:cessation_lower": "1994-05-01",
    "date:cessation_upper": "1994-05-01",
    "date:inception_lower": "1991-09-01",
    "date:inception_upper": "1991-09-01",
    "edtf:cessation": "1994-05-01",
    "edtf:inception": "1991-09-01",
    "geom:area": 0,
    "geom:bbox": "-1.116423,50.847465,-1.116423,50.847465",
    "geom:latitude": 50.847465,
    "geom:longitude": -1.116423,
    "iso:country": "GB",
    "mz:hierarchy_label": 1,
    "mz:is_current": 0,
    "os:country_code": "E92000001",
    "os:county_code": "E99999999",
    "os:district_code": "E06000044",
    "os:positional_quality_indicator": "8",
    "os:region_code": "E12000008",
    "src:geom": "os",
    "wof:belongsto": [
      85633159,
      102191581,
      136253055,
      1864209979,
      1360699069,
      101750307,
      1880762155,
      404227469,
      1880762717
    ],
    "wof:breaches": [],
    "wof:country": "GB",
    "wof:created": 1583788710,
    "wof:geomhash": "1286eb67fc81a41ee07e229b54c2881d",
    "wof:hierarchy": [
      {
        "continent_id": 102191581,
        "country_id": 85633159,
        "county_id": 1360699069,
        "empire_id": 136253055,
        "locality_id": 101750307,
        "macrocounty_id": 1880762155,
        "macroregion_id": 404227469,
        "postalcode_id": 1160758126,
        "region_id": 1880762717
      },
      {
        "continent_id": 102191581,
        "country_id": 85633159,
        "empire_id": 136253055,
        "postalcode_id": 1160758126,
        "postalregion_id": 1864209979
      }
    ],
    "wof:id": 1160758126,
    "wof:lastmodified": 1763548331,
    "wof:name": "PO6 4QQ",
    "wof:parent_id": 101750307,
    "wof:placetype": "postalcode",
    "wof:repo": "whosonfirst-data-postalcode-gb",
    "wof:superseded_by": [],
    "wof:supersedes": [],
    "wof:tags": []
  },
  "bbox": [
    -1.116423,
    50.847465,
    -1.116423,
    50.847465
  ],
  "geometry": {"coordinates":[-1.116423,50.847465],"type":"Point"}
}
