{
  "id": 471773161,
  "type": "Feature",
  "properties": {
    "date:inception_lower": "1999-12-01",
    "date:inception_upper": "1999-12-01",
    "edtf:cessation": "",
    "edtf:inception": "1999-12-01",
    "geom:area": 0,
    "geom:bbox": "-2.084107,53.453040,-2.084107,53.453040",
    "geom:latitude": 53.45304,
    "geom:longitude": -2.084107,
    "gp:parent_id": "24257",
    "iso:country": "GB",
    "mz:hierarchy_label": 1,
    "mz:is_current": 1,
    "os:country_code": "E92000001",
    "os:county_code": "E99999999",
    "os:district_code": "E08000008",
    "os:positional_quality_indicator": "1",
    "os:region_code": "E12000002",
    "src:geom": "os",
    "wof:belongsto": [
      85633159,
      102191581,
      136253055,
      1864210525,
      1360698931,
      1360817329,
      1125978547,
      1880762163,
      404227469,
      1880773095
    ],
    "wof:breaches": [],
    "wof:concordances": {
      "gp:id": "26760507"
    },
    "wof:country": "GB",
    "wof:created": 1583701736,
    "wof:geomhash": "8f9034aefc3c175d983bcfff61e65bbf",
    "wof:hierarchy": [
      {
        "continent_id": 102191581,
        "country_id": 85633159,
        "county_id": 1360698931,
        "empire_id": 136253055,
        "localadmin_id": 1360817329,
        "locality_id": 1125978547,
        "macrocounty_id": 1880762163,
        "macroregion_id": 404227469,
        "postalcode_id": 471773161,
        "region_id": 1880773095
      },
      {
        "continent_id": 102191581,
        "country_id": 85633159,
        "empire_id": 136253055,
        "postalcode_id": 471773161,
        "postalregion_id": 1864210525
      }
    ],
    "wof:id": 471773161,
    "wof:lastmodified": 1763548419,
    "wof:name": "SK14 2BE",
    "wof:parent_id": 1125978547,
    "wof:placetype": "postalcode",
    "wof:repo": "whosonfirst-data-postalcode-gb",
    "wof:superseded_by": [],
    "wof:supersedes": [],
    "wof:tags": []
  },
  "bbox": [
    -2.084107,
    53.45304,
    -2.084107,
    53.45304
  ],
  "geometry": {"coordinates":[-2.084107,53.45304],"type":"Point"}
}
