{
  "id": 1712825723,
  "type": "Feature",
  "properties": {
    "date:cessation_lower": "1997-08-01",
    "date:cessation_upper": "1997-08-01",
    "date:inception_lower": "1981-06-01",
    "date:inception_upper": "1981-06-01",
    "edtf:cessation": "1997-08-01",
    "edtf:inception": "1981-06-01",
    "geom:area": 0,
    "geom:bbox": "-2.421540,51.547653,-2.421540,51.547653",
    "geom:latitude": 51.547653,
    "geom:longitude": -2.42154,
    "iso:country": "GB",
    "mz:hierarchy_label": 1,
    "mz:is_current": 0,
    "os:country_code": "E92000001",
    "os:county_code": "E99999999",
    "os:district_code": "E06000025",
    "os:positional_quality_indicator": "1",
    "os:region_code": "E12000009",
    "src:geom": "os",
    "wof:belongsto": [
      102191581,
      85633159,
      1360698895,
      136253055,
      404441185,
      101852755,
      1880762161,
      404227469,
      1880762693
    ],
    "wof:breaches": [],
    "wof:country": "GB",
    "wof:created": 1583805278,
    "wof:geomhash": "d7c18f4a607f7dc3d541b8273f830eb4",
    "wof:hierarchy": [
      {
        "continent_id": 102191581,
        "country_id": 85633159,
        "county_id": 1360698895,
        "empire_id": 136253055,
        "localadmin_id": 404441185,
        "locality_id": 101852755,
        "macrocounty_id": 1880762161,
        "macroregion_id": 404227469,
        "postalcode_id": 1712825723,
        "region_id": 1880762693
      }
    ],
    "wof:id": 1712825723,
    "wof:lastmodified": 1763548737,
    "wof:name": "BS17 5TE",
    "wof:parent_id": 101852755,
    "wof:placetype": "postalcode",
    "wof:repo": "whosonfirst-data-postalcode-gb",
    "wof:superseded_by": [],
    "wof:supersedes": [],
    "wof:tags": []
  },
  "bbox": [
    -2.42154,
    51.547653,
    -2.42154,
    51.547653
  ],
  "geometry": {"coordinates":[-2.42154,51.547653],"type":"Point"}
}
