{
  "id": 487627413,
  "type": "Feature",
  "properties": {
    "date:inception_lower": "1986-01-01",
    "date:inception_upper": "1986-01-01",
    "edtf:cessation": "",
    "edtf:inception": "1986-01-01",
    "geom:area": 0,
    "geom:bbox": "-1.493810,50.990590,-1.493810,50.990590",
    "geom:latitude": 50.99059,
    "geom:longitude": -1.49381,
    "iso:country": "GB",
    "mz:hierarchy_label": 1,
    "mz:is_current": 1,
    "os:country_code": "E92000001",
    "os:county_code": "E10000014",
    "os:district_code": "E07000093",
    "os:positional_quality_indicator": "1",
    "os:region_code": "E12000008",
    "src:geom": "os",
    "wof:belongsto": [
      85633159,
      102191581,
      136253055,
      1864210691,
      1880771469,
      404448963,
      101852477,
      1880762155,
      404227469,
      1880762717
    ],
    "wof:breaches": [],
    "wof:concordances": {
      "gp:id": "27962360"
    },
    "wof:country": "GB",
    "wof:created": 1583701093,
    "wof:geomhash": "9b43ab698d51e9d1af4e39c8c00cc6cf",
    "wof:hierarchy": [
      {
        "continent_id": 102191581,
        "country_id": 85633159,
        "county_id": 1880771469,
        "empire_id": 136253055,
        "localadmin_id": 404448963,
        "locality_id": 101852477,
        "macrocounty_id": 1880762155,
        "macroregion_id": 404227469,
        "postalcode_id": 487627413,
        "region_id": 1880762717
      },
      {
        "continent_id": 102191581,
        "country_id": 85633159,
        "empire_id": 136253055,
        "postalcode_id": 487627413,
        "postalregion_id": 1864210691
      }
    ],
    "wof:id": 487627413,
    "wof:lastmodified": 1763548643,
    "wof:name": "SO51 8ED",
    "wof:parent_id": 101852477,
    "wof:placetype": "postalcode",
    "wof:repo": "whosonfirst-data-postalcode-gb",
    "wof:superseded_by": [],
    "wof:supersedes": [],
    "wof:tags": []
  },
  "bbox": [
    -1.49381,
    50.99059,
    -1.49381,
    50.99059
  ],
  "geometry": {"coordinates":[-1.49381,50.99059],"type":"Point"}
}
