{
  "id": 487607561,
  "type": "Feature",
  "properties": {
    "date:inception_lower": "1980-01-01",
    "date:inception_upper": "1980-01-01",
    "edtf:cessation": "",
    "edtf:inception": "1980-01-01",
    "geom:area": 0,
    "geom:bbox": "-1.345409,51.055866,-1.345409,51.055866",
    "geom:latitude": 51.055866,
    "geom:longitude": -1.345409,
    "iso:country": "GB",
    "mz:hierarchy_label": 1,
    "mz:is_current": 1,
    "os:country_code": "E92000001",
    "os:county_code": "E10000014",
    "os:district_code": "E07000094",
    "os:positional_quality_indicator": "1",
    "os:region_code": "E12000008",
    "src:geom": "os",
    "wof:belongsto": [
      85633159,
      102191581,
      136253055,
      1864210661,
      1880771467,
      101852447,
      1880762155,
      404227469,
      1880762717
    ],
    "wof:breaches": [],
    "wof:concordances": {
      "gp:id": "26691964"
    },
    "wof:country": "GB",
    "wof:created": 1583701082,
    "wof:geomhash": "c388c1be5827ad1b96490bc2fc419475",
    "wof:hierarchy": [
      {
        "continent_id": 102191581,
        "country_id": 85633159,
        "county_id": 1880771467,
        "empire_id": 136253055,
        "locality_id": 101852447,
        "macrocounty_id": 1880762155,
        "macroregion_id": 404227469,
        "postalcode_id": 487607561,
        "region_id": 1880762717
      },
      {
        "continent_id": 102191581,
        "country_id": 85633159,
        "empire_id": 136253055,
        "postalcode_id": 487607561,
        "postalregion_id": 1864210661
      }
    ],
    "wof:id": 487607561,
    "wof:lastmodified": 1763548751,
    "wof:name": "SO22 5PP",
    "wof:parent_id": 101852447,
    "wof:placetype": "postalcode",
    "wof:repo": "whosonfirst-data-postalcode-gb",
    "wof:superseded_by": [],
    "wof:supersedes": [],
    "wof:tags": []
  },
  "bbox": [
    -1.345409,
    51.055866,
    -1.345409,
    51.055866
  ],
  "geometry": {"coordinates":[-1.345409,51.055866],"type":"Point"}
}
