{
  "id": 1160859292,
  "type": "Feature",
  "properties": {
    "date:cessation_lower": "1984-12-01",
    "date:cessation_upper": "1984-12-01",
    "date:inception_lower": "1980-01-01",
    "date:inception_upper": "1980-01-01",
    "edtf:cessation": "1984-12-01",
    "edtf:inception": "1980-01-01",
    "geom:area": 0,
    "geom:bbox": "-2.997307,51.585715,-2.997307,51.585715",
    "geom:latitude": 51.585715,
    "geom:longitude": -2.997307,
    "iso:country": "GB",
    "mz:hierarchy_label": 1,
    "mz:is_current": 0,
    "os:country_code": "W92000004",
    "os:county_code": "W99999999",
    "os:district_code": "W06000022",
    "os:positional_quality_indicator": "8",
    "os:region_code": "W99999999",
    "src:geom": "os",
    "wof:belongsto": [
      102191581,
      85633159,
      1360698735,
      136253055,
      404454095,
      1360711915,
      1880762173,
      404227475,
      1880773189
    ],
    "wof:breaches": [],
    "wof:country": "GB",
    "wof:created": 1583793213,
    "wof:geomhash": "c71d0b3a38e11c9255b70b24af9023e5",
    "wof:hierarchy": [
      {
        "continent_id": 102191581,
        "country_id": 85633159,
        "county_id": 1360698735,
        "empire_id": 136253055,
        "localadmin_id": 404454095,
        "locality_id": 1360711915,
        "macrocounty_id": 1880762173,
        "macroregion_id": 404227475,
        "postalcode_id": 1160859292,
        "region_id": 1880773189
      }
    ],
    "wof:id": 1160859292,
    "wof:lastmodified": 1763548230,
    "wof:name": "NPT 1TR",
    "wof:parent_id": 1360711915,
    "wof:placetype": "postalcode",
    "wof:repo": "whosonfirst-data-postalcode-gb",
    "wof:superseded_by": [],
    "wof:supersedes": [],
    "wof:tags": []
  },
  "bbox": [
    -2.997307,
    51.585715,
    -2.997307,
    51.585715
  ],
  "geometry": {"coordinates":[-2.997307,51.585715],"type":"Point"}
}
