{
  "id": 504419295,
  "type": "Feature",
  "properties": {
    "date:inception_lower": "1980-01-01",
    "date:inception_upper": "1980-01-01",
    "edtf:cessation": "",
    "edtf:inception": "1980-01-01",
    "geom:area": 0,
    "geom:bbox": "-4.106525,55.786535,-4.106525,55.786535",
    "geom:latitude": 55.786535,
    "geom:longitude": -4.106525,
    "gp:parent_id": "12696210",
    "iso:country": "GB",
    "mz:hierarchy_label": 1,
    "mz:is_current": 1,
    "os:country_code": "S92000003",
    "os:county_code": "S99999999",
    "os:district_code": "S12000029",
    "os:positional_quality_indicator": "1",
    "os:region_code": "S99999999",
    "src:geom": "os",
    "wof:belongsto": [
      85633159,
      102191581,
      136253055,
      1864207409,
      1360698969,
      1880762099,
      404227471,
      1880773061
    ],
    "wof:breaches": [],
    "wof:concordances": {
      "gp:id": "27298080"
    },
    "wof:country": "GB",
    "wof:created": 1583701199,
    "wof:geomhash": "abb21b1834fccdb9c756f9cd4f1a90c3",
    "wof:hierarchy": [
      {
        "continent_id": 102191581,
        "country_id": 85633159,
        "county_id": 1360698969,
        "empire_id": 136253055,
        "macrocounty_id": 1880762099,
        "macroregion_id": 404227471,
        "postalcode_id": 504419295,
        "region_id": 1880773061
      },
      {
        "continent_id": 102191581,
        "country_id": 85633159,
        "empire_id": 136253055,
        "postalcode_id": 504419295,
        "postalregion_id": 1864207409
      }
    ],
    "wof:id": 504419295,
    "wof:lastmodified": 1763548093,
    "wof:name": "G72 9SY",
    "wof:parent_id": 1360698969,
    "wof:placetype": "postalcode",
    "wof:repo": "whosonfirst-data-postalcode-gb",
    "wof:superseded_by": [],
    "wof:supersedes": [],
    "wof:tags": []
  },
  "bbox": [
    -4.106525,
    55.786535,
    -4.106525,
    55.786535
  ],
  "geometry": {"coordinates":[-4.106525,55.786535],"type":"Point"}
}
