{
  "id": 488588183,
  "type": "Feature",
  "properties": {
    "date:inception_lower": "1995-07-01",
    "date:inception_upper": "1995-07-01",
    "edtf:cessation": "",
    "edtf:inception": "1995-07-01",
    "geom:area": 0,
    "geom:bbox": "-3.237634,51.575055,-3.237634,51.575055",
    "geom:latitude": 51.575055,
    "geom:longitude": -3.237634,
    "gp:parent_id": "12696116",
    "iso:country": "GB",
    "mz:hierarchy_label": 1,
    "mz:is_current": 1,
    "os:country_code": "W92000004",
    "os:county_code": "W99999999",
    "os:district_code": "W06000018",
    "os:positional_quality_indicator": "1",
    "os:region_code": "W99999999",
    "src:geom": "os",
    "wof:belongsto": [
      85633159,
      102191581,
      136253055,
      1864206233,
      1360698925,
      404445547,
      1126049903,
      1880762173,
      404227475,
      1880773189
    ],
    "wof:breaches": [],
    "wof:concordances": {
      "gp:id": "27050172"
    },
    "wof:country": "GB",
    "wof:created": 1583701608,
    "wof:geomhash": "ec1dd273b85b04daec737c8b05b4f61e",
    "wof:hierarchy": [
      {
        "continent_id": 102191581,
        "country_id": 85633159,
        "county_id": 1360698925,
        "empire_id": 136253055,
        "localadmin_id": 404445547,
        "locality_id": 1126049903,
        "macrocounty_id": 1880762173,
        "macroregion_id": 404227475,
        "postalcode_id": 488588183,
        "region_id": 1880773189
      },
      {
        "continent_id": 102191581,
        "country_id": 85633159,
        "empire_id": 136253055,
        "postalcode_id": 488588183,
        "postalregion_id": 1864206233
      }
    ],
    "wof:id": 488588183,
    "wof:lastmodified": 1763548504,
    "wof:name": "CF83 2QE",
    "wof:parent_id": 1126049903,
    "wof:placetype": "postalcode",
    "wof:repo": "whosonfirst-data-postalcode-gb",
    "wof:superseded_by": [],
    "wof:supersedes": [],
    "wof:tags": []
  },
  "bbox": [
    -3.237634,
    51.575055,
    -3.237634,
    51.575055
  ],
  "geometry": {"coordinates":[-3.237634,51.575055],"type":"Point"}
}
