{
  "id": 471572801,
  "type": "Feature",
  "properties": {
    "date:inception_lower": "1981-06-01",
    "date:inception_upper": "1981-06-01",
    "edtf:cessation": "",
    "edtf:inception": "1981-06-01",
    "geom:area": 0,
    "geom:bbox": "-0.069879,51.110852,-0.069879,51.110852",
    "geom:latitude": 51.110852,
    "geom:longitude": -0.069879,
    "gp:parent_id": "38354",
    "iso:country": "GB",
    "mz:hierarchy_label": 1,
    "mz:is_current": 1,
    "os:country_code": "E92000001",
    "os:county_code": "E10000032",
    "os:district_code": "E07000228",
    "os:positional_quality_indicator": "1",
    "os:region_code": "E12000008",
    "src:geom": "os",
    "wof:belongsto": [
      85633159,
      102191581,
      136253055,
      1864210085,
      1880771687,
      404438735,
      1125943423,
      1880762061,
      404227469,
      1880762709
    ],
    "wof:breaches": [],
    "wof:concordances": {
      "gp:id": "27824270"
    },
    "wof:country": "GB",
    "wof:created": 1583701674,
    "wof:geomhash": "2caccf15db2d23f639b903d0a10b5267",
    "wof:hierarchy": [
      {
        "continent_id": 102191581,
        "country_id": 85633159,
        "county_id": 1880771687,
        "empire_id": 136253055,
        "localadmin_id": 404438735,
        "locality_id": 1125943423,
        "macrocounty_id": 1880762061,
        "macroregion_id": 404227469,
        "postalcode_id": 471572801,
        "region_id": 1880762709
      },
      {
        "continent_id": 102191581,
        "country_id": 85633159,
        "empire_id": 136253055,
        "postalcode_id": 471572801,
        "postalregion_id": 1864210085
      }
    ],
    "wof:id": 471572801,
    "wof:lastmodified": 1763548151,
    "wof:name": "RH10 4TY",
    "wof:parent_id": 1125943423,
    "wof:placetype": "postalcode",
    "wof:repo": "whosonfirst-data-postalcode-gb",
    "wof:superseded_by": [],
    "wof:supersedes": [],
    "wof:tags": []
  },
  "bbox": [
    -0.069879,
    51.110852,
    -0.069879,
    51.110852
  ],
  "geometry": {"coordinates":[-0.069879,51.110852],"type":"Point"}
}
