{
  "id": 454166629,
  "type": "Feature",
  "properties": {
    "date:inception_lower": "1995-07-01",
    "date:inception_upper": "1995-07-01",
    "edtf:cessation": "",
    "edtf:inception": "1995-07-01",
    "geom:area": 0,
    "geom:bbox": "0.683043,51.726567,0.683043,51.726567",
    "geom:latitude": 51.726567,
    "geom:longitude": 0.683043,
    "gp:parent_id": "28184",
    "iso:country": "GB",
    "mz:hierarchy_label": 1,
    "mz:is_current": 1,
    "os:country_code": "E92000001",
    "os:county_code": "E10000012",
    "os:district_code": "E07000074",
    "os:positional_quality_indicator": "1",
    "os:region_code": "E12000006",
    "src:geom": "os",
    "wof:belongsto": [
      85633159,
      102191581,
      136253055,
      1864206377,
      1880771435,
      404440765,
      1125881549,
      1880762159,
      404227469,
      1880762723
    ],
    "wof:breaches": [],
    "wof:concordances": {
      "gp:id": "26435932"
    },
    "wof:country": "GB",
    "wof:created": 1583701327,
    "wof:geomhash": "f55a35813d7d4dc253bd226030032fda",
    "wof:hierarchy": [
      {
        "continent_id": 102191581,
        "country_id": 85633159,
        "county_id": 1880771435,
        "empire_id": 136253055,
        "localadmin_id": 404440765,
        "locality_id": 1125881549,
        "macrocounty_id": 1880762159,
        "macroregion_id": 404227469,
        "postalcode_id": 454166629,
        "region_id": 1880762723
      },
      {
        "continent_id": 102191581,
        "country_id": 85633159,
        "empire_id": 136253055,
        "postalcode_id": 454166629,
        "postalregion_id": 1864206377
      }
    ],
    "wof:id": 454166629,
    "wof:lastmodified": 1763548201,
    "wof:name": "CM9 5EB",
    "wof:parent_id": 1125881549,
    "wof:placetype": "postalcode",
    "wof:repo": "whosonfirst-data-postalcode-gb",
    "wof:superseded_by": [],
    "wof:supersedes": [],
    "wof:tags": []
  },
  "bbox": [
    0.683043,
    51.726567,
    0.683043,
    51.726567
  ],
  "geometry": {"coordinates":[0.683043,51.726567],"type":"Point"}
}
