{
  "id": 1712502377,
  "type": "Feature",
  "properties": {
    "date:cessation_lower": "1995-01-01",
    "date:cessation_upper": "1995-01-01",
    "date:inception_lower": "1980-01-01",
    "date:inception_upper": "1980-01-01",
    "edtf:cessation": "1995-01-01",
    "edtf:inception": "1980-01-01",
    "geom:area": 0,
    "geom:bbox": "-1.330495,52.057391,-1.330495,52.057391",
    "geom:latitude": 52.057391,
    "geom:longitude": -1.330495,
    "iso:country": "GB",
    "mz:hierarchy_label": 1,
    "mz:is_current": 0,
    "os:country_code": "E92000001",
    "os:county_code": "E10000025",
    "os:district_code": "E07000177",
    "os:positional_quality_indicator": "8",
    "os:region_code": "E12000008",
    "src:geom": "os",
    "wof:belongsto": [
      85633159,
      102191581,
      136253055,
      1864209459,
      1880771613,
      404436741,
      101875471,
      1880762079,
      404227469,
      1880762695
    ],
    "wof:breaches": [],
    "wof:country": "GB",
    "wof:created": 1583790903,
    "wof:geomhash": "92648416d7c9ba12d570acdeb53e08e7",
    "wof:hierarchy": [
      {
        "continent_id": 102191581,
        "country_id": 85633159,
        "county_id": 1880771613,
        "empire_id": 136253055,
        "localadmin_id": 404436741,
        "locality_id": 101875471,
        "macrocounty_id": 1880762079,
        "macroregion_id": 404227469,
        "postalcode_id": 1712502377,
        "region_id": 1880762695
      },
      {
        "continent_id": 102191581,
        "country_id": 85633159,
        "empire_id": 136253055,
        "postalcode_id": 1712502377,
        "postalregion_id": 1864209459
      }
    ],
    "wof:id": 1712502377,
    "wof:lastmodified": 1763548689,
    "wof:name": "OX16 8TS",
    "wof:parent_id": 101875471,
    "wof:placetype": "postalcode",
    "wof:repo": "whosonfirst-data-postalcode-gb",
    "wof:superseded_by": [],
    "wof:supersedes": [],
    "wof:tags": []
  },
  "bbox": [
    -1.330495,
    52.057391,
    -1.330495,
    52.057391
  ],
  "geometry": {"coordinates":[-1.330495,52.057391],"type":"Point"}
}
