{
  "id": 437647999,
  "type": "Feature",
  "properties": {
    "date:cessation_lower": "2006-05-01",
    "date:cessation_upper": "2006-05-01",
    "date:inception_lower": "1980-01-01",
    "date:inception_upper": "1980-01-01",
    "edtf:cessation": "2006-05-01",
    "edtf:inception": "1980-01-01",
    "geom:area": 0,
    "geom:bbox": "-1.320410,53.699250,-1.320410,53.699250",
    "geom:latitude": 53.69925,
    "geom:longitude": -1.32041,
    "iso:country": "GB",
    "mz:hierarchy_label": 1,
    "mz:is_current": 0,
    "os:country_code": "E92000001",
    "os:county_code": "E99999999",
    "os:district_code": "E08000036",
    "os:positional_quality_indicator": "1",
    "os:region_code": "E12000003",
    "src:geom": "os",
    "wof:belongsto": [
      85633159,
      102191581,
      136253055,
      1864211579,
      1360698945,
      1360817483,
      101872189,
      1880762059
    ],
    "wof:breaches": [],
    "wof:concordances": {
      "gp:id": "28158595"
    },
    "wof:country": "GB",
    "wof:created": 1583701448,
    "wof:geomhash": "ce2f4b667181b17928f6ac6ad57f706f",
    "wof:hierarchy": [
      {
        "continent_id": -1,
        "country_id": -1,
        "county_id": 1360698945,
        "localadmin_id": 1360817483,
        "locality_id": 101872189,
        "macrocounty_id": 1880762059,
        "postalcode_id": 437647999,
        "region_id": -1
      },
      {
        "continent_id": 102191581,
        "country_id": 85633159,
        "empire_id": 136253055,
        "postalcode_id": 437647999,
        "postalregion_id": 1864211579
      }
    ],
    "wof:id": 437647999,
    "wof:lastmodified": 1763548198,
    "wof:name": "WF8 4QB",
    "wof:parent_id": 101872189,
    "wof:placetype": "postalcode",
    "wof:repo": "whosonfirst-data-postalcode-gb",
    "wof:superseded_by": [],
    "wof:supersedes": [],
    "wof:tags": []
  },
  "bbox": [
    -1.32041,
    53.69925,
    -1.32041,
    53.69925
  ],
  "geometry": {"coordinates":[-1.32041,53.69925],"type":"Point"}
}
