{
  "id": 1712654345,
  "type": "Feature",
  "properties": {
    "date:cessation_lower": "1984-03-01",
    "date:cessation_upper": "1984-03-01",
    "date:inception_lower": "1973-08-01",
    "date:inception_upper": "1973-08-01",
    "edtf:cessation": "1984-03-01",
    "edtf:inception": "1973-08-01",
    "geom:area": 0,
    "geom:bbox": "-4.254620,55.850844,-4.254620,55.850844",
    "geom:latitude": 55.850844,
    "geom:longitude": -4.25462,
    "iso:country": "GB",
    "mz:hierarchy_label": 1,
    "mz:is_current": 0,
    "os:country_code": "S92000003",
    "os:county_code": "S99999999",
    "os:district_code": "S12000049",
    "os:positional_quality_indicator": "8",
    "os:region_code": "S99999999",
    "src:geom": "os",
    "wof:belongsto": [
      85633159,
      102191581,
      136253055,
      1864207371,
      1360698797,
      1175612707,
      1880762095,
      404227471,
      1880772925
    ],
    "wof:breaches": [],
    "wof:country": "GB",
    "wof:created": 1583797675,
    "wof:geomhash": "d5ea577f3a6b34996ee1928fe1ba39b0",
    "wof:hierarchy": [
      {
        "continent_id": 102191581,
        "country_id": 85633159,
        "county_id": 1360698797,
        "empire_id": 136253055,
        "locality_id": 1175612707,
        "macrocounty_id": 1880762095,
        "macroregion_id": 404227471,
        "postalcode_id": 1712654345,
        "region_id": 1880772925
      },
      {
        "continent_id": 102191581,
        "country_id": 85633159,
        "empire_id": 136253055,
        "postalcode_id": 1712654345,
        "postalregion_id": 1864207371
      }
    ],
    "wof:id": 1712654345,
    "wof:lastmodified": 1763548750,
    "wof:name": "G5 9LP",
    "wof:parent_id": 1175612707,
    "wof:placetype": "postalcode",
    "wof:repo": "whosonfirst-data-postalcode-gb",
    "wof:superseded_by": [],
    "wof:supersedes": [],
    "wof:tags": []
  },
  "bbox": [
    -4.25462,
    55.850844,
    -4.25462,
    55.850844
  ],
  "geometry": {"coordinates":[-4.25462,55.850844],"type":"Point"}
}
