{
  "id": 454228123,
  "type": "Feature",
  "properties": {
    "date:inception_lower": "1980-01-01",
    "date:inception_upper": "1980-01-01",
    "edtf:cessation": "",
    "edtf:inception": "1980-01-01",
    "geom:area": 0,
    "geom:bbox": "1.062805,51.119780,1.062805,51.119780",
    "geom:latitude": 51.11978,
    "geom:longitude": 1.062805,
    "gp:parent_id": "28042",
    "iso:country": "GB",
    "mz:hierarchy_label": 1,
    "mz:is_current": 1,
    "os:country_code": "E92000001",
    "os:county_code": "E10000016",
    "os:district_code": "E07000112",
    "os:positional_quality_indicator": "1",
    "os:region_code": "E12000008",
    "src:geom": "os",
    "wof:belongsto": [
      85633159,
      102191581,
      136253055,
      1864206463,
      1880771505,
      404454885,
      1125881257,
      1880762057,
      404227469,
      1880762705
    ],
    "wof:breaches": [],
    "wof:concordances": {
      "gp:id": "27099353"
    },
    "wof:country": "GB",
    "wof:created": 1583701393,
    "wof:geomhash": "50ef3a7e62d20d2511d3657daf2d61ca",
    "wof:hierarchy": [
      {
        "continent_id": 102191581,
        "country_id": 85633159,
        "county_id": 1880771505,
        "empire_id": 136253055,
        "localadmin_id": 404454885,
        "locality_id": 1125881257,
        "macrocounty_id": 1880762057,
        "macroregion_id": 404227469,
        "postalcode_id": 454228123,
        "region_id": 1880762705
      },
      {
        "continent_id": 102191581,
        "country_id": 85633159,
        "empire_id": 136253055,
        "postalcode_id": 454228123,
        "postalregion_id": 1864206463
      }
    ],
    "wof:id": 454228123,
    "wof:lastmodified": 1763548295,
    "wof:name": "CT18 8DQ",
    "wof:parent_id": 1125881257,
    "wof:placetype": "postalcode",
    "wof:repo": "whosonfirst-data-postalcode-gb",
    "wof:superseded_by": [],
    "wof:supersedes": [],
    "wof:tags": []
  },
  "bbox": [
    1.062805,
    51.11978,
    1.062805,
    51.11978
  ],
  "geometry": {"coordinates":[1.062805,51.11978],"type":"Point"}
}
