{
  "id": 1712471327,
  "type": "Feature",
  "properties": {
    "date:cessation_lower": "1995-12-01",
    "date:cessation_upper": "1995-12-01",
    "date:inception_lower": "1980-01-01",
    "date:inception_upper": "1980-01-01",
    "edtf:cessation": "1995-12-01",
    "edtf:inception": "1980-01-01",
    "geom:area": 0,
    "geom:bbox": "-2.240566,51.839279,-2.240566,51.839279",
    "geom:latitude": 51.839279,
    "geom:longitude": -2.240566,
    "iso:country": "GB",
    "mz:hierarchy_label": 1,
    "mz:is_current": 0,
    "os:country_code": "E92000001",
    "os:county_code": "E10000013",
    "os:district_code": "E07000081",
    "os:positional_quality_indicator": "1",
    "os:region_code": "E12000009",
    "src:geom": "os",
    "wof:belongsto": [
      85633159,
      102191581,
      136253055,
      1864207473,
      1880771351,
      101750437,
      1880762161,
      404227469,
      1880762693
    ],
    "wof:breaches": [],
    "wof:country": "GB",
    "wof:created": 1583789518,
    "wof:geomhash": "e1f003fa156925985659266cda9ec5ee",
    "wof:hierarchy": [
      {
        "continent_id": 102191581,
        "country_id": 85633159,
        "county_id": 1880771351,
        "empire_id": 136253055,
        "locality_id": 101750437,
        "macrocounty_id": 1880762161,
        "macroregion_id": 404227469,
        "postalcode_id": 1712471327,
        "region_id": 1880762693
      },
      {
        "continent_id": 102191581,
        "country_id": 85633159,
        "empire_id": 136253055,
        "postalcode_id": 1712471327,
        "postalregion_id": 1864207473
      }
    ],
    "wof:id": 1712471327,
    "wof:lastmodified": 1763548730,
    "wof:name": "GL4 9ST",
    "wof:parent_id": 101750437,
    "wof:placetype": "postalcode",
    "wof:repo": "whosonfirst-data-postalcode-gb",
    "wof:superseded_by": [],
    "wof:supersedes": [],
    "wof:tags": []
  },
  "bbox": [
    -2.240566,
    51.839279,
    -2.240566,
    51.839279
  ],
  "geometry": {"coordinates":[-2.240566,51.839279],"type":"Point"}
}
