{
  "id": 470959295,
  "type": "Feature",
  "properties": {
    "date:inception_lower": "1980-01-01",
    "date:inception_upper": "1980-01-01",
    "edtf:cessation": "",
    "edtf:inception": "1980-01-01",
    "geom:area": 0,
    "geom:bbox": "0.793628,51.299590,0.793628,51.299590",
    "geom:latitude": 51.29959,
    "geom:longitude": 0.793628,
    "gp:parent_id": "18265",
    "iso:country": "GB",
    "mz:hierarchy_label": 1,
    "mz:is_current": 1,
    "os:country_code": "E92000001",
    "os:county_code": "E10000016",
    "os:district_code": "E07000113",
    "os:positional_quality_indicator": "1",
    "os:region_code": "E12000008",
    "src:geom": "os",
    "wof:belongsto": [
      85633159,
      102191581,
      136253055,
      1864208861,
      1880771523,
      404432707,
      1125800645,
      1880762057,
      404227469,
      1880762705
    ],
    "wof:breaches": [],
    "wof:concordances": {
      "gp:id": "27569720"
    },
    "wof:country": "GB",
    "wof:created": 1583701338,
    "wof:geomhash": "e1baddc86a2f46c6859224fdb9350d5e",
    "wof:hierarchy": [
      {
        "continent_id": 102191581,
        "country_id": 85633159,
        "county_id": 1880771523,
        "empire_id": 136253055,
        "localadmin_id": 404432707,
        "locality_id": 1125800645,
        "macrocounty_id": 1880762057,
        "macroregion_id": 404227469,
        "postalcode_id": 470959295,
        "region_id": 1880762705
      },
      {
        "continent_id": 102191581,
        "country_id": 85633159,
        "empire_id": 136253055,
        "postalcode_id": 470959295,
        "postalregion_id": 1864208861
      }
    ],
    "wof:id": 470959295,
    "wof:lastmodified": 1763547999,
    "wof:name": "ME9 0HG",
    "wof:parent_id": 1125800645,
    "wof:placetype": "postalcode",
    "wof:repo": "whosonfirst-data-postalcode-gb",
    "wof:superseded_by": [],
    "wof:supersedes": [],
    "wof:tags": []
  },
  "bbox": [
    0.793628,
    51.29959,
    0.793628,
    51.29959
  ],
  "geometry": {"coordinates":[0.793628,51.29959],"type":"Point"}
}
