{
  "id": 39298005,
  "type": "Feature",
  "properties": {
    "date:cessation_lower": "1990-12-01",
    "date:cessation_upper": "1990-12-01",
    "date:inception_lower": "1980-01-01",
    "date:inception_upper": "1980-01-01",
    "edtf:cessation": "1990-12-01",
    "edtf:inception": "1980-01-01",
    "geom:area": 0,
    "geom:bbox": "-1.385533,54.596134,-1.385533,54.596134",
    "geom:latitude": 54.596134,
    "geom:longitude": -1.385533,
    "iso:country": "GB",
    "mz:hierarchy_label": 1,
    "mz:is_current": 0,
    "os:country_code": "E92000001",
    "os:county_code": "E99999999",
    "os:district_code": "E06000004",
    "os:positional_quality_indicator": "8",
    "os:region_code": "E12000001",
    "src:geom": "os",
    "wof:belongsto": [
      85633159,
      102191581,
      136253055,
      1864211277,
      1360699087,
      404438131,
      1344085853,
      1880762117,
      404227469,
      1880773141
    ],
    "wof:breaches": [],
    "wof:country": "GB",
    "wof:created": 1583799891,
    "wof:geomhash": "48315aa36db3f15d503fd42dd3edd3dc",
    "wof:hierarchy": [
      {
        "continent_id": 102191581,
        "country_id": 85633159,
        "county_id": 1360699087,
        "empire_id": 136253055,
        "localadmin_id": 404438131,
        "locality_id": 1344085853,
        "macrocounty_id": 1880762117,
        "macroregion_id": 404227469,
        "postalcode_id": 39298005,
        "region_id": 1880773141
      },
      {
        "continent_id": 102191581,
        "country_id": 85633159,
        "empire_id": 136253055,
        "postalcode_id": 39298005,
        "postalregion_id": 1864211277
      }
    ],
    "wof:id": 39298005,
    "wof:lastmodified": 1763548389,
    "wof:name": "TS21 1EF",
    "wof:parent_id": 1344085853,
    "wof:placetype": "postalcode",
    "wof:repo": "whosonfirst-data-postalcode-gb",
    "wof:superseded_by": [],
    "wof:supersedes": [],
    "wof:tags": []
  },
  "bbox": [
    -1.385533,
    54.596134,
    -1.385533,
    54.596134
  ],
  "geometry": {"coordinates":[-1.385533,54.596134],"type":"Point"}
}
