{
  "id": 504481205,
  "type": "Feature",
  "properties": {
    "date:inception_lower": "1981-06-01",
    "date:inception_upper": "1981-06-01",
    "edtf:cessation": "",
    "edtf:inception": "1981-06-01",
    "geom:area": 0,
    "geom:bbox": "-3.257310,52.061595,-3.257310,52.061595",
    "geom:latitude": 52.061595,
    "geom:longitude": -3.25731,
    "gp:parent_id": "12696134",
    "iso:country": "GB",
    "mz:hierarchy_label": 1,
    "mz:is_current": 1,
    "os:country_code": "W92000004",
    "os:county_code": "W99999999",
    "os:district_code": "W06000023",
    "os:positional_quality_indicator": "1",
    "os:region_code": "W99999999",
    "src:geom": "os",
    "wof:belongsto": [
      85633159,
      102191581,
      136253055,
      1864208377,
      1360698985,
      404445161,
      1125996577,
      1880762123,
      404227475,
      1880773075
    ],
    "wof:breaches": [],
    "wof:concordances": {
      "gp:id": "27467890"
    },
    "wof:country": "GB",
    "wof:created": 1583701364,
    "wof:geomhash": "3cd7bb722552667cce3d53a95747b62d",
    "wof:hierarchy": [
      {
        "continent_id": 102191581,
        "country_id": 85633159,
        "county_id": 1360698985,
        "empire_id": 136253055,
        "localadmin_id": 404445161,
        "locality_id": 1125996577,
        "macrocounty_id": 1880762123,
        "macroregion_id": 404227475,
        "postalcode_id": 504481205,
        "region_id": 1880773075
      },
      {
        "continent_id": 102191581,
        "country_id": 85633159,
        "empire_id": 136253055,
        "postalcode_id": 504481205,
        "postalregion_id": 1864208377
      }
    ],
    "wof:id": 504481205,
    "wof:lastmodified": 1763548107,
    "wof:name": "LD3 0LQ",
    "wof:parent_id": 1125996577,
    "wof:placetype": "postalcode",
    "wof:repo": "whosonfirst-data-postalcode-gb",
    "wof:superseded_by": [],
    "wof:supersedes": [],
    "wof:tags": []
  },
  "bbox": [
    -3.25731,
    52.061595,
    -3.25731,
    52.061595
  ],
  "geometry": {"coordinates":[-3.25731,52.061595],"type":"Point"}
}
