{
  "id": 38646522,
  "type": "Feature",
  "properties": {
    "date:cessation_lower": "1994-05-01",
    "date:cessation_upper": "1994-05-01",
    "date:inception_lower": "1992-01-01",
    "date:inception_upper": "1992-01-01",
    "edtf:cessation": "1994-05-01",
    "edtf:inception": "1992-01-01",
    "geom:area": 0,
    "geom:bbox": "-2.221449,51.723716,-2.221449,51.723716",
    "geom:latitude": 51.723716,
    "geom:longitude": -2.221449,
    "iso:country": "GB",
    "mz:hierarchy_label": 1,
    "mz:is_current": 0,
    "os:country_code": "E92000001",
    "os:county_code": "E10000013",
    "os:district_code": "E07000082",
    "os:positional_quality_indicator": "8",
    "os:region_code": "E12000009",
    "src:geom": "os",
    "wof:belongsto": [
      85633159,
      102191581,
      136253055,
      1864207475,
      1880771451,
      404452347,
      1126004113,
      1880762161,
      404227469,
      1880762693
    ],
    "wof:breaches": [],
    "wof:country": "GB",
    "wof:created": 1583792665,
    "wof:geomhash": "e94a12761a7638459aa5c797009812d7",
    "wof:hierarchy": [
      {
        "continent_id": 102191581,
        "country_id": 85633159,
        "county_id": 1880771451,
        "empire_id": 136253055,
        "localadmin_id": 404452347,
        "locality_id": 1126004113,
        "macrocounty_id": 1880762161,
        "macroregion_id": 404227469,
        "postalcode_id": 38646522,
        "region_id": 1880762693
      },
      {
        "continent_id": 102191581,
        "country_id": 85633159,
        "empire_id": 136253055,
        "postalcode_id": 38646522,
        "postalregion_id": 1864207475
      }
    ],
    "wof:id": 38646522,
    "wof:lastmodified": 1763548648,
    "wof:name": "GL5 5ED",
    "wof:parent_id": 1126004113,
    "wof:placetype": "postalcode",
    "wof:repo": "whosonfirst-data-postalcode-gb",
    "wof:superseded_by": [],
    "wof:supersedes": [],
    "wof:tags": []
  },
  "bbox": [
    -2.221449,
    51.723716,
    -2.221449,
    51.723716
  ],
  "geometry": {"coordinates":[-2.221449,51.723716],"type":"Point"}
}
