{
  "id": 437583273,
  "type": "Feature",
  "properties": {
    "date:cessation_lower": "2006-07-01",
    "date:cessation_upper": "2006-07-01",
    "date:inception_lower": "1980-01-01",
    "date:inception_upper": "1980-01-01",
    "edtf:cessation": "2006-07-01",
    "edtf:inception": "1980-01-01",
    "geom:area": 0,
    "geom:bbox": "-3.559109,54.652077,-3.559109,54.652077",
    "geom:latitude": 54.652077,
    "geom:longitude": -3.559109,
    "iso:country": "GB",
    "mz:hierarchy_label": 1,
    "mz:is_current": 0,
    "os:country_code": "E92000001",
    "os:county_code": "E99999999",
    "os:district_code": "E06000063",
    "os:positional_quality_indicator": "1",
    "os:region_code": "E12000002",
    "src:geom": "os",
    "wof:belongsto": [
      85633159,
      102191581,
      136253055,
      1864206065,
      1880773239,
      404433473,
      101872353,
      1880761989,
      404227469,
      1880773269
    ],
    "wof:breaches": [],
    "wof:concordances": {
      "gp:id": "27015513"
    },
    "wof:country": "GB",
    "wof:created": 1583701392,
    "wof:geomhash": "620cce91fec2743126d5c7e5ef8a1793",
    "wof:hierarchy": [
      {
        "continent_id": 102191581,
        "country_id": 85633159,
        "county_id": 1880773239,
        "empire_id": 136253055,
        "localadmin_id": 404433473,
        "locality_id": 101872353,
        "macrocounty_id": 1880761989,
        "macroregion_id": 404227469,
        "postalcode_id": 437583273,
        "region_id": 1880773269
      },
      {
        "continent_id": 102191581,
        "country_id": 85633159,
        "empire_id": 136253055,
        "postalcode_id": 437583273,
        "postalregion_id": 1864206065
      }
    ],
    "wof:id": 437583273,
    "wof:lastmodified": 1763548309,
    "wof:name": "CA14 1BX",
    "wof:parent_id": 101872353,
    "wof:placetype": "postalcode",
    "wof:repo": "whosonfirst-data-postalcode-gb",
    "wof:superseded_by": [],
    "wof:supersedes": [],
    "wof:tags": []
  },
  "bbox": [
    -3.559109,
    54.652077,
    -3.559109,
    54.652077
  ],
  "geometry": {"coordinates":[-3.559109,54.652077],"type":"Point"}
}
