{
  "id": 890270517,
  "type": "Feature",
  "properties": {
    "date:inception_lower": "2012-02-01",
    "date:inception_upper": "2012-02-01",
    "edtf:cessation": "",
    "edtf:inception": "2012-02-01",
    "geom:area": 0,
    "geom:bbox": "-2.930867,51.110885,-2.930867,51.110885",
    "geom:latitude": 51.110885,
    "geom:longitude": -2.930867,
    "iso:country": "GB",
    "mz:hierarchy_label": 1,
    "mz:is_current": 1,
    "os:country_code": "E92000001",
    "os:county_code": "E99999999",
    "os:district_code": "E06000066",
    "os:positional_quality_indicator": "1",
    "os:region_code": "E12000009",
    "src:geom": "os",
    "wof:belongsto": [
      85633159,
      102191581,
      136253055,
      1864210997,
      1360699059,
      404433317,
      101852539,
      1880762071
    ],
    "wof:breaches": [],
    "wof:country": "GB",
    "wof:created": 1468902169,
    "wof:geomhash": "79946269f65cdc77a0dea066ab934870",
    "wof:hierarchy": [
      {
        "continent_id": -1,
        "country_id": -1,
        "county_id": 1360699059,
        "localadmin_id": 404433317,
        "locality_id": 101852539,
        "macrocounty_id": 1880762071,
        "postalcode_id": 890270517,
        "region_id": -1
      },
      {
        "continent_id": 102191581,
        "country_id": 85633159,
        "empire_id": 136253055,
        "postalcode_id": 890270517,
        "postalregion_id": 1864210997
      }
    ],
    "wof:id": 890270517,
    "wof:lastmodified": 1763548615,
    "wof:name": "TA7 0DP",
    "wof:parent_id": 101852539,
    "wof:placetype": "postalcode",
    "wof:repo": "whosonfirst-data-postalcode-gb",
    "wof:superseded_by": [],
    "wof:supersedes": [],
    "wof:tags": []
  },
  "bbox": [
    -2.930867,
    51.110885,
    -2.930867,
    51.110885
  ],
  "geometry": {"coordinates":[-2.930867,51.110885],"type":"Point"}
}
