{
  "id": 39606471,
  "type": "Feature",
  "properties": {
    "date:cessation_lower": "1992-12-01",
    "date:cessation_upper": "1992-12-01",
    "date:inception_lower": "1980-01-01",
    "date:inception_upper": "1980-01-01",
    "edtf:cessation": "1992-12-01",
    "edtf:inception": "1980-01-01",
    "geom:area": 0,
    "geom:bbox": "-1.555124,53.006728,-1.555124,53.006728",
    "geom:latitude": 53.006728,
    "geom:longitude": -1.555124,
    "iso:country": "GB",
    "mz:hierarchy_label": 1,
    "mz:is_current": 0,
    "os:country_code": "E92000001",
    "os:county_code": "E10000007",
    "os:district_code": "E07000032",
    "os:positional_quality_indicator": "1",
    "os:region_code": "E12000004",
    "src:geom": "os",
    "wof:belongsto": [
      85633159,
      102191581,
      136253055,
      1864206667,
      1880771385,
      404442907,
      1125787669,
      1880762133,
      404227469,
      1880762707
    ],
    "wof:breaches": [],
    "wof:country": "GB",
    "wof:created": 1583803277,
    "wof:geomhash": "b4815ee103dcc967c744467a816d4b30",
    "wof:hierarchy": [
      {
        "continent_id": 102191581,
        "country_id": 85633159,
        "county_id": 1880771385,
        "empire_id": 136253055,
        "localadmin_id": 404442907,
        "locality_id": 1125787669,
        "macrocounty_id": 1880762133,
        "macroregion_id": 404227469,
        "postalcode_id": 39606471,
        "region_id": 1880762707
      },
      {
        "continent_id": 102191581,
        "country_id": 85633159,
        "empire_id": 136253055,
        "postalcode_id": 39606471,
        "postalregion_id": 1864206667
      }
    ],
    "wof:id": 39606471,
    "wof:lastmodified": 1763547899,
    "wof:name": "DE5 2LQ",
    "wof:parent_id": 1125787669,
    "wof:placetype": "postalcode",
    "wof:repo": "whosonfirst-data-postalcode-gb",
    "wof:superseded_by": [],
    "wof:supersedes": [],
    "wof:tags": []
  },
  "bbox": [
    -1.555124,
    53.006728,
    -1.555124,
    53.006728
  ],
  "geometry": {"coordinates":[-1.555124,53.006728],"type":"Point"}
}
