{
  "id": 1160911064,
  "type": "Feature",
  "properties": {
    "date:cessation_lower": "2001-05-01",
    "date:cessation_upper": "2001-05-01",
    "date:inception_lower": "1980-01-01",
    "date:inception_upper": "1980-01-01",
    "edtf:cessation": "2001-05-01",
    "edtf:inception": "1980-01-01",
    "geom:area": 0,
    "geom:bbox": "-1.667433,54.945514,-1.667433,54.945514",
    "geom:latitude": 54.945514,
    "geom:longitude": -1.667433,
    "iso:country": "GB",
    "mz:hierarchy_label": 1,
    "mz:is_current": 0,
    "os:country_code": "E92000001",
    "os:county_code": "E99999999",
    "os:district_code": "E08000037",
    "os:positional_quality_indicator": "1",
    "os:region_code": "E12000001",
    "src:geom": "os",
    "wof:belongsto": [
      85633159,
      102191581,
      136253055,
      1864209017,
      1360698881,
      1360817105,
      101750615,
      1880762063,
      404227469,
      1880773053
    ],
    "wof:breaches": [],
    "wof:country": "GB",
    "wof:created": 1583795475,
    "wof:geomhash": "32020dd464ee32003e22a31ca3e08b35",
    "wof:hierarchy": [
      {
        "continent_id": 102191581,
        "country_id": 85633159,
        "county_id": 1360698881,
        "empire_id": 136253055,
        "localadmin_id": 1360817105,
        "locality_id": 101750615,
        "macrocounty_id": 1880762063,
        "macroregion_id": 404227469,
        "postalcode_id": 1160911064,
        "region_id": 1880773053
      },
      {
        "continent_id": 102191581,
        "country_id": 85633159,
        "empire_id": 136253055,
        "postalcode_id": 1160911064,
        "postalregion_id": 1864209017
      }
    ],
    "wof:id": 1160911064,
    "wof:lastmodified": 1763548254,
    "wof:name": "NE16 4EW",
    "wof:parent_id": 101750615,
    "wof:placetype": "postalcode",
    "wof:repo": "whosonfirst-data-postalcode-gb",
    "wof:superseded_by": [],
    "wof:supersedes": [],
    "wof:tags": []
  },
  "bbox": [
    -1.667433,
    54.945514,
    -1.667433,
    54.945514
  ],
  "geometry": {"coordinates":[-1.667433,54.945514],"type":"Point"}
}
