{
  "id": 454332837,
  "type": "Feature",
  "properties": {
    "date:inception_lower": "1980-01-01",
    "date:inception_upper": "1980-01-01",
    "edtf:cessation": "",
    "edtf:inception": "1980-01-01",
    "geom:area": 0,
    "geom:bbox": "-1.646928,52.825074,-1.646928,52.825074",
    "geom:latitude": 52.825074,
    "geom:longitude": -1.646928,
    "gp:parent_id": "14696",
    "iso:country": "GB",
    "mz:hierarchy_label": 1,
    "mz:is_current": 1,
    "os:country_code": "E92000001",
    "os:county_code": "E10000028",
    "os:district_code": "E07000193",
    "os:positional_quality_indicator": "1",
    "os:region_code": "E12000005",
    "src:geom": "os",
    "wof:belongsto": [
      85633159,
      102191581,
      136253055,
      1864206645,
      1880771629,
      404455255,
      1360754891,
      1880761999
    ],
    "wof:breaches": [],
    "wof:concordances": {
      "gp:id": "27141830"
    },
    "wof:country": "GB",
    "wof:created": 1583701494,
    "wof:geomhash": "46fd517461d86a7cd8faac89ece594b9",
    "wof:hierarchy": [
      {
        "continent_id": -1,
        "country_id": -1,
        "county_id": 1880771629,
        "localadmin_id": 404455255,
        "locality_id": 1360754891,
        "macrocounty_id": 1880761999,
        "postalcode_id": 454332837,
        "region_id": -1
      },
      {
        "continent_id": 102191581,
        "country_id": 85633159,
        "empire_id": 136253055,
        "postalcode_id": 454332837,
        "postalregion_id": 1864206645
      }
    ],
    "wof:id": 454332837,
    "wof:lastmodified": 1763548445,
    "wof:name": "DE13 0UR",
    "wof:parent_id": 1360754891,
    "wof:placetype": "postalcode",
    "wof:repo": "whosonfirst-data-postalcode-gb",
    "wof:superseded_by": [],
    "wof:supersedes": [],
    "wof:tags": []
  },
  "bbox": [
    -1.646928,
    52.825074,
    -1.646928,
    52.825074
  ],
  "geometry": {"coordinates":[-1.646928,52.825074],"type":"Point"}
}
