{
  "id": 504621115,
  "type": "Feature",
  "properties": {
    "date:inception_lower": "1980-01-01",
    "date:inception_upper": "1980-01-01",
    "edtf:cessation": "",
    "edtf:inception": "1980-01-01",
    "geom:area": 0,
    "geom:bbox": "-4.080862,52.382220,-4.080862,52.382220",
    "geom:latitude": 52.38222,
    "geom:longitude": -4.080862,
    "gp:parent_id": "26913",
    "iso:country": "GB",
    "mz:hierarchy_label": 1,
    "mz:is_current": 1,
    "os:country_code": "W92000004",
    "os:county_code": "W99999999",
    "os:district_code": "W06000008",
    "os:positional_quality_indicator": "1",
    "os:region_code": "W99999999",
    "src:geom": "os",
    "wof:belongsto": [
      85633159,
      102191581,
      136253055,
      1864210927,
      1360699113,
      404449295,
      1125844711,
      1880762181,
      404227475,
      1880772913
    ],
    "wof:breaches": [],
    "wof:concordances": {
      "gp:id": "28021410"
    },
    "wof:country": "GB",
    "wof:created": 1583701492,
    "wof:geomhash": "34ea4de1e72d96539f1d5c7d80ea0ee7",
    "wof:hierarchy": [
      {
        "continent_id": 102191581,
        "country_id": 85633159,
        "county_id": 1360699113,
        "empire_id": 136253055,
        "localadmin_id": 404449295,
        "locality_id": 1125844711,
        "macrocounty_id": 1880762181,
        "macroregion_id": 404227475,
        "postalcode_id": 504621115,
        "region_id": 1880772913
      },
      {
        "continent_id": 102191581,
        "country_id": 85633159,
        "empire_id": 136253055,
        "postalcode_id": 504621115,
        "postalregion_id": 1864210927
      }
    ],
    "wof:id": 504621115,
    "wof:lastmodified": 1763547950,
    "wof:name": "SY23 4BY",
    "wof:parent_id": 1125844711,
    "wof:placetype": "postalcode",
    "wof:repo": "whosonfirst-data-postalcode-gb",
    "wof:superseded_by": [],
    "wof:supersedes": [],
    "wof:tags": []
  },
  "bbox": [
    -4.080862,
    52.38222,
    -4.080862,
    52.38222
  ],
  "geometry": {"coordinates":[-4.080862,52.38222],"type":"Point"}
}
