{
  "id": 454841409,
  "type": "Feature",
  "properties": {
    "date:inception_lower": "1980-01-01",
    "date:inception_upper": "1980-01-01",
    "edtf:cessation": "",
    "edtf:inception": "1980-01-01",
    "geom:area": 0,
    "geom:bbox": "-1.911372,53.707171,-1.911372,53.707171",
    "geom:latitude": 53.707171,
    "geom:longitude": -1.911372,
    "gp:parent_id": "35429",
    "iso:country": "GB",
    "mz:hierarchy_label": 1,
    "mz:is_current": 1,
    "os:country_code": "E92000001",
    "os:county_code": "E99999999",
    "os:district_code": "E08000033",
    "os:positional_quality_indicator": "1",
    "os:region_code": "E12000003",
    "src:geom": "os",
    "wof:belongsto": [
      85633159,
      102191581,
      136253055,
      1864207793,
      1360698833,
      1360817303,
      101872229,
      1880762059,
      404227469,
      1880773017
    ],
    "wof:breaches": [],
    "wof:concordances": {
      "gp:id": "27384792"
    },
    "wof:country": "GB",
    "wof:created": 1583701732,
    "wof:geomhash": "b62596d49c544aa9447f879df92a3af3",
    "wof:hierarchy": [
      {
        "continent_id": 102191581,
        "country_id": 85633159,
        "county_id": 1360698833,
        "empire_id": 136253055,
        "localadmin_id": 1360817303,
        "locality_id": 101872229,
        "macrocounty_id": 1880762059,
        "macroregion_id": 404227469,
        "postalcode_id": 454841409,
        "region_id": 1880773017
      },
      {
        "continent_id": 102191581,
        "country_id": 85633159,
        "empire_id": 136253055,
        "postalcode_id": 454841409,
        "postalregion_id": 1864207793
      }
    ],
    "wof:id": 454841409,
    "wof:lastmodified": 1763548467,
    "wof:name": "HX6 3AA",
    "wof:parent_id": 101872229,
    "wof:placetype": "postalcode",
    "wof:repo": "whosonfirst-data-postalcode-gb",
    "wof:superseded_by": [],
    "wof:supersedes": [],
    "wof:tags": []
  },
  "bbox": [
    -1.911372,
    53.707171,
    -1.911372,
    53.707171
  ],
  "geometry": {"coordinates":[-1.911372,53.707171],"type":"Point"}
}
