{
  "id": 1947778777,
  "type": "Feature",
  "properties": {
    "date:inception_lower": "2024-07-01",
    "date:inception_upper": "2024-07-01",
    "edtf:cessation": "",
    "edtf:inception": "2024-07-01",
    "geom:area": 0,
    "geom:bbox": "1.384619,51.364544,1.384619,51.364544",
    "geom:latitude": 51.364544,
    "geom:longitude": 1.384619,
    "iso:country": "GB",
    "mz:hierarchy_label": 1,
    "mz:is_current": 1,
    "os:country_code": "E92000001",
    "os:county_code": "E10000016",
    "os:district_code": "E07000114",
    "os:positional_quality_indicator": "1",
    "os:region_code": "E12000008",
    "src:geom": "os",
    "wof:belongsto": [
      102191581,
      85633159,
      1880771511,
      136253055,
      404440431,
      1125919123,
      1880762057,
      404227469,
      1880762705,
      1864206487
    ],
    "wof:breaches": [],
    "wof:country": "GB",
    "wof:created": 1736335353,
    "wof:geomhash": "c7425d9fc7a5232b7f82d4d975f11cb4",
    "wof:hierarchy": [
      {
        "continent_id": 102191581,
        "country_id": 85633159,
        "county_id": 1880771511,
        "empire_id": 136253055,
        "localadmin_id": 404440431,
        "locality_id": 1125919123,
        "macrocounty_id": 1880762057,
        "macroregion_id": 404227469,
        "postalcode_id": 1947778777,
        "region_id": 1880762705
      },
      {
        "continent_id": 102191581,
        "country_id": 85633159,
        "empire_id": 136253055,
        "postalcode_id": 1947778777,
        "postalregion_id": 1864206487
      }
    ],
    "wof:id": 1947778777,
    "wof:lastmodified": 1763547895,
    "wof:name": "CT9 4HT",
    "wof:parent_id": 1125919123,
    "wof:placetype": "postalcode",
    "wof:repo": "whosonfirst-data-postalcode-gb",
    "wof:superseded_by": [],
    "wof:supersedes": [],
    "wof:tags": []
  },
  "bbox": [
    1.384619,
    51.364544,
    1.384619,
    51.364544
  ],
  "geometry": {"coordinates":[1.384619,51.364544],"type":"Point"}
}
