{
  "id": 504434951,
  "type": "Feature",
  "properties": {
    "date:inception_lower": "2000-12-01",
    "date:inception_upper": "2000-12-01",
    "edtf:cessation": "",
    "edtf:inception": "2000-12-01",
    "geom:area": 0,
    "geom:bbox": "-4.547696,57.582527,-4.547696,57.582527",
    "geom:latitude": 57.582527,
    "geom:longitude": -4.547696,
    "gp:parent_id": "12696199",
    "iso:country": "GB",
    "mz:hierarchy_label": 1,
    "mz:is_current": 1,
    "os:country_code": "S92000003",
    "os:county_code": "S99999999",
    "os:district_code": "S12000017",
    "os:positional_quality_indicator": "1",
    "os:region_code": "S99999999",
    "src:geom": "os",
    "wof:belongsto": [
      85633159,
      102191581,
      136253055,
      1864207909,
      1360699045,
      1880762005,
      404227471,
      1880773131
    ],
    "wof:breaches": [],
    "wof:concordances": {
      "gp:id": "27408353"
    },
    "wof:country": "GB",
    "wof:created": 1583701255,
    "wof:geomhash": "f7895a5d58841deaa48a6c9a07adacfc",
    "wof:hierarchy": [
      {
        "continent_id": 102191581,
        "country_id": 85633159,
        "county_id": 1360699045,
        "empire_id": 136253055,
        "macrocounty_id": 1880762005,
        "macroregion_id": 404227471,
        "postalcode_id": 504434951,
        "region_id": 1880773131
      },
      {
        "continent_id": 102191581,
        "country_id": 85633159,
        "empire_id": 136253055,
        "postalcode_id": 504434951,
        "postalregion_id": 1864207909
      }
    ],
    "wof:id": 504434951,
    "wof:lastmodified": 1763548139,
    "wof:name": "IV14 9GT",
    "wof:parent_id": 1360699045,
    "wof:placetype": "postalcode",
    "wof:repo": "whosonfirst-data-postalcode-gb",
    "wof:superseded_by": [],
    "wof:supersedes": [],
    "wof:tags": []
  },
  "bbox": [
    -4.547696,
    57.582527,
    -4.547696,
    57.582527
  ],
  "geometry": {"coordinates":[-4.547696,57.582527],"type":"Point"}
}
