{
  "id": 504746011,
  "type": "Feature",
  "properties": {
    "date:inception_lower": "2006-01-01",
    "date:inception_upper": "2006-01-01",
    "edtf:cessation": "",
    "edtf:inception": "2006-01-01",
    "geom:area": 0,
    "geom:bbox": "-2.972350,55.961890,-2.972350,55.961890",
    "geom:latitude": 55.96189,
    "geom:longitude": -2.97235,
    "iso:country": "GB",
    "mz:hierarchy_label": 1,
    "mz:is_current": 1,
    "os:country_code": "S92000003",
    "os:county_code": "S99999999",
    "os:district_code": "S12000010",
    "os:positional_quality_indicator": "1",
    "os:region_code": "S99999999",
    "src:geom": "os",
    "wof:belongsto": [
      85633159,
      102191581,
      136253055,
      1864207083,
      1360699017,
      1880762091,
      404227471,
      1880773107
    ],
    "wof:breaches": [],
    "wof:concordances": {
      "gp:id": "28872667"
    },
    "wof:country": "GB",
    "wof:created": 1583701544,
    "wof:geomhash": "8e256b62bb29cc2b46dba1bff72e463a",
    "wof:hierarchy": [
      {
        "continent_id": 102191581,
        "country_id": 85633159,
        "county_id": 1360699017,
        "empire_id": 136253055,
        "macrocounty_id": 1880762091,
        "macroregion_id": 404227471,
        "postalcode_id": 504746011,
        "region_id": 1880773107
      },
      {
        "continent_id": 102191581,
        "country_id": 85633159,
        "empire_id": 136253055,
        "postalcode_id": 504746011,
        "postalregion_id": 1864207083
      }
    ],
    "wof:id": 504746011,
    "wof:lastmodified": 1763548062,
    "wof:name": "EH32 9FE",
    "wof:parent_id": 1360699017,
    "wof:placetype": "postalcode",
    "wof:repo": "whosonfirst-data-postalcode-gb",
    "wof:superseded_by": [],
    "wof:supersedes": [],
    "wof:tags": []
  },
  "bbox": [
    -2.97235,
    55.96189,
    -2.97235,
    55.96189
  ],
  "geometry": {"coordinates":[-2.97235,55.96189],"type":"Point"}
}
