{
  "id": 437400889,
  "type": "Feature",
  "properties": {
    "date:inception_lower": "2010-02-01",
    "date:inception_upper": "2010-02-01",
    "edtf:cessation": "",
    "edtf:inception": "2010-02-01",
    "geom:area": 0,
    "geom:bbox": "-3.977767,55.779849,-3.977767,55.779849",
    "geom:latitude": 55.779849,
    "geom:longitude": -3.977767,
    "gp:parent_id": "12696204",
    "iso:country": "GB",
    "mz:hierarchy_label": 1,
    "mz:is_current": 1,
    "os:country_code": "S92000003",
    "os:county_code": "S99999999",
    "os:district_code": "S12000050",
    "os:positional_quality_indicator": "1",
    "os:region_code": "S99999999",
    "src:geom": "os",
    "wof:belongsto": [
      85633159,
      102191581,
      136253055,
      1864208923,
      1360698949,
      1880762099,
      404227471,
      1880773061
    ],
    "wof:breaches": [],
    "wof:concordances": {
      "gp:id": "26727162"
    },
    "wof:country": "GB",
    "wof:created": 1583701079,
    "wof:geomhash": "3fe179a7cfe43aedc9273a4e492cd93b",
    "wof:hierarchy": [
      {
        "continent_id": 102191581,
        "country_id": 85633159,
        "county_id": 1360698949,
        "empire_id": 136253055,
        "macrocounty_id": 1880762099,
        "macroregion_id": 404227471,
        "postalcode_id": 437400889,
        "region_id": 1880773061
      },
      {
        "continent_id": 102191581,
        "country_id": 85633159,
        "empire_id": 136253055,
        "postalcode_id": 437400889,
        "postalregion_id": 1864208923
      }
    ],
    "wof:id": 437400889,
    "wof:lastmodified": 1763548068,
    "wof:name": "ML1 2DA",
    "wof:parent_id": 1360698949,
    "wof:placetype": "postalcode",
    "wof:repo": "whosonfirst-data-postalcode-gb",
    "wof:superseded_by": [],
    "wof:supersedes": [],
    "wof:tags": []
  },
  "bbox": [
    -3.977767,
    55.779849,
    -3.977767,
    55.779849
  ],
  "geometry": {"coordinates":[-3.977767,55.779849],"type":"Point"}
}
