{
  "id": 471559897,
  "type": "Feature",
  "properties": {
    "date:inception_lower": "1991-09-01",
    "date:inception_upper": "1991-09-01",
    "edtf:cessation": "",
    "edtf:inception": "1991-09-01",
    "geom:area": 0,
    "geom:bbox": "-0.922939,51.426794,-0.922939,51.426794",
    "geom:latitude": 51.426794,
    "geom:longitude": -0.922939,
    "iso:country": "GB",
    "mz:hierarchy_label": 1,
    "mz:is_current": 1,
    "os:country_code": "E92000001",
    "os:county_code": "E99999999",
    "os:district_code": "E06000041",
    "os:positional_quality_indicator": "1",
    "os:region_code": "E12000008",
    "src:geom": "os",
    "wof:belongsto": [
      85633159,
      102191581,
      136253055,
      1864210073,
      1360698967,
      404454173,
      1125901777,
      1880762165,
      404227469,
      1880772969
    ],
    "wof:breaches": [],
    "wof:concordances": {
      "gp:id": "27819117"
    },
    "wof:country": "GB",
    "wof:created": 1583701671,
    "wof:geomhash": "110f0cac4406e7cb3859c1d4d56d894c",
    "wof:hierarchy": [
      {
        "continent_id": 102191581,
        "country_id": 85633159,
        "county_id": 1360698967,
        "empire_id": 136253055,
        "localadmin_id": 404454173,
        "locality_id": 1125901777,
        "macrocounty_id": 1880762165,
        "macroregion_id": 404227469,
        "postalcode_id": 471559897,
        "region_id": 1880772969
      },
      {
        "continent_id": 102191581,
        "country_id": 85633159,
        "empire_id": 136253055,
        "postalcode_id": 471559897,
        "postalregion_id": 1864210073
      }
    ],
    "wof:id": 471559897,
    "wof:lastmodified": 1763547961,
    "wof:name": "RG6 4HL",
    "wof:parent_id": 1125901777,
    "wof:placetype": "postalcode",
    "wof:repo": "whosonfirst-data-postalcode-gb",
    "wof:superseded_by": [],
    "wof:supersedes": [],
    "wof:tags": []
  },
  "bbox": [
    -0.922939,
    51.426794,
    -0.922939,
    51.426794
  ],
  "geometry": {"coordinates":[-0.922939,51.426794],"type":"Point"}
}
