{
  "id": 488252339,
  "type": "Feature",
  "properties": {
    "date:inception_lower": "1998-06-01",
    "date:inception_upper": "1998-06-01",
    "edtf:cessation": "",
    "edtf:inception": "1998-06-01",
    "geom:area": 0,
    "geom:bbox": "-0.702141,53.908483,-0.702141,53.908483",
    "geom:latitude": 53.908483,
    "geom:longitude": -0.702141,
    "gp:parent_id": "14577",
    "iso:country": "GB",
    "mz:hierarchy_label": 1,
    "mz:is_current": 1,
    "os:country_code": "E92000001",
    "os:county_code": "E99999999",
    "os:district_code": "E06000011",
    "os:positional_quality_indicator": "1",
    "os:region_code": "E12000003",
    "src:geom": "os",
    "wof:belongsto": [
      85633159,
      102191581,
      136253055,
      1864211761,
      1360699001,
      404444207,
      1126036337,
      1880762147,
      404227469,
      1880773091
    ],
    "wof:breaches": [],
    "wof:concordances": {
      "gp:id": "28198394"
    },
    "wof:country": "GB",
    "wof:created": 1583701222,
    "wof:geomhash": "8b8de4a65573dd15bac51842b7888c44",
    "wof:hierarchy": [
      {
        "continent_id": 102191581,
        "country_id": 85633159,
        "county_id": 1360699001,
        "empire_id": 136253055,
        "localadmin_id": 404444207,
        "locality_id": 1126036337,
        "macrocounty_id": 1880762147,
        "macroregion_id": 404227469,
        "postalcode_id": 488252339,
        "region_id": 1880773091
      },
      {
        "continent_id": 102191581,
        "country_id": 85633159,
        "empire_id": 136253055,
        "postalcode_id": 488252339,
        "postalregion_id": 1864211761
      }
    ],
    "wof:id": 488252339,
    "wof:lastmodified": 1763548593,
    "wof:name": "YO42 1RD",
    "wof:parent_id": 1126036337,
    "wof:placetype": "postalcode",
    "wof:repo": "whosonfirst-data-postalcode-gb",
    "wof:superseded_by": [],
    "wof:supersedes": [],
    "wof:tags": []
  },
  "bbox": [
    -0.702141,
    53.908483,
    -0.702141,
    53.908483
  ],
  "geometry": {"coordinates":[-0.702141,53.908483],"type":"Point"}
}
