{
  "id": 1998352547,
  "type": "Feature",
  "properties": {
    "date:inception_lower": "2025-04-01",
    "date:inception_upper": "2025-04-01",
    "edtf:cessation": "",
    "edtf:inception": "2025-04-01",
    "geom:area": 0,
    "geom:bbox": "1.031584,52.525052,1.031584,52.525052",
    "geom:latitude": 52.525052,
    "geom:longitude": 1.031584,
    "iso:country": "GB",
    "mz:hierarchy_label": 1,
    "mz:is_current": 1,
    "os:country_code": "E92000001",
    "os:county_code": "E10000020",
    "os:district_code": "E07000143",
    "os:positional_quality_indicator": "1",
    "os:region_code": "E12000006",
    "src:geom": "os",
    "wof:belongsto": [
      102191581,
      85633159,
      1880771591,
      136253055,
      404430625,
      101854941,
      1880762037,
      404227469,
      1880762699,
      1864209317
    ],
    "wof:breaches": [],
    "wof:country": "GB",
    "wof:created": 1763549394,
    "wof:geomhash": "ef7f72ac4d1bc614011fd804d71e49c1",
    "wof:hierarchy": [
      {
        "continent_id": 102191581,
        "country_id": 85633159,
        "county_id": 1880771591,
        "empire_id": 136253055,
        "localadmin_id": 404430625,
        "locality_id": 101854941,
        "macrocounty_id": 1880762037,
        "macroregion_id": 404227469,
        "postalcode_id": 1998352547,
        "region_id": 1880762699
      },
      {
        "continent_id": 102191581,
        "country_id": 85633159,
        "empire_id": 136253055,
        "postalcode_id": 1998352547,
        "postalregion_id": 1864209317
      }
    ],
    "wof:id": 1998352547,
    "wof:lastmodified": 1763549394,
    "wof:name": "NR17 2FT",
    "wof:parent_id": 101854941,
    "wof:placetype": "postalcode",
    "wof:repo": "whosonfirst-data-postalcode-gb",
    "wof:superseded_by": [],
    "wof:supersedes": [],
    "wof:tags": []
  },
  "bbox": [
    1.031584,
    52.525052,
    1.031584,
    52.525052
  ],
  "geometry": {"coordinates":[1.031584,52.525052],"type":"Point"}
}
