{
  "id": 1780461067,
  "type": "Feature",
  "properties": {
    "date:inception_lower": "2022-05-01",
    "date:inception_upper": "2022-05-01",
    "edtf:cessation": "",
    "edtf:inception": "2022-05-01",
    "geom:area": 0,
    "geom:bbox": "0.331850,50.800974,0.331850,50.800974",
    "geom:latitude": 50.800974,
    "geom:longitude": 0.33185,
    "iso:country": "GB",
    "mz:hierarchy_label": 1,
    "mz:is_current": 1,
    "os:country_code": "E92000001",
    "os:county_code": "E10000011",
    "os:district_code": "E07000061",
    "os:positional_quality_indicator": "1",
    "os:region_code": "E12000008",
    "src:geom": "os",
    "wof:belongsto": [
      102191581,
      85633159,
      136253055,
      1864205899,
      1880771415,
      101750315,
      1880762145,
      404227469,
      1880762703
    ],
    "wof:breaches": [],
    "wof:country": "GB",
    "wof:created": 1662042088,
    "wof:geomhash": "f76a8c0345352cd8d1d90563877cf13e",
    "wof:hierarchy": [
      {
        "continent_id": 102191581,
        "country_id": 85633159,
        "county_id": 1880771415,
        "empire_id": 136253055,
        "locality_id": 101750315,
        "macrocounty_id": 1880762145,
        "macroregion_id": 404227469,
        "postalcode_id": 1780461067,
        "region_id": 1880762703
      },
      {
        "continent_id": 102191581,
        "country_id": 85633159,
        "empire_id": 136253055,
        "postalcode_id": 1780461067,
        "postalregion_id": 1864205899
      }
    ],
    "wof:id": 1780461067,
    "wof:lastmodified": 1763548644,
    "wof:name": "BN23 5BS",
    "wof:parent_id": 101750315,
    "wof:placetype": "postalcode",
    "wof:repo": "whosonfirst-data-postalcode-gb",
    "wof:superseded_by": [],
    "wof:supersedes": [],
    "wof:tags": []
  },
  "bbox": [
    0.33185,
    50.800974,
    0.33185,
    50.800974
  ],
  "geometry": {"coordinates":[0.33185,50.800974],"type":"Point"}
}
