{
  "id": 471454665,
  "type": "Feature",
  "properties": {
    "date:inception_lower": "1999-06-01",
    "date:inception_upper": "1999-06-01",
    "edtf:cessation": "",
    "edtf:inception": "1999-06-01",
    "geom:area": 0,
    "geom:bbox": "-0.882626,50.854536,-0.882626,50.854536",
    "geom:latitude": 50.854536,
    "geom:longitude": -0.882626,
    "gp:parent_id": "22269",
    "iso:country": "GB",
    "mz:hierarchy_label": 1,
    "mz:is_current": 1,
    "os:country_code": "E92000001",
    "os:county_code": "E10000032",
    "os:district_code": "E07000225",
    "os:positional_quality_indicator": "1",
    "os:region_code": "E12000008",
    "src:geom": "os",
    "wof:belongsto": [
      85633159,
      102191581,
      136253055,
      1864209931,
      1880771685,
      404442271,
      1360757661,
      1880762061,
      404227469,
      1880762709
    ],
    "wof:breaches": [],
    "wof:concordances": {
      "gp:id": "27782988"
    },
    "wof:country": "GB",
    "wof:created": 1583701618,
    "wof:geomhash": "1dab1067a7f479931d2916d16c60da9a",
    "wof:hierarchy": [
      {
        "continent_id": 102191581,
        "country_id": 85633159,
        "county_id": 1880771685,
        "empire_id": 136253055,
        "localadmin_id": 404442271,
        "locality_id": 1360757661,
        "macrocounty_id": 1880762061,
        "macroregion_id": 404227469,
        "postalcode_id": 471454665,
        "region_id": 1880762709
      },
      {
        "continent_id": 102191581,
        "country_id": 85633159,
        "empire_id": 136253055,
        "postalcode_id": 471454665,
        "postalregion_id": 1864209931
      }
    ],
    "wof:id": 471454665,
    "wof:lastmodified": 1763548125,
    "wof:name": "PO18 8FD",
    "wof:parent_id": 1360757661,
    "wof:placetype": "postalcode",
    "wof:repo": "whosonfirst-data-postalcode-gb",
    "wof:superseded_by": [],
    "wof:supersedes": [],
    "wof:tags": []
  },
  "bbox": [
    -0.882626,
    50.854536,
    -0.882626,
    50.854536
  ],
  "geometry": {"coordinates":[-0.882626,50.854536],"type":"Point"}
}
