{
  "id": 1160879936,
  "type": "Feature",
  "properties": {
    "date:cessation_lower": "1994-05-01",
    "date:cessation_upper": "1994-05-01",
    "date:inception_lower": "1993-01-01",
    "date:inception_upper": "1993-01-01",
    "edtf:cessation": "1994-05-01",
    "edtf:inception": "1993-01-01",
    "geom:area": 0,
    "geom:bbox": "-1.695561,55.152662,-1.695561,55.152662",
    "geom:latitude": 55.152662,
    "geom:longitude": -1.695561,
    "iso:country": "GB",
    "mz:hierarchy_label": 1,
    "mz:is_current": 0,
    "os:country_code": "E92000001",
    "os:county_code": "E99999999",
    "os:district_code": "E06000057",
    "os:positional_quality_indicator": "8",
    "os:region_code": "E12000001",
    "src:geom": "os",
    "wof:belongsto": [
      85633159,
      102191581,
      136253055,
      1864209103,
      1360698769,
      404449843,
      101873459,
      1880761987,
      404227469,
      1880772897
    ],
    "wof:breaches": [],
    "wof:country": "GB",
    "wof:created": 1583794078,
    "wof:geomhash": "35eb9df7071d0c7dea753d68cedc2aed",
    "wof:hierarchy": [
      {
        "continent_id": 102191581,
        "country_id": 85633159,
        "county_id": 1360698769,
        "empire_id": 136253055,
        "localadmin_id": 404449843,
        "locality_id": 101873459,
        "macrocounty_id": 1880761987,
        "macroregion_id": 404227469,
        "postalcode_id": 1160879936,
        "region_id": 1880772897
      },
      {
        "continent_id": 102191581,
        "country_id": 85633159,
        "empire_id": 136253055,
        "postalcode_id": 1160879936,
        "postalregion_id": 1864209103
      }
    ],
    "wof:id": 1160879936,
    "wof:lastmodified": 1763548310,
    "wof:name": "NE61 2DH",
    "wof:parent_id": 101873459,
    "wof:placetype": "postalcode",
    "wof:repo": "whosonfirst-data-postalcode-gb",
    "wof:superseded_by": [],
    "wof:supersedes": [],
    "wof:tags": []
  },
  "bbox": [
    -1.695561,
    55.152662,
    -1.695561,
    55.152662
  ],
  "geometry": {"coordinates":[-1.695561,55.152662],"type":"Point"}
}
