{
  "id": 1712590477,
  "type": "Feature",
  "properties": {
    "date:cessation_lower": "1998-12-01",
    "date:cessation_upper": "1998-12-01",
    "date:inception_lower": "1993-08-01",
    "date:inception_upper": "1993-08-01",
    "edtf:cessation": "1998-12-01",
    "edtf:inception": "1993-08-01",
    "geom:area": 0,
    "geom:bbox": "0.148540,52.179086,0.148540,52.179086",
    "geom:latitude": 52.179086,
    "geom:longitude": 0.14854,
    "iso:country": "GB",
    "mz:hierarchy_label": 1,
    "mz:is_current": 0,
    "os:country_code": "E92000001",
    "os:county_code": "E10000003",
    "os:district_code": "E07000008",
    "os:positional_quality_indicator": "8",
    "os:region_code": "E12000006",
    "src:geom": "os",
    "wof:belongsto": [
      85633159,
      102191581,
      136253055,
      1864206119,
      1880771375,
      101750465,
      1880762143,
      404227469,
      1880762687
    ],
    "wof:breaches": [],
    "wof:country": "GB",
    "wof:created": 1583794813,
    "wof:geomhash": "70238d541983c15911d69a45154992b4",
    "wof:hierarchy": [
      {
        "continent_id": 102191581,
        "country_id": 85633159,
        "county_id": 1880771375,
        "empire_id": 136253055,
        "locality_id": 101750465,
        "macrocounty_id": 1880762143,
        "macroregion_id": 404227469,
        "postalcode_id": 1712590477,
        "region_id": 1880762687
      },
      {
        "continent_id": 102191581,
        "country_id": 85633159,
        "empire_id": 136253055,
        "postalcode_id": 1712590477,
        "postalregion_id": 1864206119
      }
    ],
    "wof:id": 1712590477,
    "wof:lastmodified": 1763548685,
    "wof:name": "CB1 4PG",
    "wof:parent_id": 101750465,
    "wof:placetype": "postalcode",
    "wof:repo": "whosonfirst-data-postalcode-gb",
    "wof:superseded_by": [],
    "wof:supersedes": [],
    "wof:tags": []
  },
  "bbox": [
    0.14854,
    52.179086,
    0.14854,
    52.179086
  ],
  "geometry": {"coordinates":[0.14854,52.179086],"type":"Point"}
}
