{
  "id": 1712500917,
  "type": "Feature",
  "properties": {
    "date:cessation_lower": "2001-06-01",
    "date:cessation_upper": "2001-06-01",
    "date:inception_lower": "2001-06-01",
    "date:inception_upper": "2001-06-01",
    "edtf:cessation": "2001-06-01",
    "edtf:inception": "2001-06-01",
    "geom:area": 0,
    "geom:bbox": "-0.026926,51.017720,-0.026926,51.017720",
    "geom:latitude": 51.01772,
    "geom:longitude": -0.026926,
    "iso:country": "GB",
    "mz:hierarchy_label": 1,
    "mz:is_current": 0,
    "os:country_code": "E92000001",
    "os:county_code": "E10000032",
    "os:district_code": "E07000228",
    "os:positional_quality_indicator": "5",
    "os:region_code": "E12000008",
    "src:geom": "os",
    "wof:belongsto": [
      85633159,
      102191581,
      136253055,
      1864210101,
      1880771687,
      404445925,
      1125953935,
      1880762061,
      404227469,
      1880762709
    ],
    "wof:breaches": [],
    "wof:country": "GB",
    "wof:created": 1583790835,
    "wof:geomhash": "b7eb37b55a24673a6c72b404902fa356",
    "wof:hierarchy": [
      {
        "continent_id": 102191581,
        "country_id": 85633159,
        "county_id": 1880771687,
        "empire_id": 136253055,
        "localadmin_id": 404445925,
        "locality_id": 1125953935,
        "macrocounty_id": 1880762061,
        "macroregion_id": 404227469,
        "postalcode_id": 1712500917,
        "region_id": 1880762709
      },
      {
        "continent_id": 102191581,
        "country_id": 85633159,
        "empire_id": 136253055,
        "postalcode_id": 1712500917,
        "postalregion_id": 1864210101
      }
    ],
    "wof:id": 1712500917,
    "wof:lastmodified": 1763548685,
    "wof:name": "RH17 7HJ",
    "wof:parent_id": 1125953935,
    "wof:placetype": "postalcode",
    "wof:repo": "whosonfirst-data-postalcode-gb",
    "wof:superseded_by": [],
    "wof:supersedes": [],
    "wof:tags": []
  },
  "bbox": [
    -0.026926,
    51.01772,
    -0.026926,
    51.01772
  ],
  "geometry": {"coordinates":[-0.026926,51.01772],"type":"Point"}
}
