{
  "id": 470988341,
  "type": "Feature",
  "properties": {
    "date:inception_lower": "2003-07-01",
    "date:inception_upper": "2003-07-01",
    "edtf:cessation": "",
    "edtf:inception": "2003-07-01",
    "geom:area": 0,
    "geom:bbox": "-0.773022,52.030410,-0.773022,52.030410",
    "geom:latitude": 52.03041,
    "geom:longitude": -0.773022,
    "gp:parent_id": "27507",
    "iso:country": "GB",
    "mz:hierarchy_label": 1,
    "mz:is_current": 1,
    "os:country_code": "E92000001",
    "os:county_code": "E99999999",
    "os:district_code": "E06000042",
    "os:positional_quality_indicator": "1",
    "os:region_code": "E12000008",
    "src:geom": "os",
    "wof:belongsto": [
      85633159,
      102191581,
      136253055,
      1864208911,
      1360698913,
      404453453,
      1293812713,
      1880762141,
      404227469,
      1880773087
    ],
    "wof:breaches": [],
    "wof:concordances": {
      "gp:id": "27579906"
    },
    "wof:country": "GB",
    "wof:created": 1583701373,
    "wof:geomhash": "489c04a3e9ad74b1929914d8e0bf0ffb",
    "wof:hierarchy": [
      {
        "continent_id": 102191581,
        "country_id": 85633159,
        "county_id": 1360698913,
        "empire_id": 136253055,
        "localadmin_id": 404453453,
        "locality_id": 1293812713,
        "macrocounty_id": 1880762141,
        "macroregion_id": 404227469,
        "postalcode_id": 470988341,
        "region_id": 1880773087
      },
      {
        "continent_id": 102191581,
        "country_id": 85633159,
        "empire_id": 136253055,
        "postalcode_id": 470988341,
        "postalregion_id": 1864208911
      }
    ],
    "wof:id": 470988341,
    "wof:lastmodified": 1763548052,
    "wof:name": "MK5 8BU",
    "wof:parent_id": 1293812713,
    "wof:placetype": "postalcode",
    "wof:repo": "whosonfirst-data-postalcode-gb",
    "wof:superseded_by": [],
    "wof:supersedes": [],
    "wof:tags": []
  },
  "bbox": [
    -0.773022,
    52.03041,
    -0.773022,
    52.03041
  ],
  "geometry": {"coordinates":[-0.773022,52.03041],"type":"Point"}
}
