{
  "id": 504392927,
  "type": "Feature",
  "properties": {
    "date:inception_lower": "1980-01-01",
    "date:inception_upper": "1980-01-01",
    "edtf:cessation": "",
    "edtf:inception": "1980-01-01",
    "geom:area": 0,
    "geom:bbox": "-4.379200,55.917100,-4.379200,55.917100",
    "geom:latitude": 55.9171,
    "geom:longitude": -4.3792,
    "gp:parent_id": "12696198",
    "iso:country": "GB",
    "mz:hierarchy_label": 1,
    "mz:is_current": 1,
    "os:country_code": "S92000003",
    "os:county_code": "S99999999",
    "os:district_code": "S12000049",
    "os:positional_quality_indicator": "1",
    "os:region_code": "S99999999",
    "src:geom": "os",
    "wof:belongsto": [
      85633159,
      102191581,
      136253055,
      1864207329,
      1360698797,
      1175612707,
      1880762095,
      404227471,
      1880772925
    ],
    "wof:breaches": [],
    "wof:concordances": {
      "gp:id": "27281491"
    },
    "wof:country": "GB",
    "wof:created": 1583701131,
    "wof:geomhash": "1a9d1e1d0e2b5fe22b8b6b34997342ae",
    "wof:hierarchy": [
      {
        "continent_id": 102191581,
        "country_id": 85633159,
        "county_id": 1360698797,
        "empire_id": 136253055,
        "locality_id": 1175612707,
        "macrocounty_id": 1880762095,
        "macroregion_id": 404227471,
        "postalcode_id": 504392927,
        "region_id": 1880772925
      },
      {
        "continent_id": 102191581,
        "country_id": 85633159,
        "empire_id": 136253055,
        "postalcode_id": 504392927,
        "postalregion_id": 1864207329
      }
    ],
    "wof:id": 504392927,
    "wof:lastmodified": 1763548070,
    "wof:name": "G15 8LB",
    "wof:parent_id": 1175612707,
    "wof:placetype": "postalcode",
    "wof:repo": "whosonfirst-data-postalcode-gb",
    "wof:superseded_by": [],
    "wof:supersedes": [],
    "wof:tags": []
  },
  "bbox": [
    -4.3792,
    55.9171,
    -4.3792,
    55.9171
  ],
  "geometry": {"coordinates":[-4.3792,55.9171],"type":"Point"}
}
