{
  "id": 488124429,
  "type": "Feature",
  "properties": {
    "date:cessation_lower": "2015-09-01",
    "date:cessation_upper": "2015-09-01",
    "date:inception_lower": "1996-06-01",
    "date:inception_upper": "1996-06-01",
    "edtf:cessation": "2015-09-01",
    "edtf:inception": "1996-06-01",
    "geom:area": 0,
    "geom:bbox": "-1.632254,53.691324,-1.632254,53.691324",
    "geom:latitude": 53.691324,
    "geom:longitude": -1.632254,
    "iso:country": "GB",
    "mz:hierarchy_label": 1,
    "mz:is_current": 0,
    "os:country_code": "E92000001",
    "os:county_code": "E99999999",
    "os:district_code": "E08000034",
    "os:positional_quality_indicator": "1",
    "os:region_code": "E12000003",
    "src:geom": "os",
    "wof:belongsto": [
      85633159,
      102191581,
      136253055,
      1864211555,
      1360698917,
      101750569,
      1880762059,
      404227469,
      1880773017
    ],
    "wof:breaches": [],
    "wof:concordances": {
      "gp:id": "26699719"
    },
    "wof:country": "GB",
    "wof:created": 1583701259,
    "wof:geomhash": "372058726769f76f1046d8d054bc1982",
    "wof:hierarchy": [
      {
        "continent_id": 102191581,
        "country_id": 85633159,
        "county_id": 1360698917,
        "empire_id": 136253055,
        "locality_id": 101750569,
        "macrocounty_id": 1880762059,
        "macroregion_id": 404227469,
        "postalcode_id": 488124429,
        "region_id": 1880773017
      },
      {
        "continent_id": 102191581,
        "country_id": 85633159,
        "empire_id": 136253055,
        "postalcode_id": 488124429,
        "postalregion_id": 1864211555
      }
    ],
    "wof:id": 488124429,
    "wof:lastmodified": 1763548597,
    "wof:name": "WF13 1HQ",
    "wof:parent_id": 101750569,
    "wof:placetype": "postalcode",
    "wof:repo": "whosonfirst-data-postalcode-gb",
    "wof:superseded_by": [],
    "wof:supersedes": [],
    "wof:tags": []
  },
  "bbox": [
    -1.632254,
    53.691324,
    -1.632254,
    53.691324
  ],
  "geometry": {"coordinates":[-1.632254,53.691324],"type":"Point"}
}
