{
  "id": 471795743,
  "type": "Feature",
  "properties": {
    "date:inception_lower": "1980-01-01",
    "date:inception_upper": "1980-01-01",
    "edtf:cessation": "",
    "edtf:inception": "1980-01-01",
    "geom:area": 0,
    "geom:bbox": "-2.204686,53.372924,-2.204686,53.372924",
    "geom:latitude": 53.372924,
    "geom:longitude": -2.204686,
    "gp:parent_id": "15746",
    "iso:country": "GB",
    "mz:hierarchy_label": 1,
    "mz:is_current": 1,
    "os:country_code": "E92000001",
    "os:county_code": "E99999999",
    "os:district_code": "E08000007",
    "os:positional_quality_indicator": "1",
    "os:region_code": "E12000002",
    "src:geom": "os",
    "wof:belongsto": [
      85633159,
      102191581,
      136253055,
      1864210553,
      1360698879,
      101750527,
      1880762163,
      404227469,
      1880773095
    ],
    "wof:breaches": [],
    "wof:concordances": {
      "gp:id": "26483590"
    },
    "wof:country": "GB",
    "wof:created": 1583701741,
    "wof:geomhash": "c2873b82dd4e794b588ca6c1e8822ea6",
    "wof:hierarchy": [
      {
        "continent_id": 102191581,
        "country_id": 85633159,
        "county_id": 1360698879,
        "empire_id": 136253055,
        "locality_id": 101750527,
        "macrocounty_id": 1880762163,
        "macroregion_id": 404227469,
        "postalcode_id": 471795743,
        "region_id": 1880773095
      },
      {
        "continent_id": 102191581,
        "country_id": 85633159,
        "empire_id": 136253055,
        "postalcode_id": 471795743,
        "postalregion_id": 1864210553
      }
    ],
    "wof:id": 471795743,
    "wof:lastmodified": 1763548254,
    "wof:name": "SK8 6EW",
    "wof:parent_id": 101750527,
    "wof:placetype": "postalcode",
    "wof:repo": "whosonfirst-data-postalcode-gb",
    "wof:superseded_by": [],
    "wof:supersedes": [],
    "wof:tags": []
  },
  "bbox": [
    -2.204686,
    53.372924,
    -2.204686,
    53.372924
  ],
  "geometry": {"coordinates":[-2.204686,53.372924],"type":"Point"}
}
