{
  "id": 454340429,
  "type": "Feature",
  "properties": {
    "date:inception_lower": "2003-07-01",
    "date:inception_upper": "2003-07-01",
    "edtf:cessation": "",
    "edtf:inception": "2003-07-01",
    "geom:area": 0,
    "geom:bbox": "-1.504556,52.941760,-1.504556,52.941760",
    "geom:latitude": 52.94176,
    "geom:longitude": -1.504556,
    "gp:parent_id": "18114",
    "iso:country": "GB",
    "mz:hierarchy_label": 1,
    "mz:is_current": 1,
    "os:country_code": "E92000001",
    "os:county_code": "E99999999",
    "os:district_code": "E06000015",
    "os:positional_quality_indicator": "1",
    "os:region_code": "E12000004",
    "src:geom": "os",
    "wof:belongsto": [
      85633159,
      102191581,
      136253055,
      1864206653,
      1360699093,
      101750489,
      1880762133,
      404227469,
      1880762707
    ],
    "wof:breaches": [],
    "wof:concordances": {
      "gp:id": "27144328"
    },
    "wof:country": "GB",
    "wof:created": 1583701498,
    "wof:geomhash": "7a7d75474bd6784cbec853e16c728e84",
    "wof:hierarchy": [
      {
        "continent_id": 102191581,
        "country_id": 85633159,
        "county_id": 1360699093,
        "empire_id": 136253055,
        "locality_id": 101750489,
        "macrocounty_id": 1880762133,
        "macroregion_id": 404227469,
        "postalcode_id": 454340429,
        "region_id": 1880762707
      },
      {
        "continent_id": 102191581,
        "country_id": 85633159,
        "empire_id": 136253055,
        "postalcode_id": 454340429,
        "postalregion_id": 1864206653
      }
    ],
    "wof:id": 454340429,
    "wof:lastmodified": 1763548415,
    "wof:name": "DE22 2TA",
    "wof:parent_id": 101750489,
    "wof:placetype": "postalcode",
    "wof:repo": "whosonfirst-data-postalcode-gb",
    "wof:superseded_by": [],
    "wof:supersedes": [],
    "wof:tags": []
  },
  "bbox": [
    -1.504556,
    52.94176,
    -1.504556,
    52.94176
  ],
  "geometry": {"coordinates":[-1.504556,52.94176],"type":"Point"}
}
