{
  "id": 504457013,
  "type": "Feature",
  "properties": {
    "date:inception_lower": "1980-01-01",
    "date:inception_upper": "1980-01-01",
    "edtf:cessation": "",
    "edtf:inception": "1980-01-01",
    "geom:area": 0,
    "geom:bbox": "-4.448335,55.612771,-4.448335,55.612771",
    "geom:latitude": 55.612771,
    "geom:longitude": -4.448335,
    "gp:parent_id": "12696191",
    "iso:country": "GB",
    "mz:hierarchy_label": 1,
    "mz:is_current": 1,
    "os:country_code": "S92000003",
    "os:county_code": "S99999999",
    "os:district_code": "S12000008",
    "os:positional_quality_indicator": "1",
    "os:region_code": "S99999999",
    "src:geom": "os",
    "wof:belongsto": [
      85633159,
      102191581,
      136253055,
      1864208067,
      1360698779,
      1880762041,
      404227471,
      1880772907
    ],
    "wof:breaches": [],
    "wof:concordances": {
      "gp:id": "27419841"
    },
    "wof:country": "GB",
    "wof:created": 1583701333,
    "wof:geomhash": "363d3a4843c822f7a56801e101c387e4",
    "wof:hierarchy": [
      {
        "continent_id": 102191581,
        "country_id": 85633159,
        "county_id": 1360698779,
        "empire_id": 136253055,
        "macrocounty_id": 1880762041,
        "macroregion_id": 404227471,
        "postalcode_id": 504457013,
        "region_id": 1880772907
      },
      {
        "continent_id": 102191581,
        "country_id": 85633159,
        "empire_id": 136253055,
        "postalcode_id": 504457013,
        "postalregion_id": 1864208067
      }
    ],
    "wof:id": 504457013,
    "wof:lastmodified": 1763548144,
    "wof:name": "KA3 6HP",
    "wof:parent_id": 1360698779,
    "wof:placetype": "postalcode",
    "wof:repo": "whosonfirst-data-postalcode-gb",
    "wof:superseded_by": [],
    "wof:supersedes": [],
    "wof:tags": []
  },
  "bbox": [
    -4.448335,
    55.612771,
    -4.448335,
    55.612771
  ],
  "geometry": {"coordinates":[-4.448335,55.612771],"type":"Point"}
}
