{
  "id": 1998344517,
  "type": "Feature",
  "properties": {
    "date:inception_lower": "2025-03-01",
    "date:inception_upper": "2025-03-01",
    "edtf:cessation": "",
    "edtf:inception": "2025-03-01",
    "geom:area": 0,
    "geom:bbox": "-0.232737,53.148034,-0.232737,53.148034",
    "geom:latitude": 53.148034,
    "geom:longitude": -0.232737,
    "iso:country": "GB",
    "mz:hierarchy_label": 1,
    "mz:is_current": 1,
    "os:country_code": "E92000001",
    "os:county_code": "E10000019",
    "os:district_code": "E07000137",
    "os:positional_quality_indicator": "1",
    "os:region_code": "E12000004",
    "src:geom": "os",
    "wof:belongsto": [
      102191581,
      85633159,
      1880771581,
      136253055,
      404446711,
      101874117,
      1880762033,
      404227469,
      1880762701,
      1864208599
    ],
    "wof:breaches": [],
    "wof:country": "GB",
    "wof:created": 1763549037,
    "wof:geomhash": "9e6fa0856800166fffd752f81faff7db",
    "wof:hierarchy": [
      {
        "continent_id": 102191581,
        "country_id": 85633159,
        "county_id": 1880771581,
        "empire_id": 136253055,
        "localadmin_id": 404446711,
        "locality_id": 101874117,
        "macrocounty_id": 1880762033,
        "macroregion_id": 404227469,
        "postalcode_id": 1998344517,
        "region_id": 1880762701
      },
      {
        "continent_id": 102191581,
        "country_id": 85633159,
        "empire_id": 136253055,
        "postalcode_id": 1998344517,
        "postalregion_id": 1864208599
      }
    ],
    "wof:id": 1998344517,
    "wof:lastmodified": 1763549037,
    "wof:name": "LN10 6AZ",
    "wof:parent_id": 101874117,
    "wof:placetype": "postalcode",
    "wof:repo": "whosonfirst-data-postalcode-gb",
    "wof:superseded_by": [],
    "wof:supersedes": [],
    "wof:tags": []
  },
  "bbox": [
    -0.232737,
    53.148034,
    -0.232737,
    53.148034
  ],
  "geometry": {"coordinates":[-0.232737,53.148034],"type":"Point"}
}
