{
  "id": 488533071,
  "type": "Feature",
  "properties": {
    "date:inception_lower": "2003-03-01",
    "date:inception_upper": "2003-03-01",
    "edtf:cessation": "",
    "edtf:inception": "2003-03-01",
    "geom:area": 0,
    "geom:bbox": "-3.110097,51.842366,-3.110097,51.842366",
    "geom:latitude": 51.842366,
    "geom:longitude": -3.110097,
    "gp:parent_id": "12696134",
    "iso:country": "GB",
    "mz:hierarchy_label": 1,
    "mz:is_current": 1,
    "os:country_code": "W92000004",
    "os:county_code": "W99999999",
    "os:district_code": "W06000023",
    "os:positional_quality_indicator": "1",
    "os:region_code": "W99999999",
    "src:geom": "os",
    "wof:belongsto": [
      85633159,
      102191581,
      136253055,
      1864209297,
      1360698985,
      404433121,
      1360711519,
      1880762123,
      404227475,
      1880773075
    ],
    "wof:breaches": [],
    "wof:concordances": {
      "gp:id": "27675418"
    },
    "wof:country": "GB",
    "wof:created": 1583701546,
    "wof:geomhash": "ab2bfd42ba646f131060066e8e050939",
    "wof:hierarchy": [
      {
        "continent_id": 102191581,
        "country_id": 85633159,
        "county_id": 1360698985,
        "empire_id": 136253055,
        "localadmin_id": 404433121,
        "locality_id": 1360711519,
        "macrocounty_id": 1880762123,
        "macroregion_id": 404227475,
        "postalcode_id": 488533071,
        "region_id": 1880773075
      },
      {
        "continent_id": 102191581,
        "country_id": 85633159,
        "empire_id": 136253055,
        "postalcode_id": 488533071,
        "postalregion_id": 1864209297
      }
    ],
    "wof:id": 488533071,
    "wof:lastmodified": 1763548410,
    "wof:name": "NP8 1TN",
    "wof:parent_id": 1360711519,
    "wof:placetype": "postalcode",
    "wof:repo": "whosonfirst-data-postalcode-gb",
    "wof:superseded_by": [],
    "wof:supersedes": [],
    "wof:tags": []
  },
  "bbox": [
    -3.110097,
    51.842366,
    -3.110097,
    51.842366
  ],
  "geometry": {"coordinates":[-3.110097,51.842366],"type":"Point"}
}
