{
  "id": 471142117,
  "type": "Feature",
  "properties": {
    "date:inception_lower": "1980-01-01",
    "date:inception_upper": "1980-01-01",
    "edtf:cessation": "",
    "edtf:inception": "1980-01-01",
    "geom:area": 0,
    "geom:bbox": "-0.531399,52.982945,-0.531399,52.982945",
    "geom:latitude": 52.982945,
    "geom:longitude": -0.531399,
    "gp:parent_id": "10798",
    "iso:country": "GB",
    "mz:hierarchy_label": 1,
    "mz:is_current": 1,
    "os:country_code": "E92000001",
    "os:county_code": "E10000019",
    "os:district_code": "E07000141",
    "os:positional_quality_indicator": "1",
    "os:region_code": "E12000004",
    "src:geom": "os",
    "wof:belongsto": [
      85633159,
      102191581,
      136253055,
      1864209191,
      1880771573,
      404451141,
      1126019981,
      1880762033,
      404227469,
      1880762701
    ],
    "wof:breaches": [],
    "wof:concordances": {
      "gp:id": "27643730"
    },
    "wof:country": "GB",
    "wof:created": 1583701335,
    "wof:geomhash": "af28138b630bf8d1f139cf1bf3632294",
    "wof:hierarchy": [
      {
        "continent_id": 102191581,
        "country_id": 85633159,
        "county_id": 1880771573,
        "empire_id": 136253055,
        "localadmin_id": 404451141,
        "locality_id": 1126019981,
        "macrocounty_id": 1880762033,
        "macroregion_id": 404227469,
        "postalcode_id": 471142117,
        "region_id": 1880762701
      },
      {
        "continent_id": 102191581,
        "country_id": 85633159,
        "empire_id": 136253055,
        "postalcode_id": 471142117,
        "postalregion_id": 1864209191
      }
    ],
    "wof:id": 471142117,
    "wof:lastmodified": 1763548146,
    "wof:name": "NG32 3PX",
    "wof:parent_id": 1126019981,
    "wof:placetype": "postalcode",
    "wof:repo": "whosonfirst-data-postalcode-gb",
    "wof:superseded_by": [],
    "wof:supersedes": [],
    "wof:tags": []
  },
  "bbox": [
    -0.531399,
    52.982945,
    -0.531399,
    52.982945
  ],
  "geometry": {"coordinates":[-0.531399,52.982945],"type":"Point"}
}
