{
  "id": 454591471,
  "type": "Feature",
  "properties": {
    "date:inception_lower": "1980-01-01",
    "date:inception_upper": "1980-01-01",
    "edtf:cessation": "",
    "edtf:inception": "1980-01-01",
    "geom:area": 0,
    "geom:bbox": "-4.227621,51.133846,-4.227621,51.133846",
    "geom:latitude": 51.133846,
    "geom:longitude": -4.227621,
    "gp:parent_id": "17548",
    "iso:country": "GB",
    "mz:hierarchy_label": 1,
    "mz:is_current": 1,
    "os:country_code": "E92000001",
    "os:county_code": "E10000008",
    "os:district_code": "E07000043",
    "os:positional_quality_indicator": "1",
    "os:region_code": "E12000009",
    "src:geom": "os",
    "wof:belongsto": [
      85633159,
      102191581,
      136253055,
      1864207223,
      1880771395,
      404434249,
      1125843855,
      1880762149,
      404227469,
      1880762683
    ],
    "wof:breaches": [],
    "wof:concordances": {
      "gp:id": "27261542"
    },
    "wof:country": "GB",
    "wof:created": 1583701654,
    "wof:geomhash": "39938b46990b3f47666dad655c69b5ac",
    "wof:hierarchy": [
      {
        "continent_id": 102191581,
        "country_id": 85633159,
        "county_id": 1880771395,
        "empire_id": 136253055,
        "localadmin_id": 404434249,
        "locality_id": 1125843855,
        "macrocounty_id": 1880762149,
        "macroregion_id": 404227469,
        "postalcode_id": 454591471,
        "region_id": 1880762683
      },
      {
        "continent_id": 102191581,
        "country_id": 85633159,
        "empire_id": 136253055,
        "postalcode_id": 454591471,
        "postalregion_id": 1864207223
      }
    ],
    "wof:id": 454591471,
    "wof:lastmodified": 1763548462,
    "wof:name": "EX33 1NW",
    "wof:parent_id": 1125843855,
    "wof:placetype": "postalcode",
    "wof:repo": "whosonfirst-data-postalcode-gb",
    "wof:superseded_by": [],
    "wof:supersedes": [],
    "wof:tags": []
  },
  "bbox": [
    -4.227621,
    51.133846,
    -4.227621,
    51.133846
  ],
  "geometry": {"coordinates":[-4.227621,51.133846],"type":"Point"}
}
