{
  "id": 437944741,
  "type": "Feature",
  "properties": {
    "date:inception_lower": "2000-06-01",
    "date:inception_upper": "2000-06-01",
    "edtf:cessation": "",
    "edtf:inception": "2000-06-01",
    "geom:area": 0,
    "geom:bbox": "-0.344931,51.758340,-0.344931,51.758340",
    "geom:latitude": 51.75834,
    "geom:longitude": -0.344931,
    "iso:country": "GB",
    "mz:hierarchy_label": 1,
    "mz:is_current": 1,
    "os:country_code": "E92000001",
    "os:county_code": "E10000015",
    "os:district_code": "E07000240",
    "os:positional_quality_indicator": "1",
    "os:region_code": "E12000006",
    "src:geom": "os",
    "wof:belongsto": [
      85633159,
      102191581,
      136253055,
      1864205459,
      1880771493,
      101750419,
      1880762153,
      404227469,
      1880762721
    ],
    "wof:breaches": [],
    "wof:concordances": {
      "gp:id": "26839203"
    },
    "wof:country": "GB",
    "wof:created": 1583701643,
    "wof:geomhash": "69601d815ff8fe3faafc11c92cff31d0",
    "wof:hierarchy": [
      {
        "continent_id": 102191581,
        "country_id": 85633159,
        "county_id": 1880771493,
        "empire_id": 136253055,
        "locality_id": 101750419,
        "macrocounty_id": 1880762153,
        "macroregion_id": 404227469,
        "postalcode_id": 437944741,
        "region_id": 1880762721
      },
      {
        "continent_id": 102191581,
        "country_id": 85633159,
        "empire_id": 136253055,
        "postalcode_id": 437944741,
        "postalregion_id": 1864205459
      }
    ],
    "wof:id": 437944741,
    "wof:lastmodified": 1763548312,
    "wof:name": "AL3 5LN",
    "wof:parent_id": 101750419,
    "wof:placetype": "postalcode",
    "wof:repo": "whosonfirst-data-postalcode-gb",
    "wof:superseded_by": [],
    "wof:supersedes": [],
    "wof:tags": []
  },
  "bbox": [
    -0.344931,
    51.75834,
    -0.344931,
    51.75834
  ],
  "geometry": {"coordinates":[-0.344931,51.75834],"type":"Point"}
}
