{
  "id": 454843509,
  "type": "Feature",
  "properties": {
    "date:inception_lower": "1980-01-01",
    "date:inception_upper": "1980-01-01",
    "edtf:cessation": "",
    "edtf:inception": "1980-01-01",
    "geom:area": 0,
    "geom:bbox": "-2.011987,53.742265,-2.011987,53.742265",
    "geom:latitude": 53.742265,
    "geom:longitude": -2.011987,
    "iso:country": "GB",
    "mz:hierarchy_label": 1,
    "mz:is_current": 1,
    "os:country_code": "E92000001",
    "os:county_code": "E99999999",
    "os:district_code": "E08000033",
    "os:positional_quality_indicator": "1",
    "os:region_code": "E12000003",
    "src:geom": "os",
    "wof:belongsto": [
      85633159,
      102191581,
      136253055,
      1864207795,
      1360698833,
      404446577,
      1360754013,
      1880762059,
      404227469,
      1880773017
    ],
    "wof:breaches": [],
    "wof:concordances": {
      "gp:id": "27385641"
    },
    "wof:country": "GB",
    "wof:created": 1583701733,
    "wof:geomhash": "3569f80d2282f3e120512405d77a3ab2",
    "wof:hierarchy": [
      {
        "continent_id": 102191581,
        "country_id": 85633159,
        "county_id": 1360698833,
        "empire_id": 136253055,
        "localadmin_id": 404446577,
        "locality_id": 1360754013,
        "macrocounty_id": 1880762059,
        "macroregion_id": 404227469,
        "postalcode_id": 454843509,
        "region_id": 1880773017
      },
      {
        "continent_id": 102191581,
        "country_id": 85633159,
        "empire_id": 136253055,
        "postalcode_id": 454843509,
        "postalregion_id": 1864207795
      }
    ],
    "wof:id": 454843509,
    "wof:lastmodified": 1763548305,
    "wof:name": "HX7 8EU",
    "wof:parent_id": 1360754013,
    "wof:placetype": "postalcode",
    "wof:repo": "whosonfirst-data-postalcode-gb",
    "wof:superseded_by": [],
    "wof:supersedes": [],
    "wof:tags": []
  },
  "bbox": [
    -2.011987,
    53.742265,
    -2.011987,
    53.742265
  ],
  "geometry": {"coordinates":[-2.011987,53.742265],"type":"Point"}
}
