{
  "id": 504603727,
  "type": "Feature",
  "properties": {
    "date:inception_lower": "1983-03-01",
    "date:inception_upper": "1983-03-01",
    "edtf:cessation": "",
    "edtf:inception": "1983-03-01",
    "geom:area": 0,
    "geom:bbox": "-3.935759,51.649974,-3.935759,51.649974",
    "geom:latitude": 51.649974,
    "geom:longitude": -3.935759,
    "iso:country": "GB",
    "mz:hierarchy_label": 1,
    "mz:is_current": 1,
    "os:country_code": "W92000004",
    "os:county_code": "W99999999",
    "os:district_code": "W06000011",
    "os:positional_quality_indicator": "1",
    "os:region_code": "W99999999",
    "src:geom": "os",
    "wof:belongsto": [
      85633159,
      102191581,
      136253055,
      1864210363,
      1360699095,
      404446687,
      1259410307,
      1880762113,
      404227475,
      1880773177
    ],
    "wof:breaches": [],
    "wof:concordances": {
      "gp:id": "27884000"
    },
    "wof:country": "GB",
    "wof:created": 1583701473,
    "wof:geomhash": "a3a2c5aef5eaa8652f6b30c09eaea5eb",
    "wof:hierarchy": [
      {
        "continent_id": 102191581,
        "country_id": 85633159,
        "county_id": 1360699095,
        "empire_id": 136253055,
        "localadmin_id": 404446687,
        "locality_id": 1259410307,
        "macrocounty_id": 1880762113,
        "macroregion_id": 404227475,
        "postalcode_id": 504603727,
        "region_id": 1880773177
      },
      {
        "continent_id": 102191581,
        "country_id": 85633159,
        "empire_id": 136253055,
        "postalcode_id": 504603727,
        "postalregion_id": 1864210363
      }
    ],
    "wof:id": 504603727,
    "wof:lastmodified": 1763548010,
    "wof:name": "SA6 8LX",
    "wof:parent_id": 1259410307,
    "wof:placetype": "postalcode",
    "wof:repo": "whosonfirst-data-postalcode-gb",
    "wof:superseded_by": [],
    "wof:supersedes": [],
    "wof:tags": []
  },
  "bbox": [
    -3.935759,
    51.649974,
    -3.935759,
    51.649974
  ],
  "geometry": {"coordinates":[-3.935759,51.649974],"type":"Point"}
}
