{
  "id": 1712624735,
  "type": "Feature",
  "properties": {
    "date:cessation_lower": "2000-07-01",
    "date:cessation_upper": "2000-07-01",
    "date:inception_lower": "1980-01-01",
    "date:inception_upper": "1980-01-01",
    "edtf:cessation": "2000-07-01",
    "edtf:inception": "1980-01-01",
    "geom:area": 0,
    "geom:bbox": "-4.782523,55.633918,-4.782523,55.633918",
    "geom:latitude": 55.633918,
    "geom:longitude": -4.782523,
    "iso:country": "GB",
    "mz:hierarchy_label": 1,
    "mz:is_current": 0,
    "os:country_code": "S92000003",
    "os:county_code": "S99999999",
    "os:district_code": "S12000021",
    "os:positional_quality_indicator": "2",
    "os:region_code": "S99999999",
    "src:geom": "os",
    "wof:belongsto": [
      85633159,
      102191581,
      136253055,
      1864208047,
      1360698855,
      1880762041,
      404227471,
      1880772907
    ],
    "wof:breaches": [],
    "wof:country": "GB",
    "wof:created": 1583796343,
    "wof:geomhash": "c3c3baba14d047c77c36244929d0942a",
    "wof:hierarchy": [
      {
        "continent_id": 102191581,
        "country_id": 85633159,
        "county_id": 1360698855,
        "empire_id": 136253055,
        "macrocounty_id": 1880762041,
        "macroregion_id": 404227471,
        "postalcode_id": 1712624735,
        "region_id": 1880772907
      },
      {
        "continent_id": 102191581,
        "country_id": 85633159,
        "empire_id": 136253055,
        "postalcode_id": 1712624735,
        "postalregion_id": 1864208047
      }
    ],
    "wof:id": 1712624735,
    "wof:lastmodified": 1763548750,
    "wof:name": "KA21 5HT",
    "wof:parent_id": 1360698855,
    "wof:placetype": "postalcode",
    "wof:repo": "whosonfirst-data-postalcode-gb",
    "wof:superseded_by": [],
    "wof:supersedes": [],
    "wof:tags": []
  },
  "bbox": [
    -4.782523,
    55.633918,
    -4.782523,
    55.633918
  ],
  "geometry": {"coordinates":[-4.782523,55.633918],"type":"Point"}
}
