{
  "id": 454135879,
  "type": "Feature",
  "properties": {
    "date:inception_lower": "1981-06-01",
    "date:inception_upper": "1981-06-01",
    "edtf:cessation": "",
    "edtf:inception": "1981-06-01",
    "geom:area": 0,
    "geom:bbox": "0.412619,51.638443,0.412619,51.638443",
    "geom:latitude": 51.638443,
    "geom:longitude": 0.412619,
    "iso:country": "GB",
    "mz:hierarchy_label": 1,
    "mz:is_current": 1,
    "os:country_code": "E92000001",
    "os:county_code": "E10000012",
    "os:district_code": "E07000066",
    "os:positional_quality_indicator": "1",
    "os:region_code": "E12000006",
    "src:geom": "os",
    "wof:belongsto": [
      85633159,
      102191581,
      136253055,
      1864206329,
      1880771441,
      404438127,
      101853529,
      1880762159,
      404227469,
      1880762723
    ],
    "wof:breaches": [],
    "wof:concordances": {
      "gp:id": "27067377"
    },
    "wof:country": "GB",
    "wof:created": 1583701295,
    "wof:geomhash": "cbd53ddf147e9d21b6a85459c1446135",
    "wof:hierarchy": [
      {
        "continent_id": 102191581,
        "country_id": 85633159,
        "county_id": 1880771441,
        "empire_id": 136253055,
        "localadmin_id": 404438127,
        "locality_id": 101853529,
        "macrocounty_id": 1880762159,
        "macroregion_id": 404227469,
        "postalcode_id": 454135879,
        "region_id": 1880762723
      },
      {
        "continent_id": 102191581,
        "country_id": 85633159,
        "empire_id": 136253055,
        "postalcode_id": 454135879,
        "postalregion_id": 1864206329
      }
    ],
    "wof:id": 454135879,
    "wof:lastmodified": 1763548158,
    "wof:name": "CM12 0UH",
    "wof:parent_id": 101853529,
    "wof:placetype": "postalcode",
    "wof:repo": "whosonfirst-data-postalcode-gb",
    "wof:superseded_by": [],
    "wof:supersedes": [],
    "wof:tags": []
  },
  "bbox": [
    0.412619,
    51.638443,
    0.412619,
    51.638443
  ],
  "geometry": {"coordinates":[0.412619,51.638443],"type":"Point"}
}
