{
  "id": 874510757,
  "type": "Feature",
  "properties": {
    "date:inception_lower": "2016-03-01",
    "date:inception_upper": "2016-03-01",
    "edtf:cessation": "",
    "edtf:inception": "2016-03-01",
    "geom:area": 0,
    "geom:bbox": "-4.147052,50.544320,-4.147052,50.544320",
    "geom:latitude": 50.54432,
    "geom:longitude": -4.147052,
    "iso:country": "GB",
    "mz:hierarchy_label": 1,
    "mz:is_current": 1,
    "os:country_code": "E92000001",
    "os:county_code": "E10000008",
    "os:district_code": "E07000047",
    "os:positional_quality_indicator": "5",
    "os:region_code": "E12000009",
    "src:geom": "os",
    "wof:belongsto": [
      85633159,
      102191581,
      136253055,
      1864209853,
      1880771401,
      404437531,
      101852555,
      1880762149,
      404227469,
      1880762683
    ],
    "wof:breaches": [],
    "wof:country": "GB",
    "wof:created": 1468896643,
    "wof:geomhash": "fba28281e5136154f19f1372c1a48c49",
    "wof:hierarchy": [
      {
        "continent_id": 102191581,
        "country_id": 85633159,
        "county_id": 1880771401,
        "empire_id": 136253055,
        "localadmin_id": 404437531,
        "locality_id": 101852555,
        "macrocounty_id": 1880762149,
        "macroregion_id": 404227469,
        "postalcode_id": 874510757,
        "region_id": 1880762683
      },
      {
        "continent_id": 102191581,
        "country_id": 85633159,
        "empire_id": 136253055,
        "postalcode_id": 874510757,
        "postalregion_id": 1864209853
      }
    ],
    "wof:id": 874510757,
    "wof:lastmodified": 1763547956,
    "wof:name": "PL19 1ZZ",
    "wof:parent_id": 101852555,
    "wof:placetype": "postalcode",
    "wof:repo": "whosonfirst-data-postalcode-gb",
    "wof:superseded_by": [],
    "wof:supersedes": [],
    "wof:tags": []
  },
  "bbox": [
    -4.147052,
    50.54432,
    -4.147052,
    50.54432
  ],
  "geometry": {"coordinates":[-4.147052,50.54432],"type":"Point"}
}
