{
  "id": 38235717,
  "type": "Feature",
  "properties": {
    "date:cessation_lower": "1999-06-01",
    "date:cessation_upper": "1999-06-01",
    "date:inception_lower": "1980-01-01",
    "date:inception_upper": "1980-01-01",
    "edtf:cessation": "1999-06-01",
    "edtf:inception": "1980-01-01",
    "geom:area": 0,
    "geom:bbox": "-3.147804,51.486327,-3.147804,51.486327",
    "geom:latitude": 51.486327,
    "geom:longitude": -3.147804,
    "iso:country": "GB",
    "mz:hierarchy_label": 1,
    "mz:is_current": 0,
    "os:country_code": "W92000004",
    "os:county_code": "W99999999",
    "os:district_code": "W06000015",
    "os:positional_quality_indicator": "8",
    "os:region_code": "W99999999",
    "src:geom": "os",
    "wof:belongsto": [
      102191581,
      85633159,
      1360699107,
      136253055,
      101750397,
      1880762115,
      404227475,
      1880773187
    ],
    "wof:breaches": [],
    "wof:country": "GB",
    "wof:created": 1583788081,
    "wof:geomhash": "bc6e699b112f21cb54d90232e5721c0c",
    "wof:hierarchy": [
      {
        "continent_id": 102191581,
        "country_id": 85633159,
        "county_id": 1360699107,
        "empire_id": 136253055,
        "locality_id": 101750397,
        "macrocounty_id": 1880762115,
        "macroregion_id": 404227475,
        "postalcode_id": 38235717,
        "region_id": 1880773187
      }
    ],
    "wof:id": 38235717,
    "wof:lastmodified": 1763548366,
    "wof:name": "CF2 2LN",
    "wof:parent_id": 101750397,
    "wof:placetype": "postalcode",
    "wof:repo": "whosonfirst-data-postalcode-gb",
    "wof:superseded_by": [],
    "wof:supersedes": [],
    "wof:tags": []
  },
  "bbox": [
    -3.147804,
    51.486327,
    -3.147804,
    51.486327
  ],
  "geometry": {"coordinates":[-3.147804,51.486327],"type":"Point"}
}
