{
  "id": 438037213,
  "type": "Feature",
  "properties": {
    "date:inception_lower": "1980-01-01",
    "date:inception_upper": "1980-01-01",
    "edtf:cessation": "",
    "edtf:inception": "1980-01-01",
    "geom:area": 0,
    "geom:bbox": "-1.775931,52.411459,-1.775931,52.411459",
    "geom:latitude": 52.411459,
    "geom:longitude": -1.775931,
    "gp:parent_id": "35110",
    "iso:country": "GB",
    "mz:hierarchy_label": 1,
    "mz:is_current": 1,
    "os:country_code": "E92000001",
    "os:county_code": "E99999999",
    "os:district_code": "E08000029",
    "os:positional_quality_indicator": "1",
    "os:region_code": "E12000005",
    "src:geom": "os",
    "wof:belongsto": [
      85633159,
      102191581,
      136253055,
      1864205629,
      1360699057,
      1125891303,
      1880762069,
      404227469,
      1880773161
    ],
    "wof:breaches": [],
    "wof:concordances": {
      "gp:id": "26870109"
    },
    "wof:country": "GB",
    "wof:created": 1583701114,
    "wof:geomhash": "f8ccbc0d4ea8748f40100b8759a0a2dc",
    "wof:hierarchy": [
      {
        "continent_id": 102191581,
        "country_id": 85633159,
        "county_id": 1360699057,
        "empire_id": 136253055,
        "locality_id": 1125891303,
        "macrocounty_id": 1880762069,
        "macroregion_id": 404227469,
        "postalcode_id": 438037213,
        "region_id": 1880773161
      },
      {
        "continent_id": 102191581,
        "country_id": 85633159,
        "empire_id": 136253055,
        "postalcode_id": 438037213,
        "postalregion_id": 1864205629
      }
    ],
    "wof:id": 438037213,
    "wof:lastmodified": 1763548050,
    "wof:name": "B91 3RH",
    "wof:parent_id": 1125891303,
    "wof:placetype": "postalcode",
    "wof:repo": "whosonfirst-data-postalcode-gb",
    "wof:superseded_by": [],
    "wof:supersedes": [],
    "wof:tags": []
  },
  "bbox": [
    -1.775931,
    52.411459,
    -1.775931,
    52.411459
  ],
  "geometry": {"coordinates":[-1.775931,52.411459],"type":"Point"}
}
