{
  "id": 39494862,
  "type": "Feature",
  "properties": {
    "date:cessation_lower": "1996-06-01",
    "date:cessation_upper": "1996-06-01",
    "date:inception_lower": "1980-01-01",
    "date:inception_upper": "1980-01-01",
    "edtf:cessation": "1996-06-01",
    "edtf:inception": "1980-01-01",
    "geom:area": 0,
    "geom:bbox": "-2.950634,53.406643,-2.950634,53.406643",
    "geom:latitude": 53.406643,
    "geom:longitude": -2.950634,
    "iso:country": "GB",
    "mz:hierarchy_label": 1,
    "mz:is_current": 0,
    "os:country_code": "E92000001",
    "os:county_code": "E99999999",
    "os:district_code": "E08000012",
    "os:positional_quality_indicator": "8",
    "os:region_code": "E12000002",
    "src:geom": "os",
    "wof:belongsto": [
      85633159,
      102191581,
      136253055,
      1864208303,
      1360698971,
      101750547,
      1880762035,
      404227469,
      1880773063
    ],
    "wof:breaches": [],
    "wof:country": "GB",
    "wof:created": 1583802080,
    "wof:geomhash": "6c9795afb72b735b03d2af27ed5e1ca1",
    "wof:hierarchy": [
      {
        "continent_id": 102191581,
        "country_id": 85633159,
        "county_id": 1360698971,
        "empire_id": 136253055,
        "locality_id": 101750547,
        "macrocounty_id": 1880762035,
        "macroregion_id": 404227469,
        "postalcode_id": 39494862,
        "region_id": 1880773063
      },
      {
        "continent_id": 102191581,
        "country_id": 85633159,
        "empire_id": 136253055,
        "postalcode_id": 39494862,
        "postalregion_id": 1864208303
      }
    ],
    "wof:id": 39494862,
    "wof:lastmodified": 1763548405,
    "wof:name": "L7 1RG",
    "wof:parent_id": 101750547,
    "wof:placetype": "postalcode",
    "wof:repo": "whosonfirst-data-postalcode-gb",
    "wof:superseded_by": [],
    "wof:supersedes": [],
    "wof:tags": []
  },
  "bbox": [
    -2.950634,
    53.406643,
    -2.950634,
    53.406643
  ],
  "geometry": {"coordinates":[-2.950634,53.406643],"type":"Point"}
}
