{
  "id": 38361159,
  "type": "Feature",
  "properties": {
    "date:cessation_lower": "2003-04-01",
    "date:cessation_upper": "2003-04-01",
    "date:inception_lower": "2003-03-01",
    "date:inception_upper": "2003-03-01",
    "edtf:cessation": "2003-04-01",
    "edtf:inception": "2003-03-01",
    "geom:area": 0,
    "geom:bbox": "-2.720145,53.430323,-2.720145,53.430323",
    "geom:latitude": 53.430323,
    "geom:longitude": -2.720145,
    "iso:country": "GB",
    "mz:hierarchy_label": 1,
    "mz:is_current": 0,
    "os:country_code": "E92000001",
    "os:county_code": "E99999999",
    "os:district_code": "E08000013",
    "os:positional_quality_indicator": "5",
    "os:region_code": "E12000002",
    "src:geom": "os",
    "wof:belongsto": [
      85633159,
      102191581,
      136253055,
      1864211487,
      1360698793,
      101750559,
      1880762035,
      404227469,
      1880773063
    ],
    "wof:breaches": [],
    "wof:country": "GB",
    "wof:created": 1583789493,
    "wof:geomhash": "008adbbe7d66149842351b0b559bc0a7",
    "wof:hierarchy": [
      {
        "continent_id": 102191581,
        "country_id": 85633159,
        "county_id": 1360698793,
        "empire_id": 136253055,
        "locality_id": 101750559,
        "macrocounty_id": 1880762035,
        "macroregion_id": 404227469,
        "postalcode_id": 38361159,
        "region_id": 1880773063
      },
      {
        "continent_id": 102191581,
        "country_id": 85633159,
        "empire_id": 136253055,
        "postalcode_id": 38361159,
        "postalregion_id": 1864211487
      }
    ],
    "wof:id": 38361159,
    "wof:lastmodified": 1763548161,
    "wof:name": "WA9 3YB",
    "wof:parent_id": 101750559,
    "wof:placetype": "postalcode",
    "wof:repo": "whosonfirst-data-postalcode-gb",
    "wof:superseded_by": [],
    "wof:supersedes": [],
    "wof:tags": []
  },
  "bbox": [
    -2.720145,
    53.430323,
    -2.720145,
    53.430323
  ],
  "geometry": {"coordinates":[-2.720145,53.430323],"type":"Point"}
}
