{
  "id": 39750966,
  "type": "Feature",
  "properties": {
    "date:cessation_lower": "1996-06-01",
    "date:cessation_upper": "1996-06-01",
    "date:inception_lower": "1992-08-01",
    "date:inception_upper": "1992-08-01",
    "edtf:cessation": "1996-06-01",
    "edtf:inception": "1992-08-01",
    "geom:area": 0,
    "geom:bbox": "-2.124367,53.255760,-2.124367,53.255760",
    "geom:latitude": 53.25576,
    "geom:longitude": -2.124367,
    "iso:country": "GB",
    "mz:hierarchy_label": 1,
    "mz:is_current": 0,
    "os:country_code": "E92000001",
    "os:county_code": "E99999999",
    "os:district_code": "E06000049",
    "os:positional_quality_indicator": "8",
    "os:region_code": "E12000002",
    "src:geom": "os",
    "wof:belongsto": [
      85633159,
      102191581,
      136253055,
      1864210519,
      1360698929,
      101750519,
      1880762135,
      404227469,
      1880773021
    ],
    "wof:breaches": [],
    "wof:country": "GB",
    "wof:created": 1583804938,
    "wof:geomhash": "fd8494b116a01f3fe844e491bad6d9fa",
    "wof:hierarchy": [
      {
        "continent_id": 102191581,
        "country_id": 85633159,
        "county_id": 1360698929,
        "empire_id": 136253055,
        "locality_id": 101750519,
        "macrocounty_id": 1880762135,
        "macroregion_id": 404227469,
        "postalcode_id": 39750966,
        "region_id": 1880773021
      },
      {
        "continent_id": 102191581,
        "country_id": 85633159,
        "empire_id": 136253055,
        "postalcode_id": 39750966,
        "postalregion_id": 1864210519
      }
    ],
    "wof:id": 39750966,
    "wof:lastmodified": 1763547910,
    "wof:name": "SK11 6TS",
    "wof:parent_id": 101750519,
    "wof:placetype": "postalcode",
    "wof:repo": "whosonfirst-data-postalcode-gb",
    "wof:superseded_by": [],
    "wof:supersedes": [],
    "wof:tags": []
  },
  "bbox": [
    -2.124367,
    53.25576,
    -2.124367,
    53.25576
  ],
  "geometry": {"coordinates":[-2.124367,53.25576],"type":"Point"}
}
