{
  "id": 471097525,
  "type": "Feature",
  "properties": {
    "date:inception_lower": "1980-01-01",
    "date:inception_upper": "1980-01-01",
    "edtf:cessation": "",
    "edtf:inception": "1980-01-01",
    "geom:area": 0,
    "geom:bbox": "-1.636500,54.951581,-1.636500,54.951581",
    "geom:latitude": 54.951581,
    "geom:longitude": -1.6365,
    "gp:parent_id": "20928",
    "iso:country": "GB",
    "mz:hierarchy_label": 1,
    "mz:is_current": 1,
    "os:country_code": "E92000001",
    "os:county_code": "E99999999",
    "os:district_code": "E08000037",
    "os:positional_quality_indicator": "1",
    "os:region_code": "E12000001",
    "src:geom": "os",
    "wof:belongsto": [
      85633159,
      102191581,
      136253055,
      1864209131,
      1360698881,
      1360817105,
      101750615,
      1880762063,
      404227469,
      1880773053
    ],
    "wof:breaches": [],
    "wof:concordances": {
      "gp:id": "27627730"
    },
    "wof:country": "GB",
    "wof:created": 1583701288,
    "wof:geomhash": "4857ed3cb9e6f3385369901467a9753a",
    "wof:hierarchy": [
      {
        "continent_id": 102191581,
        "country_id": 85633159,
        "county_id": 1360698881,
        "empire_id": 136253055,
        "localadmin_id": 1360817105,
        "locality_id": 101750615,
        "macrocounty_id": 1880762063,
        "macroregion_id": 404227469,
        "postalcode_id": 471097525,
        "region_id": 1880773053
      },
      {
        "continent_id": 102191581,
        "country_id": 85633159,
        "empire_id": 136253055,
        "postalcode_id": 471097525,
        "postalregion_id": 1864209131
      }
    ],
    "wof:id": 471097525,
    "wof:lastmodified": 1763548119,
    "wof:name": "NE8 2QU",
    "wof:parent_id": 101750615,
    "wof:placetype": "postalcode",
    "wof:repo": "whosonfirst-data-postalcode-gb",
    "wof:superseded_by": [],
    "wof:supersedes": [],
    "wof:tags": []
  },
  "bbox": [
    -1.6365,
    54.951581,
    -1.6365,
    54.951581
  ],
  "geometry": {"coordinates":[-1.6365,54.951581],"type":"Point"}
}
