{
  "id": 454037465,
  "type": "Feature",
  "properties": {
    "date:inception_lower": "2003-04-01",
    "date:inception_upper": "2003-04-01",
    "edtf:cessation": "",
    "edtf:inception": "2003-04-01",
    "geom:area": 0,
    "geom:bbox": "-2.781976,51.410217,-2.781976,51.410217",
    "geom:latitude": 51.410217,
    "geom:longitude": -2.781976,
    "iso:country": "GB",
    "mz:hierarchy_label": 1,
    "mz:is_current": 1,
    "os:country_code": "E92000001",
    "os:county_code": "E99999999",
    "os:district_code": "E06000024",
    "os:positional_quality_indicator": "1",
    "os:region_code": "E12000009",
    "src:geom": "os",
    "wof:belongsto": [
      85633159,
      102191581,
      136253055,
      1864206035,
      1360699111,
      404440043,
      101852673,
      1880762071,
      404227469,
      1880773145
    ],
    "wof:breaches": [],
    "wof:concordances": {
      "gp:id": "26966424"
    },
    "wof:country": "GB",
    "wof:created": 1583701173,
    "wof:geomhash": "0f84f1a7fc5efea368d8b1d347b0e6a8",
    "wof:hierarchy": [
      {
        "continent_id": 102191581,
        "country_id": 85633159,
        "county_id": 1360699111,
        "empire_id": 136253055,
        "localadmin_id": 404440043,
        "locality_id": 101852673,
        "macrocounty_id": 1880762071,
        "macroregion_id": 404227469,
        "postalcode_id": 454037465,
        "region_id": 1880773145
      },
      {
        "continent_id": 102191581,
        "country_id": 85633159,
        "empire_id": 136253055,
        "postalcode_id": 454037465,
        "postalregion_id": 1864206035
      }
    ],
    "wof:id": 454037465,
    "wof:lastmodified": 1763548368,
    "wof:name": "BS48 4DL",
    "wof:parent_id": 101852673,
    "wof:placetype": "postalcode",
    "wof:repo": "whosonfirst-data-postalcode-gb",
    "wof:superseded_by": [],
    "wof:supersedes": [],
    "wof:tags": []
  },
  "bbox": [
    -2.781976,
    51.410217,
    -2.781976,
    51.410217
  ],
  "geometry": {"coordinates":[-2.781976,51.410217],"type":"Point"}
}
