{
  "id": 1161109198,
  "type": "Feature",
  "properties": {
    "date:cessation_lower": "2001-07-01",
    "date:cessation_upper": "2001-07-01",
    "date:inception_lower": "1992-07-01",
    "date:inception_upper": "1992-07-01",
    "edtf:cessation": "2001-07-01",
    "edtf:inception": "1992-07-01",
    "geom:area": 0,
    "geom:bbox": "-4.557106,55.942105,-4.557106,55.942105",
    "geom:latitude": 55.942105,
    "geom:longitude": -4.557106,
    "iso:country": "GB",
    "mz:hierarchy_label": 1,
    "mz:is_current": 0,
    "os:country_code": "S92000003",
    "os:county_code": "S99999999",
    "os:district_code": "S12000039",
    "os:positional_quality_indicator": "6",
    "os:region_code": "S99999999",
    "src:geom": "os",
    "wof:belongsto": [
      85633159,
      102191581,
      136253055,
      1864207429,
      1360698819,
      1880762097,
      404227471,
      1880772937
    ],
    "wof:breaches": [],
    "wof:country": "GB",
    "wof:created": 1583804288,
    "wof:geomhash": "0182490f117ea608090b7f373be863b0",
    "wof:hierarchy": [
      {
        "continent_id": 102191581,
        "country_id": 85633159,
        "county_id": 1360698819,
        "empire_id": 136253055,
        "macrocounty_id": 1880762097,
        "macroregion_id": 404227471,
        "postalcode_id": 1161109198,
        "region_id": 1880772937
      },
      {
        "continent_id": 102191581,
        "country_id": 85633159,
        "empire_id": 136253055,
        "postalcode_id": 1161109198,
        "postalregion_id": 1864207429
      }
    ],
    "wof:id": 1161109198,
    "wof:lastmodified": 1763548286,
    "wof:name": "G82 1TZ",
    "wof:parent_id": 1360698819,
    "wof:placetype": "postalcode",
    "wof:repo": "whosonfirst-data-postalcode-gb",
    "wof:superseded_by": [],
    "wof:supersedes": [],
    "wof:tags": []
  },
  "bbox": [
    -4.557106,
    55.942105,
    -4.557106,
    55.942105
  ],
  "geometry": {"coordinates":[-4.557106,55.942105],"type":"Point"}
}
