{
  "id": 1947762397,
  "type": "Feature",
  "properties": {
    "date:inception_lower": "2024-09-01",
    "date:inception_upper": "2024-09-01",
    "edtf:cessation": "",
    "edtf:inception": "2024-09-01",
    "geom:area": 0,
    "geom:bbox": "-2.126418,52.608789,-2.126418,52.608789",
    "geom:latitude": 52.608789,
    "geom:longitude": -2.126418,
    "iso:country": "GB",
    "mz:hierarchy_label": 1,
    "mz:is_current": 1,
    "os:country_code": "E92000001",
    "os:county_code": "E99999999",
    "os:district_code": "E08000031",
    "os:positional_quality_indicator": "1",
    "os:region_code": "E12000005",
    "src:geom": "os",
    "wof:belongsto": [
      102191581,
      85633159,
      1360698737,
      136253055,
      1126027181,
      1880762069,
      404227469,
      1880773161,
      1864211675
    ],
    "wof:breaches": [],
    "wof:country": "GB",
    "wof:created": 1736334593,
    "wof:geomhash": "f0746b9889420b7387d346f137016418",
    "wof:hierarchy": [
      {
        "continent_id": 102191581,
        "country_id": 85633159,
        "county_id": 1360698737,
        "empire_id": 136253055,
        "locality_id": 1126027181,
        "macrocounty_id": 1880762069,
        "macroregion_id": 404227469,
        "postalcode_id": 1947762397,
        "region_id": 1880773161
      },
      {
        "continent_id": 102191581,
        "country_id": 85633159,
        "empire_id": 136253055,
        "postalcode_id": 1947762397,
        "postalregion_id": 1864211675
      }
    ],
    "wof:id": 1947762397,
    "wof:lastmodified": 1763547897,
    "wof:name": "WV10 6GT",
    "wof:parent_id": 1126027181,
    "wof:placetype": "postalcode",
    "wof:repo": "whosonfirst-data-postalcode-gb",
    "wof:superseded_by": [],
    "wof:supersedes": [],
    "wof:tags": []
  },
  "bbox": [
    -2.126418,
    52.608789,
    -2.126418,
    52.608789
  ],
  "geometry": {"coordinates":[-2.126418,52.608789],"type":"Point"}
}
