{
  "id": 471120965,
  "type": "Feature",
  "properties": {
    "date:inception_lower": "1980-01-01",
    "date:inception_upper": "1980-01-01",
    "edtf:cessation": "",
    "edtf:inception": "1980-01-01",
    "geom:area": 0,
    "geom:bbox": "-1.175310,53.122300,-1.175310,53.122300",
    "geom:latitude": 53.1223,
    "geom:longitude": -1.17531,
    "iso:country": "GB",
    "mz:hierarchy_label": 1,
    "mz:is_current": 1,
    "os:country_code": "E92000001",
    "os:county_code": "E10000024",
    "os:district_code": "E07000174",
    "os:positional_quality_indicator": "1",
    "os:region_code": "E12000004",
    "src:geom": "os",
    "wof:belongsto": [
      85633159,
      102191581,
      136253055,
      1864209167,
      1880771605,
      101750507,
      1880762077,
      404227469,
      1880762689
    ],
    "wof:breaches": [],
    "wof:concordances": {
      "gp:id": "26449939"
    },
    "wof:country": "GB",
    "wof:created": 1583701316,
    "wof:geomhash": "faaa327bf07391fc869f30261f78e0e8",
    "wof:hierarchy": [
      {
        "continent_id": 102191581,
        "country_id": 85633159,
        "county_id": 1880771605,
        "empire_id": 136253055,
        "locality_id": 101750507,
        "macrocounty_id": 1880762077,
        "macroregion_id": 404227469,
        "postalcode_id": 471120965,
        "region_id": 1880762689
      },
      {
        "continent_id": 102191581,
        "country_id": 85633159,
        "empire_id": 136253055,
        "postalcode_id": 471120965,
        "postalregion_id": 1864209167
      }
    ],
    "wof:id": 471120965,
    "wof:lastmodified": 1763548164,
    "wof:name": "NG18 4QT",
    "wof:parent_id": 101750507,
    "wof:placetype": "postalcode",
    "wof:repo": "whosonfirst-data-postalcode-gb",
    "wof:superseded_by": [],
    "wof:supersedes": [],
    "wof:tags": []
  },
  "bbox": [
    -1.17531,
    53.1223,
    -1.17531,
    53.1223
  ],
  "geometry": {"coordinates":[-1.17531,53.1223],"type":"Point"}
}
