{
  "id": 454694183,
  "type": "Feature",
  "properties": {
    "date:inception_lower": "1980-01-01",
    "date:inception_upper": "1980-01-01",
    "edtf:cessation": "",
    "edtf:inception": "1980-01-01",
    "geom:area": 0,
    "geom:bbox": "-0.747995,51.084610,-0.747995,51.084610",
    "geom:latitude": 51.08461,
    "geom:longitude": -0.747995,
    "gp:parent_id": "22605",
    "iso:country": "GB",
    "mz:hierarchy_label": 1,
    "mz:is_current": 1,
    "os:country_code": "E92000001",
    "os:county_code": "E10000032",
    "os:district_code": "E07000225",
    "os:positional_quality_indicator": "1",
    "os:region_code": "E12000008",
    "src:geom": "os",
    "wof:belongsto": [
      85633159,
      102191581,
      136253055,
      1864207543,
      1880771685,
      404434759,
      1344085433,
      1880762061,
      404227469,
      1880762709
    ],
    "wof:breaches": [],
    "wof:concordances": {
      "gp:id": "27329953"
    },
    "wof:country": "GB",
    "wof:created": 1583701699,
    "wof:geomhash": "76dbc17f5c831f0b7e06a9f74740b0bd",
    "wof:hierarchy": [
      {
        "continent_id": 102191581,
        "country_id": 85633159,
        "county_id": 1880771685,
        "empire_id": 136253055,
        "localadmin_id": 404434759,
        "locality_id": 1344085433,
        "macrocounty_id": 1880762061,
        "macroregion_id": 404227469,
        "postalcode_id": 454694183,
        "region_id": 1880762709
      },
      {
        "continent_id": 102191581,
        "country_id": 85633159,
        "empire_id": 136253055,
        "postalcode_id": 454694183,
        "postalregion_id": 1864207543
      }
    ],
    "wof:id": 454694183,
    "wof:lastmodified": 1763548343,
    "wof:name": "GU27 3QJ",
    "wof:parent_id": 1344085433,
    "wof:placetype": "postalcode",
    "wof:repo": "whosonfirst-data-postalcode-gb",
    "wof:superseded_by": [],
    "wof:supersedes": [],
    "wof:tags": []
  },
  "bbox": [
    -0.747995,
    51.08461,
    -0.747995,
    51.08461
  ],
  "geometry": {"coordinates":[-0.747995,51.08461],"type":"Point"}
}
