{
  "id": 1947768609,
  "type": "Feature",
  "properties": {
    "date:inception_lower": "2024-07-01",
    "date:inception_upper": "2024-07-01",
    "edtf:cessation": "",
    "edtf:inception": "2024-07-01",
    "geom:area": 0,
    "geom:bbox": "-0.065973,52.924625,-0.065973,52.924625",
    "geom:latitude": 52.924625,
    "geom:longitude": -0.065973,
    "iso:country": "GB",
    "mz:hierarchy_label": 1,
    "mz:is_current": 1,
    "os:country_code": "E92000001",
    "os:county_code": "E10000019",
    "os:district_code": "E07000136",
    "os:positional_quality_indicator": "1",
    "os:region_code": "E12000004",
    "src:geom": "os",
    "wof:belongsto": [
      102191581,
      85633159,
      1880771577,
      136253055,
      404438089,
      101874107,
      1880762033,
      404227469,
      1880762701,
      1864209675
    ],
    "wof:breaches": [],
    "wof:country": "GB",
    "wof:created": 1736334903,
    "wof:geomhash": "1debd36b2d8452f5473a400efb1cc2fc",
    "wof:hierarchy": [
      {
        "continent_id": 102191581,
        "country_id": 85633159,
        "county_id": 1880771577,
        "empire_id": 136253055,
        "localadmin_id": 404438089,
        "locality_id": 101874107,
        "macrocounty_id": 1880762033,
        "macroregion_id": 404227469,
        "postalcode_id": 1947768609,
        "region_id": 1880762701
      },
      {
        "continent_id": 102191581,
        "country_id": 85633159,
        "empire_id": 136253055,
        "postalcode_id": 1947768609,
        "postalregion_id": 1864209675
      }
    ],
    "wof:id": 1947768609,
    "wof:lastmodified": 1763547893,
    "wof:name": "PE20 1FG",
    "wof:parent_id": 101874107,
    "wof:placetype": "postalcode",
    "wof:repo": "whosonfirst-data-postalcode-gb",
    "wof:superseded_by": [],
    "wof:supersedes": [],
    "wof:tags": []
  },
  "bbox": [
    -0.065973,
    52.924625,
    -0.065973,
    52.924625
  ],
  "geometry": {"coordinates":[-0.065973,52.924625],"type":"Point"}
}
