{
  "id": 471241455,
  "type": "Feature",
  "properties": {
    "date:inception_lower": "1990-02-01",
    "date:inception_upper": "1990-02-01",
    "edtf:cessation": "",
    "edtf:inception": "1990-02-01",
    "geom:area": 0,
    "geom:bbox": "1.297199,52.664401,1.297199,52.664401",
    "geom:latitude": 52.664401,
    "geom:longitude": 1.297199,
    "iso:country": "GB",
    "mz:hierarchy_label": 1,
    "mz:is_current": 1,
    "os:country_code": "E92000001",
    "os:county_code": "E10000020",
    "os:district_code": "E07000144",
    "os:positional_quality_indicator": "1",
    "os:region_code": "E12000006",
    "src:geom": "os",
    "wof:belongsto": [
      85633159,
      102191581,
      136253055,
      1864209369,
      1880771709,
      404434877,
      1360756457,
      1880762037,
      404227469,
      1880762699
    ],
    "wof:breaches": [],
    "wof:concordances": {
      "gp:id": "27692185"
    },
    "wof:country": "GB",
    "wof:created": 1583701430,
    "wof:geomhash": "6acb8dcc11c774a683ad395ed84f1d35",
    "wof:hierarchy": [
      {
        "continent_id": 102191581,
        "country_id": 85633159,
        "county_id": 1880771709,
        "empire_id": 136253055,
        "localadmin_id": 404434877,
        "locality_id": 1360756457,
        "macrocounty_id": 1880762037,
        "macroregion_id": 404227469,
        "postalcode_id": 471241455,
        "region_id": 1880762699
      },
      {
        "continent_id": 102191581,
        "country_id": 85633159,
        "empire_id": 136253055,
        "postalcode_id": 471241455,
        "postalregion_id": 1864209369
      }
    ],
    "wof:id": 471241455,
    "wof:lastmodified": 1763548269,
    "wof:name": "NR6 7AJ",
    "wof:parent_id": 1360756457,
    "wof:placetype": "postalcode",
    "wof:repo": "whosonfirst-data-postalcode-gb",
    "wof:superseded_by": [],
    "wof:supersedes": [],
    "wof:tags": []
  },
  "bbox": [
    1.297199,
    52.664401,
    1.297199,
    52.664401
  ],
  "geometry": {"coordinates":[1.297199,52.664401],"type":"Point"}
}
