{
  "id": 874478675,
  "type": "Feature",
  "properties": {
    "date:inception_lower": "2011-09-01",
    "date:inception_upper": "2011-09-01",
    "edtf:cessation": "",
    "edtf:inception": "2011-09-01",
    "geom:area": 0,
    "geom:bbox": "-0.911455,52.669407,-0.911455,52.669407",
    "geom:latitude": 52.669407,
    "geom:longitude": -0.911455,
    "iso:country": "GB",
    "mz:hierarchy_label": 1,
    "mz:is_current": 1,
    "os:country_code": "E92000001",
    "os:county_code": "E10000018",
    "os:district_code": "E07000131",
    "os:positional_quality_indicator": "1",
    "os:region_code": "E12000004",
    "src:geom": "os",
    "wof:belongsto": [
      85633159,
      102191581,
      136253055,
      1864208435,
      1880771563,
      404445369,
      1243299065,
      1880762051,
      404227469,
      1880773085
    ],
    "wof:breaches": [],
    "wof:country": "GB",
    "wof:created": 1468887141,
    "wof:geomhash": "5b81f0bdb340b2fd80ee1a2929ede6af",
    "wof:hierarchy": [
      {
        "continent_id": 102191581,
        "country_id": 85633159,
        "county_id": 1880771563,
        "empire_id": 136253055,
        "localadmin_id": 404445369,
        "locality_id": 1243299065,
        "macrocounty_id": 1880762051,
        "macroregion_id": 404227469,
        "postalcode_id": 874478675,
        "region_id": 1880773085
      },
      {
        "continent_id": 102191581,
        "country_id": 85633159,
        "empire_id": 136253055,
        "postalcode_id": 874478675,
        "postalregion_id": 1864208435
      }
    ],
    "wof:id": 874478675,
    "wof:lastmodified": 1763547920,
    "wof:name": "LE7 9LQ",
    "wof:parent_id": 1243299065,
    "wof:placetype": "postalcode",
    "wof:repo": "whosonfirst-data-postalcode-gb",
    "wof:superseded_by": [],
    "wof:supersedes": [],
    "wof:tags": []
  },
  "bbox": [
    -0.911455,
    52.669407,
    -0.911455,
    52.669407
  ],
  "geometry": {"coordinates":[-0.911455,52.669407],"type":"Point"}
}
