{
  "id": 1160902402,
  "type": "Feature",
  "properties": {
    "date:cessation_lower": "1999-12-01",
    "date:cessation_upper": "1999-12-01",
    "date:inception_lower": "1993-01-01",
    "date:inception_upper": "1993-01-01",
    "edtf:cessation": "1999-12-01",
    "edtf:inception": "1993-01-01",
    "geom:area": 0,
    "geom:bbox": "0.586013,51.568344,0.586013,51.568344",
    "geom:latitude": 51.568344,
    "geom:longitude": 0.586013,
    "iso:country": "GB",
    "mz:hierarchy_label": 1,
    "mz:is_current": 0,
    "os:country_code": "E92000001",
    "os:county_code": "E10000012",
    "os:district_code": "E07000069",
    "os:positional_quality_indicator": "6",
    "os:region_code": "E12000006",
    "src:geom": "os",
    "wof:belongsto": [
      85633159,
      102191581,
      136253055,
      1864210771,
      1880771443,
      1310234087,
      1880762159,
      404227469,
      1880762723
    ],
    "wof:breaches": [],
    "wof:country": "GB",
    "wof:created": 1583795095,
    "wof:geomhash": "655d8e70648e7b4e23b9ff8e29803b7d",
    "wof:hierarchy": [
      {
        "continent_id": 102191581,
        "country_id": 85633159,
        "county_id": 1880771443,
        "empire_id": 136253055,
        "locality_id": 1310234087,
        "macrocounty_id": 1880762159,
        "macroregion_id": 404227469,
        "postalcode_id": 1160902402,
        "region_id": 1880762723
      },
      {
        "continent_id": 102191581,
        "country_id": 85633159,
        "empire_id": 136253055,
        "postalcode_id": 1160902402,
        "postalregion_id": 1864210771
      }
    ],
    "wof:id": 1160902402,
    "wof:lastmodified": 1763548275,
    "wof:name": "SS7 3DD",
    "wof:parent_id": 1310234087,
    "wof:placetype": "postalcode",
    "wof:repo": "whosonfirst-data-postalcode-gb",
    "wof:superseded_by": [],
    "wof:supersedes": [],
    "wof:tags": []
  },
  "bbox": [
    0.586013,
    51.568344,
    0.586013,
    51.568344
  ],
  "geometry": {"coordinates":[0.586013,51.568344],"type":"Point"}
}
