{
  "id": 471386759,
  "type": "Feature",
  "properties": {
    "date:inception_lower": "1980-01-01",
    "date:inception_upper": "1980-01-01",
    "edtf:cessation": "",
    "edtf:inception": "1980-01-01",
    "geom:area": 0,
    "geom:bbox": "0.489124,52.908006,0.489124,52.908006",
    "geom:latitude": 52.908006,
    "geom:longitude": 0.489124,
    "gp:parent_id": "22810",
    "iso:country": "GB",
    "mz:hierarchy_label": 1,
    "mz:is_current": 1,
    "os:country_code": "E92000001",
    "os:county_code": "E10000020",
    "os:district_code": "E07000146",
    "os:positional_quality_indicator": "1",
    "os:region_code": "E12000006",
    "src:geom": "os",
    "wof:belongsto": [
      85633159,
      102191581,
      136253055,
      1864209703,
      1880771587,
      404440183,
      1125892163,
      1880762037,
      404227469,
      1880762699
    ],
    "wof:breaches": [],
    "wof:concordances": {
      "gp:id": "27752968"
    },
    "wof:country": "GB",
    "wof:created": 1583701547,
    "wof:geomhash": "5457b7b977e3fc67bb44374d14060111",
    "wof:hierarchy": [
      {
        "continent_id": 102191581,
        "country_id": 85633159,
        "county_id": 1880771587,
        "empire_id": 136253055,
        "localadmin_id": 404440183,
        "locality_id": 1125892163,
        "macrocounty_id": 1880762037,
        "macroregion_id": 404227469,
        "postalcode_id": 471386759,
        "region_id": 1880762699
      },
      {
        "continent_id": 102191581,
        "country_id": 85633159,
        "empire_id": 136253055,
        "postalcode_id": 471386759,
        "postalregion_id": 1864209703
      }
    ],
    "wof:id": 471386759,
    "wof:lastmodified": 1763548428,
    "wof:name": "PE31 7EA",
    "wof:parent_id": 1125892163,
    "wof:placetype": "postalcode",
    "wof:repo": "whosonfirst-data-postalcode-gb",
    "wof:superseded_by": [],
    "wof:supersedes": [],
    "wof:tags": []
  },
  "bbox": [
    0.489124,
    52.908006,
    0.489124,
    52.908006
  ],
  "geometry": {"coordinates":[0.489124,52.908006],"type":"Point"}
}
