{
  "id": 454585019,
  "type": "Feature",
  "properties": {
    "date:inception_lower": "1990-02-01",
    "date:inception_upper": "1990-02-01",
    "edtf:cessation": "",
    "edtf:inception": "1990-02-01",
    "geom:area": 0,
    "geom:bbox": "-4.384580,50.900010,-4.384580,50.900010",
    "geom:latitude": 50.90001,
    "geom:longitude": -4.38458,
    "gp:parent_id": "13585",
    "iso:country": "GB",
    "mz:hierarchy_label": 1,
    "mz:is_current": 1,
    "os:country_code": "E92000001",
    "os:county_code": "E10000008",
    "os:district_code": "E07000046",
    "os:positional_quality_indicator": "1",
    "os:region_code": "E12000009",
    "src:geom": "os",
    "wof:belongsto": [
      85633159,
      102191581,
      136253055,
      1864207209,
      1880771717,
      404440483,
      1125842873,
      1880762149,
      404227469,
      1880762683
    ],
    "wof:breaches": [],
    "wof:concordances": {
      "gp:id": "27258917"
    },
    "wof:country": "GB",
    "wof:created": 1583701651,
    "wof:geomhash": "3ee293fc603c37d742a6ebc4ecee4caf",
    "wof:hierarchy": [
      {
        "continent_id": 102191581,
        "country_id": 85633159,
        "county_id": 1880771717,
        "empire_id": 136253055,
        "localadmin_id": 404440483,
        "locality_id": 1125842873,
        "macrocounty_id": 1880762149,
        "macroregion_id": 404227469,
        "postalcode_id": 454585019,
        "region_id": 1880762683
      },
      {
        "continent_id": 102191581,
        "country_id": 85633159,
        "empire_id": 136253055,
        "postalcode_id": 454585019,
        "postalregion_id": 1864207209
      }
    ],
    "wof:id": 454585019,
    "wof:lastmodified": 1763548537,
    "wof:name": "EX22 7UR",
    "wof:parent_id": 1125842873,
    "wof:placetype": "postalcode",
    "wof:repo": "whosonfirst-data-postalcode-gb",
    "wof:superseded_by": [],
    "wof:supersedes": [],
    "wof:tags": []
  },
  "bbox": [
    -4.38458,
    50.90001,
    -4.38458,
    50.90001
  ],
  "geometry": {"coordinates":[-4.38458,50.90001],"type":"Point"}
}
