{
  "id": 38854224,
  "type": "Feature",
  "properties": {
    "date:cessation_lower": "1995-01-01",
    "date:cessation_upper": "1995-01-01",
    "date:inception_lower": "1986-04-01",
    "date:inception_upper": "1986-04-01",
    "edtf:cessation": "1995-01-01",
    "edtf:inception": "1986-04-01",
    "geom:area": 0,
    "geom:bbox": "-2.541804,51.514969,-2.541804,51.514969",
    "geom:latitude": 51.514969,
    "geom:longitude": -2.541804,
    "iso:country": "GB",
    "mz:hierarchy_label": 1,
    "mz:is_current": 0,
    "os:country_code": "E92000001",
    "os:county_code": "E99999999",
    "os:district_code": "E06000025",
    "os:positional_quality_indicator": "8",
    "os:region_code": "E12000009",
    "src:geom": "os",
    "wof:belongsto": [
      102191581,
      85633159,
      1360698895,
      136253055,
      404438447,
      1126041355,
      1880762161,
      404227469,
      1880762693
    ],
    "wof:breaches": [],
    "wof:country": "GB",
    "wof:created": 1583795022,
    "wof:geomhash": "61856f7a1f9b0f253458d5083151ebc5",
    "wof:hierarchy": [
      {
        "continent_id": 102191581,
        "country_id": 85633159,
        "county_id": 1360698895,
        "empire_id": 136253055,
        "localadmin_id": 404438447,
        "locality_id": 1126041355,
        "macrocounty_id": 1880762161,
        "macroregion_id": 404227469,
        "postalcode_id": 38854224,
        "region_id": 1880762693
      }
    ],
    "wof:id": 38854224,
    "wof:lastmodified": 1763548765,
    "wof:name": "BS12 6UA",
    "wof:parent_id": 1126041355,
    "wof:placetype": "postalcode",
    "wof:repo": "whosonfirst-data-postalcode-gb",
    "wof:superseded_by": [],
    "wof:supersedes": [],
    "wof:tags": []
  },
  "bbox": [
    -2.541804,
    51.514969,
    -2.541804,
    51.514969
  ],
  "geometry": {"coordinates":[-2.541804,51.514969],"type":"Point"}
}
