{
  "id": 471448659,
  "type": "Feature",
  "properties": {
    "date:inception_lower": "1980-01-01",
    "date:inception_upper": "1980-01-01",
    "edtf:cessation": "",
    "edtf:inception": "1980-01-01",
    "geom:area": 0,
    "geom:bbox": "-1.225226,50.839264,-1.225226,50.839264",
    "geom:latitude": 50.839264,
    "geom:longitude": -1.225226,
    "gp:parent_id": "36534",
    "iso:country": "GB",
    "mz:hierarchy_label": 1,
    "mz:is_current": 1,
    "os:country_code": "E92000001",
    "os:county_code": "E10000014",
    "os:district_code": "E07000087",
    "os:positional_quality_indicator": "1",
    "os:region_code": "E12000008",
    "src:geom": "os",
    "wof:belongsto": [
      85633159,
      102191581,
      136253055,
      1864209923,
      1880771475,
      101750353,
      1880762155,
      404227469,
      1880762717
    ],
    "wof:breaches": [],
    "wof:concordances": {
      "gp:id": "27780927"
    },
    "wof:country": "GB",
    "wof:created": 1583701611,
    "wof:geomhash": "d714b509be928ebdb4b14f7205e25611",
    "wof:hierarchy": [
      {
        "continent_id": 102191581,
        "country_id": 85633159,
        "county_id": 1880771475,
        "empire_id": 136253055,
        "locality_id": 101750353,
        "macrocounty_id": 1880762155,
        "macroregion_id": 404227469,
        "postalcode_id": 471448659,
        "region_id": 1880762717
      },
      {
        "continent_id": 102191581,
        "country_id": 85633159,
        "empire_id": 136253055,
        "postalcode_id": 471448659,
        "postalregion_id": 1864209923
      }
    ],
    "wof:id": 471448659,
    "wof:lastmodified": 1763548035,
    "wof:name": "PO14 3EX",
    "wof:parent_id": 101750353,
    "wof:placetype": "postalcode",
    "wof:repo": "whosonfirst-data-postalcode-gb",
    "wof:superseded_by": [],
    "wof:supersedes": [],
    "wof:tags": []
  },
  "bbox": [
    -1.225226,
    50.839264,
    -1.225226,
    50.839264
  ],
  "geometry": {"coordinates":[-1.225226,50.839264],"type":"Point"}
}
