{
  "id": 1160896732,
  "type": "Feature",
  "properties": {
    "date:cessation_lower": "1992-12-01",
    "date:cessation_upper": "1992-12-01",
    "date:inception_lower": "1983-01-01",
    "date:inception_upper": "1983-01-01",
    "edtf:cessation": "1992-12-01",
    "edtf:inception": "1983-01-01",
    "geom:area": 0,
    "geom:bbox": "-2.193279,52.580569,-2.193279,52.580569",
    "geom:latitude": 52.580569,
    "geom:longitude": -2.193279,
    "iso:country": "GB",
    "mz:hierarchy_label": 1,
    "mz:is_current": 0,
    "os:country_code": "E92000001",
    "os:county_code": "E99999999",
    "os:district_code": "E08000031",
    "os:positional_quality_indicator": "8",
    "os:region_code": "E12000005",
    "src:geom": "os",
    "wof:belongsto": [
      85633159,
      102191581,
      136253055,
      1864211693,
      1360698737,
      1126027181,
      1880762069,
      404227469,
      1880773161
    ],
    "wof:breaches": [],
    "wof:country": "GB",
    "wof:created": 1583794825,
    "wof:geomhash": "f97388404bd90982c8c3eb9537e8b0d3",
    "wof:hierarchy": [
      {
        "continent_id": 102191581,
        "country_id": 85633159,
        "county_id": 1360698737,
        "empire_id": 136253055,
        "locality_id": 1126027181,
        "macrocounty_id": 1880762069,
        "macroregion_id": 404227469,
        "postalcode_id": 1160896732,
        "region_id": 1880773161
      },
      {
        "continent_id": 102191581,
        "country_id": 85633159,
        "empire_id": 136253055,
        "postalcode_id": 1160896732,
        "postalregion_id": 1864211693
      }
    ],
    "wof:id": 1160896732,
    "wof:lastmodified": 1763548301,
    "wof:name": "WV3 8JY",
    "wof:parent_id": 1126027181,
    "wof:placetype": "postalcode",
    "wof:repo": "whosonfirst-data-postalcode-gb",
    "wof:superseded_by": [],
    "wof:supersedes": [],
    "wof:tags": []
  },
  "bbox": [
    -2.193279,
    52.580569,
    -2.193279,
    52.580569
  ],
  "geometry": {"coordinates":[-2.193279,52.580569],"type":"Point"}
}
