{
  "id": 1160894194,
  "type": "Feature",
  "properties": {
    "date:cessation_lower": "1992-12-01",
    "date:cessation_upper": "1992-12-01",
    "date:inception_lower": "1980-01-01",
    "date:inception_upper": "1980-01-01",
    "edtf:cessation": "1992-12-01",
    "edtf:inception": "1980-01-01",
    "geom:area": 0,
    "geom:bbox": "-1.382725,53.926858,-1.382725,53.926858",
    "geom:latitude": 53.926858,
    "geom:longitude": -1.382725,
    "iso:country": "GB",
    "mz:hierarchy_label": 1,
    "mz:is_current": 0,
    "os:country_code": "E92000001",
    "os:county_code": "E99999999",
    "os:district_code": "E08000035",
    "os:positional_quality_indicator": "1",
    "os:region_code": "E12000003",
    "src:geom": "os",
    "wof:belongsto": [
      85633159,
      102191581,
      136253055,
      1864208659,
      1360698749,
      404444579,
      101873237,
      1880762059
    ],
    "wof:breaches": [],
    "wof:country": "GB",
    "wof:created": 1583794713,
    "wof:geomhash": "47a2939d4b077cf077d676f76fab55c2",
    "wof:hierarchy": [
      {
        "continent_id": -1,
        "country_id": -1,
        "county_id": 1360698749,
        "localadmin_id": 404444579,
        "locality_id": 101873237,
        "macrocounty_id": 1880762059,
        "postalcode_id": 1160894194,
        "region_id": -1
      },
      {
        "continent_id": 102191581,
        "country_id": 85633159,
        "empire_id": 136253055,
        "postalcode_id": 1160894194,
        "postalregion_id": 1864208659
      }
    ],
    "wof:id": 1160894194,
    "wof:lastmodified": 1763548304,
    "wof:name": "LS22 4RQ",
    "wof:parent_id": 101873237,
    "wof:placetype": "postalcode",
    "wof:repo": "whosonfirst-data-postalcode-gb",
    "wof:superseded_by": [],
    "wof:supersedes": [],
    "wof:tags": []
  },
  "bbox": [
    -1.382725,
    53.926858,
    -1.382725,
    53.926858
  ],
  "geometry": {"coordinates":[-1.382725,53.926858],"type":"Point"}
}
