{
  "id": 38790540,
  "type": "Feature",
  "properties": {
    "date:cessation_lower": "1995-02-01",
    "date:cessation_upper": "1995-02-01",
    "date:inception_lower": "1993-05-01",
    "date:inception_upper": "1993-05-01",
    "edtf:cessation": "1995-02-01",
    "edtf:inception": "1993-05-01",
    "geom:area": 0,
    "geom:bbox": "-3.460031,56.067897,-3.460031,56.067897",
    "geom:latitude": 56.067897,
    "geom:longitude": -3.460031,
    "iso:country": "GB",
    "mz:hierarchy_label": 1,
    "mz:is_current": 0,
    "os:country_code": "S92000003",
    "os:county_code": "S99999999",
    "os:district_code": "S12000047",
    "os:positional_quality_indicator": "8",
    "os:region_code": "S99999999",
    "src:geom": "os",
    "wof:belongsto": [
      85633159,
      102191581,
      136253055,
      1864208181,
      1360699123,
      101750637,
      1880762125,
      404227471,
      1880773203
    ],
    "wof:breaches": [],
    "wof:country": "GB",
    "wof:created": 1583794303,
    "wof:geomhash": "a4c933014c203ea4b5a1871bcf7ed021",
    "wof:hierarchy": [
      {
        "continent_id": 102191581,
        "country_id": 85633159,
        "county_id": 1360699123,
        "empire_id": 136253055,
        "locality_id": 101750637,
        "macrocounty_id": 1880762125,
        "macroregion_id": 404227471,
        "postalcode_id": 38790540,
        "region_id": 1880773203
      },
      {
        "continent_id": 102191581,
        "country_id": 85633159,
        "empire_id": 136253055,
        "postalcode_id": 38790540,
        "postalregion_id": 1864208181
      }
    ],
    "wof:id": 38790540,
    "wof:lastmodified": 1763548629,
    "wof:name": "KY12 7EN",
    "wof:parent_id": 101750637,
    "wof:placetype": "postalcode",
    "wof:repo": "whosonfirst-data-postalcode-gb",
    "wof:superseded_by": [],
    "wof:supersedes": [],
    "wof:tags": []
  },
  "bbox": [
    -3.460031,
    56.067897,
    -3.460031,
    56.067897
  ],
  "geometry": {"coordinates":[-3.460031,56.067897],"type":"Point"}
}
