{
  "id": 487783241,
  "type": "Feature",
  "properties": {
    "date:inception_lower": "1983-07-01",
    "date:inception_upper": "1983-07-01",
    "edtf:cessation": "",
    "edtf:inception": "1983-07-01",
    "geom:area": 0,
    "geom:bbox": "-2.806214,52.711005,-2.806214,52.711005",
    "geom:latitude": 52.711005,
    "geom:longitude": -2.806214,
    "gp:parent_id": "34757",
    "iso:country": "GB",
    "mz:hierarchy_label": 1,
    "mz:is_current": 1,
    "os:country_code": "E92000001",
    "os:county_code": "E99999999",
    "os:district_code": "E06000051",
    "os:positional_quality_indicator": "1",
    "os:region_code": "E12000005",
    "src:geom": "os",
    "wof:belongsto": [
      85633159,
      102191581,
      136253055,
      1864210933,
      1360698821,
      404448965,
      101750493,
      1880762073,
      404227469,
      1880772941
    ],
    "wof:breaches": [],
    "wof:concordances": {
      "gp:id": "28022328"
    },
    "wof:country": "GB",
    "wof:created": 1583701165,
    "wof:geomhash": "f6824a3a5ef5f779decd6c8f997930ac",
    "wof:hierarchy": [
      {
        "continent_id": 102191581,
        "country_id": 85633159,
        "county_id": 1360698821,
        "empire_id": 136253055,
        "localadmin_id": 404448965,
        "locality_id": 101750493,
        "macrocounty_id": 1880762073,
        "macroregion_id": 404227469,
        "postalcode_id": 487783241,
        "region_id": 1880772941
      },
      {
        "continent_id": 102191581,
        "country_id": 85633159,
        "empire_id": 136253055,
        "postalcode_id": 487783241,
        "postalregion_id": 1864210933
      }
    ],
    "wof:id": 487783241,
    "wof:lastmodified": 1763548693,
    "wof:name": "SY3 5ES",
    "wof:parent_id": 101750493,
    "wof:placetype": "postalcode",
    "wof:repo": "whosonfirst-data-postalcode-gb",
    "wof:superseded_by": [],
    "wof:supersedes": [],
    "wof:tags": []
  },
  "bbox": [
    -2.806214,
    52.711005,
    -2.806214,
    52.711005
  ],
  "geometry": {"coordinates":[-2.806214,52.711005],"type":"Point"}
}
