{
  "id": 504515755,
  "type": "Feature",
  "properties": {
    "date:inception_lower": "1980-01-01",
    "date:inception_upper": "1980-01-01",
    "edtf:cessation": "",
    "edtf:inception": "1980-01-01",
    "geom:area": 0,
    "geom:bbox": "-4.481572,53.396427,-4.481572,53.396427",
    "geom:latitude": 53.396427,
    "geom:longitude": -4.481572,
    "gp:parent_id": "12696117",
    "iso:country": "GB",
    "mz:hierarchy_label": 1,
    "mz:is_current": 1,
    "os:country_code": "W92000004",
    "os:county_code": "W99999999",
    "os:district_code": "W06000001",
    "os:positional_quality_indicator": "1",
    "os:region_code": "W99999999",
    "src:geom": "os",
    "wof:belongsto": [
      85633159,
      102191581,
      136253055,
      1864208573,
      1360698787,
      404439641,
      1360711901,
      1880762187,
      404227475,
      1880773051
    ],
    "wof:breaches": [],
    "wof:concordances": {
      "gp:id": "27502863"
    },
    "wof:country": "GB",
    "wof:created": 1583701396,
    "wof:geomhash": "953a8ef6c7695b88fcd1405de4a14cee",
    "wof:hierarchy": [
      {
        "continent_id": 102191581,
        "country_id": 85633159,
        "county_id": 1360698787,
        "empire_id": 136253055,
        "localadmin_id": 404439641,
        "locality_id": 1360711901,
        "macrocounty_id": 1880762187,
        "macroregion_id": 404227475,
        "postalcode_id": 504515755,
        "region_id": 1880773051
      },
      {
        "continent_id": 102191581,
        "country_id": 85633159,
        "empire_id": 136253055,
        "postalcode_id": 504515755,
        "postalregion_id": 1864208573
      }
    ],
    "wof:id": 504515755,
    "wof:lastmodified": 1763548194,
    "wof:name": "LL68 0UG",
    "wof:parent_id": 1360711901,
    "wof:placetype": "postalcode",
    "wof:repo": "whosonfirst-data-postalcode-gb",
    "wof:superseded_by": [],
    "wof:supersedes": [],
    "wof:tags": []
  },
  "bbox": [
    -4.481572,
    53.396427,
    -4.481572,
    53.396427
  ],
  "geometry": {"coordinates":[-4.481572,53.396427],"type":"Point"}
}
