{
  "id": 1998347131,
  "type": "Feature",
  "properties": {
    "date:inception_lower": "2025-06-01",
    "date:inception_upper": "2025-06-01",
    "edtf:cessation": "",
    "edtf:inception": "2025-06-01",
    "geom:area": 0,
    "geom:bbox": "-2.234327,53.490834,-2.234327,53.490834",
    "geom:latitude": 53.490834,
    "geom:longitude": -2.234327,
    "iso:country": "GB",
    "mz:hierarchy_label": 1,
    "mz:is_current": 1,
    "os:country_code": "E92000001",
    "os:county_code": "E99999999",
    "os:district_code": "E08000003",
    "os:positional_quality_indicator": "1",
    "os:region_code": "E12000002",
    "src:geom": "os",
    "wof:belongsto": [
      102191581,
      85633159,
      1360698893,
      136253055,
      101750525,
      1880762163,
      404227469,
      1880773095,
      1864208779
    ],
    "wof:breaches": [],
    "wof:country": "GB",
    "wof:created": 1763549154,
    "wof:geomhash": "27517982b792c503d58350b779792a43",
    "wof:hierarchy": [
      {
        "continent_id": 102191581,
        "country_id": 85633159,
        "county_id": 1360698893,
        "empire_id": 136253055,
        "locality_id": 101750525,
        "macrocounty_id": 1880762163,
        "macroregion_id": 404227469,
        "postalcode_id": 1998347131,
        "region_id": 1880773095
      },
      {
        "continent_id": 102191581,
        "country_id": 85633159,
        "empire_id": 136253055,
        "postalcode_id": 1998347131,
        "postalregion_id": 1864208779
      }
    ],
    "wof:id": 1998347131,
    "wof:lastmodified": 1763549154,
    "wof:name": "M4 4HX",
    "wof:parent_id": 101750525,
    "wof:placetype": "postalcode",
    "wof:repo": "whosonfirst-data-postalcode-gb",
    "wof:superseded_by": [],
    "wof:supersedes": [],
    "wof:tags": []
  },
  "bbox": [
    -2.234327,
    53.490834,
    -2.234327,
    53.490834
  ],
  "geometry": {"coordinates":[-2.234327,53.490834],"type":"Point"}
}
