{
  "id": 504617657,
  "type": "Feature",
  "properties": {
    "date:inception_lower": "1980-01-01",
    "date:inception_upper": "1980-01-01",
    "edtf:cessation": "",
    "edtf:inception": "1980-01-01",
    "geom:area": 0,
    "geom:bbox": "-3.448728,52.677634,-3.448728,52.677634",
    "geom:latitude": 52.677634,
    "geom:longitude": -3.448728,
    "gp:parent_id": "26888",
    "iso:country": "GB",
    "mz:hierarchy_label": 1,
    "mz:is_current": 1,
    "os:country_code": "W92000004",
    "os:county_code": "W99999999",
    "os:district_code": "W06000023",
    "os:positional_quality_indicator": "1",
    "os:region_code": "W99999999",
    "src:geom": "os",
    "wof:belongsto": [
      85633159,
      102191581,
      136253055,
      1864210921,
      1360698985,
      404432389,
      1360020791,
      1880762123,
      404227475,
      1880773075
    ],
    "wof:breaches": [],
    "wof:concordances": {
      "gp:id": "28019581"
    },
    "wof:country": "GB",
    "wof:created": 1583701491,
    "wof:geomhash": "ab7a608b157aec306d21b8ab8aa8927b",
    "wof:hierarchy": [
      {
        "continent_id": 102191581,
        "country_id": 85633159,
        "county_id": 1360698985,
        "empire_id": 136253055,
        "localadmin_id": 404432389,
        "locality_id": 1360020791,
        "macrocounty_id": 1880762123,
        "macroregion_id": 404227475,
        "postalcode_id": 504617657,
        "region_id": 1880773075
      },
      {
        "continent_id": 102191581,
        "country_id": 85633159,
        "empire_id": 136253055,
        "postalcode_id": 504617657,
        "postalregion_id": 1864210921
      }
    ],
    "wof:id": 504617657,
    "wof:lastmodified": 1763547947,
    "wof:name": "SY21 0ER",
    "wof:parent_id": 1360020791,
    "wof:placetype": "postalcode",
    "wof:repo": "whosonfirst-data-postalcode-gb",
    "wof:superseded_by": [],
    "wof:supersedes": [],
    "wof:tags": []
  },
  "bbox": [
    -3.448728,
    52.677634,
    -3.448728,
    52.677634
  ],
  "geometry": {"coordinates":[-3.448728,52.677634],"type":"Point"}
}
