{
  "id": 38692431,
  "type": "Feature",
  "properties": {
    "date:cessation_lower": "1999-12-01",
    "date:cessation_upper": "1999-12-01",
    "date:inception_lower": "1998-06-01",
    "date:inception_upper": "1998-06-01",
    "edtf:cessation": "1999-12-01",
    "edtf:inception": "1998-06-01",
    "geom:area": 0,
    "geom:bbox": "0.261465,51.131696,0.261465,51.131696",
    "geom:latitude": 51.131696,
    "geom:longitude": 0.261465,
    "iso:country": "GB",
    "mz:hierarchy_label": 1,
    "mz:is_current": 0,
    "os:country_code": "E92000001",
    "os:county_code": "E10000016",
    "os:district_code": "E07000116",
    "os:positional_quality_indicator": "1",
    "os:region_code": "E12000008",
    "src:geom": "os",
    "wof:belongsto": [
      85633159,
      102191581,
      136253055,
      1864211065,
      1880771503,
      101750343,
      1880762057,
      404227469,
      1880762705
    ],
    "wof:breaches": [],
    "wof:country": "GB",
    "wof:created": 1583793258,
    "wof:geomhash": "cde24d19bc956bcf67f58869cd6ee6a8",
    "wof:hierarchy": [
      {
        "continent_id": 102191581,
        "country_id": 85633159,
        "county_id": 1880771503,
        "empire_id": 136253055,
        "locality_id": 101750343,
        "macrocounty_id": 1880762057,
        "macroregion_id": 404227469,
        "postalcode_id": 38692431,
        "region_id": 1880762705
      },
      {
        "continent_id": 102191581,
        "country_id": 85633159,
        "empire_id": 136253055,
        "postalcode_id": 38692431,
        "postalregion_id": 1864211065
      }
    ],
    "wof:id": 38692431,
    "wof:lastmodified": 1763548648,
    "wof:name": "TN1 1RF",
    "wof:parent_id": 101750343,
    "wof:placetype": "postalcode",
    "wof:repo": "whosonfirst-data-postalcode-gb",
    "wof:superseded_by": [],
    "wof:supersedes": [],
    "wof:tags": []
  },
  "bbox": [
    0.261465,
    51.131696,
    0.261465,
    51.131696
  ],
  "geometry": {"coordinates":[0.261465,51.131696],"type":"Point"}
}
