{
  "id": 454306503,
  "type": "Feature",
  "properties": {
    "date:inception_lower": "1980-01-01",
    "date:inception_upper": "1980-01-01",
    "edtf:cessation": "",
    "edtf:inception": "1980-01-01",
    "geom:area": 0,
    "geom:bbox": "-2.498828,53.286680,-2.498828,53.286680",
    "geom:latitude": 53.28668,
    "geom:longitude": -2.498828,
    "gp:parent_id": "28436",
    "iso:country": "GB",
    "mz:hierarchy_label": 1,
    "mz:is_current": 1,
    "os:country_code": "E92000001",
    "os:county_code": "E99999999",
    "os:district_code": "E06000050",
    "os:positional_quality_indicator": "1",
    "os:region_code": "E12000002",
    "src:geom": "os",
    "wof:belongsto": [
      85633159,
      102191581,
      136253055,
      1864206569,
      1360698923,
      404430123,
      1210045361,
      1880762135,
      404227469,
      1880773021
    ],
    "wof:breaches": [],
    "wof:concordances": {
      "gp:id": "27126247"
    },
    "wof:country": "GB",
    "wof:created": 1583701468,
    "wof:geomhash": "ddd72cdf4ba7fe1361a772633e003e27",
    "wof:hierarchy": [
      {
        "continent_id": 102191581,
        "country_id": 85633159,
        "county_id": 1360698923,
        "empire_id": 136253055,
        "localadmin_id": 404430123,
        "locality_id": 1210045361,
        "macrocounty_id": 1880762135,
        "macroregion_id": 404227469,
        "postalcode_id": 454306503,
        "region_id": 1880773021
      },
      {
        "continent_id": 102191581,
        "country_id": 85633159,
        "empire_id": 136253055,
        "postalcode_id": 454306503,
        "postalregion_id": 1864206569
      }
    ],
    "wof:id": 454306503,
    "wof:lastmodified": 1763548224,
    "wof:name": "CW9 6DT",
    "wof:parent_id": 1210045361,
    "wof:placetype": "postalcode",
    "wof:repo": "whosonfirst-data-postalcode-gb",
    "wof:superseded_by": [],
    "wof:supersedes": [],
    "wof:tags": []
  },
  "bbox": [
    -2.498828,
    53.28668,
    -2.498828,
    53.28668
  ],
  "geometry": {"coordinates":[-2.498828,53.28668],"type":"Point"}
}
