{
  "id": 1160727028,
  "type": "Feature",
  "properties": {
    "date:cessation_lower": "1991-12-01",
    "date:cessation_upper": "1991-12-01",
    "date:inception_lower": "1990-07-01",
    "date:inception_upper": "1990-07-01",
    "edtf:cessation": "1991-12-01",
    "edtf:inception": "1990-07-01",
    "geom:area": 0,
    "geom:bbox": "-1.167805,52.958976,-1.167805,52.958976",
    "geom:latitude": 52.958976,
    "geom:longitude": -1.167805,
    "iso:country": "GB",
    "mz:hierarchy_label": 1,
    "mz:is_current": 0,
    "os:country_code": "E92000001",
    "os:county_code": "E99999999",
    "os:district_code": "E06000018",
    "os:positional_quality_indicator": "8",
    "os:region_code": "E12000004",
    "src:geom": "os",
    "wof:belongsto": [
      85633159,
      102191581,
      136253055,
      1864209205,
      1360698801,
      1175612705,
      1880762077,
      404227469,
      1880762689
    ],
    "wof:breaches": [],
    "wof:country": "GB",
    "wof:created": 1583787252,
    "wof:geomhash": "a5d11a456d220707d1e4487ac01ec205",
    "wof:hierarchy": [
      {
        "continent_id": 102191581,
        "country_id": 85633159,
        "county_id": 1360698801,
        "empire_id": 136253055,
        "locality_id": 1175612705,
        "macrocounty_id": 1880762077,
        "macroregion_id": 404227469,
        "postalcode_id": 1160727028,
        "region_id": 1880762689
      },
      {
        "continent_id": 102191581,
        "country_id": 85633159,
        "empire_id": 136253055,
        "postalcode_id": 1160727028,
        "postalregion_id": 1864209205
      }
    ],
    "wof:id": 1160727028,
    "wof:lastmodified": 1763548329,
    "wof:name": "NG7 3NP",
    "wof:parent_id": 1175612705,
    "wof:placetype": "postalcode",
    "wof:repo": "whosonfirst-data-postalcode-gb",
    "wof:superseded_by": [],
    "wof:supersedes": [],
    "wof:tags": []
  },
  "bbox": [
    -1.167805,
    52.958976,
    -1.167805,
    52.958976
  ],
  "geometry": {"coordinates":[-1.167805,52.958976],"type":"Point"}
}
