{
  "id": 471426295,
  "type": "Feature",
  "properties": {
    "date:inception_lower": "1993-01-01",
    "date:inception_upper": "1993-01-01",
    "edtf:cessation": "",
    "edtf:inception": "1993-01-01",
    "geom:area": 0,
    "geom:bbox": "-4.779450,50.545975,-4.779450,50.545975",
    "geom:latitude": 50.545975,
    "geom:longitude": -4.77945,
    "gp:parent_id": "35688",
    "iso:country": "GB",
    "mz:hierarchy_label": 1,
    "mz:is_current": 1,
    "os:country_code": "E92000001",
    "os:county_code": "E99999999",
    "os:district_code": "E06000052",
    "os:positional_quality_indicator": "1",
    "os:region_code": "E12000009",
    "src:geom": "os",
    "wof:belongsto": [
      85633159,
      102191581,
      136253055,
      1864209883,
      1360699085,
      404434709,
      1125930023,
      1880762119,
      404227469,
      1880773165
    ],
    "wof:breaches": [],
    "wof:concordances": {
      "gp:id": "27773067"
    },
    "wof:country": "GB",
    "wof:created": 1583701593,
    "wof:geomhash": "18f69950699d2b8effd21c82d87ff087",
    "wof:hierarchy": [
      {
        "continent_id": 102191581,
        "country_id": 85633159,
        "county_id": 1360699085,
        "empire_id": 136253055,
        "localadmin_id": 404434709,
        "locality_id": 1125930023,
        "macrocounty_id": 1880762119,
        "macroregion_id": 404227469,
        "postalcode_id": 471426295,
        "region_id": 1880773165
      },
      {
        "continent_id": 102191581,
        "country_id": 85633159,
        "empire_id": 136253055,
        "postalcode_id": 471426295,
        "postalregion_id": 1864209883
      }
    ],
    "wof:id": 471426295,
    "wof:lastmodified": 1763548262,
    "wof:name": "PL30 3BT",
    "wof:parent_id": 1125930023,
    "wof:placetype": "postalcode",
    "wof:repo": "whosonfirst-data-postalcode-gb",
    "wof:superseded_by": [],
    "wof:supersedes": [],
    "wof:tags": []
  },
  "bbox": [
    -4.77945,
    50.545975,
    -4.77945,
    50.545975
  ],
  "geometry": {"coordinates":[-4.77945,50.545975],"type":"Point"}
}
