{
  "id": 471656297,
  "type": "Feature",
  "properties": {
    "date:inception_lower": "1980-01-01",
    "date:inception_upper": "1980-01-01",
    "edtf:cessation": "",
    "edtf:inception": "1980-01-01",
    "geom:area": 0,
    "geom:bbox": "-1.425491,53.170073,-1.425491,53.170073",
    "geom:latitude": 53.170073,
    "geom:longitude": -1.425491,
    "gp:parent_id": "16210",
    "iso:country": "GB",
    "mz:hierarchy_label": 1,
    "mz:is_current": 1,
    "os:country_code": "E92000001",
    "os:county_code": "E10000007",
    "os:district_code": "E07000038",
    "os:positional_quality_indicator": "1",
    "os:region_code": "E12000004",
    "src:geom": "os",
    "wof:belongsto": [
      85633159,
      102191581,
      136253055,
      1864210227,
      1880771383,
      404438603,
      1125962789,
      1880762133,
      404227469,
      1880762707
    ],
    "wof:breaches": [],
    "wof:concordances": {
      "gp:id": "27854783"
    },
    "wof:country": "GB",
    "wof:created": 1583701677,
    "wof:geomhash": "1244bb5e0db6b54f9be02e46d35bf9c4",
    "wof:hierarchy": [
      {
        "continent_id": 102191581,
        "country_id": 85633159,
        "county_id": 1880771383,
        "empire_id": 136253055,
        "localadmin_id": 404438603,
        "locality_id": 1125962789,
        "macrocounty_id": 1880762133,
        "macroregion_id": 404227469,
        "postalcode_id": 471656297,
        "region_id": 1880762707
      },
      {
        "continent_id": 102191581,
        "country_id": 85633159,
        "empire_id": 136253055,
        "postalcode_id": 471656297,
        "postalregion_id": 1864210227
      }
    ],
    "wof:id": 471656297,
    "wof:lastmodified": 1763548099,
    "wof:name": "S45 9PW",
    "wof:parent_id": 1125962789,
    "wof:placetype": "postalcode",
    "wof:repo": "whosonfirst-data-postalcode-gb",
    "wof:superseded_by": [],
    "wof:supersedes": [],
    "wof:tags": []
  },
  "bbox": [
    -1.425491,
    53.170073,
    -1.425491,
    53.170073
  ],
  "geometry": {"coordinates":[-1.425491,53.170073],"type":"Point"}
}
