{
  "id": 470939243,
  "type": "Feature",
  "properties": {
    "date:inception_lower": "1990-02-01",
    "date:inception_upper": "1990-02-01",
    "edtf:cessation": "",
    "edtf:inception": "1990-02-01",
    "geom:area": 0,
    "geom:bbox": "0.568421,51.258366,0.568421,51.258366",
    "geom:latitude": 51.258366,
    "geom:longitude": 0.568421,
    "gp:parent_id": "18422",
    "iso:country": "GB",
    "mz:hierarchy_label": 1,
    "mz:is_current": 1,
    "os:country_code": "E92000001",
    "os:county_code": "E10000016",
    "os:district_code": "E07000110",
    "os:positional_quality_indicator": "1",
    "os:region_code": "E12000008",
    "src:geom": "os",
    "wof:belongsto": [
      85633159,
      102191581,
      136253055,
      1864208831,
      1880771521,
      404430709,
      1125864735,
      1880762057,
      404227469,
      1880762705
    ],
    "wof:breaches": [],
    "wof:concordances": {
      "gp:id": "26525668"
    },
    "wof:country": "GB",
    "wof:created": 1583701318,
    "wof:geomhash": "b747185796ebbf5144070ff5d3f242ea",
    "wof:hierarchy": [
      {
        "continent_id": 102191581,
        "country_id": 85633159,
        "county_id": 1880771521,
        "empire_id": 136253055,
        "localadmin_id": 404430709,
        "locality_id": 1125864735,
        "macrocounty_id": 1880762057,
        "macroregion_id": 404227469,
        "postalcode_id": 470939243,
        "region_id": 1880762705
      },
      {
        "continent_id": 102191581,
        "country_id": 85633159,
        "empire_id": 136253055,
        "postalcode_id": 470939243,
        "postalregion_id": 1864208831
      }
    ],
    "wof:id": 470939243,
    "wof:lastmodified": 1763547924,
    "wof:name": "ME15 8XN",
    "wof:parent_id": 1125864735,
    "wof:placetype": "postalcode",
    "wof:repo": "whosonfirst-data-postalcode-gb",
    "wof:superseded_by": [],
    "wof:supersedes": [],
    "wof:tags": []
  },
  "bbox": [
    0.568421,
    51.258366,
    0.568421,
    51.258366
  ],
  "geometry": {"coordinates":[0.568421,51.258366],"type":"Point"}
}
