{
  "id": 504752403,
  "type": "Feature",
  "properties": {
    "date:inception_lower": "2006-05-01",
    "date:inception_upper": "2006-05-01",
    "edtf:cessation": "",
    "edtf:inception": "2006-05-01",
    "geom:area": 0,
    "geom:bbox": "-2.885127,55.911234,-2.885127,55.911234",
    "geom:latitude": 55.911234,
    "geom:longitude": -2.885127,
    "gp:parent_id": "12696193",
    "iso:country": "GB",
    "mz:hierarchy_label": 1,
    "mz:is_current": 1,
    "os:country_code": "S92000003",
    "os:county_code": "S99999999",
    "os:district_code": "S12000010",
    "os:positional_quality_indicator": "1",
    "os:region_code": "S99999999",
    "src:geom": "os",
    "wof:belongsto": [
      85633159,
      102191581,
      136253055,
      1864207087,
      1360699017,
      1880762091,
      404227471,
      1880773107
    ],
    "wof:breaches": [],
    "wof:concordances": {
      "gp:id": "28969482"
    },
    "wof:country": "GB",
    "wof:created": 1583701547,
    "wof:geomhash": "c16e354ba19855b95c564cfac03f4c99",
    "wof:hierarchy": [
      {
        "continent_id": 102191581,
        "country_id": 85633159,
        "county_id": 1360699017,
        "empire_id": 136253055,
        "macrocounty_id": 1880762091,
        "macroregion_id": 404227471,
        "postalcode_id": 504752403,
        "region_id": 1880773107
      },
      {
        "continent_id": 102191581,
        "country_id": 85633159,
        "empire_id": 136253055,
        "postalcode_id": 504752403,
        "postalregion_id": 1864207087
      }
    ],
    "wof:id": 504752403,
    "wof:lastmodified": 1763547899,
    "wof:name": "EH34 5BY",
    "wof:parent_id": 1360699017,
    "wof:placetype": "postalcode",
    "wof:repo": "whosonfirst-data-postalcode-gb",
    "wof:superseded_by": [],
    "wof:supersedes": [],
    "wof:tags": []
  },
  "bbox": [
    -2.885127,
    55.911234,
    -2.885127,
    55.911234
  ],
  "geometry": {"coordinates":[-2.885127,55.911234],"type":"Point"}
}
