{
  "id": 487774345,
  "type": "Feature",
  "properties": {
    "date:inception_lower": "1993-01-01",
    "date:inception_upper": "1993-01-01",
    "edtf:cessation": "",
    "edtf:inception": "1993-01-01",
    "geom:area": 0,
    "geom:bbox": "-2.750392,52.725531,-2.750392,52.725531",
    "geom:latitude": 52.725531,
    "geom:longitude": -2.750392,
    "gp:parent_id": "34757",
    "iso:country": "GB",
    "mz:hierarchy_label": 1,
    "mz:is_current": 1,
    "os:country_code": "E92000001",
    "os:county_code": "E99999999",
    "os:district_code": "E06000051",
    "os:positional_quality_indicator": "1",
    "os:region_code": "E12000005",
    "src:geom": "os",
    "wof:belongsto": [
      85633159,
      102191581,
      136253055,
      1864210893,
      1360698821,
      404448965,
      101750493,
      1880762073,
      404227469,
      1880772941
    ],
    "wof:breaches": [],
    "wof:concordances": {
      "gp:id": "28014117"
    },
    "wof:country": "GB",
    "wof:created": 1583701160,
    "wof:geomhash": "185f8ade951900df827c3aea64fd1a6a",
    "wof:hierarchy": [
      {
        "continent_id": 102191581,
        "country_id": 85633159,
        "county_id": 1360698821,
        "empire_id": 136253055,
        "localadmin_id": 404448965,
        "locality_id": 101750493,
        "macrocounty_id": 1880762073,
        "macroregion_id": 404227469,
        "postalcode_id": 487774345,
        "region_id": 1880772941
      },
      {
        "continent_id": 102191581,
        "country_id": 85633159,
        "empire_id": 136253055,
        "postalcode_id": 487774345,
        "postalregion_id": 1864210893
      }
    ],
    "wof:id": 487774345,
    "wof:lastmodified": 1763548764,
    "wof:name": "SY1 3XP",
    "wof:parent_id": 101750493,
    "wof:placetype": "postalcode",
    "wof:repo": "whosonfirst-data-postalcode-gb",
    "wof:superseded_by": [],
    "wof:supersedes": [],
    "wof:tags": []
  },
  "bbox": [
    -2.750392,
    52.725531,
    -2.750392,
    52.725531
  ],
  "geometry": {"coordinates":[-2.750392,52.725531],"type":"Point"}
}
