{
  "id": 1998343357,
  "type": "Feature",
  "properties": {
    "date:inception_lower": "2025-02-01",
    "date:inception_upper": "2025-02-01",
    "edtf:cessation": "",
    "edtf:inception": "2025-02-01",
    "geom:area": 0,
    "geom:bbox": "-2.097655,53.523329,-2.097655,53.523329",
    "geom:latitude": 53.523329,
    "geom:longitude": -2.097655,
    "iso:country": "GB",
    "mz:hierarchy_label": 1,
    "mz:is_current": 1,
    "os:country_code": "E92000001",
    "os:county_code": "E99999999",
    "os:district_code": "E08000004",
    "os:positional_quality_indicator": "1",
    "os:region_code": "E12000002",
    "src:geom": "os",
    "wof:belongsto": [
      102191581,
      85633159,
      1360698953,
      136253055,
      1126030435,
      1880762163,
      404227469,
      1880773095,
      1864209439
    ],
    "wof:breaches": [],
    "wof:country": "GB",
    "wof:created": 1763548986,
    "wof:geomhash": "82702aeeb025c63b3fca0d5323ff0644",
    "wof:hierarchy": [
      {
        "continent_id": 102191581,
        "country_id": 85633159,
        "county_id": 1360698953,
        "empire_id": 136253055,
        "locality_id": 1126030435,
        "macrocounty_id": 1880762163,
        "macroregion_id": 404227469,
        "postalcode_id": 1998343357,
        "region_id": 1880773095
      },
      {
        "continent_id": 102191581,
        "country_id": 85633159,
        "empire_id": 136253055,
        "postalcode_id": 1998343357,
        "postalregion_id": 1864209439
      }
    ],
    "wof:id": 1998343357,
    "wof:lastmodified": 1763548986,
    "wof:name": "OL8 2FP",
    "wof:parent_id": 1126030435,
    "wof:placetype": "postalcode",
    "wof:repo": "whosonfirst-data-postalcode-gb",
    "wof:superseded_by": [],
    "wof:supersedes": [],
    "wof:tags": []
  },
  "bbox": [
    -2.097655,
    53.523329,
    -2.097655,
    53.523329
  ],
  "geometry": {"coordinates":[-2.097655,53.523329],"type":"Point"}
}
