{
  "id": 1998338533,
  "type": "Feature",
  "properties": {
    "date:inception_lower": "2025-03-01",
    "date:inception_upper": "2025-03-01",
    "edtf:cessation": "",
    "edtf:inception": "2025-03-01",
    "geom:area": 0,
    "geom:bbox": "-3.314719,55.944505,-3.314719,55.944505",
    "geom:latitude": 55.944505,
    "geom:longitude": -3.314719,
    "iso:country": "GB",
    "mz:hierarchy_label": 1,
    "mz:is_current": 1,
    "os:country_code": "S92000003",
    "os:county_code": "S99999999",
    "os:district_code": "S12000036",
    "os:positional_quality_indicator": "1",
    "os:region_code": "S99999999",
    "src:geom": "os",
    "wof:belongsto": [
      102191581,
      85633159,
      1360698761,
      136253055,
      101750629,
      1880762089,
      404227471,
      1880772893,
      1864207033
    ],
    "wof:breaches": [],
    "wof:country": "GB",
    "wof:created": 1763548771,
    "wof:geomhash": "58c70b03d5c31febbdd6f555c25ec401",
    "wof:hierarchy": [
      {
        "continent_id": 102191581,
        "country_id": 85633159,
        "county_id": 1360698761,
        "empire_id": 136253055,
        "locality_id": 101750629,
        "macrocounty_id": 1880762089,
        "macroregion_id": 404227471,
        "postalcode_id": 1998338533,
        "region_id": 1880772893
      },
      {
        "continent_id": 102191581,
        "country_id": 85633159,
        "empire_id": 136253055,
        "postalcode_id": 1998338533,
        "postalregion_id": 1864207033
      }
    ],
    "wof:id": 1998338533,
    "wof:lastmodified": 1763548771,
    "wof:name": "EH12 8FN",
    "wof:parent_id": 101750629,
    "wof:placetype": "postalcode",
    "wof:repo": "whosonfirst-data-postalcode-gb",
    "wof:superseded_by": [],
    "wof:supersedes": [],
    "wof:tags": []
  },
  "bbox": [
    -3.314719,
    55.944505,
    -3.314719,
    55.944505
  ],
  "geometry": {"coordinates":[-3.314719,55.944505],"type":"Point"}
}
