{
  "id": 39350466,
  "type": "Feature",
  "properties": {
    "date:cessation_lower": "1995-01-01",
    "date:cessation_upper": "1995-01-01",
    "date:inception_lower": "1990-07-01",
    "date:inception_upper": "1990-07-01",
    "edtf:cessation": "1995-01-01",
    "edtf:inception": "1990-07-01",
    "geom:area": 0,
    "geom:bbox": "-0.185253,50.829510,-0.185253,50.829510",
    "geom:latitude": 50.82951,
    "geom:longitude": -0.185253,
    "iso:country": "GB",
    "mz:hierarchy_label": 1,
    "mz:is_current": 0,
    "os:country_code": "E92000001",
    "os:county_code": "E99999999",
    "os:district_code": "E06000043",
    "os:positional_quality_indicator": "8",
    "os:region_code": "E12000008",
    "src:geom": "os",
    "wof:belongsto": [
      85633159,
      102191581,
      136253055,
      1864205911,
      1360699019,
      101750303,
      1880762145,
      404227469,
      1880762703
    ],
    "wof:breaches": [],
    "wof:country": "GB",
    "wof:created": 1583800528,
    "wof:geomhash": "7765db4c14a70820acf78acbb01c79e5",
    "wof:hierarchy": [
      {
        "continent_id": 102191581,
        "country_id": 85633159,
        "county_id": 1360699019,
        "empire_id": 136253055,
        "locality_id": 101750303,
        "macrocounty_id": 1880762145,
        "macroregion_id": 404227469,
        "postalcode_id": 39350466,
        "region_id": 1880762703
      },
      {
        "continent_id": 102191581,
        "country_id": 85633159,
        "empire_id": 136253055,
        "postalcode_id": 39350466,
        "postalregion_id": 1864205911
      }
    ],
    "wof:id": 39350466,
    "wof:lastmodified": 1763548391,
    "wof:name": "BN3 4AW",
    "wof:parent_id": 101750303,
    "wof:placetype": "postalcode",
    "wof:repo": "whosonfirst-data-postalcode-gb",
    "wof:superseded_by": [],
    "wof:supersedes": [],
    "wof:tags": []
  },
  "bbox": [
    -0.185253,
    50.82951,
    -0.185253,
    50.82951
  ],
  "geometry": {"coordinates":[-0.185253,50.82951],"type":"Point"}
}
