{
  "id": 488362305,
  "type": "Feature",
  "properties": {
    "date:inception_lower": "2007-05-01",
    "date:inception_upper": "2007-05-01",
    "edtf:cessation": "",
    "edtf:inception": "2007-05-01",
    "geom:area": 0,
    "geom:bbox": "-1.479889,51.098850,-1.479889,51.098850",
    "geom:latitude": 51.09885,
    "geom:longitude": -1.479889,
    "gp:parent_id": "12695967",
    "iso:country": "GB",
    "mz:hierarchy_label": 1,
    "mz:is_current": 1,
    "os:country_code": "E92000001",
    "os:county_code": "E10000014",
    "os:district_code": "E07000093",
    "os:positional_quality_indicator": "1",
    "os:region_code": "E12000008",
    "src:geom": "os",
    "wof:belongsto": [
      85633159,
      102191581,
      136253055,
      1864210657,
      1880771469,
      404438893,
      1126012817,
      1880762155,
      404227469,
      1880762717
    ],
    "wof:breaches": [],
    "wof:concordances": {
      "gp:id": "56178995"
    },
    "wof:country": "GB",
    "wof:created": 1583701371,
    "wof:geomhash": "078f3ad36398aac5c43057477fa59725",
    "wof:hierarchy": [
      {
        "continent_id": 102191581,
        "country_id": 85633159,
        "county_id": 1880771469,
        "empire_id": 136253055,
        "localadmin_id": 404438893,
        "locality_id": 1126012817,
        "macrocounty_id": 1880762155,
        "macroregion_id": 404227469,
        "postalcode_id": 488362305,
        "region_id": 1880762717
      },
      {
        "continent_id": 102191581,
        "country_id": 85633159,
        "empire_id": 136253055,
        "postalcode_id": 488362305,
        "postalregion_id": 1864210657
      }
    ],
    "wof:id": 488362305,
    "wof:lastmodified": 1763548413,
    "wof:name": "SO20 6DF",
    "wof:parent_id": 1126012817,
    "wof:placetype": "postalcode",
    "wof:repo": "whosonfirst-data-postalcode-gb",
    "wof:superseded_by": [],
    "wof:supersedes": [],
    "wof:tags": []
  },
  "bbox": [
    -1.479889,
    51.09885,
    -1.479889,
    51.09885
  ],
  "geometry": {"coordinates":[-1.479889,51.09885],"type":"Point"}
}
