{
  "id": 488177281,
  "type": "Feature",
  "properties": {
    "date:inception_lower": "1980-01-01",
    "date:inception_upper": "1980-01-01",
    "edtf:cessation": "",
    "edtf:inception": "1980-01-01",
    "geom:area": 0,
    "geom:bbox": "-2.475125,52.182385,-2.475125,52.182385",
    "geom:latitude": 52.182385,
    "geom:longitude": -2.475125,
    "gp:parent_id": "13944",
    "iso:country": "GB",
    "mz:hierarchy_label": 1,
    "mz:is_current": 1,
    "os:country_code": "E92000001",
    "os:county_code": "E99999999",
    "os:district_code": "E06000019",
    "os:positional_quality_indicator": "1",
    "os:region_code": "E12000005",
    "src:geom": "os",
    "wof:belongsto": [
      85633159,
      102191581,
      136253055,
      1864211629,
      1360699053,
      404429467,
      1360759789,
      1880762015,
      404227469,
      1880773139
    ],
    "wof:breaches": [],
    "wof:concordances": {
      "gp:id": "28170337"
    },
    "wof:country": "GB",
    "wof:created": 1583701293,
    "wof:geomhash": "7bee76f2ae1ae074cb290f578131e52f",
    "wof:hierarchy": [
      {
        "continent_id": 102191581,
        "country_id": 85633159,
        "county_id": 1360699053,
        "empire_id": 136253055,
        "localadmin_id": 404429467,
        "locality_id": 1360759789,
        "macrocounty_id": 1880762015,
        "macroregion_id": 404227469,
        "postalcode_id": 488177281,
        "region_id": 1880773139
      },
      {
        "continent_id": 102191581,
        "country_id": 85633159,
        "empire_id": 136253055,
        "postalcode_id": 488177281,
        "postalregion_id": 1864211629
      }
    ],
    "wof:id": 488177281,
    "wof:lastmodified": 1763548597,
    "wof:name": "WR6 5TR",
    "wof:parent_id": 1360759789,
    "wof:placetype": "postalcode",
    "wof:repo": "whosonfirst-data-postalcode-gb",
    "wof:superseded_by": [],
    "wof:supersedes": [],
    "wof:tags": []
  },
  "bbox": [
    -2.475125,
    52.182385,
    -2.475125,
    52.182385
  ],
  "geometry": {"coordinates":[-2.475125,52.182385],"type":"Point"}
}
