{
  "id": 454862793,
  "type": "Feature",
  "properties": {
    "date:inception_lower": "2000-12-01",
    "date:inception_upper": "2000-12-01",
    "edtf:cessation": "",
    "edtf:inception": "2000-12-01",
    "geom:area": 0,
    "geom:bbox": "1.414119,52.127779,1.414119,52.127779",
    "geom:latitude": 52.127779,
    "geom:longitude": 1.414119,
    "gp:parent_id": "33115",
    "iso:country": "GB",
    "mz:hierarchy_label": 1,
    "mz:is_current": 1,
    "os:country_code": "E92000001",
    "os:county_code": "E10000029",
    "os:district_code": "E07000244",
    "os:positional_quality_indicator": "1",
    "os:region_code": "E12000006",
    "src:geom": "os",
    "wof:belongsto": [
      85633159,
      102191581,
      136253055,
      1864207829,
      1880771635,
      404441785,
      1125920757,
      1880762001
    ],
    "wof:breaches": [],
    "wof:concordances": {
      "gp:id": "27392012"
    },
    "wof:country": "GB",
    "wof:created": 1583701741,
    "wof:geomhash": "ee0c6e2ba7294e2145e12f6d1f221011",
    "wof:hierarchy": [
      {
        "continent_id": -1,
        "country_id": -1,
        "county_id": 1880771635,
        "localadmin_id": 404441785,
        "locality_id": 1125920757,
        "macrocounty_id": 1880762001,
        "postalcode_id": 454862793,
        "region_id": -1
      },
      {
        "continent_id": 102191581,
        "country_id": 85633159,
        "empire_id": 136253055,
        "postalcode_id": 454862793,
        "postalregion_id": 1864207829
      }
    ],
    "wof:id": 454862793,
    "wof:lastmodified": 1763548507,
    "wof:name": "IP12 2UA",
    "wof:parent_id": 1125920757,
    "wof:placetype": "postalcode",
    "wof:repo": "whosonfirst-data-postalcode-gb",
    "wof:superseded_by": [],
    "wof:supersedes": [],
    "wof:tags": []
  },
  "bbox": [
    1.414119,
    52.127779,
    1.414119,
    52.127779
  ],
  "geometry": {"coordinates":[1.414119,52.127779],"type":"Point"}
}
