{
  "id": 454227045,
  "type": "Feature",
  "properties": {
    "date:cessation_lower": "2012-12-01",
    "date:cessation_upper": "2012-12-01",
    "date:inception_lower": "2000-06-01",
    "date:inception_upper": "2000-06-01",
    "edtf:cessation": "2012-12-01",
    "edtf:inception": "2000-06-01",
    "geom:area": 0,
    "geom:bbox": "1.301888,51.124210,1.301888,51.124210",
    "geom:latitude": 51.12421,
    "geom:longitude": 1.301888,
    "iso:country": "GB",
    "mz:hierarchy_label": 1,
    "mz:is_current": 0,
    "os:country_code": "E92000001",
    "os:county_code": "E10000016",
    "os:district_code": "E07000108",
    "os:positional_quality_indicator": "1",
    "os:region_code": "E12000008",
    "src:geom": "os",
    "wof:belongsto": [
      85633159,
      102191581,
      136253055,
      1864206461,
      1880771519,
      404452329,
      101854657,
      1880762057,
      404227469,
      1880762705
    ],
    "wof:breaches": [],
    "wof:concordances": {
      "gp:id": "26747424"
    },
    "wof:country": "GB",
    "wof:created": 1583701394,
    "wof:geomhash": "83baa2537ee0dc88201841c6bb651107",
    "wof:hierarchy": [
      {
        "continent_id": 102191581,
        "country_id": 85633159,
        "county_id": 1880771519,
        "empire_id": 136253055,
        "localadmin_id": 404452329,
        "locality_id": 101854657,
        "macrocounty_id": 1880762057,
        "macroregion_id": 404227469,
        "postalcode_id": 454227045,
        "region_id": 1880762705
      },
      {
        "continent_id": 102191581,
        "country_id": 85633159,
        "empire_id": 136253055,
        "postalcode_id": 454227045,
        "postalregion_id": 1864206461
      }
    ],
    "wof:id": 454227045,
    "wof:lastmodified": 1763548250,
    "wof:name": "CT17 9EJ",
    "wof:parent_id": 101854657,
    "wof:placetype": "postalcode",
    "wof:repo": "whosonfirst-data-postalcode-gb",
    "wof:superseded_by": [],
    "wof:supersedes": [],
    "wof:tags": []
  },
  "bbox": [
    1.301888,
    51.12421,
    1.301888,
    51.12421
  ],
  "geometry": {"coordinates":[1.301888,51.12421],"type":"Point"}
}
