{
  "id": 1712741937,
  "type": "Feature",
  "properties": {
    "date:cessation_lower": "1997-12-01",
    "date:cessation_upper": "1997-12-01",
    "date:inception_lower": "1996-12-01",
    "date:inception_upper": "1996-12-01",
    "edtf:cessation": "1997-12-01",
    "edtf:inception": "1996-12-01",
    "geom:area": 0,
    "geom:bbox": "-2.517450,53.485511,-2.517450,53.485511",
    "geom:latitude": 53.485511,
    "geom:longitude": -2.51745,
    "iso:country": "GB",
    "mz:hierarchy_label": 1,
    "mz:is_current": 0,
    "os:country_code": "E92000001",
    "os:county_code": "E99999999",
    "os:district_code": "E08000010",
    "os:positional_quality_indicator": "6",
    "os:region_code": "E12000002",
    "src:geom": "os",
    "wof:belongsto": [
      85633159,
      102191581,
      136253055,
      1864211599,
      1360699023,
      1360817301,
      101872183,
      1880762163,
      404227469,
      1880773095
    ],
    "wof:breaches": [],
    "wof:country": "GB",
    "wof:created": 1583801550,
    "wof:geomhash": "4bf542073d8e66d0c51479792bb673eb",
    "wof:hierarchy": [
      {
        "continent_id": 102191581,
        "country_id": 85633159,
        "county_id": 1360699023,
        "empire_id": 136253055,
        "localadmin_id": 1360817301,
        "locality_id": 101872183,
        "macrocounty_id": 1880762163,
        "macroregion_id": 404227469,
        "postalcode_id": 1712741937,
        "region_id": 1880773095
      },
      {
        "continent_id": 102191581,
        "country_id": 85633159,
        "empire_id": 136253055,
        "postalcode_id": 1712741937,
        "postalregion_id": 1864211599
      }
    ],
    "wof:id": 1712741937,
    "wof:lastmodified": 1763548655,
    "wof:name": "WN7 3FG",
    "wof:parent_id": 101872183,
    "wof:placetype": "postalcode",
    "wof:repo": "whosonfirst-data-postalcode-gb",
    "wof:superseded_by": [],
    "wof:supersedes": [],
    "wof:tags": []
  },
  "bbox": [
    -2.51745,
    53.485511,
    -2.51745,
    53.485511
  ],
  "geometry": {"coordinates":[-2.51745,53.485511],"type":"Point"}
}
