{
  "id": 454571625,
  "type": "Feature",
  "properties": {
    "date:inception_lower": "1996-06-01",
    "date:inception_upper": "1996-06-01",
    "edtf:cessation": "",
    "edtf:inception": "1996-06-01",
    "geom:area": 0,
    "geom:bbox": "-3.366417,50.889086,-3.366417,50.889086",
    "geom:latitude": 50.889086,
    "geom:longitude": -3.366417,
    "gp:parent_id": "40504",
    "iso:country": "GB",
    "mz:hierarchy_label": 1,
    "mz:is_current": 1,
    "os:country_code": "E92000001",
    "os:county_code": "E10000008",
    "os:district_code": "E07000042",
    "os:positional_quality_indicator": "1",
    "os:region_code": "E12000009",
    "src:geom": "os",
    "wof:belongsto": [
      85633159,
      102191581,
      136253055,
      1864207191,
      1880771403,
      404432457,
      1125788531,
      1880762149,
      404227469,
      1880762683
    ],
    "wof:breaches": [],
    "wof:concordances": {
      "gp:id": "27253526"
    },
    "wof:country": "GB",
    "wof:created": 1583701641,
    "wof:geomhash": "9f1520b15faa30df40d022af35dfa3ef",
    "wof:hierarchy": [
      {
        "continent_id": 102191581,
        "country_id": 85633159,
        "county_id": 1880771403,
        "empire_id": 136253055,
        "localadmin_id": 404432457,
        "locality_id": 1125788531,
        "macrocounty_id": 1880762149,
        "macroregion_id": 404227469,
        "postalcode_id": 454571625,
        "region_id": 1880762683
      },
      {
        "continent_id": 102191581,
        "country_id": 85633159,
        "empire_id": 136253055,
        "postalcode_id": 454571625,
        "postalregion_id": 1864207191
      }
    ],
    "wof:id": 454571625,
    "wof:lastmodified": 1763548535,
    "wof:name": "EX15 2TA",
    "wof:parent_id": 1125788531,
    "wof:placetype": "postalcode",
    "wof:repo": "whosonfirst-data-postalcode-gb",
    "wof:superseded_by": [],
    "wof:supersedes": [],
    "wof:tags": []
  },
  "bbox": [
    -3.366417,
    50.889086,
    -3.366417,
    50.889086
  ],
  "geometry": {"coordinates":[-3.366417,50.889086],"type":"Point"}
}
