{
  "id": 1712689831,
  "type": "Feature",
  "properties": {
    "date:cessation_lower": "1991-12-01",
    "date:cessation_upper": "1991-12-01",
    "date:inception_lower": "1980-01-01",
    "date:inception_upper": "1980-01-01",
    "edtf:cessation": "1991-12-01",
    "edtf:inception": "1980-01-01",
    "geom:area": 0,
    "geom:bbox": "-2.655794,53.503905,-2.655794,53.503905",
    "geom:latitude": 53.503905,
    "geom:longitude": -2.655794,
    "iso:country": "GB",
    "mz:hierarchy_label": 1,
    "mz:is_current": 0,
    "os:country_code": "E92000001",
    "os:county_code": "E99999999",
    "os:district_code": "E08000010",
    "os:positional_quality_indicator": "8",
    "os:region_code": "E12000002",
    "src:geom": "os",
    "wof:belongsto": [
      85633159,
      102191581,
      136253055,
      1864211593,
      1360699023,
      1360817301,
      1126035289,
      1880762163,
      404227469,
      1880773095
    ],
    "wof:breaches": [],
    "wof:country": "GB",
    "wof:created": 1583799231,
    "wof:geomhash": "f071a802dec07d1f940ad3fbebcd562f",
    "wof:hierarchy": [
      {
        "continent_id": 102191581,
        "country_id": 85633159,
        "county_id": 1360699023,
        "empire_id": 136253055,
        "localadmin_id": 1360817301,
        "locality_id": 1126035289,
        "macrocounty_id": 1880762163,
        "macroregion_id": 404227469,
        "postalcode_id": 1712689831,
        "region_id": 1880773095
      },
      {
        "continent_id": 102191581,
        "country_id": 85633159,
        "empire_id": 136253055,
        "postalcode_id": 1712689831,
        "postalregion_id": 1864211593
      }
    ],
    "wof:id": 1712689831,
    "wof:lastmodified": 1763548686,
    "wof:name": "WN4 0JY",
    "wof:parent_id": 1126035289,
    "wof:placetype": "postalcode",
    "wof:repo": "whosonfirst-data-postalcode-gb",
    "wof:superseded_by": [],
    "wof:supersedes": [],
    "wof:tags": []
  },
  "bbox": [
    -2.655794,
    53.503905,
    -2.655794,
    53.503905
  ],
  "geometry": {"coordinates":[-2.655794,53.503905],"type":"Point"}
}
