{
  "id": 504483787,
  "type": "Feature",
  "properties": {
    "date:inception_lower": "1994-12-01",
    "date:inception_upper": "1994-12-01",
    "edtf:cessation": "",
    "edtf:inception": "1994-12-01",
    "geom:area": 0,
    "geom:bbox": "-2.994632,53.047238,-2.994632,53.047238",
    "geom:latitude": 53.047238,
    "geom:longitude": -2.994632,
    "gp:parent_id": "12696130",
    "iso:country": "GB",
    "mz:hierarchy_label": 1,
    "mz:is_current": 1,
    "os:country_code": "W92000004",
    "os:county_code": "W99999999",
    "os:district_code": "W06000006",
    "os:positional_quality_indicator": "1",
    "os:region_code": "W99999999",
    "src:geom": "os",
    "wof:belongsto": [
      85633159,
      102191581,
      136253055,
      1864208447,
      1360698743,
      404444477,
      1125780779,
      1880762183,
      404227475,
      1880772909
    ],
    "wof:breaches": [],
    "wof:concordances": {
      "gp:id": "27484447"
    },
    "wof:country": "GB",
    "wof:created": 1583701367,
    "wof:geomhash": "1d6c0e8010d5439d6f61a072c0b02d45",
    "wof:hierarchy": [
      {
        "continent_id": 102191581,
        "country_id": 85633159,
        "county_id": 1360698743,
        "empire_id": 136253055,
        "localadmin_id": 404444477,
        "locality_id": 1125780779,
        "macrocounty_id": 1880762183,
        "macroregion_id": 404227475,
        "postalcode_id": 504483787,
        "region_id": 1880772909
      },
      {
        "continent_id": 102191581,
        "country_id": 85633159,
        "empire_id": 136253055,
        "postalcode_id": 504483787,
        "postalregion_id": 1864208447
      }
    ],
    "wof:id": 504483787,
    "wof:lastmodified": 1763547955,
    "wof:name": "LL11 1LP",
    "wof:parent_id": 1125780779,
    "wof:placetype": "postalcode",
    "wof:repo": "whosonfirst-data-postalcode-gb",
    "wof:superseded_by": [],
    "wof:supersedes": [],
    "wof:tags": []
  },
  "bbox": [
    -2.994632,
    53.047238,
    -2.994632,
    53.047238
  ],
  "geometry": {"coordinates":[-2.994632,53.047238],"type":"Point"}
}
