{
  "id": 1712578243,
  "type": "Feature",
  "properties": {
    "date:cessation_lower": "1999-12-01",
    "date:cessation_upper": "1999-12-01",
    "date:inception_lower": "1980-01-01",
    "date:inception_upper": "1980-01-01",
    "edtf:cessation": "1999-12-01",
    "edtf:inception": "1980-01-01",
    "geom:area": 0,
    "geom:bbox": "-4.162426,55.940880,-4.162426,55.940880",
    "geom:latitude": 55.94088,
    "geom:longitude": -4.162426,
    "iso:country": "GB",
    "mz:hierarchy_label": 1,
    "mz:is_current": 0,
    "os:country_code": "S92000003",
    "os:county_code": "S99999999",
    "os:district_code": "S12000045",
    "os:positional_quality_indicator": "1",
    "os:region_code": "S99999999",
    "src:geom": "os",
    "wof:belongsto": [
      85633159,
      102191581,
      136253055,
      1864207397,
      1360698835,
      1880762097,
      404227471,
      1880772937
    ],
    "wof:breaches": [],
    "wof:country": "GB",
    "wof:created": 1583794284,
    "wof:geomhash": "0b498db3b7fa0201061a72e241c7b143",
    "wof:hierarchy": [
      {
        "continent_id": 102191581,
        "country_id": 85633159,
        "county_id": 1360698835,
        "empire_id": 136253055,
        "macrocounty_id": 1880762097,
        "macroregion_id": 404227471,
        "postalcode_id": 1712578243,
        "region_id": 1880772937
      },
      {
        "continent_id": 102191581,
        "country_id": 85633159,
        "empire_id": 136253055,
        "postalcode_id": 1712578243,
        "postalregion_id": 1864207397
      }
    ],
    "wof:id": 1712578243,
    "wof:lastmodified": 1763548688,
    "wof:name": "G66 1AT",
    "wof:parent_id": 1360698835,
    "wof:placetype": "postalcode",
    "wof:repo": "whosonfirst-data-postalcode-gb",
    "wof:superseded_by": [],
    "wof:supersedes": [],
    "wof:tags": []
  },
  "bbox": [
    -4.162426,
    55.94088,
    -4.162426,
    55.94088
  ],
  "geometry": {"coordinates":[-4.162426,55.94088],"type":"Point"}
}
