{
  "id": 471445393,
  "type": "Feature",
  "properties": {
    "date:inception_lower": "1995-01-01",
    "date:inception_upper": "1995-01-01",
    "edtf:cessation": "",
    "edtf:inception": "1995-01-01",
    "geom:area": 0,
    "geom:bbox": "-1.126552,50.807137,-1.126552,50.807137",
    "geom:latitude": 50.807137,
    "geom:longitude": -1.126552,
    "iso:country": "GB",
    "mz:hierarchy_label": 1,
    "mz:is_current": 1,
    "os:country_code": "E92000001",
    "os:county_code": "E10000014",
    "os:district_code": "E07000088",
    "os:positional_quality_indicator": "1",
    "os:region_code": "E12000008",
    "src:geom": "os",
    "wof:belongsto": [
      85633159,
      102191581,
      136253055,
      1864209919,
      1880771473,
      101750359,
      1880762155,
      404227469,
      1880762717
    ],
    "wof:breaches": [],
    "wof:concordances": {
      "gp:id": "27779825"
    },
    "wof:country": "GB",
    "wof:created": 1583701614,
    "wof:geomhash": "e4260b1acb58edf0dec611d7c5dad228",
    "wof:hierarchy": [
      {
        "continent_id": 102191581,
        "country_id": 85633159,
        "county_id": 1880771473,
        "empire_id": 136253055,
        "locality_id": 101750359,
        "macrocounty_id": 1880762155,
        "macroregion_id": 404227469,
        "postalcode_id": 471445393,
        "region_id": 1880762717
      },
      {
        "continent_id": 102191581,
        "country_id": 85633159,
        "empire_id": 136253055,
        "postalcode_id": 471445393,
        "postalregion_id": 1864209919
      }
    ],
    "wof:id": 471445393,
    "wof:lastmodified": 1763548328,
    "wof:name": "PO12 4LE",
    "wof:parent_id": 101750359,
    "wof:placetype": "postalcode",
    "wof:repo": "whosonfirst-data-postalcode-gb",
    "wof:superseded_by": [],
    "wof:supersedes": [],
    "wof:tags": []
  },
  "bbox": [
    -1.126552,
    50.807137,
    -1.126552,
    50.807137
  ],
  "geometry": {"coordinates":[-1.126552,50.807137],"type":"Point"}
}
