{
  "id": 471298883,
  "type": "Feature",
  "properties": {
    "date:cessation_lower": "2010-08-01",
    "date:cessation_upper": "2010-08-01",
    "date:inception_lower": "1996-12-01",
    "date:inception_upper": "1996-12-01",
    "edtf:cessation": "2010-08-01",
    "edtf:inception": "1996-12-01",
    "geom:area": 0,
    "geom:bbox": "-2.084374,53.496688,-2.084374,53.496688",
    "geom:latitude": 53.496688,
    "geom:longitude": -2.084374,
    "gp:parent_id": "11225",
    "iso:country": "GB",
    "mz:hierarchy_label": 1,
    "mz:is_current": 0,
    "os:country_code": "E92000001",
    "os:county_code": "E99999999",
    "os:district_code": "E08000008",
    "os:positional_quality_indicator": "5",
    "os:region_code": "E12000002",
    "src:geom": "os",
    "wof:belongsto": [
      85633159,
      102191581,
      136253055,
      1864209435,
      1360698931,
      1360817329,
      1125984457,
      1880762163,
      404227469,
      1880773095
    ],
    "wof:breaches": [],
    "wof:concordances": {
      "gp:id": "27712207"
    },
    "wof:country": "GB",
    "wof:created": 1583701480,
    "wof:geomhash": "9737afbe58b38b59a6001079a8d260e9",
    "wof:hierarchy": [
      {
        "continent_id": 102191581,
        "country_id": 85633159,
        "county_id": 1360698931,
        "empire_id": 136253055,
        "localadmin_id": 1360817329,
        "locality_id": 1125984457,
        "macrocounty_id": 1880762163,
        "macroregion_id": 404227469,
        "postalcode_id": 471298883,
        "region_id": 1880773095
      },
      {
        "continent_id": 102191581,
        "country_id": 85633159,
        "empire_id": 136253055,
        "postalcode_id": 471298883,
        "postalregion_id": 1864209435
      }
    ],
    "wof:id": 471298883,
    "wof:lastmodified": 1763548354,
    "wof:name": "OL6 8JZ",
    "wof:parent_id": 1125984457,
    "wof:placetype": "postalcode",
    "wof:repo": "whosonfirst-data-postalcode-gb",
    "wof:superseded_by": [],
    "wof:supersedes": [],
    "wof:tags": []
  },
  "bbox": [
    -2.084374,
    53.496688,
    -2.084374,
    53.496688
  ],
  "geometry": {"coordinates":[-2.084374,53.496688],"type":"Point"}
}
