{
  "id": 1161002270,
  "type": "Feature",
  "properties": {
    "date:cessation_lower": "2000-06-01",
    "date:cessation_upper": "2000-06-01",
    "date:inception_lower": "1980-01-01",
    "date:inception_upper": "1980-01-01",
    "edtf:cessation": "2000-06-01",
    "edtf:inception": "1980-01-01",
    "geom:area": 0,
    "geom:bbox": "0.986672,52.078950,0.986672,52.078950",
    "geom:latitude": 52.07895,
    "geom:longitude": 0.986672,
    "iso:country": "GB",
    "mz:hierarchy_label": 1,
    "mz:is_current": 0,
    "os:country_code": "E92000001",
    "os:county_code": "E10000029",
    "os:district_code": "E07000200",
    "os:positional_quality_indicator": "1",
    "os:region_code": "E12000006",
    "src:geom": "os",
    "wof:belongsto": [
      85633159,
      102191581,
      136253055,
      1864207889,
      1880771637,
      404442213,
      1125985641,
      1880762001
    ],
    "wof:breaches": [],
    "wof:country": "GB",
    "wof:created": 1583799590,
    "wof:geomhash": "cffaa6b40071ddf69c6fbfd857554051",
    "wof:hierarchy": [
      {
        "continent_id": -1,
        "country_id": -1,
        "county_id": 1880771637,
        "localadmin_id": 404442213,
        "locality_id": 1125985641,
        "macrocounty_id": 1880762001,
        "postalcode_id": 1161002270,
        "region_id": -1
      },
      {
        "continent_id": 102191581,
        "country_id": 85633159,
        "empire_id": 136253055,
        "postalcode_id": 1161002270,
        "postalregion_id": 1864207889
      }
    ],
    "wof:id": 1161002270,
    "wof:lastmodified": 1763548279,
    "wof:name": "IP7 6LR",
    "wof:parent_id": 1125985641,
    "wof:placetype": "postalcode",
    "wof:repo": "whosonfirst-data-postalcode-gb",
    "wof:superseded_by": [],
    "wof:supersedes": [],
    "wof:tags": []
  },
  "bbox": [
    0.986672,
    52.07895,
    0.986672,
    52.07895
  ],
  "geometry": {"coordinates":[0.986672,52.07895],"type":"Point"}
}
