{
  "id": 39832992,
  "type": "Feature",
  "properties": {
    "date:cessation_lower": "1990-08-01",
    "date:cessation_upper": "1990-08-01",
    "date:inception_lower": "1980-09-01",
    "date:inception_upper": "1980-09-01",
    "edtf:cessation": "1990-08-01",
    "edtf:inception": "1980-09-01",
    "geom:area": 0,
    "geom:bbox": "-2.113142,57.183991,-2.113142,57.183991",
    "geom:latitude": 57.183991,
    "geom:longitude": -2.113142,
    "iso:country": "GB",
    "mz:hierarchy_label": 1,
    "mz:is_current": 0,
    "os:country_code": "S92000003",
    "os:county_code": "S99999999",
    "os:district_code": "S12000033",
    "os:positional_quality_indicator": "8",
    "os:region_code": "S99999999",
    "src:geom": "os",
    "wof:belongsto": [
      102191581,
      85633159,
      1360698989,
      136253055,
      1880762093,
      404227471,
      1880773079
    ],
    "wof:breaches": [],
    "wof:country": "GB",
    "wof:created": 1583805801,
    "wof:geomhash": "52e1186af42ad5e33800f5627d0ee434",
    "wof:hierarchy": [
      {
        "continent_id": 102191581,
        "country_id": 85633159,
        "county_id": 1360698989,
        "empire_id": 136253055,
        "macrocounty_id": 1880762093,
        "macroregion_id": 404227471,
        "postalcode_id": 39832992,
        "region_id": 1880773079
      }
    ],
    "wof:id": 39832992,
    "wof:lastmodified": 1763547905,
    "wof:name": "AB2 8UX",
    "wof:parent_id": 1360698989,
    "wof:placetype": "postalcode",
    "wof:repo": "whosonfirst-data-postalcode-gb",
    "wof:superseded_by": [],
    "wof:supersedes": [],
    "wof:tags": []
  },
  "bbox": [
    -2.113142,
    57.183991,
    -2.113142,
    57.183991
  ],
  "geometry": {"coordinates":[-2.113142,57.183991],"type":"Point"}
}
