{
  "id": 874496575,
  "type": "Feature",
  "properties": {
    "date:inception_lower": "2011-05-01",
    "date:inception_upper": "2011-05-01",
    "edtf:cessation": "",
    "edtf:inception": "2011-05-01",
    "geom:area": 0,
    "geom:bbox": "-1.115852,52.966197,-1.115852,52.966197",
    "geom:latitude": 52.966197,
    "geom:longitude": -1.115852,
    "iso:country": "GB",
    "mz:hierarchy_label": 1,
    "mz:is_current": 1,
    "os:country_code": "E92000001",
    "os:county_code": "E10000024",
    "os:district_code": "E07000173",
    "os:positional_quality_indicator": "1",
    "os:region_code": "E12000004",
    "src:geom": "os",
    "wof:belongsto": [
      85633159,
      102191581,
      136253055,
      1864209187,
      1880771599,
      1360817357,
      1125946055,
      1880762077,
      404227469,
      1880762689
    ],
    "wof:breaches": [],
    "wof:country": "GB",
    "wof:created": 1468890335,
    "wof:geomhash": "c1c4943d1f0e4ee0a1aa8bfa411487cf",
    "wof:hierarchy": [
      {
        "continent_id": 102191581,
        "country_id": 85633159,
        "county_id": 1880771599,
        "empire_id": 136253055,
        "localadmin_id": 1360817357,
        "locality_id": 1125946055,
        "macrocounty_id": 1880762077,
        "macroregion_id": 404227469,
        "postalcode_id": 874496575,
        "region_id": 1880762689
      },
      {
        "continent_id": 102191581,
        "country_id": 85633159,
        "empire_id": 136253055,
        "postalcode_id": 874496575,
        "postalregion_id": 1864209187
      }
    ],
    "wof:id": 874496575,
    "wof:lastmodified": 1763547953,
    "wof:name": "NG3 6PD",
    "wof:parent_id": 1125946055,
    "wof:placetype": "postalcode",
    "wof:repo": "whosonfirst-data-postalcode-gb",
    "wof:superseded_by": [],
    "wof:supersedes": [],
    "wof:tags": []
  },
  "bbox": [
    -1.115852,
    52.966197,
    -1.115852,
    52.966197
  ],
  "geometry": {"coordinates":[-1.115852,52.966197],"type":"Point"}
}
