{
  "id": 1947766799,
  "type": "Feature",
  "properties": {
    "date:inception_lower": "2024-09-01",
    "date:inception_upper": "2024-09-01",
    "edtf:cessation": "",
    "edtf:inception": "2024-09-01",
    "geom:area": 0,
    "geom:bbox": "-3.576965,50.906107,-3.576965,50.906107",
    "geom:latitude": 50.906107,
    "geom:longitude": -3.576965,
    "iso:country": "GB",
    "mz:hierarchy_label": 1,
    "mz:is_current": 1,
    "os:country_code": "E92000001",
    "os:county_code": "E10000008",
    "os:district_code": "E07000042",
    "os:positional_quality_indicator": "1",
    "os:region_code": "E12000009",
    "src:geom": "os",
    "wof:belongsto": [
      102191581,
      85633159,
      1880771403,
      136253055,
      1880762149,
      404227469,
      1880762683,
      1864207193,
      404443259,
      1260212549
    ],
    "wof:breaches": [],
    "wof:country": "GB",
    "wof:created": 1736334821,
    "wof:geomhash": "a14f3b7296718fee2acda539b49b0c5b",
    "wof:hierarchy": [
      {
        "continent_id": 102191581,
        "country_id": 85633159,
        "county_id": 1880771403,
        "empire_id": 136253055,
        "localadmin_id": 404443259,
        "locality_id": 1260212549,
        "macrocounty_id": 1880762149,
        "macroregion_id": 404227469,
        "postalcode_id": 1947766799,
        "region_id": 1880762683
      },
      {
        "continent_id": 102191581,
        "country_id": 85633159,
        "empire_id": 136253055,
        "postalcode_id": 1947766799,
        "postalregion_id": 1864207193
      }
    ],
    "wof:id": 1947766799,
    "wof:lastmodified": 1763547896,
    "wof:name": "EX16 8FP",
    "wof:parent_id": 1260212549,
    "wof:placetype": "postalcode",
    "wof:repo": "whosonfirst-data-postalcode-gb",
    "wof:superseded_by": [],
    "wof:supersedes": [],
    "wof:tags": []
  },
  "bbox": [
    -3.576965,
    50.906107,
    -3.576965,
    50.906107
  ],
  "geometry": {"coordinates":[-3.576965,50.906107],"type":"Point"}
}
