{
  "id": 487863743,
  "type": "Feature",
  "properties": {
    "date:inception_lower": "1980-01-01",
    "date:inception_upper": "1980-01-01",
    "edtf:cessation": "",
    "edtf:inception": "1980-01-01",
    "geom:area": 0,
    "geom:bbox": "0.900012,50.950290,0.900012,50.950290",
    "geom:latitude": 50.95029,
    "geom:longitude": 0.900012,
    "iso:country": "GB",
    "mz:hierarchy_label": 1,
    "mz:is_current": 1,
    "os:country_code": "E92000001",
    "os:county_code": "E10000016",
    "os:district_code": "E07000112",
    "os:positional_quality_indicator": "1",
    "os:region_code": "E12000008",
    "src:geom": "os",
    "wof:belongsto": [
      85633159,
      102191581,
      136253055,
      1864211113,
      1880771505,
      404445855,
      101854635,
      1880762057,
      404227469,
      1880762705
    ],
    "wof:breaches": [],
    "wof:concordances": {
      "gp:id": "28057776"
    },
    "wof:country": "GB",
    "wof:created": 1583701217,
    "wof:geomhash": "18e55aa4a3f454dd7e2a5dab7f2d98ad",
    "wof:hierarchy": [
      {
        "continent_id": 102191581,
        "country_id": 85633159,
        "county_id": 1880771505,
        "empire_id": 136253055,
        "localadmin_id": 404445855,
        "locality_id": 101854635,
        "macrocounty_id": 1880762057,
        "macroregion_id": 404227469,
        "postalcode_id": 487863743,
        "region_id": 1880762705
      },
      {
        "continent_id": 102191581,
        "country_id": 85633159,
        "empire_id": 136253055,
        "postalcode_id": 487863743,
        "postalregion_id": 1864211113
      }
    ],
    "wof:id": 487863743,
    "wof:lastmodified": 1763548753,
    "wof:name": "TN29 9BH",
    "wof:parent_id": 101854635,
    "wof:placetype": "postalcode",
    "wof:repo": "whosonfirst-data-postalcode-gb",
    "wof:superseded_by": [],
    "wof:supersedes": [],
    "wof:tags": []
  },
  "bbox": [
    0.900012,
    50.95029,
    0.900012,
    50.95029
  ],
  "geometry": {"coordinates":[0.900012,50.95029],"type":"Point"}
}
