{
  "id": 1160778692,
  "type": "Feature",
  "properties": {
    "date:cessation_lower": "1991-12-01",
    "date:cessation_upper": "1991-12-01",
    "date:inception_lower": "1990-07-01",
    "date:inception_upper": "1990-07-01",
    "edtf:cessation": "1991-12-01",
    "edtf:inception": "1990-07-01",
    "geom:area": 0,
    "geom:bbox": "-2.354543,52.080334,-2.354543,52.080334",
    "geom:latitude": 52.080334,
    "geom:longitude": -2.354543,
    "iso:country": "GB",
    "mz:hierarchy_label": 1,
    "mz:is_current": 0,
    "os:country_code": "E92000001",
    "os:county_code": "E99999999",
    "os:district_code": "E06000019",
    "os:positional_quality_indicator": "8",
    "os:region_code": "E12000005",
    "src:geom": "os",
    "wof:belongsto": [
      85633159,
      102191581,
      136253055,
      1864211613,
      1360699053,
      404452475,
      1126012467,
      1880762015,
      404227469,
      1880773139
    ],
    "wof:breaches": [],
    "wof:country": "GB",
    "wof:created": 1583789592,
    "wof:geomhash": "e5f340b4c943c62cd5fea26b4b3f2ceb",
    "wof:hierarchy": [
      {
        "continent_id": 102191581,
        "country_id": 85633159,
        "county_id": 1360699053,
        "empire_id": 136253055,
        "localadmin_id": 404452475,
        "locality_id": 1126012467,
        "macrocounty_id": 1880762015,
        "macroregion_id": 404227469,
        "postalcode_id": 1160778692,
        "region_id": 1880773139
      },
      {
        "continent_id": 102191581,
        "country_id": 85633159,
        "empire_id": 136253055,
        "postalcode_id": 1160778692,
        "postalregion_id": 1864211613
      }
    ],
    "wof:id": 1160778692,
    "wof:lastmodified": 1763548209,
    "wof:name": "WR13 6RZ",
    "wof:parent_id": 1126012467,
    "wof:placetype": "postalcode",
    "wof:repo": "whosonfirst-data-postalcode-gb",
    "wof:superseded_by": [],
    "wof:supersedes": [],
    "wof:tags": []
  },
  "bbox": [
    -2.354543,
    52.080334,
    -2.354543,
    52.080334
  ],
  "geometry": {"coordinates":[-2.354543,52.080334],"type":"Point"}
}
