{
  "id": 39207366,
  "type": "Feature",
  "properties": {
    "date:cessation_lower": "1998-06-01",
    "date:cessation_upper": "1998-06-01",
    "date:inception_lower": "1980-01-01",
    "date:inception_upper": "1980-01-01",
    "edtf:cessation": "1998-06-01",
    "edtf:inception": "1980-01-01",
    "geom:area": 0,
    "geom:bbox": "-0.924429,54.048727,-0.924429,54.048727",
    "geom:latitude": 54.048727,
    "geom:longitude": -0.924429,
    "iso:country": "GB",
    "mz:hierarchy_label": 1,
    "mz:is_current": 0,
    "os:country_code": "E92000001",
    "os:county_code": "E99999999",
    "os:district_code": "E06000065",
    "os:positional_quality_indicator": "1",
    "os:region_code": "E12000003",
    "src:geom": "os",
    "wof:belongsto": [
      102191581,
      85633159,
      1360698753,
      136253055,
      404435443,
      1360757377,
      1880762011,
      404227469,
      1880772891
    ],
    "wof:breaches": [],
    "wof:country": "GB",
    "wof:created": 1583798929,
    "wof:geomhash": "9cb82b235f972ad7ba154f745bb8392c",
    "wof:hierarchy": [
      {
        "continent_id": 102191581,
        "country_id": 85633159,
        "county_id": 1360698753,
        "empire_id": 136253055,
        "localadmin_id": 404435443,
        "locality_id": 1360757377,
        "macrocounty_id": 1880762011,
        "macroregion_id": 404227469,
        "postalcode_id": 39207366,
        "region_id": 1880772891
      }
    ],
    "wof:id": 39207366,
    "wof:lastmodified": 1763548385,
    "wof:name": "YO6 7NP",
    "wof:parent_id": 1360757377,
    "wof:placetype": "postalcode",
    "wof:repo": "whosonfirst-data-postalcode-gb",
    "wof:superseded_by": [],
    "wof:supersedes": [],
    "wof:tags": []
  },
  "bbox": [
    -0.924429,
    54.048727,
    -0.924429,
    54.048727
  ],
  "geometry": {"coordinates":[-0.924429,54.048727],"type":"Point"}
}
