{
  "id": 39625506,
  "type": "Feature",
  "properties": {
    "date:cessation_lower": "1997-12-01",
    "date:cessation_upper": "1997-12-01",
    "date:inception_lower": "1997-06-01",
    "date:inception_upper": "1997-06-01",
    "edtf:cessation": "1997-12-01",
    "edtf:inception": "1997-06-01",
    "geom:area": 0,
    "geom:bbox": "-3.172630,55.959257,-3.172630,55.959257",
    "geom:latitude": 55.959257,
    "geom:longitude": -3.17263,
    "iso:country": "GB",
    "mz:hierarchy_label": 1,
    "mz:is_current": 0,
    "os:country_code": "S92000003",
    "os:county_code": "S99999999",
    "os:district_code": "S12000036",
    "os:positional_quality_indicator": "6",
    "os:region_code": "S99999999",
    "src:geom": "os",
    "wof:belongsto": [
      85633159,
      102191581,
      136253055,
      1864207141,
      1360698761,
      101750629,
      1880762089,
      404227471,
      1880772893
    ],
    "wof:breaches": [],
    "wof:country": "GB",
    "wof:created": 1583803553,
    "wof:geomhash": "8f001505eaf407ebda2646a6bf324261",
    "wof:hierarchy": [
      {
        "continent_id": 102191581,
        "country_id": 85633159,
        "county_id": 1360698761,
        "empire_id": 136253055,
        "locality_id": 101750629,
        "macrocounty_id": 1880762089,
        "macroregion_id": 404227471,
        "postalcode_id": 39625506,
        "region_id": 1880772893
      },
      {
        "continent_id": 102191581,
        "country_id": 85633159,
        "empire_id": 136253055,
        "postalcode_id": 39625506,
        "postalregion_id": 1864207141
      }
    ],
    "wof:id": 39625506,
    "wof:lastmodified": 1763547909,
    "wof:name": "EH7 5ZJ",
    "wof:parent_id": 101750629,
    "wof:placetype": "postalcode",
    "wof:repo": "whosonfirst-data-postalcode-gb",
    "wof:superseded_by": [],
    "wof:supersedes": [],
    "wof:tags": []
  },
  "bbox": [
    -3.17263,
    55.959257,
    -3.17263,
    55.959257
  ],
  "geometry": {"coordinates":[-3.17263,55.959257],"type":"Point"}
}
