{
  "id": 1161077480,
  "type": "Feature",
  "properties": {
    "date:cessation_lower": "1997-12-01",
    "date:cessation_upper": "1997-12-01",
    "date:inception_lower": "1996-06-01",
    "date:inception_upper": "1996-06-01",
    "edtf:cessation": "1997-12-01",
    "edtf:inception": "1996-06-01",
    "geom:area": 0,
    "geom:bbox": "-4.269741,55.807103,-4.269741,55.807103",
    "geom:latitude": 55.807103,
    "geom:longitude": -4.269741,
    "iso:country": "GB",
    "mz:hierarchy_label": 1,
    "mz:is_current": 0,
    "os:country_code": "S92000003",
    "os:county_code": "S99999999",
    "os:district_code": "S12000011",
    "os:positional_quality_indicator": "6",
    "os:region_code": "S99999999",
    "src:geom": "os",
    "wof:belongsto": [
      85633159,
      102191581,
      136253055,
      1864207365,
      1360699117,
      1880762039,
      404227471,
      1880773179
    ],
    "wof:breaches": [],
    "wof:country": "GB",
    "wof:created": 1583802901,
    "wof:geomhash": "6fe8d17c078af781e0137a1b51a29c65",
    "wof:hierarchy": [
      {
        "continent_id": 102191581,
        "country_id": 85633159,
        "county_id": 1360699117,
        "empire_id": 136253055,
        "macrocounty_id": 1880762039,
        "macroregion_id": 404227471,
        "postalcode_id": 1161077480,
        "region_id": 1880773179
      },
      {
        "continent_id": 102191581,
        "country_id": 85633159,
        "empire_id": 136253055,
        "postalcode_id": 1161077480,
        "postalregion_id": 1864207365
      }
    ],
    "wof:id": 1161077480,
    "wof:lastmodified": 1763548289,
    "wof:name": "G44 3QW",
    "wof:parent_id": 1360699117,
    "wof:placetype": "postalcode",
    "wof:repo": "whosonfirst-data-postalcode-gb",
    "wof:superseded_by": [],
    "wof:supersedes": [],
    "wof:tags": []
  },
  "bbox": [
    -4.269741,
    55.807103,
    -4.269741,
    55.807103
  ],
  "geometry": {"coordinates":[-4.269741,55.807103],"type":"Point"}
}
