{
  "id": 1712519029,
  "type": "Feature",
  "properties": {
    "date:cessation_lower": "1998-06-01",
    "date:cessation_upper": "1998-06-01",
    "date:inception_lower": "1980-01-01",
    "date:inception_upper": "1980-01-01",
    "edtf:cessation": "1998-06-01",
    "edtf:inception": "1980-01-01",
    "geom:area": 0,
    "geom:bbox": "-1.256682,54.176650,-1.256682,54.176650",
    "geom:latitude": 54.17665,
    "geom:longitude": -1.256682,
    "iso:country": "GB",
    "mz:hierarchy_label": 1,
    "mz:is_current": 0,
    "os:country_code": "E92000001",
    "os:county_code": "E99999999",
    "os:district_code": "E06000065",
    "os:positional_quality_indicator": "1",
    "os:region_code": "E12000003",
    "src:geom": "os",
    "wof:belongsto": [
      1360698753,
      404442799,
      1360757987,
      1880762011
    ],
    "wof:breaches": [],
    "wof:country": "GB",
    "wof:created": 1583791638,
    "wof:geomhash": "c626976f90e987cf8afb667369838d97",
    "wof:hierarchy": [
      {
        "continent_id": -1,
        "country_id": -1,
        "county_id": 1360698753,
        "localadmin_id": 404442799,
        "locality_id": 1360757987,
        "macrocounty_id": 1880762011,
        "postalcode_id": 1712519029,
        "region_id": -1
      }
    ],
    "wof:id": 1712519029,
    "wof:lastmodified": 1763548704,
    "wof:name": "YO6 3NW",
    "wof:parent_id": 1360757987,
    "wof:placetype": "postalcode",
    "wof:repo": "whosonfirst-data-postalcode-gb",
    "wof:superseded_by": [],
    "wof:supersedes": [],
    "wof:tags": []
  },
  "bbox": [
    -1.256682,
    54.17665,
    -1.256682,
    54.17665
  ],
  "geometry": {"coordinates":[-1.256682,54.17665],"type":"Point"}
}
