{
  "id": 471045095,
  "type": "Feature",
  "properties": {
    "date:inception_lower": "2000-06-01",
    "date:inception_upper": "2000-06-01",
    "edtf:cessation": "",
    "edtf:inception": "2000-06-01",
    "geom:area": 0,
    "geom:bbox": "-1.570206,55.100939,-1.570206,55.100939",
    "geom:latitude": 55.100939,
    "geom:longitude": -1.570206,
    "gp:parent_id": "17184",
    "iso:country": "GB",
    "mz:hierarchy_label": 1,
    "mz:is_current": 1,
    "os:country_code": "E92000001",
    "os:county_code": "E99999999",
    "os:district_code": "E06000057",
    "os:positional_quality_indicator": "1",
    "os:region_code": "E12000001",
    "src:geom": "os",
    "wof:belongsto": [
      85633159,
      102191581,
      136253055,
      1864209035,
      1360698769,
      404430049,
      1125938411,
      1880761987,
      404227469,
      1880772897
    ],
    "wof:breaches": [],
    "wof:concordances": {
      "gp:id": "27607783"
    },
    "wof:country": "GB",
    "wof:created": 1583701164,
    "wof:geomhash": "dff344c17c30753eeea5ae3fcea19c5c",
    "wof:hierarchy": [
      {
        "continent_id": 102191581,
        "country_id": 85633159,
        "county_id": 1360698769,
        "empire_id": 136253055,
        "localadmin_id": 404430049,
        "locality_id": 1125938411,
        "macrocounty_id": 1880761987,
        "macroregion_id": 404227469,
        "postalcode_id": 471045095,
        "region_id": 1880772897
      },
      {
        "continent_id": 102191581,
        "country_id": 85633159,
        "empire_id": 136253055,
        "postalcode_id": 471045095,
        "postalregion_id": 1864209035
      }
    ],
    "wof:id": 471045095,
    "wof:lastmodified": 1763548266,
    "wof:name": "NE23 3XL",
    "wof:parent_id": 1125938411,
    "wof:placetype": "postalcode",
    "wof:repo": "whosonfirst-data-postalcode-gb",
    "wof:superseded_by": [],
    "wof:supersedes": [],
    "wof:tags": []
  },
  "bbox": [
    -1.570206,
    55.100939,
    -1.570206,
    55.100939
  ],
  "geometry": {"coordinates":[-1.570206,55.100939],"type":"Point"}
}
