{
  "id": 437943273,
  "type": "Feature",
  "properties": {
    "date:cessation_lower": "2011-03-01",
    "date:cessation_upper": "2011-03-01",
    "date:inception_lower": "1980-01-01",
    "date:inception_upper": "1980-01-01",
    "edtf:cessation": "2011-03-01",
    "edtf:inception": "1980-01-01",
    "geom:area": 0,
    "geom:bbox": "-0.334832,51.717760,-0.334832,51.717760",
    "geom:latitude": 51.71776,
    "geom:longitude": -0.334832,
    "iso:country": "GB",
    "mz:hierarchy_label": 1,
    "mz:is_current": 0,
    "os:country_code": "E92000001",
    "os:county_code": "E10000015",
    "os:district_code": "E07000240",
    "os:positional_quality_indicator": "1",
    "os:region_code": "E12000006",
    "src:geom": "os",
    "wof:belongsto": [
      85633159,
      102191581,
      136253055,
      1864205457,
      1880771493,
      404434351,
      1360755663,
      1880762153,
      404227469,
      1880762721
    ],
    "wof:breaches": [],
    "wof:concordances": {
      "gp:id": "26838787"
    },
    "wof:country": "GB",
    "wof:created": 1583701643,
    "wof:geomhash": "219040cf4f534d55b65a66772e7f66e5",
    "wof:hierarchy": [
      {
        "continent_id": 102191581,
        "country_id": 85633159,
        "county_id": 1880771493,
        "empire_id": 136253055,
        "localadmin_id": 404434351,
        "locality_id": 1360755663,
        "macrocounty_id": 1880762153,
        "macroregion_id": 404227469,
        "postalcode_id": 437943273,
        "region_id": 1880762721
      },
      {
        "continent_id": 102191581,
        "country_id": 85633159,
        "empire_id": 136253055,
        "postalcode_id": 437943273,
        "postalregion_id": 1864205457
      }
    ],
    "wof:id": 437943273,
    "wof:lastmodified": 1763548314,
    "wof:name": "AL2 2LG",
    "wof:parent_id": 1360755663,
    "wof:placetype": "postalcode",
    "wof:repo": "whosonfirst-data-postalcode-gb",
    "wof:superseded_by": [],
    "wof:supersedes": [],
    "wof:tags": []
  },
  "bbox": [
    -0.334832,
    51.71776,
    -0.334832,
    51.71776
  ],
  "geometry": {"coordinates":[-0.334832,51.71776],"type":"Point"}
}
