{
  "id": 504754275,
  "type": "Feature",
  "properties": {
    "date:inception_lower": "2006-05-01",
    "date:inception_upper": "2006-05-01",
    "edtf:cessation": "",
    "edtf:inception": "2006-05-01",
    "geom:area": 0,
    "geom:bbox": "-4.034418,51.647658,-4.034418,51.647658",
    "geom:latitude": 51.647658,
    "geom:longitude": -4.034418,
    "gp:parent_id": "21435",
    "iso:country": "GB",
    "mz:hierarchy_label": 1,
    "mz:is_current": 1,
    "os:country_code": "W92000004",
    "os:county_code": "W99999999",
    "os:district_code": "W06000011",
    "os:positional_quality_indicator": "1",
    "os:region_code": "W99999999",
    "src:geom": "os",
    "wof:belongsto": [
      85633159,
      102191581,
      136253055,
      1864210339,
      1360699095,
      404439879,
      1125893321,
      1880762113,
      404227475,
      1880773177
    ],
    "wof:breaches": [],
    "wof:concordances": {
      "gp:id": "28990214"
    },
    "wof:country": "GB",
    "wof:created": 1583701549,
    "wof:geomhash": "31ba5a37a36fa3d74e1ef42a1eb12324",
    "wof:hierarchy": [
      {
        "continent_id": 102191581,
        "country_id": 85633159,
        "county_id": 1360699095,
        "empire_id": 136253055,
        "localadmin_id": 404439879,
        "locality_id": 1125893321,
        "macrocounty_id": 1880762113,
        "macroregion_id": 404227475,
        "postalcode_id": 504754275,
        "region_id": 1880773177
      },
      {
        "continent_id": 102191581,
        "country_id": 85633159,
        "empire_id": 136253055,
        "postalcode_id": 504754275,
        "postalregion_id": 1864210339
      }
    ],
    "wof:id": 504754275,
    "wof:lastmodified": 1763547912,
    "wof:name": "SA4 3GR",
    "wof:parent_id": 1125893321,
    "wof:placetype": "postalcode",
    "wof:repo": "whosonfirst-data-postalcode-gb",
    "wof:superseded_by": [],
    "wof:supersedes": [],
    "wof:tags": []
  },
  "bbox": [
    -4.034418,
    51.647658,
    -4.034418,
    51.647658
  ],
  "geometry": {"coordinates":[-4.034418,51.647658],"type":"Point"}
}
