{
  "id": 504722713,
  "type": "Feature",
  "properties": {
    "date:inception_lower": "2001-12-01",
    "date:inception_upper": "2001-12-01",
    "edtf:cessation": "",
    "edtf:inception": "2001-12-01",
    "geom:area": 0,
    "geom:bbox": "-3.104679,55.638618,-3.104679,55.638618",
    "geom:latitude": 55.638618,
    "geom:longitude": -3.104679,
    "gp:parent_id": "12696186",
    "iso:country": "GB",
    "mz:hierarchy_label": 1,
    "mz:is_current": 1,
    "os:country_code": "S92000003",
    "os:county_code": "S99999999",
    "os:district_code": "S12000026",
    "os:positional_quality_indicator": "1",
    "os:region_code": "S99999999",
    "src:geom": "os",
    "wof:belongsto": [
      85633159,
      102191581,
      136253055,
      1864207115,
      1360699015,
      1880761991,
      404227471,
      1880773105
    ],
    "wof:breaches": [],
    "wof:concordances": {
      "gp:id": "27237865"
    },
    "wof:country": "GB",
    "wof:created": 1583701524,
    "wof:geomhash": "a799df103175132b3b5c6d56816ea933",
    "wof:hierarchy": [
      {
        "continent_id": 102191581,
        "country_id": 85633159,
        "county_id": 1360699015,
        "macrocounty_id": 1880761991,
        "macroregion_id": 404227471,
        "postalcode_id": 504722713,
        "region_id": 1880773105
      },
      {
        "continent_id": 102191581,
        "country_id": 85633159,
        "empire_id": 136253055,
        "postalcode_id": 504722713,
        "postalregion_id": 1864207115
      }
    ],
    "wof:id": 504722713,
    "wof:lastmodified": 1763548029,
    "wof:name": "EH45 9LN",
    "wof:parent_id": 1360699015,
    "wof:placetype": "postalcode",
    "wof:repo": "whosonfirst-data-postalcode-gb",
    "wof:superseded_by": [],
    "wof:supersedes": [],
    "wof:tags": []
  },
  "bbox": [
    -3.104679,
    55.638618,
    -3.104679,
    55.638618
  ],
  "geometry": {"coordinates":[-3.104679,55.638618],"type":"Point"}
}
