{
  "id": 454800553,
  "type": "Feature",
  "properties": {
    "date:inception_lower": "2004-01-01",
    "date:inception_upper": "2004-01-01",
    "edtf:cessation": "",
    "edtf:inception": "2004-01-01",
    "geom:area": 0,
    "geom:bbox": "-2.726253,52.057427,-2.726253,52.057427",
    "geom:latitude": 52.057427,
    "geom:longitude": -2.726253,
    "iso:country": "GB",
    "mz:hierarchy_label": 1,
    "mz:is_current": 1,
    "os:country_code": "E92000001",
    "os:county_code": "E99999999",
    "os:district_code": "E06000019",
    "os:positional_quality_indicator": "1",
    "os:region_code": "E12000005",
    "src:geom": "os",
    "wof:belongsto": [
      85633159,
      102191581,
      136253055,
      1864207703,
      1360699053,
      404449477,
      101750451,
      1880762015,
      404227469,
      1880773139
    ],
    "wof:breaches": [],
    "wof:concordances": {
      "gp:id": "27366855"
    },
    "wof:country": "GB",
    "wof:created": 1583701718,
    "wof:geomhash": "e77f512e8eb126ec0577e8aeaf5bb829",
    "wof:hierarchy": [
      {
        "continent_id": 102191581,
        "country_id": 85633159,
        "county_id": 1360699053,
        "empire_id": 136253055,
        "localadmin_id": 404449477,
        "locality_id": 101750451,
        "macrocounty_id": 1880762015,
        "macroregion_id": 404227469,
        "postalcode_id": 454800553,
        "region_id": 1880773139
      },
      {
        "continent_id": 102191581,
        "country_id": 85633159,
        "empire_id": 136253055,
        "postalcode_id": 454800553,
        "postalregion_id": 1864207703
      }
    ],
    "wof:id": 454800553,
    "wof:lastmodified": 1763548498,
    "wof:name": "HR4 0JR",
    "wof:parent_id": 101750451,
    "wof:placetype": "postalcode",
    "wof:repo": "whosonfirst-data-postalcode-gb",
    "wof:superseded_by": [],
    "wof:supersedes": [],
    "wof:tags": []
  },
  "bbox": [
    -2.726253,
    52.057427,
    -2.726253,
    52.057427
  ],
  "geometry": {"coordinates":[-2.726253,52.057427],"type":"Point"}
}
