{
  "id": 38720646,
  "type": "Feature",
  "properties": {
    "date:cessation_lower": "1992-07-01",
    "date:cessation_upper": "1992-07-01",
    "date:inception_lower": "1973-08-01",
    "date:inception_upper": "1973-08-01",
    "edtf:cessation": "1992-07-01",
    "edtf:inception": "1973-08-01",
    "geom:area": 0,
    "geom:bbox": "-3.429885,56.398280,-3.429885,56.398280",
    "geom:latitude": 56.39828,
    "geom:longitude": -3.429885,
    "iso:country": "GB",
    "mz:hierarchy_label": 1,
    "mz:is_current": 0,
    "os:country_code": "S92000003",
    "os:county_code": "S99999999",
    "os:district_code": "S12000048",
    "os:positional_quality_indicator": "8",
    "os:region_code": "S99999999",
    "src:geom": "os",
    "wof:belongsto": [
      85633159,
      102191581,
      136253055,
      1864209733,
      1360698829,
      1880762043,
      404227471,
      1880772947
    ],
    "wof:breaches": [],
    "wof:country": "GB",
    "wof:created": 1583793591,
    "wof:geomhash": "fc568488c5b8f6cd7a6ed96156686698",
    "wof:hierarchy": [
      {
        "continent_id": 102191581,
        "country_id": 85633159,
        "county_id": 1360698829,
        "empire_id": 136253055,
        "macrocounty_id": 1880762043,
        "macroregion_id": 404227471,
        "postalcode_id": 38720646,
        "region_id": 1880772947
      },
      {
        "continent_id": 102191581,
        "country_id": 85633159,
        "empire_id": 136253055,
        "postalcode_id": 38720646,
        "postalregion_id": 1864209733
      }
    ],
    "wof:id": 38720646,
    "wof:lastmodified": 1763548631,
    "wof:name": "PH1 5LX",
    "wof:parent_id": 1360698829,
    "wof:placetype": "postalcode",
    "wof:repo": "whosonfirst-data-postalcode-gb",
    "wof:superseded_by": [],
    "wof:supersedes": [],
    "wof:tags": []
  },
  "bbox": [
    -3.429885,
    56.39828,
    -3.429885,
    56.39828
  ],
  "geometry": {"coordinates":[-3.429885,56.39828],"type":"Point"}
}
