{
  "id": 487855771,
  "type": "Feature",
  "properties": {
    "date:inception_lower": "1997-12-01",
    "date:inception_upper": "1997-12-01",
    "edtf:cessation": "",
    "edtf:inception": "1997-12-01",
    "geom:area": 0,
    "geom:bbox": "0.857153,51.127720,0.857153,51.127720",
    "geom:latitude": 51.12772,
    "geom:longitude": 0.857153,
    "gp:parent_id": "25176",
    "iso:country": "GB",
    "mz:hierarchy_label": 1,
    "mz:is_current": 1,
    "os:country_code": "E92000001",
    "os:county_code": "E10000016",
    "os:district_code": "E07000105",
    "os:positional_quality_indicator": "1",
    "os:region_code": "E12000008",
    "src:geom": "os",
    "wof:belongsto": [
      85633159,
      102191581,
      136253055,
      1864211099,
      1880771513,
      404438513,
      1360754359,
      1880762057,
      404227469,
      1880762705
    ],
    "wof:breaches": [],
    "wof:concordances": {
      "gp:id": "28054653"
    },
    "wof:country": "GB",
    "wof:created": 1583701212,
    "wof:geomhash": "2b09f3508bfbd93ad245774ec26d9aad",
    "wof:hierarchy": [
      {
        "continent_id": 102191581,
        "country_id": 85633159,
        "county_id": 1880771513,
        "empire_id": 136253055,
        "localadmin_id": 404438513,
        "locality_id": 1360754359,
        "macrocounty_id": 1880762057,
        "macroregion_id": 404227469,
        "postalcode_id": 487855771,
        "region_id": 1880762705
      },
      {
        "continent_id": 102191581,
        "country_id": 85633159,
        "empire_id": 136253055,
        "postalcode_id": 487855771,
        "postalregion_id": 1864211099
      }
    ],
    "wof:id": 487855771,
    "wof:lastmodified": 1763548751,
    "wof:name": "TN23 3NX",
    "wof:parent_id": 1360754359,
    "wof:placetype": "postalcode",
    "wof:repo": "whosonfirst-data-postalcode-gb",
    "wof:superseded_by": [],
    "wof:supersedes": [],
    "wof:tags": []
  },
  "bbox": [
    0.857153,
    51.12772,
    0.857153,
    51.12772
  ],
  "geometry": {"coordinates":[0.857153,51.12772],"type":"Point"}
}
