{
  "id": 1161028658,
  "type": "Feature",
  "properties": {
    "date:cessation_lower": "1995-01-01",
    "date:cessation_upper": "1995-01-01",
    "date:inception_lower": "1990-02-01",
    "date:inception_upper": "1990-02-01",
    "edtf:cessation": "1995-01-01",
    "edtf:inception": "1990-02-01",
    "geom:area": 0,
    "geom:bbox": "-2.164870,52.482621,-2.164870,52.482621",
    "geom:latitude": 52.482621,
    "geom:longitude": -2.16487,
    "iso:country": "GB",
    "mz:hierarchy_label": 1,
    "mz:is_current": 0,
    "os:country_code": "E92000001",
    "os:county_code": "E99999999",
    "os:district_code": "E08000027",
    "os:positional_quality_indicator": "8",
    "os:region_code": "E12000005",
    "src:geom": "os",
    "wof:belongsto": [
      85633159,
      102191581,
      136253055,
      1864206915,
      1360698933,
      1360817295,
      1125917795,
      1880762069,
      404227469,
      1880773161
    ],
    "wof:breaches": [],
    "wof:country": "GB",
    "wof:created": 1583800680,
    "wof:geomhash": "770f2e0a0a2ee546312f67d17b5f37ba",
    "wof:hierarchy": [
      {
        "continent_id": 102191581,
        "country_id": 85633159,
        "county_id": 1360698933,
        "empire_id": 136253055,
        "localadmin_id": 1360817295,
        "locality_id": 1125917795,
        "macrocounty_id": 1880762069,
        "macroregion_id": 404227469,
        "postalcode_id": 1161028658,
        "region_id": 1880773161
      },
      {
        "continent_id": 102191581,
        "country_id": 85633159,
        "empire_id": 136253055,
        "postalcode_id": 1161028658,
        "postalregion_id": 1864206915
      }
    ],
    "wof:id": 1161028658,
    "wof:lastmodified": 1763548199,
    "wof:name": "DY8 5DZ",
    "wof:parent_id": 1125917795,
    "wof:placetype": "postalcode",
    "wof:repo": "whosonfirst-data-postalcode-gb",
    "wof:superseded_by": [],
    "wof:supersedes": [],
    "wof:tags": []
  },
  "bbox": [
    -2.16487,
    52.482621,
    -2.16487,
    52.482621
  ],
  "geometry": {"coordinates":[-2.16487,52.482621],"type":"Point"}
}
