{
  "id": 488288793,
  "type": "Feature",
  "properties": {
    "date:inception_lower": "2009-02-01",
    "date:inception_upper": "2009-02-01",
    "edtf:cessation": "",
    "edtf:inception": "2009-02-01",
    "geom:area": 0,
    "geom:bbox": "-1.669777,52.790431,-1.669777,52.790431",
    "geom:latitude": 52.790431,
    "geom:longitude": -1.669777,
    "gp:parent_id": "14696",
    "iso:country": "GB",
    "mz:hierarchy_label": 1,
    "mz:is_current": 1,
    "os:country_code": "E92000001",
    "os:county_code": "E10000028",
    "os:district_code": "E07000193",
    "os:positional_quality_indicator": "1",
    "os:region_code": "E12000005",
    "src:geom": "os",
    "wof:belongsto": [
      85633159,
      102191581,
      136253055,
      1864206647,
      1880771629,
      404448999,
      1360757789,
      1880761999,
      404227469,
      1880762719
    ],
    "wof:breaches": [],
    "wof:concordances": {
      "gp:id": "56139209"
    },
    "wof:country": "GB",
    "wof:created": 1583701305,
    "wof:geomhash": "a9982048faa8979214a9f1b6a1713598",
    "wof:hierarchy": [
      {
        "continent_id": 102191581,
        "country_id": 85633159,
        "county_id": 1880771629,
        "empire_id": 136253055,
        "localadmin_id": 404448999,
        "locality_id": 1360757789,
        "macrocounty_id": 1880761999,
        "macroregion_id": 404227469,
        "postalcode_id": 488288793,
        "region_id": 1880762719
      },
      {
        "continent_id": 102191581,
        "country_id": 85633159,
        "empire_id": 136253055,
        "postalcode_id": 488288793,
        "postalregion_id": 1864206647
      }
    ],
    "wof:id": 488288793,
    "wof:lastmodified": 1763548457,
    "wof:name": "DE14 3JZ",
    "wof:parent_id": 1360757789,
    "wof:placetype": "postalcode",
    "wof:repo": "whosonfirst-data-postalcode-gb",
    "wof:superseded_by": [],
    "wof:supersedes": [],
    "wof:tags": []
  },
  "bbox": [
    -1.669777,
    52.790431,
    -1.669777,
    52.790431
  ],
  "geometry": {"coordinates":[-1.669777,52.790431],"type":"Point"}
}
