{
  "id": 437753305,
  "type": "Feature",
  "properties": {
    "date:cessation_lower": "2003-02-01",
    "date:cessation_upper": "2003-02-01",
    "date:inception_lower": "2002-06-01",
    "date:inception_upper": "2002-06-01",
    "edtf:cessation": "2003-02-01",
    "edtf:inception": "2002-06-01",
    "geom:area": 0,
    "geom:bbox": "-3.503180,54.705271,-3.503180,54.705271",
    "geom:latitude": 54.705271,
    "geom:longitude": -3.50318,
    "iso:country": "GB",
    "mz:hierarchy_label": 1,
    "mz:is_current": 0,
    "os:country_code": "E92000001",
    "os:county_code": "E99999999",
    "os:district_code": "E06000063",
    "os:positional_quality_indicator": "5",
    "os:region_code": "E12000002",
    "src:geom": "os",
    "wof:belongsto": [
      85633159,
      102191581,
      136253055,
      1864206067,
      1880773239,
      404447873,
      101873391,
      1880761989,
      404227469,
      1880773269
    ],
    "wof:breaches": [],
    "wof:concordances": {
      "gp:id": "28853077"
    },
    "wof:country": "GB",
    "wof:created": 1583701535,
    "wof:geomhash": "faeff42ef00c9417c06bc9ed60c6d0bf",
    "wof:hierarchy": [
      {
        "continent_id": 102191581,
        "country_id": 85633159,
        "county_id": 1880773239,
        "empire_id": 136253055,
        "localadmin_id": 404447873,
        "locality_id": 101873391,
        "macrocounty_id": 1880761989,
        "macroregion_id": 404227469,
        "postalcode_id": 437753305,
        "region_id": 1880773269
      },
      {
        "continent_id": 102191581,
        "country_id": 85633159,
        "empire_id": 136253055,
        "postalcode_id": 437753305,
        "postalregion_id": 1864206067
      }
    ],
    "wof:id": 437753305,
    "wof:lastmodified": 1763547950,
    "wof:name": "CA15 6WB",
    "wof:parent_id": 101873391,
    "wof:placetype": "postalcode",
    "wof:repo": "whosonfirst-data-postalcode-gb",
    "wof:superseded_by": [],
    "wof:supersedes": [],
    "wof:tags": []
  },
  "bbox": [
    -3.50318,
    54.705271,
    -3.50318,
    54.705271
  ],
  "geometry": {"coordinates":[-3.50318,54.705271],"type":"Point"}
}
