{
  "id": 1160824488,
  "type": "Feature",
  "properties": {
    "date:cessation_lower": "1995-07-01",
    "date:cessation_upper": "1995-07-01",
    "date:inception_lower": "1994-05-01",
    "date:inception_upper": "1994-05-01",
    "edtf:cessation": "1995-07-01",
    "edtf:inception": "1994-05-01",
    "geom:area": 0,
    "geom:bbox": "-0.534896,51.855070,-0.534896,51.855070",
    "geom:latitude": 51.85507,
    "geom:longitude": -0.534896,
    "iso:country": "GB",
    "mz:hierarchy_label": 1,
    "mz:is_current": 0,
    "os:country_code": "E92000001",
    "os:county_code": "E99999999",
    "os:district_code": "E06000056",
    "os:positional_quality_indicator": "8",
    "os:region_code": "E12000006",
    "src:geom": "os",
    "wof:belongsto": [
      85633159,
      102191581,
      136253055,
      1864208711,
      1360698767,
      404443819,
      1126033665,
      1880762167,
      404227469,
      1880773157
    ],
    "wof:breaches": [],
    "wof:country": "GB",
    "wof:created": 1583791594,
    "wof:geomhash": "2969d34425d8d4bd5667ddc80d3d7a5a",
    "wof:hierarchy": [
      {
        "continent_id": 102191581,
        "country_id": 85633159,
        "county_id": 1360698767,
        "empire_id": 136253055,
        "localadmin_id": 404443819,
        "locality_id": 1126033665,
        "macrocounty_id": 1880762167,
        "macroregion_id": 404227469,
        "postalcode_id": 1160824488,
        "region_id": 1880773157
      },
      {
        "continent_id": 102191581,
        "country_id": 85633159,
        "empire_id": 136253055,
        "postalcode_id": 1160824488,
        "postalregion_id": 1864208711
      }
    ],
    "wof:id": 1160824488,
    "wof:lastmodified": 1763548232,
    "wof:name": "LU6 2LS",
    "wof:parent_id": 1126033665,
    "wof:placetype": "postalcode",
    "wof:repo": "whosonfirst-data-postalcode-gb",
    "wof:superseded_by": [],
    "wof:supersedes": [],
    "wof:tags": []
  },
  "bbox": [
    -0.534896,
    51.85507,
    -0.534896,
    51.85507
  ],
  "geometry": {"coordinates":[-0.534896,51.85507],"type":"Point"}
}
