{
  "id": 1998340939,
  "type": "Feature",
  "properties": {
    "date:inception_lower": "2025-06-01",
    "date:inception_upper": "2025-06-01",
    "edtf:cessation": "",
    "edtf:inception": "2025-06-01",
    "geom:area": 0,
    "geom:bbox": "1.071002,51.986303,1.071002,51.986303",
    "geom:latitude": 51.986303,
    "geom:longitude": 1.071002,
    "iso:country": "GB",
    "mz:hierarchy_label": 1,
    "mz:is_current": 1,
    "os:country_code": "E92000001",
    "os:county_code": "E10000029",
    "os:district_code": "E07000200",
    "os:positional_quality_indicator": "1",
    "os:region_code": "E12000006",
    "src:geom": "os",
    "wof:belongsto": [
      102191581,
      85633159,
      1880771637,
      136253055,
      404441173,
      1125929917,
      1880762001,
      404227469,
      1880762685,
      1864207893
    ],
    "wof:breaches": [],
    "wof:country": "GB",
    "wof:created": 1763548878,
    "wof:geomhash": "78352ac3e632c56c8ea5adc9b8014d6a",
    "wof:hierarchy": [
      {
        "continent_id": 102191581,
        "country_id": 85633159,
        "county_id": 1880771637,
        "empire_id": 136253055,
        "localadmin_id": 404441173,
        "locality_id": 1125929917,
        "macrocounty_id": 1880762001,
        "macroregion_id": 404227469,
        "postalcode_id": 1998340939,
        "region_id": 1880762685
      },
      {
        "continent_id": 102191581,
        "country_id": 85633159,
        "empire_id": 136253055,
        "postalcode_id": 1998340939,
        "postalregion_id": 1864207893
      }
    ],
    "wof:id": 1998340939,
    "wof:lastmodified": 1763548878,
    "wof:name": "IP9 2FZ",
    "wof:parent_id": 1125929917,
    "wof:placetype": "postalcode",
    "wof:repo": "whosonfirst-data-postalcode-gb",
    "wof:superseded_by": [],
    "wof:supersedes": [],
    "wof:tags": []
  },
  "bbox": [
    1.071002,
    51.986303,
    1.071002,
    51.986303
  ],
  "geometry": {"coordinates":[1.071002,51.986303],"type":"Point"}
}
