{
  "id": 1160995720,
  "type": "Feature",
  "properties": {
    "date:cessation_lower": "2015-02-01",
    "date:cessation_upper": "2015-02-01",
    "date:inception_lower": "2012-03-01",
    "date:inception_upper": "2012-03-01",
    "edtf:cessation": "2015-02-01",
    "edtf:inception": "2012-03-01",
    "geom:area": 0,
    "geom:bbox": "1.720581,52.614227,1.720581,52.614227",
    "geom:latitude": 52.614227,
    "geom:longitude": 1.720581,
    "iso:country": "GB",
    "mz:hierarchy_label": 1,
    "mz:is_current": 0,
    "os:country_code": "E92000001",
    "os:county_code": "E10000020",
    "os:district_code": "E07000145",
    "os:positional_quality_indicator": "1",
    "os:region_code": "E12000006",
    "src:geom": "os",
    "wof:belongsto": [
      85633159,
      102191581,
      136253055,
      1864209351,
      1880771583,
      101750479,
      1880762037,
      404227469,
      1880762699
    ],
    "wof:breaches": [],
    "wof:country": "GB",
    "wof:created": 1583799230,
    "wof:geomhash": "d2425fdd5e9f4848291ba295a5e7e3f8",
    "wof:hierarchy": [
      {
        "continent_id": 102191581,
        "country_id": 85633159,
        "county_id": 1880771583,
        "empire_id": 136253055,
        "locality_id": 101750479,
        "macrocounty_id": 1880762037,
        "macroregion_id": 404227469,
        "postalcode_id": 1160995720,
        "region_id": 1880762699
      },
      {
        "continent_id": 102191581,
        "country_id": 85633159,
        "empire_id": 136253055,
        "postalcode_id": 1160995720,
        "postalregion_id": 1864209351
      }
    ],
    "wof:id": 1160995720,
    "wof:lastmodified": 1763548265,
    "wof:name": "NR30 1LG",
    "wof:parent_id": 101750479,
    "wof:placetype": "postalcode",
    "wof:repo": "whosonfirst-data-postalcode-gb",
    "wof:superseded_by": [],
    "wof:supersedes": [],
    "wof:tags": []
  },
  "bbox": [
    1.720581,
    52.614227,
    1.720581,
    52.614227
  ],
  "geometry": {"coordinates":[1.720581,52.614227],"type":"Point"}
}
