{
  "id": 1797026495,
  "type": "Feature",
  "properties": {
    "date:inception_lower": "2022-10-01",
    "date:inception_upper": "2022-10-01",
    "edtf:cessation": "",
    "edtf:inception": "2022-10-01",
    "geom:area": 0,
    "geom:bbox": "-1.291526,52.620802,-1.291526,52.620802",
    "geom:latitude": 52.620802,
    "geom:longitude": -1.291526,
    "iso:country": "GB",
    "mz:hierarchy_label": 1,
    "mz:is_current": 1,
    "os:country_code": "E92000001",
    "os:county_code": "E10000018",
    "os:district_code": "E07000132",
    "os:positional_quality_indicator": "1",
    "os:region_code": "E12000004",
    "src:geom": "os",
    "wof:belongsto": [
      102191581,
      85633159,
      136253055,
      1864208443,
      1880771557,
      404435293,
      101853617,
      1880762051,
      404227469,
      1880773085
    ],
    "wof:breaches": [],
    "wof:country": "GB",
    "wof:created": 1673354880,
    "wof:geomhash": "5c2471d4f071b7dc181a2f48d4b45d27",
    "wof:hierarchy": [
      {
        "continent_id": 102191581,
        "country_id": 85633159,
        "county_id": 1880771557,
        "empire_id": 136253055,
        "localadmin_id": 404435293,
        "locality_id": 101853617,
        "macrocounty_id": 1880762051,
        "macroregion_id": 404227469,
        "postalcode_id": 1797026495,
        "region_id": 1880773085
      },
      {
        "continent_id": 102191581,
        "country_id": 85633159,
        "empire_id": 136253055,
        "postalcode_id": 1797026495,
        "postalregion_id": 1864208443
      }
    ],
    "wof:id": 1797026495,
    "wof:lastmodified": 1763548636,
    "wof:name": "LE9 9RN",
    "wof:parent_id": 101853617,
    "wof:placetype": "postalcode",
    "wof:repo": "whosonfirst-data-postalcode-gb",
    "wof:superseded_by": [],
    "wof:supersedes": [],
    "wof:tags": []
  },
  "bbox": [
    -1.291526,
    52.620802,
    -1.291526,
    52.620802
  ],
  "geometry": {"coordinates":[-1.291526,52.620802],"type":"Point"}
}
