{
  "id": 890250299,
  "type": "Feature",
  "properties": {
    "date:inception_lower": "2014-06-01",
    "date:inception_upper": "2014-06-01",
    "edtf:cessation": "",
    "edtf:inception": "2014-06-01",
    "geom:area": 0,
    "geom:bbox": "-1.208102,53.372976,-1.208102,53.372976",
    "geom:latitude": 53.372976,
    "geom:longitude": -1.208102,
    "iso:country": "GB",
    "mz:hierarchy_label": 1,
    "mz:is_current": 1,
    "os:country_code": "E92000001",
    "os:county_code": "E99999999",
    "os:district_code": "E08000018",
    "os:positional_quality_indicator": "1",
    "os:region_code": "E12000003",
    "src:geom": "os",
    "wof:belongsto": [
      85633159,
      102191581,
      136253055,
      1864210197,
      1360698851,
      404448631,
      1360757173,
      1880761997,
      404227469,
      1880772963
    ],
    "wof:breaches": [],
    "wof:country": "GB",
    "wof:created": 1468899090,
    "wof:geomhash": "d92ec759657937b31b24402436424915",
    "wof:hierarchy": [
      {
        "continent_id": 102191581,
        "country_id": 85633159,
        "county_id": 1360698851,
        "empire_id": 136253055,
        "localadmin_id": 404448631,
        "locality_id": 1360757173,
        "macrocounty_id": 1880761997,
        "macroregion_id": 404227469,
        "postalcode_id": 890250299,
        "region_id": 1880772963
      },
      {
        "continent_id": 102191581,
        "country_id": 85633159,
        "empire_id": 136253055,
        "postalcode_id": 890250299,
        "postalregion_id": 1864210197
      }
    ],
    "wof:id": 890250299,
    "wof:lastmodified": 1763548611,
    "wof:name": "S25 2AR",
    "wof:parent_id": 1360757173,
    "wof:placetype": "postalcode",
    "wof:repo": "whosonfirst-data-postalcode-gb",
    "wof:superseded_by": [],
    "wof:supersedes": [],
    "wof:tags": []
  },
  "bbox": [
    -1.208102,
    53.372976,
    -1.208102,
    53.372976
  ],
  "geometry": {"coordinates":[-1.208102,53.372976],"type":"Point"}
}
