{
  "id": 38292867,
  "type": "Feature",
  "properties": {
    "date:cessation_lower": "2000-07-01",
    "date:cessation_upper": "2000-07-01",
    "date:inception_lower": "1980-01-01",
    "date:inception_upper": "1980-01-01",
    "edtf:cessation": "2000-07-01",
    "edtf:inception": "1980-01-01",
    "geom:area": 0,
    "geom:bbox": "-1.236152,51.957494,-1.236152,51.957494",
    "geom:latitude": 51.957494,
    "geom:longitude": -1.236152,
    "iso:country": "GB",
    "mz:hierarchy_label": 1,
    "mz:is_current": 0,
    "os:country_code": "E92000001",
    "os:county_code": "E10000025",
    "os:district_code": "E07000177",
    "os:positional_quality_indicator": "1",
    "os:region_code": "E12000008",
    "src:geom": "os",
    "wof:belongsto": [
      102191581,
      85633159,
      1880771613,
      136253055,
      404439717,
      1126043535,
      1880762079,
      404227469,
      1880762695
    ],
    "wof:breaches": [],
    "wof:country": "GB",
    "wof:created": 1583788745,
    "wof:geomhash": "5d5c5c15fa5495d1e76a8afa36cfc0ca",
    "wof:hierarchy": [
      {
        "continent_id": 102191581,
        "country_id": 85633159,
        "county_id": 1880771613,
        "empire_id": 136253055,
        "localadmin_id": 404439717,
        "locality_id": 1126043535,
        "macrocounty_id": 1880762079,
        "macroregion_id": 404227469,
        "postalcode_id": 38292867,
        "region_id": 1880762695
      }
    ],
    "wof:id": 38292867,
    "wof:lastmodified": 1763548371,
    "wof:name": "OX6 9QQ",
    "wof:parent_id": 1126043535,
    "wof:placetype": "postalcode",
    "wof:repo": "whosonfirst-data-postalcode-gb",
    "wof:superseded_by": [],
    "wof:supersedes": [],
    "wof:tags": []
  },
  "bbox": [
    -1.236152,
    51.957494,
    -1.236152,
    51.957494
  ],
  "geometry": {"coordinates":[-1.236152,51.957494],"type":"Point"}
}
