{
  "id": 454216001,
  "type": "Feature",
  "properties": {
    "date:cessation_lower": "2011-06-01",
    "date:cessation_upper": "2011-06-01",
    "date:inception_lower": "1980-01-01",
    "date:inception_upper": "1980-01-01",
    "edtf:cessation": "2011-06-01",
    "edtf:inception": "1980-01-01",
    "geom:area": 0,
    "geom:bbox": "1.439551,51.358787,1.439551,51.358787",
    "geom:latitude": 51.358787,
    "geom:longitude": 1.439551,
    "gp:parent_id": "14029",
    "iso:country": "GB",
    "mz:hierarchy_label": 1,
    "mz:is_current": 0,
    "os:country_code": "E92000001",
    "os:county_code": "E10000016",
    "os:district_code": "E07000114",
    "os:positional_quality_indicator": "1",
    "os:region_code": "E12000008",
    "src:geom": "os",
    "wof:belongsto": [
      85633159,
      102191581,
      136253055,
      1864206445,
      1880771511,
      404447271,
      1360755035,
      1880762057,
      404227469,
      1880762705
    ],
    "wof:breaches": [],
    "wof:concordances": {
      "gp:id": "26424266"
    },
    "wof:country": "GB",
    "wof:created": 1583701383,
    "wof:geomhash": "32615275e9572c31f4b694b16560599f",
    "wof:hierarchy": [
      {
        "continent_id": 102191581,
        "country_id": 85633159,
        "county_id": 1880771511,
        "empire_id": 136253055,
        "localadmin_id": 404447271,
        "locality_id": 1360755035,
        "macrocounty_id": 1880762057,
        "macroregion_id": 404227469,
        "postalcode_id": 454216001,
        "region_id": 1880762705
      },
      {
        "continent_id": 102191581,
        "country_id": 85633159,
        "empire_id": 136253055,
        "postalcode_id": 454216001,
        "postalregion_id": 1864206445
      }
    ],
    "wof:id": 454216001,
    "wof:lastmodified": 1763548246,
    "wof:name": "CT10 1JP",
    "wof:parent_id": 1360755035,
    "wof:placetype": "postalcode",
    "wof:repo": "whosonfirst-data-postalcode-gb",
    "wof:superseded_by": [],
    "wof:supersedes": [],
    "wof:tags": []
  },
  "bbox": [
    1.439551,
    51.358787,
    1.439551,
    51.358787
  ],
  "geometry": {"coordinates":[1.439551,51.358787],"type":"Point"}
}
