{
  "id": 1160878368,
  "type": "Feature",
  "properties": {
    "date:cessation_lower": "1995-07-01",
    "date:cessation_upper": "1995-07-01",
    "date:inception_lower": "1994-12-01",
    "date:inception_upper": "1994-12-01",
    "edtf:cessation": "1995-07-01",
    "edtf:inception": "1994-12-01",
    "geom:area": 0,
    "geom:bbox": "-2.374899,51.371754,-2.374899,51.371754",
    "geom:latitude": 51.371754,
    "geom:longitude": -2.374899,
    "iso:country": "GB",
    "mz:hierarchy_label": 1,
    "mz:is_current": 0,
    "os:country_code": "E92000001",
    "os:county_code": "E99999999",
    "os:district_code": "E06000022",
    "os:positional_quality_indicator": "8",
    "os:region_code": "E12000009",
    "src:geom": "os",
    "wof:belongsto": [
      85633159,
      102191581,
      136253055,
      1864205669,
      1360698775,
      101750387,
      1880762071,
      404227469,
      1880773145
    ],
    "wof:breaches": [],
    "wof:country": "GB",
    "wof:created": 1583794002,
    "wof:geomhash": "4fb4e4155265c9cf0aaf5c5c142510c9",
    "wof:hierarchy": [
      {
        "continent_id": 102191581,
        "country_id": 85633159,
        "county_id": 1360698775,
        "empire_id": 136253055,
        "locality_id": 101750387,
        "macrocounty_id": 1880762071,
        "macroregion_id": 404227469,
        "postalcode_id": 1160878368,
        "region_id": 1880773145
      },
      {
        "continent_id": 102191581,
        "country_id": 85633159,
        "empire_id": 136253055,
        "postalcode_id": 1160878368,
        "postalregion_id": 1864205669
      }
    ],
    "wof:id": 1160878368,
    "wof:lastmodified": 1763548311,
    "wof:name": "BA2 3YB",
    "wof:parent_id": 101750387,
    "wof:placetype": "postalcode",
    "wof:repo": "whosonfirst-data-postalcode-gb",
    "wof:superseded_by": [],
    "wof:supersedes": [],
    "wof:tags": []
  },
  "bbox": [
    -2.374899,
    51.371754,
    -2.374899,
    51.371754
  ],
  "geometry": {"coordinates":[-2.374899,51.371754],"type":"Point"}
}
