{
  "id": 1998340735,
  "type": "Feature",
  "properties": {
    "date:cessation_lower": "2025-06-01",
    "date:cessation_upper": "2025-06-01",
    "date:inception_lower": "2025-04-01",
    "date:inception_upper": "2025-04-01",
    "edtf:cessation": "2025-06-01",
    "edtf:inception": "2025-04-01",
    "geom:area": 0,
    "geom:bbox": "-2.335295,53.485120,-2.335295,53.485120",
    "geom:latitude": 53.48512,
    "geom:longitude": -2.335295,
    "iso:country": "GB",
    "mz:hierarchy_label": 1,
    "mz:is_current": 0,
    "os:country_code": "E92000001",
    "os:county_code": "E99999999",
    "os:district_code": "E08000006",
    "os:positional_quality_indicator": "1",
    "os:region_code": "E12000002",
    "src:geom": "os",
    "wof:belongsto": [
      102191581,
      85633159,
      1360699005,
      136253055,
      1175612693,
      1880762163,
      404227469,
      1880773095,
      1864208765
    ],
    "wof:breaches": [],
    "wof:country": "GB",
    "wof:created": 1763548869,
    "wof:geomhash": "174b353c8ba0e4b40814269186b162ad",
    "wof:hierarchy": [
      {
        "continent_id": 102191581,
        "country_id": 85633159,
        "county_id": 1360699005,
        "empire_id": 136253055,
        "locality_id": 1175612693,
        "macrocounty_id": 1880762163,
        "macroregion_id": 404227469,
        "postalcode_id": 1998340735,
        "region_id": 1880773095
      },
      {
        "continent_id": 102191581,
        "country_id": 85633159,
        "empire_id": 136253055,
        "postalcode_id": 1998340735,
        "postalregion_id": 1864208765
      }
    ],
    "wof:id": 1998340735,
    "wof:lastmodified": 1763548869,
    "wof:name": "M30 0ZR",
    "wof:parent_id": 1175612693,
    "wof:placetype": "postalcode",
    "wof:repo": "whosonfirst-data-postalcode-gb",
    "wof:superseded_by": [],
    "wof:supersedes": [],
    "wof:tags": []
  },
  "bbox": [
    -2.335295,
    53.48512,
    -2.335295,
    53.48512
  ],
  "geometry": {"coordinates":[-2.335295,53.48512],"type":"Point"}
}
