{
  "id": 437786719,
  "type": "Feature",
  "properties": {
    "date:cessation_lower": "2004-06-01",
    "date:cessation_upper": "2004-06-01",
    "date:inception_lower": "1980-01-01",
    "date:inception_upper": "1980-01-01",
    "edtf:cessation": "2004-06-01",
    "edtf:inception": "1980-01-01",
    "geom:area": 0,
    "geom:bbox": "-3.204349,55.953201,-3.204349,55.953201",
    "geom:latitude": 55.953201,
    "geom:longitude": -3.204349,
    "iso:country": "GB",
    "mz:hierarchy_label": 1,
    "mz:is_current": 0,
    "os:country_code": "S92000003",
    "os:county_code": "S99999999",
    "os:district_code": "S12000036",
    "os:positional_quality_indicator": "1",
    "os:region_code": "S99999999",
    "src:geom": "os",
    "wof:belongsto": [
      85633159,
      102191581,
      136253055,
      1864207051,
      1360698761,
      101750629,
      1880762089,
      404227471,
      1880772893
    ],
    "wof:breaches": [],
    "wof:concordances": {
      "gp:id": "28872367"
    },
    "wof:country": "GB",
    "wof:created": 1583701553,
    "wof:geomhash": "46f88fb2950d0929c9f4c0db90c61b7a",
    "wof:hierarchy": [
      {
        "continent_id": 102191581,
        "country_id": 85633159,
        "county_id": 1360698761,
        "empire_id": 136253055,
        "locality_id": 101750629,
        "macrocounty_id": 1880762089,
        "macroregion_id": 404227471,
        "postalcode_id": 437786719,
        "region_id": 1880772893
      },
      {
        "continent_id": 102191581,
        "country_id": 85633159,
        "empire_id": 136253055,
        "postalcode_id": 437786719,
        "postalregion_id": 1864207051
      }
    ],
    "wof:id": 437786719,
    "wof:lastmodified": 1763548278,
    "wof:name": "EH2 3LX",
    "wof:parent_id": 101750629,
    "wof:placetype": "postalcode",
    "wof:repo": "whosonfirst-data-postalcode-gb",
    "wof:superseded_by": [],
    "wof:supersedes": [],
    "wof:tags": []
  },
  "bbox": [
    -3.204349,
    55.953201,
    -3.204349,
    55.953201
  ],
  "geometry": {"coordinates":[-3.204349,55.953201],"type":"Point"}
}
