{
  "id": 437867693,
  "type": "Feature",
  "properties": {
    "date:cessation_lower": "2004-06-01",
    "date:cessation_upper": "2004-06-01",
    "date:inception_lower": "2002-06-01",
    "date:inception_upper": "2002-06-01",
    "edtf:cessation": "2004-06-01",
    "edtf:inception": "2002-06-01",
    "geom:area": 0,
    "geom:bbox": "-0.745440,50.810101,-0.745440,50.810101",
    "geom:latitude": 50.810101,
    "geom:longitude": -0.74544,
    "gp:parent_id": "24158",
    "iso:country": "GB",
    "mz:hierarchy_label": 1,
    "mz:is_current": 0,
    "os:country_code": "E92000001",
    "os:county_code": "E10000032",
    "os:district_code": "E07000225",
    "os:positional_quality_indicator": "1",
    "os:region_code": "E12000008",
    "src:geom": "os",
    "wof:belongsto": [
      85633159,
      102191581,
      136253055,
      1864209939,
      1880771685,
      404436839,
      1327260721,
      1880762061,
      404227469,
      1880762709
    ],
    "wof:breaches": [],
    "wof:concordances": {
      "gp:id": "28919634"
    },
    "wof:country": "GB",
    "wof:created": 1583701600,
    "wof:geomhash": "ff70793f30948d284c91c2654f4896b6",
    "wof:hierarchy": [
      {
        "continent_id": 102191581,
        "country_id": 85633159,
        "county_id": 1880771685,
        "empire_id": 136253055,
        "localadmin_id": 404436839,
        "locality_id": 1327260721,
        "macrocounty_id": 1880762061,
        "macroregion_id": 404227469,
        "postalcode_id": 437867693,
        "region_id": 1880762709
      },
      {
        "continent_id": 102191581,
        "country_id": 85633159,
        "empire_id": 136253055,
        "postalcode_id": 437867693,
        "postalregion_id": 1864209939
      }
    ],
    "wof:id": 437867693,
    "wof:lastmodified": 1763548070,
    "wof:name": "PO20 1GJ",
    "wof:parent_id": 1327260721,
    "wof:placetype": "postalcode",
    "wof:repo": "whosonfirst-data-postalcode-gb",
    "wof:superseded_by": [],
    "wof:supersedes": [],
    "wof:tags": []
  },
  "bbox": [
    -0.74544,
    50.810101,
    -0.74544,
    50.810101
  ],
  "geometry": {"coordinates":[-0.74544,50.810101],"type":"Point"}
}
