{
  "id": 454052807,
  "type": "Feature",
  "properties": {
    "date:inception_lower": "1980-01-01",
    "date:inception_upper": "1980-01-01",
    "edtf:cessation": "",
    "edtf:inception": "1980-01-01",
    "geom:area": 0,
    "geom:bbox": "-2.749940,54.666028,-2.749940,54.666028",
    "geom:latitude": 54.666028,
    "geom:longitude": -2.74994,
    "iso:country": "GB",
    "mz:hierarchy_label": 1,
    "mz:is_current": 1,
    "os:country_code": "E92000001",
    "os:county_code": "E99999999",
    "os:district_code": "E06000064",
    "os:positional_quality_indicator": "1",
    "os:region_code": "E12000002",
    "src:geom": "os",
    "wof:belongsto": [
      85633159,
      102191581,
      136253055,
      1864206057,
      1880773235,
      101873419,
      1880761989,
      404227469,
      1880773269
    ],
    "wof:breaches": [],
    "wof:concordances": {
      "gp:id": "27014160"
    },
    "wof:country": "GB",
    "wof:created": 1583701090,
    "wof:geomhash": "5d244f1a722cbf5f0e103e749d5013d0",
    "wof:hierarchy": [
      {
        "continent_id": 102191581,
        "country_id": 85633159,
        "county_id": 1880773235,
        "empire_id": 136253055,
        "locality_id": 101873419,
        "macrocounty_id": 1880761989,
        "macroregion_id": 404227469,
        "postalcode_id": 454052807,
        "region_id": 1880773269
      },
      {
        "continent_id": 102191581,
        "country_id": 85633159,
        "empire_id": 136253055,
        "postalcode_id": 454052807,
        "postalregion_id": 1864206057
      }
    ],
    "wof:id": 454052807,
    "wof:lastmodified": 1763548349,
    "wof:name": "CA11 7TW",
    "wof:parent_id": 101873419,
    "wof:placetype": "postalcode",
    "wof:repo": "whosonfirst-data-postalcode-gb",
    "wof:superseded_by": [],
    "wof:supersedes": [],
    "wof:tags": []
  },
  "bbox": [
    -2.74994,
    54.666028,
    -2.74994,
    54.666028
  ],
  "geometry": {"coordinates":[-2.74994,54.666028],"type":"Point"}
}
