{
  "id": 504481087,
  "type": "Feature",
  "properties": {
    "date:inception_lower": "1983-03-01",
    "date:inception_upper": "1983-03-01",
    "edtf:cessation": "",
    "edtf:inception": "1983-03-01",
    "geom:area": 0,
    "geom:bbox": "-3.221670,52.013328,-3.221670,52.013328",
    "geom:latitude": 52.013328,
    "geom:longitude": -3.22167,
    "iso:country": "GB",
    "mz:hierarchy_label": 1,
    "mz:is_current": 1,
    "os:country_code": "W92000004",
    "os:county_code": "W99999999",
    "os:district_code": "W06000023",
    "os:positional_quality_indicator": "1",
    "os:region_code": "W99999999",
    "src:geom": "os",
    "wof:belongsto": [
      85633159,
      102191581,
      136253055,
      1864208377,
      1360698985,
      404444857,
      1360711515,
      1880762123,
      404227475,
      1880773075
    ],
    "wof:breaches": [],
    "wof:concordances": {
      "gp:id": "27467839"
    },
    "wof:country": "GB",
    "wof:created": 1583701364,
    "wof:geomhash": "8745e9a2847cb96f1aa56c2b5e68c926",
    "wof:hierarchy": [
      {
        "continent_id": 102191581,
        "country_id": 85633159,
        "county_id": 1360698985,
        "empire_id": 136253055,
        "localadmin_id": 404444857,
        "locality_id": 1360711515,
        "macrocounty_id": 1880762123,
        "macroregion_id": 404227475,
        "postalcode_id": 504481087,
        "region_id": 1880773075
      },
      {
        "continent_id": 102191581,
        "country_id": 85633159,
        "empire_id": 136253055,
        "postalcode_id": 504481087,
        "postalregion_id": 1864208377
      }
    ],
    "wof:id": 504481087,
    "wof:lastmodified": 1763548107,
    "wof:name": "LD3 0DL",
    "wof:parent_id": 1360711515,
    "wof:placetype": "postalcode",
    "wof:repo": "whosonfirst-data-postalcode-gb",
    "wof:superseded_by": [],
    "wof:supersedes": [],
    "wof:tags": []
  },
  "bbox": [
    -3.22167,
    52.013328,
    -3.22167,
    52.013328
  ],
  "geometry": {"coordinates":[-3.22167,52.013328],"type":"Point"}
}
