{
  "id": 1712760931,
  "type": "Feature",
  "properties": {
    "date:cessation_lower": "1995-12-01",
    "date:cessation_upper": "1995-12-01",
    "date:inception_lower": "1995-07-01",
    "date:inception_upper": "1995-07-01",
    "edtf:cessation": "1995-12-01",
    "edtf:inception": "1995-07-01",
    "geom:area": 0,
    "geom:bbox": "-1.286080,51.362990,-1.286080,51.362990",
    "geom:latitude": 51.36299,
    "geom:longitude": -1.28608,
    "iso:country": "GB",
    "mz:hierarchy_label": 1,
    "mz:is_current": 0,
    "os:country_code": "E92000001",
    "os:county_code": "E10000014",
    "os:district_code": "E07000084",
    "os:positional_quality_indicator": "8",
    "os:region_code": "E12000008",
    "src:geom": "os",
    "wof:belongsto": [
      85633159,
      102191581,
      136253055,
      1864210029,
      1880771457,
      404449469,
      1360753681,
      1880762155,
      404227469,
      1880762717
    ],
    "wof:breaches": [],
    "wof:country": "GB",
    "wof:created": 1583802409,
    "wof:geomhash": "14db80ea5fe2d1ab4719aa8ee5eebf2f",
    "wof:hierarchy": [
      {
        "continent_id": 102191581,
        "country_id": 85633159,
        "county_id": 1880771457,
        "empire_id": 136253055,
        "localadmin_id": 404449469,
        "locality_id": 1360753681,
        "macrocounty_id": 1880762155,
        "macroregion_id": 404227469,
        "postalcode_id": 1712760931,
        "region_id": 1880762717
      },
      {
        "continent_id": 102191581,
        "country_id": 85633159,
        "empire_id": 136253055,
        "postalcode_id": 1712760931,
        "postalregion_id": 1864210029
      }
    ],
    "wof:id": 1712760931,
    "wof:lastmodified": 1763548735,
    "wof:name": "RG19 8JW",
    "wof:parent_id": 1360753681,
    "wof:placetype": "postalcode",
    "wof:repo": "whosonfirst-data-postalcode-gb",
    "wof:superseded_by": [],
    "wof:supersedes": [],
    "wof:tags": []
  },
  "bbox": [
    -1.28608,
    51.36299,
    -1.28608,
    51.36299
  ],
  "geometry": {"coordinates":[-1.28608,51.36299],"type":"Point"}
}
