{
  "id": 471466511,
  "type": "Feature",
  "properties": {
    "date:inception_lower": "1980-01-01",
    "date:inception_upper": "1980-01-01",
    "edtf:cessation": "",
    "edtf:inception": "1980-01-01",
    "geom:area": 0,
    "geom:bbox": "-0.644062,50.797051,-0.644062,50.797051",
    "geom:latitude": 50.797051,
    "geom:longitude": -0.644062,
    "iso:country": "GB",
    "mz:hierarchy_label": 1,
    "mz:is_current": 1,
    "os:country_code": "E92000001",
    "os:county_code": "E10000032",
    "os:district_code": "E07000224",
    "os:positional_quality_indicator": "1",
    "os:region_code": "E12000008",
    "src:geom": "os",
    "wof:belongsto": [
      85633159,
      102191581,
      136253055,
      1864209943,
      1880771681,
      404446309,
      1126011419,
      1880762061
    ],
    "wof:breaches": [],
    "wof:concordances": {
      "gp:id": "27787038"
    },
    "wof:country": "GB",
    "wof:created": 1583701626,
    "wof:geomhash": "5dde1e9086e2233c26e28265e438221b",
    "wof:hierarchy": [
      {
        "continent_id": -1,
        "country_id": -1,
        "county_id": 1880771681,
        "localadmin_id": 404446309,
        "locality_id": 1126011419,
        "macrocounty_id": 1880762061,
        "postalcode_id": 471466511,
        "region_id": -1
      },
      {
        "continent_id": 102191581,
        "country_id": 85633159,
        "empire_id": 136253055,
        "postalcode_id": 471466511,
        "postalregion_id": 1864209943
      }
    ],
    "wof:id": 471466511,
    "wof:lastmodified": 1763548377,
    "wof:name": "PO22 8NE",
    "wof:parent_id": 1126011419,
    "wof:placetype": "postalcode",
    "wof:repo": "whosonfirst-data-postalcode-gb",
    "wof:superseded_by": [],
    "wof:supersedes": [],
    "wof:tags": []
  },
  "bbox": [
    -0.644062,
    50.797051,
    -0.644062,
    50.797051
  ],
  "geometry": {"coordinates":[-0.644062,50.797051],"type":"Point"}
}
