{
  "id": 488608207,
  "type": "Feature",
  "properties": {
    "date:inception_lower": "1980-01-01",
    "date:inception_upper": "1980-01-01",
    "edtf:cessation": "",
    "edtf:inception": "1980-01-01",
    "geom:area": 0,
    "geom:bbox": "-2.621952,56.778554,-2.621952,56.778554",
    "geom:latitude": 56.778554,
    "geom:longitude": -2.621952,
    "gp:parent_id": "12696184",
    "iso:country": "GB",
    "mz:hierarchy_label": 1,
    "mz:is_current": 1,
    "os:country_code": "S92000003",
    "os:county_code": "S99999999",
    "os:district_code": "S12000041",
    "os:positional_quality_indicator": "1",
    "os:region_code": "S99999999",
    "src:geom": "os",
    "wof:belongsto": [
      85633159,
      102191581,
      136253055,
      1864206635,
      1360698807,
      1880762021,
      404227471,
      1880772935
    ],
    "wof:breaches": [],
    "wof:concordances": {
      "gp:id": "27139841"
    },
    "wof:country": "GB",
    "wof:created": 1583701616,
    "wof:geomhash": "5276437a257afa53f2f49c7f30200eaf",
    "wof:hierarchy": [
      {
        "continent_id": 102191581,
        "country_id": 85633159,
        "county_id": 1360698807,
        "empire_id": 136253055,
        "macrocounty_id": 1880762021,
        "macroregion_id": 404227471,
        "postalcode_id": 488608207,
        "region_id": 1880772935
      },
      {
        "continent_id": 102191581,
        "country_id": 85633159,
        "empire_id": 136253055,
        "postalcode_id": 488608207,
        "postalregion_id": 1864206635
      }
    ],
    "wof:id": 488608207,
    "wof:lastmodified": 1763548582,
    "wof:name": "DD9 7QF",
    "wof:parent_id": 1360698807,
    "wof:placetype": "postalcode",
    "wof:repo": "whosonfirst-data-postalcode-gb",
    "wof:superseded_by": [],
    "wof:supersedes": [],
    "wof:tags": []
  },
  "bbox": [
    -2.621952,
    56.778554,
    -2.621952,
    56.778554
  ],
  "geometry": {"coordinates":[-2.621952,56.778554],"type":"Point"}
}
