{
  "id": 874432047,
  "type": "Feature",
  "properties": {
    "date:inception_lower": "2014-04-01",
    "date:inception_upper": "2014-04-01",
    "edtf:cessation": "",
    "edtf:inception": "2014-04-01",
    "geom:area": 0,
    "geom:bbox": "-2.922569,53.176374,-2.922569,53.176374",
    "geom:latitude": 53.176374,
    "geom:longitude": -2.922569,
    "iso:country": "GB",
    "mz:hierarchy_label": 1,
    "mz:is_current": 1,
    "os:country_code": "W92000004",
    "os:county_code": "W99999999",
    "os:district_code": "W06000005",
    "os:positional_quality_indicator": "1",
    "os:region_code": "W99999999",
    "src:geom": "os",
    "wof:belongsto": [
      85633159,
      102191581,
      136253055,
      1864206269,
      1360698799,
      404452785,
      1125967253,
      1880762183,
      404227475,
      1880772909
    ],
    "wof:breaches": [],
    "wof:country": "GB",
    "wof:created": 1468876131,
    "wof:geomhash": "8033a32192f6b7a26e4dd86c4c035cf9",
    "wof:hierarchy": [
      {
        "continent_id": 102191581,
        "country_id": 85633159,
        "county_id": 1360698799,
        "empire_id": 136253055,
        "localadmin_id": 404452785,
        "locality_id": 1125967253,
        "macrocounty_id": 1880762183,
        "macroregion_id": 404227475,
        "postalcode_id": 874432047,
        "region_id": 1880772909
      },
      {
        "continent_id": 102191581,
        "country_id": 85633159,
        "empire_id": 136253055,
        "postalcode_id": 874432047,
        "postalregion_id": 1864206269
      }
    ],
    "wof:id": 874432047,
    "wof:lastmodified": 1763547991,
    "wof:name": "CH4 8QQ",
    "wof:parent_id": 1125967253,
    "wof:placetype": "postalcode",
    "wof:repo": "whosonfirst-data-postalcode-gb",
    "wof:superseded_by": [],
    "wof:supersedes": [],
    "wof:tags": []
  },
  "bbox": [
    -2.922569,
    53.176374,
    -2.922569,
    53.176374
  ],
  "geometry": {"coordinates":[-2.922569,53.176374],"type":"Point"}
}
