{
  "id": 874453027,
  "type": "Feature",
  "properties": {
    "date:inception_lower": "2015-02-01",
    "date:inception_upper": "2015-02-01",
    "edtf:cessation": "",
    "edtf:inception": "2015-02-01",
    "geom:area": 0,
    "geom:bbox": "-3.693784,55.887047,-3.693784,55.887047",
    "geom:latitude": 55.887047,
    "geom:longitude": -3.693784,
    "iso:country": "GB",
    "mz:hierarchy_label": 1,
    "mz:is_current": 1,
    "os:country_code": "S92000003",
    "os:county_code": "S99999999",
    "os:district_code": "S12000040",
    "os:positional_quality_indicator": "1",
    "os:region_code": "S99999999",
    "src:geom": "os",
    "wof:belongsto": [
      85633159,
      102191581,
      136253055,
      1864207121,
      1360699027,
      1880762081,
      404227471,
      1880773117
    ],
    "wof:breaches": [],
    "wof:country": "GB",
    "wof:created": 1468879067,
    "wof:geomhash": "a2e42140e39ea2157ac1dc3ffe6a388b",
    "wof:hierarchy": [
      {
        "continent_id": 102191581,
        "country_id": 85633159,
        "county_id": 1360699027,
        "empire_id": 136253055,
        "macrocounty_id": 1880762081,
        "macroregion_id": 404227471,
        "postalcode_id": 874453027,
        "region_id": 1880773117
      },
      {
        "continent_id": 102191581,
        "country_id": 85633159,
        "empire_id": 136253055,
        "postalcode_id": 874453027,
        "postalregion_id": 1864207121
      }
    ],
    "wof:id": 874453027,
    "wof:lastmodified": 1763547952,
    "wof:name": "EH48 3AA",
    "wof:parent_id": 1360699027,
    "wof:placetype": "postalcode",
    "wof:repo": "whosonfirst-data-postalcode-gb",
    "wof:superseded_by": [],
    "wof:supersedes": [],
    "wof:tags": []
  },
  "bbox": [
    -3.693784,
    55.887047,
    -3.693784,
    55.887047
  ],
  "geometry": {"coordinates":[-3.693784,55.887047],"type":"Point"}
}
