{
  "id": 504617541,
  "type": "Feature",
  "properties": {
    "date:inception_lower": "1995-12-01",
    "date:inception_upper": "1995-12-01",
    "edtf:cessation": "",
    "edtf:inception": "1995-12-01",
    "geom:area": 0,
    "geom:bbox": "-3.322899,52.648440,-3.322899,52.648440",
    "geom:latitude": 52.64844,
    "geom:longitude": -3.322899,
    "gp:parent_id": "26900",
    "iso:country": "GB",
    "mz:hierarchy_label": 1,
    "mz:is_current": 1,
    "os:country_code": "W92000004",
    "os:county_code": "W99999999",
    "os:district_code": "W06000023",
    "os:positional_quality_indicator": "1",
    "os:region_code": "W99999999",
    "src:geom": "os",
    "wof:belongsto": [
      85633159,
      102191581,
      136253055,
      1864210921,
      1360698985,
      404434103,
      1125852745,
      1880762123,
      404227475,
      1880773075
    ],
    "wof:breaches": [],
    "wof:concordances": {
      "gp:id": "28019528"
    },
    "wof:country": "GB",
    "wof:created": 1583701491,
    "wof:geomhash": "efe3fde4b85ac8dcca03cbdbfff6c2f4",
    "wof:hierarchy": [
      {
        "continent_id": 102191581,
        "country_id": 85633159,
        "county_id": 1360698985,
        "empire_id": 136253055,
        "localadmin_id": 404434103,
        "locality_id": 1125852745,
        "macrocounty_id": 1880762123,
        "macroregion_id": 404227475,
        "postalcode_id": 504617541,
        "region_id": 1880773075
      },
      {
        "continent_id": 102191581,
        "country_id": 85633159,
        "empire_id": 136253055,
        "postalcode_id": 504617541,
        "postalregion_id": 1864210921
      }
    ],
    "wof:id": 504617541,
    "wof:lastmodified": 1763547947,
    "wof:name": "SY21 0AT",
    "wof:parent_id": 1125852745,
    "wof:placetype": "postalcode",
    "wof:repo": "whosonfirst-data-postalcode-gb",
    "wof:superseded_by": [],
    "wof:supersedes": [],
    "wof:tags": []
  },
  "bbox": [
    -3.322899,
    52.64844,
    -3.322899,
    52.64844
  ],
  "geometry": {"coordinates":[-3.322899,52.64844],"type":"Point"}
}
