{
  "id": 471779099,
  "type": "Feature",
  "properties": {
    "date:cessation_lower": "2016-05-01",
    "date:cessation_upper": "2016-05-01",
    "date:inception_lower": "1980-01-01",
    "date:inception_upper": "1980-01-01",
    "edtf:cessation": "2016-05-01",
    "edtf:inception": "1980-01-01",
    "geom:area": 0,
    "geom:bbox": "-1.899589,53.263467,-1.899589,53.263467",
    "geom:latitude": 53.263467,
    "geom:longitude": -1.899589,
    "iso:country": "GB",
    "mz:hierarchy_label": 1,
    "mz:is_current": 0,
    "os:country_code": "E92000001",
    "os:county_code": "E10000007",
    "os:district_code": "E07000037",
    "os:positional_quality_indicator": "1",
    "os:region_code": "E12000004",
    "src:geom": "os",
    "wof:belongsto": [
      85633159,
      102191581,
      136253055,
      1864210533,
      1880771377,
      101872099,
      1880762133,
      404227469,
      1880762707
    ],
    "wof:breaches": [],
    "wof:concordances": {
      "gp:id": "27919994"
    },
    "wof:country": "GB",
    "wof:created": 1583701736,
    "wof:geomhash": "8901b243e42c311665779546c069fce9",
    "wof:hierarchy": [
      {
        "continent_id": 102191581,
        "country_id": 85633159,
        "county_id": 1880771377,
        "empire_id": 136253055,
        "locality_id": 101872099,
        "macrocounty_id": 1880762133,
        "macroregion_id": 404227469,
        "postalcode_id": 471779099,
        "region_id": 1880762707
      },
      {
        "continent_id": 102191581,
        "country_id": 85633159,
        "empire_id": 136253055,
        "postalcode_id": 471779099,
        "postalregion_id": 1864210533
      }
    ],
    "wof:id": 471779099,
    "wof:lastmodified": 1763548200,
    "wof:name": "SK17 7EF",
    "wof:parent_id": 101872099,
    "wof:placetype": "postalcode",
    "wof:repo": "whosonfirst-data-postalcode-gb",
    "wof:superseded_by": [],
    "wof:supersedes": [],
    "wof:tags": []
  },
  "bbox": [
    -1.899589,
    53.263467,
    -1.899589,
    53.263467
  ],
  "geometry": {"coordinates":[-1.899589,53.263467],"type":"Point"}
}
