{
  "id": 487627823,
  "type": "Feature",
  "properties": {
    "date:inception_lower": "1986-01-01",
    "date:inception_upper": "1986-01-01",
    "edtf:cessation": "",
    "edtf:inception": "1986-01-01",
    "geom:area": 0,
    "geom:bbox": "-1.464572,50.963536,-1.464572,50.963536",
    "geom:latitude": 50.963536,
    "geom:longitude": -1.464572,
    "iso:country": "GB",
    "mz:hierarchy_label": 1,
    "mz:is_current": 1,
    "os:country_code": "E92000001",
    "os:county_code": "E10000014",
    "os:district_code": "E07000093",
    "os:positional_quality_indicator": "1",
    "os:region_code": "E12000008",
    "src:geom": "os",
    "wof:belongsto": [
      85633159,
      102191581,
      136253055,
      1864210691,
      1880771469,
      404448069,
      1360756303,
      1880762155,
      404227469,
      1880762717
    ],
    "wof:breaches": [],
    "wof:concordances": {
      "gp:id": "27962515"
    },
    "wof:country": "GB",
    "wof:created": 1583701094,
    "wof:geomhash": "66fa453a20a7a3765ded2a937d8f56b5",
    "wof:hierarchy": [
      {
        "continent_id": 102191581,
        "country_id": 85633159,
        "county_id": 1880771469,
        "empire_id": 136253055,
        "localadmin_id": 404448069,
        "locality_id": 1360756303,
        "macrocounty_id": 1880762155,
        "macroregion_id": 404227469,
        "postalcode_id": 487627823,
        "region_id": 1880762717
      },
      {
        "continent_id": 102191581,
        "country_id": 85633159,
        "empire_id": 136253055,
        "postalcode_id": 487627823,
        "postalregion_id": 1864210691
      }
    ],
    "wof:id": 487627823,
    "wof:lastmodified": 1763548644,
    "wof:name": "SO51 9LN",
    "wof:parent_id": 1360756303,
    "wof:placetype": "postalcode",
    "wof:repo": "whosonfirst-data-postalcode-gb",
    "wof:superseded_by": [],
    "wof:supersedes": [],
    "wof:tags": []
  },
  "bbox": [
    -1.464572,
    50.963536,
    -1.464572,
    50.963536
  ],
  "geometry": {"coordinates":[-1.464572,50.963536],"type":"Point"}
}
