{
  "id": 438028531,
  "type": "Feature",
  "properties": {
    "date:inception_lower": "1980-01-01",
    "date:inception_upper": "1980-01-01",
    "edtf:cessation": "",
    "edtf:inception": "1980-01-01",
    "geom:area": 0,
    "geom:bbox": "-1.612386,52.601474,-1.612386,52.601474",
    "geom:latitude": 52.601474,
    "geom:longitude": -1.612386,
    "gp:parent_id": "18332",
    "iso:country": "GB",
    "mz:hierarchy_label": 1,
    "mz:is_current": 1,
    "os:country_code": "E92000001",
    "os:county_code": "E10000031",
    "os:district_code": "E07000218",
    "os:positional_quality_indicator": "1",
    "os:region_code": "E12000005",
    "src:geom": "os",
    "wof:belongsto": [
      85633159,
      102191581,
      136253055,
      1864205617,
      1880771669,
      404450969,
      1360213865,
      1880762065,
      404227469,
      1880762725
    ],
    "wof:breaches": [],
    "wof:concordances": {
      "gp:id": "26867274"
    },
    "wof:country": "GB",
    "wof:created": 1583701092,
    "wof:geomhash": "ae603bf62aeed6b0f9c0fb030a6a6410",
    "wof:hierarchy": [
      {
        "continent_id": 102191581,
        "country_id": 85633159,
        "county_id": 1880771669,
        "empire_id": 136253055,
        "localadmin_id": 404450969,
        "locality_id": 1360213865,
        "macrocounty_id": 1880762065,
        "macroregion_id": 404227469,
        "postalcode_id": 438028531,
        "region_id": 1880762725
      },
      {
        "continent_id": 102191581,
        "country_id": 85633159,
        "empire_id": 136253055,
        "postalcode_id": 438028531,
        "postalregion_id": 1864205617
      }
    ],
    "wof:id": 438028531,
    "wof:lastmodified": 1763548105,
    "wof:name": "B78 1RN",
    "wof:parent_id": 1360213865,
    "wof:placetype": "postalcode",
    "wof:repo": "whosonfirst-data-postalcode-gb",
    "wof:superseded_by": [],
    "wof:supersedes": [],
    "wof:tags": []
  },
  "bbox": [
    -1.612386,
    52.601474,
    -1.612386,
    52.601474
  ],
  "geometry": {"coordinates":[-1.612386,52.601474],"type":"Point"}
}
