{
  "id": 488433929,
  "type": "Feature",
  "properties": {
    "date:inception_lower": "1995-07-01",
    "date:inception_upper": "1995-07-01",
    "edtf:cessation": "",
    "edtf:inception": "1995-07-01",
    "geom:area": 0,
    "geom:bbox": "-3.228853,51.606340,-3.228853,51.606340",
    "geom:latitude": 51.60634,
    "geom:longitude": -3.228853,
    "gp:parent_id": "12696116",
    "iso:country": "GB",
    "mz:hierarchy_label": 1,
    "mz:is_current": 1,
    "os:country_code": "W92000004",
    "os:county_code": "W99999999",
    "os:district_code": "W06000018",
    "os:positional_quality_indicator": "1",
    "os:region_code": "W99999999",
    "src:geom": "os",
    "wof:belongsto": [
      85633159,
      102191581,
      136253055,
      1864206233,
      1360698925,
      404442955,
      1126040441,
      1880762173,
      404227475,
      1880773189
    ],
    "wof:breaches": [],
    "wof:concordances": {
      "gp:id": "26757691"
    },
    "wof:country": "GB",
    "wof:created": 1583701446,
    "wof:geomhash": "95e8705bb0d3c08b293827c23521e7aa",
    "wof:hierarchy": [
      {
        "continent_id": 102191581,
        "country_id": 85633159,
        "county_id": 1360698925,
        "empire_id": 136253055,
        "localadmin_id": 404442955,
        "locality_id": 1126040441,
        "macrocounty_id": 1880762173,
        "macroregion_id": 404227475,
        "postalcode_id": 488433929,
        "region_id": 1880773189
      },
      {
        "continent_id": 102191581,
        "country_id": 85633159,
        "empire_id": 136253055,
        "postalcode_id": 488433929,
        "postalregion_id": 1864206233
      }
    ],
    "wof:id": 488433929,
    "wof:lastmodified": 1763548584,
    "wof:name": "CF83 3LL",
    "wof:parent_id": 1126040441,
    "wof:placetype": "postalcode",
    "wof:repo": "whosonfirst-data-postalcode-gb",
    "wof:superseded_by": [],
    "wof:supersedes": [],
    "wof:tags": []
  },
  "bbox": [
    -3.228853,
    51.60634,
    -3.228853,
    51.60634
  ],
  "geometry": {"coordinates":[-3.228853,51.60634],"type":"Point"}
}
