{
  "id": 471783351,
  "type": "Feature",
  "properties": {
    "date:inception_lower": "1996-12-01",
    "date:inception_upper": "1996-12-01",
    "edtf:cessation": "",
    "edtf:inception": "1996-12-01",
    "geom:area": 0,
    "geom:bbox": "-1.952495,53.317854,-1.952495,53.317854",
    "geom:latitude": 53.317854,
    "geom:longitude": -1.952495,
    "gp:parent_id": "38337",
    "iso:country": "GB",
    "mz:hierarchy_label": 1,
    "mz:is_current": 1,
    "os:country_code": "E92000001",
    "os:county_code": "E10000007",
    "os:district_code": "E07000037",
    "os:positional_quality_indicator": "1",
    "os:region_code": "E12000004",
    "src:geom": "os",
    "wof:belongsto": [
      85633159,
      102191581,
      136253055,
      1864210539,
      1880771377,
      404443267,
      101872113,
      1880762133,
      404227469,
      1880762707
    ],
    "wof:breaches": [],
    "wof:concordances": {
      "gp:id": "27921691"
    },
    "wof:country": "GB",
    "wof:created": 1583701738,
    "wof:geomhash": "32f999f83f2f8e6372c8cf9cee0f2928",
    "wof:hierarchy": [
      {
        "continent_id": 102191581,
        "country_id": 85633159,
        "county_id": 1880771377,
        "empire_id": 136253055,
        "localadmin_id": 404443267,
        "locality_id": 101872113,
        "macrocounty_id": 1880762133,
        "macroregion_id": 404227469,
        "postalcode_id": 471783351,
        "region_id": 1880762707
      },
      {
        "continent_id": 102191581,
        "country_id": 85633159,
        "empire_id": 136253055,
        "postalcode_id": 471783351,
        "postalregion_id": 1864210539
      }
    ],
    "wof:id": 471783351,
    "wof:lastmodified": 1763548191,
    "wof:name": "SK23 7ER",
    "wof:parent_id": 101872113,
    "wof:placetype": "postalcode",
    "wof:repo": "whosonfirst-data-postalcode-gb",
    "wof:superseded_by": [],
    "wof:supersedes": [],
    "wof:tags": []
  },
  "bbox": [
    -1.952495,
    53.317854,
    -1.952495,
    53.317854
  ],
  "geometry": {"coordinates":[-1.952495,53.317854],"type":"Point"}
}
