{
  "id": 470880987,
  "type": "Feature",
  "properties": {
    "date:inception_lower": "1980-01-01",
    "date:inception_upper": "1980-01-01",
    "edtf:cessation": "",
    "edtf:inception": "1980-01-01",
    "geom:area": 0,
    "geom:bbox": "-2.161777,53.539725,-2.161777,53.539725",
    "geom:latitude": 53.539725,
    "geom:longitude": -2.161777,
    "gp:parent_id": "28887",
    "iso:country": "GB",
    "mz:hierarchy_label": 1,
    "mz:is_current": 1,
    "os:country_code": "E92000001",
    "os:county_code": "E99999999",
    "os:district_code": "E08000004",
    "os:positional_quality_indicator": "1",
    "os:region_code": "E12000002",
    "src:geom": "os",
    "wof:belongsto": [
      85633159,
      102191581,
      136253055,
      1864208749,
      1360698953,
      1126030435,
      1880762163,
      404227469,
      1880773095
    ],
    "wof:breaches": [],
    "wof:concordances": {
      "gp:id": "27540586"
    },
    "wof:country": "GB",
    "wof:created": 1583701200,
    "wof:geomhash": "efa59dfce8f8c796a12eb837b11e54ee",
    "wof:hierarchy": [
      {
        "continent_id": 102191581,
        "country_id": 85633159,
        "county_id": 1360698953,
        "empire_id": 136253055,
        "locality_id": 1126030435,
        "macrocounty_id": 1880762163,
        "macroregion_id": 404227469,
        "postalcode_id": 470880987,
        "region_id": 1880773095
      },
      {
        "continent_id": 102191581,
        "country_id": 85633159,
        "empire_id": 136253055,
        "postalcode_id": 470880987,
        "postalregion_id": 1864208749
      }
    ],
    "wof:id": 470880987,
    "wof:lastmodified": 1763547946,
    "wof:name": "M24 1QW",
    "wof:parent_id": 1126030435,
    "wof:placetype": "postalcode",
    "wof:repo": "whosonfirst-data-postalcode-gb",
    "wof:superseded_by": [],
    "wof:supersedes": [],
    "wof:tags": []
  },
  "bbox": [
    -2.161777,
    53.539725,
    -2.161777,
    53.539725
  ],
  "geometry": {"coordinates":[-2.161777,53.539725],"type":"Point"}
}
