{
  "id": 39750750,
  "type": "Feature",
  "properties": {
    "date:cessation_lower": "2001-01-01",
    "date:cessation_upper": "2001-01-01",
    "date:inception_lower": "1980-01-01",
    "date:inception_upper": "1980-01-01",
    "edtf:cessation": "2001-01-01",
    "edtf:inception": "1980-01-01",
    "geom:area": 0,
    "geom:bbox": "-1.505430,51.786940,-1.505430,51.786940",
    "geom:latitude": 51.78694,
    "geom:longitude": -1.50543,
    "iso:country": "GB",
    "mz:hierarchy_label": 1,
    "mz:is_current": 0,
    "os:country_code": "E92000001",
    "os:county_code": "E10000025",
    "os:district_code": "E07000181",
    "os:positional_quality_indicator": "1",
    "os:region_code": "E12000008",
    "src:geom": "os",
    "wof:belongsto": [
      102191581,
      85633159,
      1880771615,
      136253055,
      404450543,
      101852913,
      1880762079,
      404227469,
      1880762695
    ],
    "wof:breaches": [],
    "wof:country": "GB",
    "wof:created": 1583804904,
    "wof:geomhash": "4e4e502b0ccfa0a241721e04cbe2820c",
    "wof:hierarchy": [
      {
        "continent_id": 102191581,
        "country_id": 85633159,
        "county_id": 1880771615,
        "empire_id": 136253055,
        "localadmin_id": 404450543,
        "locality_id": 101852913,
        "macrocounty_id": 1880762079,
        "macroregion_id": 404227469,
        "postalcode_id": 39750750,
        "region_id": 1880762695
      }
    ],
    "wof:id": 39750750,
    "wof:lastmodified": 1763547909,
    "wof:name": "OX8 5BG",
    "wof:parent_id": 101852913,
    "wof:placetype": "postalcode",
    "wof:repo": "whosonfirst-data-postalcode-gb",
    "wof:superseded_by": [],
    "wof:supersedes": [],
    "wof:tags": []
  },
  "bbox": [
    -1.50543,
    51.78694,
    -1.50543,
    51.78694
  ],
  "geometry": {"coordinates":[-1.50543,51.78694],"type":"Point"}
}
