{
  "id": 488064693,
  "type": "Feature",
  "properties": {
    "date:inception_lower": "1980-01-01",
    "date:inception_upper": "1980-01-01",
    "edtf:cessation": "",
    "edtf:inception": "1980-01-01",
    "geom:area": 0,
    "geom:bbox": "-2.375766,53.390619,-2.375766,53.390619",
    "geom:latitude": 53.390619,
    "geom:longitude": -2.375766,
    "iso:country": "GB",
    "mz:hierarchy_label": 1,
    "mz:is_current": 1,
    "os:country_code": "E92000001",
    "os:county_code": "E99999999",
    "os:district_code": "E08000009",
    "os:positional_quality_indicator": "1",
    "os:region_code": "E12000002",
    "src:geom": "os",
    "wof:belongsto": [
      85633159,
      102191581,
      136253055,
      1864211461,
      1360698935,
      1360817437,
      1175612695,
      1880762163,
      404227469,
      1880773095
    ],
    "wof:breaches": [],
    "wof:concordances": {
      "gp:id": "26511872"
    },
    "wof:country": "GB",
    "wof:created": 1583701224,
    "wof:geomhash": "5cb4c2ee5cbd886881d57d5451334e5f",
    "wof:hierarchy": [
      {
        "continent_id": 102191581,
        "country_id": 85633159,
        "county_id": 1360698935,
        "empire_id": 136253055,
        "localadmin_id": 1360817437,
        "locality_id": 1175612695,
        "macrocounty_id": 1880762163,
        "macroregion_id": 404227469,
        "postalcode_id": 488064693,
        "region_id": 1880773095
      },
      {
        "continent_id": 102191581,
        "country_id": 85633159,
        "empire_id": 136253055,
        "postalcode_id": 488064693,
        "postalregion_id": 1864211461
      }
    ],
    "wof:id": 488064693,
    "wof:lastmodified": 1763548486,
    "wof:name": "WA14 4JE",
    "wof:parent_id": 1175612695,
    "wof:placetype": "postalcode",
    "wof:repo": "whosonfirst-data-postalcode-gb",
    "wof:superseded_by": [],
    "wof:supersedes": [],
    "wof:tags": []
  },
  "bbox": [
    -2.375766,
    53.390619,
    -2.375766,
    53.390619
  ],
  "geometry": {"coordinates":[-2.375766,53.390619],"type":"Point"}
}
