{
  "id": 437484707,
  "type": "Feature",
  "properties": {
    "date:cessation_lower": "2007-10-01",
    "date:cessation_upper": "2007-10-01",
    "date:inception_lower": "1980-01-01",
    "date:inception_upper": "1980-01-01",
    "edtf:cessation": "2007-10-01",
    "edtf:inception": "1980-01-01",
    "geom:area": 0,
    "geom:bbox": "-2.200949,53.846986,-2.200949,53.846986",
    "geom:latitude": 53.846986,
    "geom:longitude": -2.200949,
    "gp:parent_id": "29760",
    "iso:country": "GB",
    "mz:hierarchy_label": 1,
    "mz:is_current": 0,
    "os:country_code": "E92000001",
    "os:county_code": "E10000017",
    "os:district_code": "E07000122",
    "os:positional_quality_indicator": "1",
    "os:region_code": "E12000002",
    "src:geom": "os",
    "wof:belongsto": [
      85633159,
      102191581,
      136253055,
      1864205719,
      1880771547,
      404435039,
      1126014715,
      1880762053,
      404227469,
      1880762711
    ],
    "wof:breaches": [],
    "wof:concordances": {
      "gp:id": "26894896"
    },
    "wof:country": "GB",
    "wof:created": 1583701279,
    "wof:geomhash": "1ea2aeb6d74b3ee78fa3b95693086a96",
    "wof:hierarchy": [
      {
        "continent_id": 102191581,
        "country_id": 85633159,
        "county_id": 1880771547,
        "empire_id": 136253055,
        "localadmin_id": 404435039,
        "locality_id": 1126014715,
        "macrocounty_id": 1880762053,
        "macroregion_id": 404227469,
        "postalcode_id": 437484707,
        "region_id": 1880762711
      },
      {
        "continent_id": 102191581,
        "country_id": 85633159,
        "empire_id": 136253055,
        "postalcode_id": 437484707,
        "postalregion_id": 1864205719
      }
    ],
    "wof:id": 437484707,
    "wof:lastmodified": 1763548009,
    "wof:name": "BB9 8RX",
    "wof:parent_id": 1126014715,
    "wof:placetype": "postalcode",
    "wof:repo": "whosonfirst-data-postalcode-gb",
    "wof:superseded_by": [],
    "wof:supersedes": [],
    "wof:tags": []
  },
  "bbox": [
    -2.200949,
    53.846986,
    -2.200949,
    53.846986
  ],
  "geometry": {"coordinates":[-2.200949,53.846986],"type":"Point"}
}
