{
  "id": 487631559,
  "type": "Feature",
  "properties": {
    "date:inception_lower": "2001-06-01",
    "date:inception_upper": "2001-06-01",
    "edtf:cessation": "",
    "edtf:inception": "2001-06-01",
    "geom:area": 0,
    "geom:bbox": "-1.794512,51.071600,-1.794512,51.071600",
    "geom:latitude": 51.0716,
    "geom:longitude": -1.794512,
    "iso:country": "GB",
    "mz:hierarchy_label": 1,
    "mz:is_current": 1,
    "os:country_code": "E92000001",
    "os:county_code": "E99999999",
    "os:district_code": "E06000054",
    "os:positional_quality_indicator": "1",
    "os:region_code": "E12000009",
    "src:geom": "os",
    "wof:belongsto": [
      85633159,
      102191581,
      136253055,
      1864210697,
      1360698937,
      404435393,
      101852713,
      1880762017,
      404227469,
      1880773035
    ],
    "wof:breaches": [],
    "wof:concordances": {
      "gp:id": "27963677"
    },
    "wof:country": "GB",
    "wof:created": 1583701096,
    "wof:geomhash": "d70443da7798f4132631d22fe24bc904",
    "wof:hierarchy": [
      {
        "continent_id": 102191581,
        "country_id": 85633159,
        "county_id": 1360698937,
        "empire_id": 136253055,
        "localadmin_id": 404435393,
        "locality_id": 101852713,
        "macrocounty_id": 1880762017,
        "macroregion_id": 404227469,
        "postalcode_id": 487631559,
        "region_id": 1880773035
      },
      {
        "continent_id": 102191581,
        "country_id": 85633159,
        "empire_id": 136253055,
        "postalcode_id": 487631559,
        "postalregion_id": 1864210697
      }
    ],
    "wof:id": 487631559,
    "wof:lastmodified": 1763548751,
    "wof:name": "SP1 3RE",
    "wof:parent_id": 101852713,
    "wof:placetype": "postalcode",
    "wof:repo": "whosonfirst-data-postalcode-gb",
    "wof:superseded_by": [],
    "wof:supersedes": [],
    "wof:tags": []
  },
  "bbox": [
    -1.794512,
    51.0716,
    -1.794512,
    51.0716
  ],
  "geometry": {"coordinates":[-1.794512,51.0716],"type":"Point"}
}
