{
  "id": 38675538,
  "type": "Feature",
  "properties": {
    "date:cessation_lower": "1997-08-01",
    "date:cessation_upper": "1997-08-01",
    "date:inception_lower": "1980-01-01",
    "date:inception_upper": "1980-01-01",
    "edtf:cessation": "1997-08-01",
    "edtf:inception": "1980-01-01",
    "geom:area": 0,
    "geom:bbox": "-2.498897,51.308491,-2.498897,51.308491",
    "geom:latitude": 51.308491,
    "geom:longitude": -2.498897,
    "iso:country": "GB",
    "mz:hierarchy_label": 1,
    "mz:is_current": 0,
    "os:country_code": "E92000001",
    "os:county_code": "E99999999",
    "os:district_code": "E06000022",
    "os:positional_quality_indicator": "1",
    "os:region_code": "E12000009",
    "src:geom": "os",
    "wof:belongsto": [
      102191581,
      85633159,
      1360698775,
      136253055,
      404442245,
      1126003567,
      1880762071,
      404227469,
      1880773145
    ],
    "wof:breaches": [],
    "wof:country": "GB",
    "wof:created": 1583793008,
    "wof:geomhash": "0f3807563222838064872218de1a3fec",
    "wof:hierarchy": [
      {
        "continent_id": 102191581,
        "country_id": 85633159,
        "county_id": 1360698775,
        "empire_id": 136253055,
        "localadmin_id": 404442245,
        "locality_id": 1126003567,
        "macrocounty_id": 1880762071,
        "macroregion_id": 404227469,
        "postalcode_id": 38675538,
        "region_id": 1880773145
      }
    ],
    "wof:id": 38675538,
    "wof:lastmodified": 1763548644,
    "wof:name": "BS18 5YR",
    "wof:parent_id": 1126003567,
    "wof:placetype": "postalcode",
    "wof:repo": "whosonfirst-data-postalcode-gb",
    "wof:superseded_by": [],
    "wof:supersedes": [],
    "wof:tags": []
  },
  "bbox": [
    -2.498897,
    51.308491,
    -2.498897,
    51.308491
  ],
  "geometry": {"coordinates":[-2.498897,51.308491],"type":"Point"}
}
