{
  "id": 1161150094,
  "type": "Feature",
  "properties": {
    "date:cessation_lower": "1997-08-01",
    "date:cessation_upper": "1997-08-01",
    "date:inception_lower": "1980-01-01",
    "date:inception_upper": "1980-01-01",
    "edtf:cessation": "1997-08-01",
    "edtf:inception": "1980-01-01",
    "geom:area": 0,
    "geom:bbox": "-2.784360,51.386471,-2.784360,51.386471",
    "geom:latitude": 51.386471,
    "geom:longitude": -2.78436,
    "iso:country": "GB",
    "mz:hierarchy_label": 1,
    "mz:is_current": 0,
    "os:country_code": "E92000001",
    "os:county_code": "E99999999",
    "os:district_code": "E06000024",
    "os:positional_quality_indicator": "1",
    "os:region_code": "E12000009",
    "src:geom": "os",
    "wof:belongsto": [
      1360699111,
      404449457,
      1125916991,
      1880762071
    ],
    "wof:breaches": [],
    "wof:country": "GB",
    "wof:created": 1583806157,
    "wof:geomhash": "4fd0713f67590a5d7d570ec891eab7a4",
    "wof:hierarchy": [
      {
        "continent_id": -1,
        "country_id": -1,
        "county_id": 1360699111,
        "localadmin_id": 404449457,
        "locality_id": 1125916991,
        "macrocounty_id": 1880762071,
        "postalcode_id": 1161150094,
        "region_id": -1
      }
    ],
    "wof:id": 1161150094,
    "wof:lastmodified": 1763548343,
    "wof:name": "BS19 4NZ",
    "wof:parent_id": 1125916991,
    "wof:placetype": "postalcode",
    "wof:repo": "whosonfirst-data-postalcode-gb",
    "wof:superseded_by": [],
    "wof:supersedes": [],
    "wof:tags": []
  },
  "bbox": [
    -2.78436,
    51.386471,
    -2.78436,
    51.386471
  ],
  "geometry": {"coordinates":[-2.78436,51.386471],"type":"Point"}
}
