{
  "id": 38807010,
  "type": "Feature",
  "properties": {
    "date:cessation_lower": "1998-06-01",
    "date:cessation_upper": "1998-06-01",
    "date:inception_lower": "1980-01-01",
    "date:inception_upper": "1980-01-01",
    "edtf:cessation": "1998-06-01",
    "edtf:inception": "1980-01-01",
    "geom:area": 0,
    "geom:bbox": "-1.054285,54.248410,-1.054285,54.248410",
    "geom:latitude": 54.24841,
    "geom:longitude": -1.054285,
    "iso:country": "GB",
    "mz:hierarchy_label": 1,
    "mz:is_current": 0,
    "os:country_code": "E92000001",
    "os:county_code": "E99999999",
    "os:district_code": "E06000065",
    "os:positional_quality_indicator": "1",
    "os:region_code": "E12000003",
    "src:geom": "os",
    "wof:belongsto": [
      102191581,
      85633159,
      1360698753,
      136253055,
      404434029,
      1125882861,
      1880762011,
      404227469,
      1880772891
    ],
    "wof:breaches": [],
    "wof:country": "GB",
    "wof:created": 1583794475,
    "wof:geomhash": "f678d17c79b605d673c750d249242877",
    "wof:hierarchy": [
      {
        "continent_id": 102191581,
        "country_id": 85633159,
        "county_id": 1360698753,
        "empire_id": 136253055,
        "localadmin_id": 404434029,
        "locality_id": 1125882861,
        "macrocounty_id": 1880762011,
        "macroregion_id": 404227469,
        "postalcode_id": 38807010,
        "region_id": 1880772891
      }
    ],
    "wof:id": 38807010,
    "wof:lastmodified": 1763548763,
    "wof:name": "YO6 5HR",
    "wof:parent_id": 1125882861,
    "wof:placetype": "postalcode",
    "wof:repo": "whosonfirst-data-postalcode-gb",
    "wof:superseded_by": [],
    "wof:supersedes": [],
    "wof:tags": []
  },
  "bbox": [
    -1.054285,
    54.24841,
    -1.054285,
    54.24841
  ],
  "geometry": {"coordinates":[-1.054285,54.24841],"type":"Point"}
}
