{
  "id": 471218651,
  "type": "Feature",
  "properties": {
    "date:inception_lower": "1980-01-01",
    "date:inception_upper": "1980-01-01",
    "edtf:cessation": "",
    "edtf:inception": "1980-01-01",
    "geom:area": 0,
    "geom:bbox": "0.884606,52.917159,0.884606,52.917159",
    "geom:latitude": 52.917159,
    "geom:longitude": 0.884606,
    "gp:parent_id": "40461",
    "iso:country": "GB",
    "mz:hierarchy_label": 1,
    "mz:is_current": 1,
    "os:country_code": "E92000001",
    "os:county_code": "E10000020",
    "os:district_code": "E07000147",
    "os:positional_quality_indicator": "1",
    "os:region_code": "E12000006",
    "src:geom": "os",
    "wof:belongsto": [
      85633159,
      102191581,
      136253055,
      1864209333,
      1880771711,
      404438515,
      1125962205,
      1880762037,
      404227469,
      1880762699
    ],
    "wof:breaches": [],
    "wof:concordances": {
      "gp:id": "27684200"
    },
    "wof:country": "GB",
    "wof:created": 1583701407,
    "wof:geomhash": "713323bf411639a4b766a7ceb18f101e",
    "wof:hierarchy": [
      {
        "continent_id": 102191581,
        "country_id": 85633159,
        "county_id": 1880771711,
        "empire_id": 136253055,
        "localadmin_id": 404438515,
        "locality_id": 1125962205,
        "macrocounty_id": 1880762037,
        "macroregion_id": 404227469,
        "postalcode_id": 471218651,
        "region_id": 1880762699
      },
      {
        "continent_id": 102191581,
        "country_id": 85633159,
        "empire_id": 136253055,
        "postalcode_id": 471218651,
        "postalregion_id": 1864209333
      }
    ],
    "wof:id": 471218651,
    "wof:lastmodified": 1763548006,
    "wof:name": "NR23 1PH",
    "wof:parent_id": 1125962205,
    "wof:placetype": "postalcode",
    "wof:repo": "whosonfirst-data-postalcode-gb",
    "wof:superseded_by": [],
    "wof:supersedes": [],
    "wof:tags": []
  },
  "bbox": [
    0.884606,
    52.917159,
    0.884606,
    52.917159
  ],
  "geometry": {"coordinates":[0.884606,52.917159],"type":"Point"}
}
