{
  "id": 1161077120,
  "type": "Feature",
  "properties": {
    "date:cessation_lower": "1990-12-01",
    "date:cessation_upper": "1990-12-01",
    "date:inception_lower": "1980-01-01",
    "date:inception_upper": "1980-01-01",
    "edtf:cessation": "1990-12-01",
    "edtf:inception": "1980-01-01",
    "geom:area": 0,
    "geom:bbox": "-4.134796,50.375270,-4.134796,50.375270",
    "geom:latitude": 50.37527,
    "geom:longitude": -4.134796,
    "iso:country": "GB",
    "mz:hierarchy_label": 1,
    "mz:is_current": 0,
    "os:country_code": "E92000001",
    "os:county_code": "E99999999",
    "os:district_code": "E06000026",
    "os:positional_quality_indicator": "8",
    "os:region_code": "E12000009",
    "src:geom": "os",
    "wof:belongsto": [
      85633159,
      102191581,
      136253055,
      1864209895,
      1360698841,
      101750297,
      1880762149,
      404227469,
      1880762683
    ],
    "wof:breaches": [],
    "wof:country": "GB",
    "wof:created": 1583802884,
    "wof:geomhash": "59cce6ddf958b88a79b3d63de68b4c63",
    "wof:hierarchy": [
      {
        "continent_id": 102191581,
        "country_id": 85633159,
        "county_id": 1360698841,
        "empire_id": 136253055,
        "locality_id": 101750297,
        "macrocounty_id": 1880762149,
        "macroregion_id": 404227469,
        "postalcode_id": 1161077120,
        "region_id": 1880762683
      },
      {
        "continent_id": 102191581,
        "country_id": 85633159,
        "empire_id": 136253055,
        "postalcode_id": 1161077120,
        "postalregion_id": 1864209895
      }
    ],
    "wof:id": 1161077120,
    "wof:lastmodified": 1763548289,
    "wof:name": "PL4 8LR",
    "wof:parent_id": 101750297,
    "wof:placetype": "postalcode",
    "wof:repo": "whosonfirst-data-postalcode-gb",
    "wof:superseded_by": [],
    "wof:supersedes": [],
    "wof:tags": []
  },
  "bbox": [
    -4.134796,
    50.37527,
    -4.134796,
    50.37527
  ],
  "geometry": {"coordinates":[-4.134796,50.37527],"type":"Point"}
}
