{
  "id": 488265017,
  "type": "Feature",
  "properties": {
    "date:cessation_lower": "2019-06-01",
    "date:cessation_upper": "2019-06-01",
    "date:inception_lower": "2008-12-01",
    "date:inception_upper": "2008-12-01",
    "edtf:cessation": "2019-06-01",
    "edtf:inception": "2008-12-01",
    "geom:area": 0,
    "geom:bbox": "-1.880340,52.482892,-1.880340,52.482892",
    "geom:latitude": 52.482892,
    "geom:longitude": -1.88034,
    "gp:parent_id": "12723",
    "iso:country": "GB",
    "mz:hierarchy_label": 1,
    "mz:is_current": 0,
    "os:country_code": "E92000001",
    "os:county_code": "E99999999",
    "os:district_code": "E08000025",
    "os:positional_quality_indicator": "1",
    "os:region_code": "E12000005",
    "src:geom": "os",
    "wof:belongsto": [
      85633159,
      102191581,
      136253055,
      1864205545,
      1360699077,
      101750467,
      1880762069,
      404227469,
      1880773161
    ],
    "wof:breaches": [],
    "wof:concordances": {
      "gp:id": "56127419"
    },
    "wof:country": "GB",
    "wof:created": 1583701254,
    "wof:geomhash": "d9124731f7b1aebd0b7e8510a3743c9c",
    "wof:hierarchy": [
      {
        "continent_id": 102191581,
        "country_id": 85633159,
        "county_id": 1360699077,
        "empire_id": 136253055,
        "locality_id": 101750467,
        "macrocounty_id": 1880762069,
        "macroregion_id": 404227469,
        "postalcode_id": 488265017,
        "region_id": 1880773161
      },
      {
        "continent_id": 102191581,
        "country_id": 85633159,
        "empire_id": 136253055,
        "postalcode_id": 488265017,
        "postalregion_id": 1864205545
      }
    ],
    "wof:id": 488265017,
    "wof:lastmodified": 1763548584,
    "wof:name": "B4 7AN",
    "wof:parent_id": 101750467,
    "wof:placetype": "postalcode",
    "wof:repo": "whosonfirst-data-postalcode-gb",
    "wof:superseded_by": [],
    "wof:supersedes": [],
    "wof:tags": []
  },
  "bbox": [
    -1.88034,
    52.482892,
    -1.88034,
    52.482892
  ],
  "geometry": {"coordinates":[-1.88034,52.482892],"type":"Point"}
}
