{
  "id": 1160933032,
  "type": "Feature",
  "properties": {
    "date:cessation_lower": "1997-06-01",
    "date:cessation_upper": "1997-06-01",
    "date:inception_lower": "1983-05-01",
    "date:inception_upper": "1983-05-01",
    "edtf:cessation": "1997-06-01",
    "edtf:inception": "1983-05-01",
    "geom:area": 0,
    "geom:bbox": "-4.804610,55.656130,-4.804610,55.656130",
    "geom:latitude": 55.65613,
    "geom:longitude": -4.80461,
    "iso:country": "GB",
    "mz:hierarchy_label": 1,
    "mz:is_current": 0,
    "os:country_code": "S92000003",
    "os:county_code": "S99999999",
    "os:district_code": "S12000021",
    "os:positional_quality_indicator": "8",
    "os:region_code": "S99999999",
    "src:geom": "os",
    "wof:belongsto": [
      85633159,
      102191581,
      136253055,
      1864208049,
      1360698855,
      1880762041,
      404227471,
      1880772907
    ],
    "wof:breaches": [],
    "wof:country": "GB",
    "wof:created": 1583796425,
    "wof:geomhash": "42305482d270966346c485f422ed06c4",
    "wof:hierarchy": [
      {
        "continent_id": 102191581,
        "country_id": 85633159,
        "county_id": 1360698855,
        "empire_id": 136253055,
        "macrocounty_id": 1880762041,
        "macroregion_id": 404227471,
        "postalcode_id": 1160933032,
        "region_id": 1880772907
      },
      {
        "continent_id": 102191581,
        "country_id": 85633159,
        "empire_id": 136253055,
        "postalcode_id": 1160933032,
        "postalregion_id": 1864208049
      }
    ],
    "wof:id": 1160933032,
    "wof:lastmodified": 1763548338,
    "wof:name": "KA22 7JW",
    "wof:parent_id": 1360698855,
    "wof:placetype": "postalcode",
    "wof:repo": "whosonfirst-data-postalcode-gb",
    "wof:superseded_by": [],
    "wof:supersedes": [],
    "wof:tags": []
  },
  "bbox": [
    -4.80461,
    55.65613,
    -4.80461,
    55.65613
  ],
  "geometry": {"coordinates":[-4.80461,55.65613],"type":"Point"}
}
