{
  "id": 1712584023,
  "type": "Feature",
  "properties": {
    "date:cessation_lower": "1995-12-01",
    "date:cessation_upper": "1995-12-01",
    "date:inception_lower": "1980-01-01",
    "date:inception_upper": "1980-01-01",
    "edtf:cessation": "1995-12-01",
    "edtf:inception": "1980-01-01",
    "geom:area": 0,
    "geom:bbox": "-6.219601,58.203105,-6.219601,58.203105",
    "geom:latitude": 58.203105,
    "geom:longitude": -6.219601,
    "iso:country": "GB",
    "mz:hierarchy_label": 1,
    "mz:is_current": 0,
    "os:country_code": "S92000003",
    "os:county_code": "S99999999",
    "os:district_code": "S12000013",
    "os:positional_quality_indicator": "1",
    "os:region_code": "S99999999",
    "src:geom": "os",
    "wof:belongsto": [
      102191581,
      85633159,
      1360699007,
      136253055,
      1880762027,
      404227471,
      1880773097
    ],
    "wof:breaches": [],
    "wof:country": "GB",
    "wof:created": 1583794527,
    "wof:geomhash": "23b330623700e9bf074efa4087a35d73",
    "wof:hierarchy": [
      {
        "continent_id": 102191581,
        "country_id": 85633159,
        "county_id": 1360699007,
        "empire_id": 136253055,
        "macrocounty_id": 1880762027,
        "macroregion_id": 404227471,
        "postalcode_id": 1712584023,
        "region_id": 1880773097
      }
    ],
    "wof:id": 1712584023,
    "wof:lastmodified": 1763548705,
    "wof:name": "PA86 0QA",
    "wof:parent_id": 1360699007,
    "wof:placetype": "postalcode",
    "wof:repo": "whosonfirst-data-postalcode-gb",
    "wof:superseded_by": [],
    "wof:supersedes": [],
    "wof:tags": []
  },
  "bbox": [
    -6.219601,
    58.203105,
    -6.219601,
    58.203105
  ],
  "geometry": {"coordinates":[-6.219601,58.203105],"type":"Point"}
}
