{
  "id": 1712805275,
  "type": "Feature",
  "properties": {
    "date:cessation_lower": "1997-06-01",
    "date:cessation_upper": "1997-06-01",
    "date:inception_lower": "1993-01-01",
    "date:inception_upper": "1993-01-01",
    "edtf:cessation": "1997-06-01",
    "edtf:inception": "1993-01-01",
    "geom:area": 0,
    "geom:bbox": "-1.342839,53.319052,-1.342839,53.319052",
    "geom:latitude": 53.319052,
    "geom:longitude": -1.342839,
    "iso:country": "GB",
    "mz:hierarchy_label": 1,
    "mz:is_current": 0,
    "os:country_code": "E92000001",
    "os:county_code": "E99999999",
    "os:district_code": "E08000039",
    "os:positional_quality_indicator": "1",
    "os:region_code": "E12000003",
    "src:geom": "os",
    "wof:belongsto": [
      102191581,
      85633159,
      1360699075,
      136253055,
      101750529,
      1880761997,
      404227469,
      1880772963
    ],
    "wof:breaches": [],
    "wof:country": "GB",
    "wof:created": 1583804390,
    "wof:geomhash": "dd9c84e64a0f44e235fb2301ebac3aa9",
    "wof:hierarchy": [
      {
        "continent_id": 102191581,
        "country_id": 85633159,
        "county_id": 1360699075,
        "empire_id": 136253055,
        "locality_id": 101750529,
        "macrocounty_id": 1880761997,
        "macroregion_id": 404227469,
        "postalcode_id": 1712805275,
        "region_id": 1880772963
      }
    ],
    "wof:id": 1712805275,
    "wof:lastmodified": 1763548657,
    "wof:name": "S19 5XA",
    "wof:parent_id": 101750529,
    "wof:placetype": "postalcode",
    "wof:repo": "whosonfirst-data-postalcode-gb",
    "wof:superseded_by": [],
    "wof:supersedes": [],
    "wof:tags": []
  },
  "bbox": [
    -1.342839,
    53.319052,
    -1.342839,
    53.319052
  ],
  "geometry": {"coordinates":[-1.342839,53.319052],"type":"Point"}
}
