{
  "id": 1160967556,
  "type": "Feature",
  "properties": {
    "date:cessation_lower": "1999-12-01",
    "date:cessation_upper": "1999-12-01",
    "date:inception_lower": "1980-01-01",
    "date:inception_upper": "1980-01-01",
    "edtf:cessation": "1999-12-01",
    "edtf:inception": "1980-01-01",
    "geom:area": 0,
    "geom:bbox": "-1.386068,52.252956,-1.386068,52.252956",
    "geom:latitude": 52.252956,
    "geom:longitude": -1.386068,
    "iso:country": "GB",
    "mz:hierarchy_label": 1,
    "mz:is_current": 0,
    "os:country_code": "E92000001",
    "os:county_code": "E10000031",
    "os:district_code": "E07000221",
    "os:positional_quality_indicator": "1",
    "os:region_code": "E12000005",
    "src:geom": "os",
    "wof:belongsto": [
      85633159,
      102191581,
      136253055,
      1864206517,
      1880771675,
      404432701,
      1125914471,
      1880762065,
      404227469,
      1880762725
    ],
    "wof:breaches": [],
    "wof:country": "GB",
    "wof:created": 1583797980,
    "wof:geomhash": "171334dd99120d5cb23fe1e0ba4314dc",
    "wof:hierarchy": [
      {
        "continent_id": 102191581,
        "country_id": 85633159,
        "county_id": 1880771675,
        "empire_id": 136253055,
        "localadmin_id": 404432701,
        "locality_id": 1125914471,
        "macrocounty_id": 1880762065,
        "macroregion_id": 404227469,
        "postalcode_id": 1160967556,
        "region_id": 1880762725
      },
      {
        "continent_id": 102191581,
        "country_id": 85633159,
        "empire_id": 136253055,
        "postalcode_id": 1160967556,
        "postalregion_id": 1864206517
      }
    ],
    "wof:id": 1160967556,
    "wof:lastmodified": 1763548256,
    "wof:name": "CV33 0PL",
    "wof:parent_id": 1125914471,
    "wof:placetype": "postalcode",
    "wof:repo": "whosonfirst-data-postalcode-gb",
    "wof:superseded_by": [],
    "wof:supersedes": [],
    "wof:tags": []
  },
  "bbox": [
    -1.386068,
    52.252956,
    -1.386068,
    52.252956
  ],
  "geometry": {"coordinates":[-1.386068,52.252956],"type":"Point"}
}
