{
  "id": 471056473,
  "type": "Feature",
  "properties": {
    "date:inception_lower": "1980-01-01",
    "date:inception_upper": "1980-01-01",
    "edtf:cessation": "",
    "edtf:inception": "1980-01-01",
    "geom:area": 0,
    "geom:bbox": "-1.614520,55.008657,-1.614520,55.008657",
    "geom:latitude": 55.008657,
    "geom:longitude": -1.61452,
    "iso:country": "GB",
    "mz:hierarchy_label": 1,
    "mz:is_current": 1,
    "os:country_code": "E92000001",
    "os:county_code": "E99999999",
    "os:district_code": "E08000021",
    "os:positional_quality_indicator": "1",
    "os:region_code": "E12000001",
    "src:geom": "os",
    "wof:belongsto": [
      85633159,
      102191581,
      136253055,
      1864209049,
      1360698961,
      101750617,
      1880762063,
      404227469,
      1880773053
    ],
    "wof:breaches": [],
    "wof:concordances": {
      "gp:id": "26709657"
    },
    "wof:country": "GB",
    "wof:created": 1583701190,
    "wof:geomhash": "22c804c7e23637d60fe8ad67331f31e9",
    "wof:hierarchy": [
      {
        "continent_id": 102191581,
        "country_id": 85633159,
        "county_id": 1360698961,
        "empire_id": 136253055,
        "locality_id": 101750617,
        "macrocounty_id": 1880762063,
        "macroregion_id": 404227469,
        "postalcode_id": 471056473,
        "region_id": 1880773053
      },
      {
        "continent_id": 102191581,
        "country_id": 85633159,
        "empire_id": 136253055,
        "postalcode_id": 471056473,
        "postalregion_id": 1864209049
      }
    ],
    "wof:id": 471056473,
    "wof:lastmodified": 1763548380,
    "wof:name": "NE3 1UP",
    "wof:parent_id": 101750617,
    "wof:placetype": "postalcode",
    "wof:repo": "whosonfirst-data-postalcode-gb",
    "wof:superseded_by": [],
    "wof:supersedes": [],
    "wof:tags": []
  },
  "bbox": [
    -1.61452,
    55.008657,
    -1.61452,
    55.008657
  ],
  "geometry": {"coordinates":[-1.61452,55.008657],"type":"Point"}
}
