{
  "id": 1160999022,
  "type": "Feature",
  "properties": {
    "date:cessation_lower": "1998-06-01",
    "date:cessation_upper": "1998-06-01",
    "date:inception_lower": "1980-01-01",
    "date:inception_upper": "1980-01-01",
    "edtf:cessation": "1998-06-01",
    "edtf:inception": "1980-01-01",
    "geom:area": 0,
    "geom:bbox": "-0.940612,53.990080,-0.940612,53.990080",
    "geom:latitude": 53.99008,
    "geom:longitude": -0.940612,
    "iso:country": "GB",
    "mz:hierarchy_label": 1,
    "mz:is_current": 0,
    "os:country_code": "E92000001",
    "os:county_code": "E99999999",
    "os:district_code": "E06000065",
    "os:positional_quality_indicator": "1",
    "os:region_code": "E12000003",
    "src:geom": "os",
    "wof:belongsto": [
      102191581,
      85633159,
      1360698753,
      136253055,
      404449565,
      1125965743,
      1880762011,
      404227469,
      1880772891
    ],
    "wof:breaches": [],
    "wof:country": "GB",
    "wof:created": 1583799354,
    "wof:geomhash": "5ee38b81bc447810be81b3bcd49711b8",
    "wof:hierarchy": [
      {
        "continent_id": 102191581,
        "country_id": 85633159,
        "county_id": 1360698753,
        "empire_id": 136253055,
        "localadmin_id": 404449565,
        "locality_id": 1125965743,
        "macrocounty_id": 1880762011,
        "macroregion_id": 404227469,
        "postalcode_id": 1160999022,
        "region_id": 1880772891
      }
    ],
    "wof:id": 1160999022,
    "wof:lastmodified": 1763548266,
    "wof:name": "YO4 1NB",
    "wof:parent_id": 1125965743,
    "wof:placetype": "postalcode",
    "wof:repo": "whosonfirst-data-postalcode-gb",
    "wof:superseded_by": [],
    "wof:supersedes": [],
    "wof:tags": []
  },
  "bbox": [
    -0.940612,
    53.99008,
    -0.940612,
    53.99008
  ],
  "geometry": {"coordinates":[-0.940612,53.99008],"type":"Point"}
}
