{
  "id": 874480415,
  "type": "Feature",
  "properties": {
    "date:inception_lower": "2010-12-01",
    "date:inception_upper": "2010-12-01",
    "edtf:cessation": "",
    "edtf:inception": "2010-12-01",
    "geom:area": 0,
    "geom:bbox": "-0.332782,53.385441,-0.332782,53.385441",
    "geom:latitude": 53.385441,
    "geom:longitude": -0.332782,
    "iso:country": "GB",
    "mz:hierarchy_label": 1,
    "mz:is_current": 1,
    "os:country_code": "E92000001",
    "os:county_code": "E10000019",
    "os:district_code": "E07000142",
    "os:positional_quality_indicator": "1",
    "os:region_code": "E12000004",
    "src:geom": "os",
    "wof:belongsto": [
      85633159,
      102191581,
      136253055,
      1864208623,
      1880771569,
      404448803,
      1125846313,
      1880762033,
      404227469,
      1880762701
    ],
    "wof:breaches": [],
    "wof:country": "GB",
    "wof:created": 1468887678,
    "wof:geomhash": "336a32d5c34e6f89bacbfc2c721e60d0",
    "wof:hierarchy": [
      {
        "continent_id": 102191581,
        "country_id": 85633159,
        "county_id": 1880771569,
        "empire_id": 136253055,
        "localadmin_id": 404448803,
        "locality_id": 1125846313,
        "macrocounty_id": 1880762033,
        "macroregion_id": 404227469,
        "postalcode_id": 874480415,
        "region_id": 1880762701
      },
      {
        "continent_id": 102191581,
        "country_id": 85633159,
        "empire_id": 136253055,
        "postalcode_id": 874480415,
        "postalregion_id": 1864208623
      }
    ],
    "wof:id": 874480415,
    "wof:lastmodified": 1763547971,
    "wof:name": "LN8 3GY",
    "wof:parent_id": 1125846313,
    "wof:placetype": "postalcode",
    "wof:repo": "whosonfirst-data-postalcode-gb",
    "wof:superseded_by": [],
    "wof:supersedes": [],
    "wof:tags": []
  },
  "bbox": [
    -0.332782,
    53.385441,
    -0.332782,
    53.385441
  ],
  "geometry": {"coordinates":[-0.332782,53.385441],"type":"Point"}
}
