{
  "id": 438080729,
  "type": "Feature",
  "properties": {
    "date:inception_lower": "1980-01-01",
    "date:inception_upper": "1980-01-01",
    "edtf:cessation": "",
    "edtf:inception": "1980-01-01",
    "geom:area": 0,
    "geom:bbox": "-2.474560,53.767040,-2.474560,53.767040",
    "geom:latitude": 53.76704,
    "geom:longitude": -2.47456,
    "gp:parent_id": "12850",
    "iso:country": "GB",
    "mz:hierarchy_label": 1,
    "mz:is_current": 1,
    "os:country_code": "E92000001",
    "os:county_code": "E99999999",
    "os:district_code": "E06000008",
    "os:positional_quality_indicator": "1",
    "os:region_code": "E12000002",
    "src:geom": "os",
    "wof:belongsto": [
      85633159,
      102191581,
      136253055,
      1864205693,
      1360698999,
      101750575,
      1880762053,
      404227469,
      1880762711
    ],
    "wof:breaches": [],
    "wof:concordances": {
      "gp:id": "26886083"
    },
    "wof:country": "GB",
    "wof:created": 1583701223,
    "wof:geomhash": "36a397b6f1d3f04a955184d559ffe5b4",
    "wof:hierarchy": [
      {
        "continent_id": 102191581,
        "country_id": 85633159,
        "county_id": 1360698999,
        "empire_id": 136253055,
        "locality_id": 101750575,
        "macrocounty_id": 1880762053,
        "macroregion_id": 404227469,
        "postalcode_id": 438080729,
        "region_id": 1880762711
      },
      {
        "continent_id": 102191581,
        "country_id": 85633159,
        "empire_id": 136253055,
        "postalcode_id": 438080729,
        "postalregion_id": 1864205693
      }
    ],
    "wof:id": 438080729,
    "wof:lastmodified": 1763548093,
    "wof:name": "BB1 9SN",
    "wof:parent_id": 101750575,
    "wof:placetype": "postalcode",
    "wof:repo": "whosonfirst-data-postalcode-gb",
    "wof:superseded_by": [],
    "wof:supersedes": [],
    "wof:tags": []
  },
  "bbox": [
    -2.47456,
    53.76704,
    -2.47456,
    53.76704
  ],
  "geometry": {"coordinates":[-2.47456,53.76704],"type":"Point"}
}
