{
  "id": 1712583923,
  "type": "Feature",
  "properties": {
    "date:cessation_lower": "1997-06-01",
    "date:cessation_upper": "1997-06-01",
    "date:inception_lower": "1995-07-01",
    "date:inception_upper": "1995-07-01",
    "edtf:cessation": "1997-06-01",
    "edtf:inception": "1995-07-01",
    "geom:area": 0,
    "geom:bbox": "-2.844195,53.707823,-2.844195,53.707823",
    "geom:latitude": 53.707823,
    "geom:longitude": -2.844195,
    "iso:country": "GB",
    "mz:hierarchy_label": 1,
    "mz:is_current": 0,
    "os:country_code": "E92000001",
    "os:county_code": "E10000017",
    "os:district_code": "E07000127",
    "os:positional_quality_indicator": "8",
    "os:region_code": "E12000002",
    "src:geom": "os",
    "wof:belongsto": [
      85633159,
      102191581,
      136253055,
      1864210001,
      1880771529,
      404443199,
      1360758243,
      1880762053,
      404227469,
      1880762711
    ],
    "wof:breaches": [],
    "wof:country": "GB",
    "wof:created": 1583794527,
    "wof:geomhash": "cde72227528127de65a2e2eedd4192a9",
    "wof:hierarchy": [
      {
        "continent_id": 102191581,
        "country_id": 85633159,
        "county_id": 1880771529,
        "empire_id": 136253055,
        "localadmin_id": 404443199,
        "locality_id": 1360758243,
        "macrocounty_id": 1880762053,
        "macroregion_id": 404227469,
        "postalcode_id": 1712583923,
        "region_id": 1880762711
      },
      {
        "continent_id": 102191581,
        "country_id": 85633159,
        "empire_id": 136253055,
        "postalcode_id": 1712583923,
        "postalregion_id": 1864210001
      }
    ],
    "wof:id": 1712583923,
    "wof:lastmodified": 1763548703,
    "wof:name": "PR4 6TF",
    "wof:parent_id": 1360758243,
    "wof:placetype": "postalcode",
    "wof:repo": "whosonfirst-data-postalcode-gb",
    "wof:superseded_by": [],
    "wof:supersedes": [],
    "wof:tags": []
  },
  "bbox": [
    -2.844195,
    53.707823,
    -2.844195,
    53.707823
  ],
  "geometry": {"coordinates":[-2.844195,53.707823],"type":"Point"}
}
