{
  "id": 454215467,
  "type": "Feature",
  "properties": {
    "date:inception_lower": "1980-01-01",
    "date:inception_upper": "1980-01-01",
    "edtf:cessation": "",
    "edtf:inception": "1980-01-01",
    "geom:area": 0,
    "geom:bbox": "1.068563,51.272010,1.068563,51.272010",
    "geom:latitude": 51.27201,
    "geom:longitude": 1.068563,
    "gp:parent_id": "40607",
    "iso:country": "GB",
    "mz:hierarchy_label": 1,
    "mz:is_current": 1,
    "os:country_code": "E92000001",
    "os:county_code": "E10000016",
    "os:district_code": "E07000106",
    "os:positional_quality_indicator": "1",
    "os:region_code": "E12000008",
    "src:geom": "os",
    "wof:belongsto": [
      85633159,
      102191581,
      136253055,
      1864206443,
      1880771515,
      1125774669,
      1880762057,
      404227469,
      1880762705
    ],
    "wof:breaches": [],
    "wof:concordances": {
      "gp:id": "26535759"
    },
    "wof:country": "GB",
    "wof:created": 1583701384,
    "wof:geomhash": "cf7395300f4e64a236c60beb415d2626",
    "wof:hierarchy": [
      {
        "continent_id": 102191581,
        "country_id": 85633159,
        "county_id": 1880771515,
        "empire_id": 136253055,
        "locality_id": 1125774669,
        "macrocounty_id": 1880762057,
        "macroregion_id": 404227469,
        "postalcode_id": 454215467,
        "region_id": 1880762705
      },
      {
        "continent_id": 102191581,
        "country_id": 85633159,
        "empire_id": 136253055,
        "postalcode_id": 454215467,
        "postalregion_id": 1864206443
      }
    ],
    "wof:id": 454215467,
    "wof:lastmodified": 1763548477,
    "wof:name": "CT1 3SE",
    "wof:parent_id": 1125774669,
    "wof:placetype": "postalcode",
    "wof:repo": "whosonfirst-data-postalcode-gb",
    "wof:superseded_by": [],
    "wof:supersedes": [],
    "wof:tags": []
  },
  "bbox": [
    1.068563,
    51.27201,
    1.068563,
    51.27201
  ],
  "geometry": {"coordinates":[1.068563,51.27201],"type":"Point"}
}
