{
  "id": 488144031,
  "type": "Feature",
  "properties": {
    "date:inception_lower": "2006-09-01",
    "date:inception_upper": "2006-09-01",
    "edtf:cessation": "",
    "edtf:inception": "2006-09-01",
    "geom:area": 0,
    "geom:bbox": "-1.269385,53.675392,-1.269385,53.675392",
    "geom:latitude": 53.675392,
    "geom:longitude": -1.269385,
    "gp:parent_id": "17950",
    "iso:country": "GB",
    "mz:hierarchy_label": 1,
    "mz:is_current": 1,
    "os:country_code": "E92000001",
    "os:county_code": "E99999999",
    "os:district_code": "E08000036",
    "os:positional_quality_indicator": "1",
    "os:region_code": "E12000003",
    "src:geom": "os",
    "wof:belongsto": [
      85633159,
      102191581,
      136253055,
      1864211579,
      1360698945,
      404442303,
      1209744219,
      1880762059
    ],
    "wof:breaches": [],
    "wof:concordances": {
      "gp:id": "28994368"
    },
    "wof:country": "GB",
    "wof:created": 1583701273,
    "wof:geomhash": "87dfa9895e707bc910399da1bbe7d191",
    "wof:hierarchy": [
      {
        "continent_id": -1,
        "country_id": -1,
        "county_id": 1360698945,
        "localadmin_id": 404442303,
        "locality_id": 1209744219,
        "macrocounty_id": 1880762059,
        "postalcode_id": 488144031,
        "region_id": -1
      },
      {
        "continent_id": 102191581,
        "country_id": 85633159,
        "empire_id": 136253055,
        "postalcode_id": 488144031,
        "postalregion_id": 1864211579
      }
    ],
    "wof:id": 488144031,
    "wof:lastmodified": 1763548514,
    "wof:name": "WF8 3FG",
    "wof:parent_id": 1209744219,
    "wof:placetype": "postalcode",
    "wof:repo": "whosonfirst-data-postalcode-gb",
    "wof:superseded_by": [],
    "wof:supersedes": [],
    "wof:tags": []
  },
  "bbox": [
    -1.269385,
    53.675392,
    -1.269385,
    53.675392
  ],
  "geometry": {"coordinates":[-1.269385,53.675392],"type":"Point"}
}
