{
  "id": 874479067,
  "type": "Feature",
  "properties": {
    "date:inception_lower": "2011-03-01",
    "date:inception_upper": "2011-03-01",
    "edtf:cessation": "",
    "edtf:inception": "2011-03-01",
    "geom:area": 0,
    "geom:bbox": "-3.111528,53.066509,-3.111528,53.066509",
    "geom:latitude": 53.066509,
    "geom:longitude": -3.111528,
    "iso:country": "GB",
    "mz:hierarchy_label": 1,
    "mz:is_current": 1,
    "os:country_code": "W92000004",
    "os:county_code": "W99999999",
    "os:district_code": "W06000006",
    "os:positional_quality_indicator": "1",
    "os:region_code": "W99999999",
    "src:geom": "os",
    "wof:belongsto": [
      85633159,
      102191581,
      136253055,
      1864208447,
      1360698743,
      404446773,
      1125917429,
      1880762183,
      404227475,
      1880772909
    ],
    "wof:breaches": [],
    "wof:country": "GB",
    "wof:created": 1468887184,
    "wof:geomhash": "b289cf53b29296b84c053bbac80261f3",
    "wof:hierarchy": [
      {
        "continent_id": 102191581,
        "country_id": 85633159,
        "county_id": 1360698743,
        "empire_id": 136253055,
        "localadmin_id": 404446773,
        "locality_id": 1125917429,
        "macrocounty_id": 1880762183,
        "macroregion_id": 404227475,
        "postalcode_id": 874479067,
        "region_id": 1880772909
      },
      {
        "continent_id": 102191581,
        "country_id": 85633159,
        "empire_id": 136253055,
        "postalcode_id": 874479067,
        "postalregion_id": 1864208447
      }
    ],
    "wof:id": 874479067,
    "wof:lastmodified": 1763547938,
    "wof:name": "LL11 5AQ",
    "wof:parent_id": 1125917429,
    "wof:placetype": "postalcode",
    "wof:repo": "whosonfirst-data-postalcode-gb",
    "wof:superseded_by": [],
    "wof:supersedes": [],
    "wof:tags": []
  },
  "bbox": [
    -3.111528,
    53.066509,
    -3.111528,
    53.066509
  ],
  "geometry": {"coordinates":[-3.111528,53.066509],"type":"Point"}
}
