{
  "id": 874454639,
  "type": "Feature",
  "properties": {
    "date:inception_lower": "2011-10-01",
    "date:inception_upper": "2011-10-01",
    "edtf:cessation": "",
    "edtf:inception": "2011-10-01",
    "geom:area": 0,
    "geom:bbox": "-3.286531,50.716156,-3.286531,50.716156",
    "geom:latitude": 50.716156,
    "geom:longitude": -3.286531,
    "iso:country": "GB",
    "mz:hierarchy_label": 1,
    "mz:is_current": 1,
    "os:country_code": "E92000001",
    "os:county_code": "E10000008",
    "os:district_code": "E07000040",
    "os:positional_quality_indicator": "1",
    "os:region_code": "E12000009",
    "src:geom": "os",
    "wof:belongsto": [
      85633159,
      102191581,
      136253055,
      1864207181,
      1880771397,
      404444461,
      1126009121,
      1880762149,
      404227469,
      1880762683
    ],
    "wof:breaches": [],
    "wof:country": "GB",
    "wof:created": 1468879222,
    "wof:geomhash": "c5e5f1e6cbddf0764e1c2421d917110d",
    "wof:hierarchy": [
      {
        "continent_id": 102191581,
        "country_id": 85633159,
        "county_id": 1880771397,
        "empire_id": 136253055,
        "localadmin_id": 404444461,
        "locality_id": 1126009121,
        "macrocounty_id": 1880762149,
        "macroregion_id": 404227469,
        "postalcode_id": 874454639,
        "region_id": 1880762683
      },
      {
        "continent_id": 102191581,
        "country_id": 85633159,
        "empire_id": 136253055,
        "postalcode_id": 874454639,
        "postalregion_id": 1864207181
      }
    ],
    "wof:id": 874454639,
    "wof:lastmodified": 1763547950,
    "wof:name": "EX10 0TE",
    "wof:parent_id": 1126009121,
    "wof:placetype": "postalcode",
    "wof:repo": "whosonfirst-data-postalcode-gb",
    "wof:superseded_by": [],
    "wof:supersedes": [],
    "wof:tags": []
  },
  "bbox": [
    -3.286531,
    50.716156,
    -3.286531,
    50.716156
  ],
  "geometry": {"coordinates":[-3.286531,50.716156],"type":"Point"}
}
