{
  "id": 455013241,
  "type": "Feature",
  "properties": {
    "date:inception_lower": "1980-01-01",
    "date:inception_upper": "1980-01-01",
    "edtf:cessation": "",
    "edtf:inception": "1980-01-01",
    "geom:area": 0,
    "geom:bbox": "-0.901070,52.771530,-0.901070,52.771530",
    "geom:latitude": 52.77153,
    "geom:longitude": -0.90107,
    "iso:country": "GB",
    "mz:hierarchy_label": 1,
    "mz:is_current": 1,
    "os:country_code": "E92000001",
    "os:county_code": "E10000018",
    "os:district_code": "E07000133",
    "os:positional_quality_indicator": "1",
    "os:region_code": "E12000004",
    "src:geom": "os",
    "wof:belongsto": [
      85633159,
      102191581,
      136253055,
      1864208399,
      1880771561,
      101853619,
      1880762051,
      404227469,
      1880773085
    ],
    "wof:breaches": [],
    "wof:concordances": {
      "gp:id": "27472310"
    },
    "wof:country": "GB",
    "wof:created": 1583701155,
    "wof:geomhash": "3a6f59ea163a164e7fbef3fc45db0d77",
    "wof:hierarchy": [
      {
        "continent_id": 102191581,
        "country_id": 85633159,
        "county_id": 1880771561,
        "empire_id": 136253055,
        "locality_id": 101853619,
        "macrocounty_id": 1880762051,
        "macroregion_id": 404227469,
        "postalcode_id": 455013241,
        "region_id": 1880773085
      },
      {
        "continent_id": 102191581,
        "country_id": 85633159,
        "empire_id": 136253055,
        "postalcode_id": 455013241,
        "postalregion_id": 1864208399
      }
    ],
    "wof:id": 455013241,
    "wof:lastmodified": 1763547921,
    "wof:name": "LE13 0JL",
    "wof:parent_id": 101853619,
    "wof:placetype": "postalcode",
    "wof:repo": "whosonfirst-data-postalcode-gb",
    "wof:superseded_by": [],
    "wof:supersedes": [],
    "wof:tags": []
  },
  "bbox": [
    -0.90107,
    52.77153,
    -0.90107,
    52.77153
  ],
  "geometry": {"coordinates":[-0.90107,52.77153],"type":"Point"}
}
