{
  "id": 454651981,
  "type": "Feature",
  "properties": {
    "date:inception_lower": "2000-10-01",
    "date:inception_upper": "2000-10-01",
    "edtf:cessation": "",
    "edtf:inception": "2000-10-01",
    "geom:area": 0,
    "geom:bbox": "-2.110435,51.889238,-2.110435,51.889238",
    "geom:latitude": 51.889238,
    "geom:longitude": -2.110435,
    "gp:parent_id": "15790",
    "iso:country": "GB",
    "mz:hierarchy_label": 1,
    "mz:is_current": 1,
    "os:country_code": "E92000001",
    "os:county_code": "E10000013",
    "os:district_code": "E07000078",
    "os:positional_quality_indicator": "1",
    "os:region_code": "E12000009",
    "src:geom": "os",
    "wof:belongsto": [
      85633159,
      102191581,
      136253055,
      1864207479,
      1880771455,
      101750435,
      1880762161,
      404227469,
      1880762693
    ],
    "wof:breaches": [],
    "wof:concordances": {
      "gp:id": "27314609"
    },
    "wof:country": "GB",
    "wof:created": 1583701688,
    "wof:geomhash": "968d8750a8d15716aac9582e9775f89c",
    "wof:hierarchy": [
      {
        "continent_id": 102191581,
        "country_id": 85633159,
        "county_id": 1880771455,
        "empire_id": 136253055,
        "locality_id": 101750435,
        "macrocounty_id": 1880762161,
        "macroregion_id": 404227469,
        "postalcode_id": 454651981,
        "region_id": 1880762693
      },
      {
        "continent_id": 102191581,
        "country_id": 85633159,
        "empire_id": 136253055,
        "postalcode_id": 454651981,
        "postalregion_id": 1864207479
      }
    ],
    "wof:id": 454651981,
    "wof:lastmodified": 1763548333,
    "wof:name": "GL51 3NU",
    "wof:parent_id": 101750435,
    "wof:placetype": "postalcode",
    "wof:repo": "whosonfirst-data-postalcode-gb",
    "wof:superseded_by": [],
    "wof:supersedes": [],
    "wof:tags": []
  },
  "bbox": [
    -2.110435,
    51.889238,
    -2.110435,
    51.889238
  ],
  "geometry": {"coordinates":[-2.110435,51.889238],"type":"Point"}
}
