{
  "id": 471528367,
  "type": "Feature",
  "properties": {
    "date:inception_lower": "1993-01-01",
    "date:inception_upper": "1993-01-01",
    "edtf:cessation": "",
    "edtf:inception": "1993-01-01",
    "geom:area": 0,
    "geom:bbox": "-1.512571,51.419188,-1.512571,51.419188",
    "geom:latitude": 51.419188,
    "geom:longitude": -1.512571,
    "iso:country": "GB",
    "mz:hierarchy_label": 1,
    "mz:is_current": 1,
    "os:country_code": "E92000001",
    "os:county_code": "E99999999",
    "os:district_code": "E06000037",
    "os:positional_quality_indicator": "1",
    "os:region_code": "E12000008",
    "src:geom": "os",
    "wof:belongsto": [
      85633159,
      102191581,
      136253055,
      1864210025,
      1360698857,
      404441979,
      101852653,
      1880762165,
      404227469,
      1880772969
    ],
    "wof:breaches": [],
    "wof:concordances": {
      "gp:id": "26482311"
    },
    "wof:country": "GB",
    "wof:created": 1583701658,
    "wof:geomhash": "fd87b15f3ba3a12e67de12c0ffa0b3a6",
    "wof:hierarchy": [
      {
        "continent_id": 102191581,
        "country_id": 85633159,
        "county_id": 1360698857,
        "empire_id": 136253055,
        "localadmin_id": 404441979,
        "locality_id": 101852653,
        "macrocounty_id": 1880762165,
        "macroregion_id": 404227469,
        "postalcode_id": 471528367,
        "region_id": 1880772969
      },
      {
        "continent_id": 102191581,
        "country_id": 85633159,
        "empire_id": 136253055,
        "postalcode_id": 471528367,
        "postalregion_id": 1864210025
      }
    ],
    "wof:id": 471528367,
    "wof:lastmodified": 1763548138,
    "wof:name": "RG17 0YZ",
    "wof:parent_id": 101852653,
    "wof:placetype": "postalcode",
    "wof:repo": "whosonfirst-data-postalcode-gb",
    "wof:superseded_by": [],
    "wof:supersedes": [],
    "wof:tags": []
  },
  "bbox": [
    -1.512571,
    51.419188,
    -1.512571,
    51.419188
  ],
  "geometry": {"coordinates":[-1.512571,51.419188],"type":"Point"}
}
