{
  "id": 874488163,
  "type": "Feature",
  "properties": {
    "date:inception_lower": "2012-03-01",
    "date:inception_upper": "2012-03-01",
    "edtf:cessation": "",
    "edtf:inception": "2012-03-01",
    "geom:area": 0,
    "geom:bbox": "-0.986562,51.999236,-0.986562,51.999236",
    "geom:latitude": 51.999236,
    "geom:longitude": -0.986562,
    "iso:country": "GB",
    "mz:hierarchy_label": 1,
    "mz:is_current": 1,
    "os:country_code": "E92000001",
    "os:county_code": "E99999999",
    "os:district_code": "E06000060",
    "os:positional_quality_indicator": "1",
    "os:region_code": "E12000008",
    "src:geom": "os",
    "wof:belongsto": [
      85633159,
      102191581,
      136253055,
      1864208883,
      1360698997,
      404452955,
      101875469,
      1880762141,
      404227469,
      1880773087
    ],
    "wof:breaches": [],
    "wof:country": "GB",
    "wof:created": 1468888760,
    "wof:geomhash": "5d65c55f55a02e0df8c1d7bc9f61f15e",
    "wof:hierarchy": [
      {
        "continent_id": 102191581,
        "country_id": 85633159,
        "county_id": 1360698997,
        "empire_id": 136253055,
        "localadmin_id": 404452955,
        "locality_id": 101875469,
        "macrocounty_id": 1880762141,
        "macroregion_id": 404227469,
        "postalcode_id": 874488163,
        "region_id": 1880773087
      },
      {
        "continent_id": 102191581,
        "country_id": 85633159,
        "empire_id": 136253055,
        "postalcode_id": 874488163,
        "postalregion_id": 1864208883
      }
    ],
    "wof:id": 874488163,
    "wof:lastmodified": 1763547964,
    "wof:name": "MK18 1GA",
    "wof:parent_id": 101875469,
    "wof:placetype": "postalcode",
    "wof:repo": "whosonfirst-data-postalcode-gb",
    "wof:superseded_by": [],
    "wof:supersedes": [],
    "wof:tags": []
  },
  "bbox": [
    -0.986562,
    51.999236,
    -0.986562,
    51.999236
  ],
  "geometry": {"coordinates":[-0.986562,51.999236],"type":"Point"}
}
