{
  "id": 487702457,
  "type": "Feature",
  "properties": {
    "date:inception_lower": "2025-01-01",
    "date:inception_upper": "2025-01-01",
    "edtf:cessation": "",
    "edtf:inception": "2025-01-01",
    "geom:area": 0,
    "geom:bbox": "-2.048490,52.871702,-2.048490,52.871702",
    "geom:latitude": 52.871702,
    "geom:longitude": -2.04849,
    "gp:parent_id": "23576",
    "iso:country": "GB",
    "mz:hierarchy_label": 1,
    "mz:is_current": 1,
    "os:country_code": "E92000001",
    "os:county_code": "E10000028",
    "os:district_code": "E07000197",
    "os:positional_quality_indicator": "5",
    "os:region_code": "E12000005",
    "src:geom": "os",
    "wof:belongsto": [
      85633159,
      102191581,
      136253055,
      1864210801,
      1880771627,
      1880761999,
      404227469,
      1880762719,
      404451165,
      1360756299
    ],
    "wof:breaches": [],
    "wof:concordances": {
      "gp:id": "27989797"
    },
    "wof:country": "GB",
    "wof:created": 1583701130,
    "wof:geomhash": "0ba38ec83b666a5aa296098a4388f943",
    "wof:hierarchy": [
      {
        "continent_id": 102191581,
        "country_id": 85633159,
        "county_id": 1880771627,
        "empire_id": 136253055,
        "localadmin_id": 404451165,
        "locality_id": 1360756299,
        "macrocounty_id": 1880761999,
        "macroregion_id": 404227469,
        "postalcode_id": 487702457,
        "region_id": 1880762719
      },
      {
        "continent_id": 102191581,
        "country_id": 85633159,
        "empire_id": 136253055,
        "postalcode_id": 487702457,
        "postalregion_id": 1864210801
      }
    ],
    "wof:id": 487702457,
    "wof:lastmodified": 1763548698,
    "wof:name": "ST18 0GY",
    "wof:parent_id": 1360756299,
    "wof:placetype": "postalcode",
    "wof:repo": "whosonfirst-data-postalcode-gb",
    "wof:superseded_by": [],
    "wof:supersedes": [],
    "wof:tags": []
  },
  "bbox": [
    -2.04849,
    52.871702,
    -2.04849,
    52.871702
  ],
  "geometry": {"coordinates":[-2.04849,52.871702],"type":"Point"}
}
