{
  "id": 1160765466,
  "type": "Feature",
  "properties": {
    "date:cessation_lower": "1994-12-01",
    "date:cessation_upper": "1994-12-01",
    "date:inception_lower": "1980-01-01",
    "date:inception_upper": "1980-01-01",
    "edtf:cessation": "1994-12-01",
    "edtf:inception": "1980-01-01",
    "geom:area": 0,
    "geom:bbox": "-1.226870,50.959615,-1.226870,50.959615",
    "geom:latitude": 50.959615,
    "geom:longitude": -1.22687,
    "iso:country": "GB",
    "mz:hierarchy_label": 1,
    "mz:is_current": 0,
    "os:country_code": "E92000001",
    "os:county_code": "E10000014",
    "os:district_code": "E07000094",
    "os:positional_quality_indicator": "1",
    "os:region_code": "E12000008",
    "src:geom": "os",
    "wof:belongsto": [
      102191581,
      85633159,
      1880771467,
      136253055,
      404436977,
      1125840043,
      1880762155,
      404227469,
      1880762717
    ],
    "wof:breaches": [],
    "wof:country": "GB",
    "wof:created": 1583789037,
    "wof:geomhash": "27e30125422c1c6b3df6005717d7b7b9",
    "wof:hierarchy": [
      {
        "continent_id": 102191581,
        "country_id": 85633159,
        "county_id": 1880771467,
        "empire_id": 136253055,
        "localadmin_id": 404436977,
        "locality_id": 1125840043,
        "macrocounty_id": 1880762155,
        "macroregion_id": 404227469,
        "postalcode_id": 1160765466,
        "region_id": 1880762717
      }
    ],
    "wof:id": 1160765466,
    "wof:lastmodified": 1763548244,
    "wof:name": "SO3 1EW",
    "wof:parent_id": 1125840043,
    "wof:placetype": "postalcode",
    "wof:repo": "whosonfirst-data-postalcode-gb",
    "wof:superseded_by": [],
    "wof:supersedes": [],
    "wof:tags": []
  },
  "bbox": [
    -1.22687,
    50.959615,
    -1.22687,
    50.959615
  ],
  "geometry": {"coordinates":[-1.22687,50.959615],"type":"Point"}
}
