{
  "id": 488511453,
  "type": "Feature",
  "properties": {
    "date:inception_lower": "1980-01-01",
    "date:inception_upper": "1980-01-01",
    "edtf:cessation": "",
    "edtf:inception": "1980-01-01",
    "geom:area": 0,
    "geom:bbox": "-3.260737,55.916227,-3.260737,55.916227",
    "geom:latitude": 55.916227,
    "geom:longitude": -3.260737,
    "gp:parent_id": "12696195",
    "iso:country": "GB",
    "mz:hierarchy_label": 1,
    "mz:is_current": 1,
    "os:country_code": "S92000003",
    "os:county_code": "S99999999",
    "os:district_code": "S12000036",
    "os:positional_quality_indicator": "1",
    "os:region_code": "S99999999",
    "src:geom": "os",
    "wof:belongsto": [
      85633159,
      102191581,
      136253055,
      1864207039,
      1360698761,
      101750629,
      1880762089,
      404227471,
      1880772893
    ],
    "wof:breaches": [],
    "wof:concordances": {
      "gp:id": "26377021"
    },
    "wof:country": "GB",
    "wof:created": 1583701521,
    "wof:geomhash": "b531a8801981961cd5304921e0301b42",
    "wof:hierarchy": [
      {
        "continent_id": 102191581,
        "country_id": 85633159,
        "county_id": 1360698761,
        "empire_id": 136253055,
        "locality_id": 101750629,
        "macrocounty_id": 1880762089,
        "macroregion_id": 404227471,
        "postalcode_id": 488511453,
        "region_id": 1880772893
      },
      {
        "continent_id": 102191581,
        "country_id": 85633159,
        "empire_id": 136253055,
        "postalcode_id": 488511453,
        "postalregion_id": 1864207039
      }
    ],
    "wof:id": 488511453,
    "wof:lastmodified": 1763548517,
    "wof:name": "EH14 2JQ",
    "wof:parent_id": 101750629,
    "wof:placetype": "postalcode",
    "wof:repo": "whosonfirst-data-postalcode-gb",
    "wof:superseded_by": [],
    "wof:supersedes": [],
    "wof:tags": []
  },
  "bbox": [
    -3.260737,
    55.916227,
    -3.260737,
    55.916227
  ],
  "geometry": {"coordinates":[-3.260737,55.916227],"type":"Point"}
}
