{
  "id": 454603021,
  "type": "Feature",
  "properties": {
    "date:inception_lower": "1980-01-01",
    "date:inception_upper": "1980-01-01",
    "edtf:cessation": "",
    "edtf:inception": "1980-01-01",
    "geom:area": 0,
    "geom:bbox": "-3.507563,50.777296,-3.507563,50.777296",
    "geom:latitude": 50.777296,
    "geom:longitude": -3.507563,
    "gp:parent_id": "36218",
    "iso:country": "GB",
    "mz:hierarchy_label": 1,
    "mz:is_current": 1,
    "os:country_code": "E92000001",
    "os:county_code": "E10000008",
    "os:district_code": "E07000040",
    "os:positional_quality_indicator": "1",
    "os:region_code": "E12000009",
    "src:geom": "os",
    "wof:belongsto": [
      85633159,
      102191581,
      136253055,
      1864207241,
      1880771397,
      404429433,
      1125930241,
      1880762149,
      404227469,
      1880762683
    ],
    "wof:breaches": [],
    "wof:concordances": {
      "gp:id": "27266042"
    },
    "wof:country": "GB",
    "wof:created": 1583701658,
    "wof:geomhash": "c1122f9b26c7418833b676a3651bd00e",
    "wof:hierarchy": [
      {
        "continent_id": 102191581,
        "country_id": 85633159,
        "county_id": 1880771397,
        "empire_id": 136253055,
        "localadmin_id": 404429433,
        "locality_id": 1125930241,
        "macrocounty_id": 1880762149,
        "macroregion_id": 404227469,
        "postalcode_id": 454603021,
        "region_id": 1880762683
      },
      {
        "continent_id": 102191581,
        "country_id": 85633159,
        "empire_id": 136253055,
        "postalcode_id": 454603021,
        "postalregion_id": 1864207241
      }
    ],
    "wof:id": 454603021,
    "wof:lastmodified": 1763548354,
    "wof:name": "EX5 4ED",
    "wof:parent_id": 1125930241,
    "wof:placetype": "postalcode",
    "wof:repo": "whosonfirst-data-postalcode-gb",
    "wof:superseded_by": [],
    "wof:supersedes": [],
    "wof:tags": []
  },
  "bbox": [
    -3.507563,
    50.777296,
    -3.507563,
    50.777296
  ],
  "geometry": {"coordinates":[-3.507563,50.777296],"type":"Point"}
}
