{
  "id": 504408057,
  "type": "Feature",
  "properties": {
    "date:inception_lower": "1980-01-01",
    "date:inception_upper": "1980-01-01",
    "edtf:cessation": "",
    "edtf:inception": "1980-01-01",
    "geom:area": 0,
    "geom:bbox": "-4.345020,55.919841,-4.345020,55.919841",
    "geom:latitude": 55.919841,
    "geom:longitude": -4.34502,
    "gp:parent_id": "12696192",
    "iso:country": "GB",
    "mz:hierarchy_label": 1,
    "mz:is_current": 1,
    "os:country_code": "S92000003",
    "os:county_code": "S99999999",
    "os:district_code": "S12000045",
    "os:positional_quality_indicator": "1",
    "os:region_code": "S99999999",
    "src:geom": "os",
    "wof:belongsto": [
      85633159,
      102191581,
      136253055,
      1864207385,
      1360698835,
      1880762097,
      404227471,
      1880772937
    ],
    "wof:breaches": [],
    "wof:concordances": {
      "gp:id": "27292141"
    },
    "wof:country": "GB",
    "wof:created": 1583701175,
    "wof:geomhash": "1b1cb02f2ae7def773e1a9abf804eb11",
    "wof:hierarchy": [
      {
        "continent_id": 102191581,
        "country_id": 85633159,
        "county_id": 1360698835,
        "empire_id": 136253055,
        "macrocounty_id": 1880762097,
        "macroregion_id": 404227471,
        "postalcode_id": 504408057,
        "region_id": 1880772937
      },
      {
        "continent_id": 102191581,
        "country_id": 85633159,
        "empire_id": 136253055,
        "postalcode_id": 504408057,
        "postalregion_id": 1864207385
      }
    ],
    "wof:id": 504408057,
    "wof:lastmodified": 1763547988,
    "wof:name": "G61 4BL",
    "wof:parent_id": 1360698835,
    "wof:placetype": "postalcode",
    "wof:repo": "whosonfirst-data-postalcode-gb",
    "wof:superseded_by": [],
    "wof:supersedes": [],
    "wof:tags": []
  },
  "bbox": [
    -4.34502,
    55.919841,
    -4.34502,
    55.919841
  ],
  "geometry": {"coordinates":[-4.34502,55.919841],"type":"Point"}
}
