{
  "id": 504615841,
  "type": "Feature",
  "properties": {
    "date:cessation_lower": "2020-11-01",
    "date:cessation_upper": "2020-11-01",
    "date:inception_lower": "1993-08-01",
    "date:inception_upper": "1993-08-01",
    "edtf:cessation": "2020-11-01",
    "edtf:inception": "1993-08-01",
    "geom:area": 0,
    "geom:bbox": "-3.420252,52.521499,-3.420252,52.521499",
    "geom:latitude": 52.521499,
    "geom:longitude": -3.420252,
    "gp:parent_id": "14861",
    "iso:country": "GB",
    "mz:hierarchy_label": 1,
    "mz:is_current": 0,
    "os:country_code": "W92000004",
    "os:county_code": "W99999999",
    "os:district_code": "W06000023",
    "os:positional_quality_indicator": "1",
    "os:region_code": "W99999999",
    "src:geom": "os",
    "wof:belongsto": [
      85633159,
      102191581,
      136253055,
      1864210911,
      1360698985,
      404449351,
      1125800339,
      1880762123,
      404227475,
      1880773075
    ],
    "wof:breaches": [],
    "wof:concordances": {
      "gp:id": "28018313"
    },
    "wof:country": "GB",
    "wof:created": 1583701487,
    "wof:geomhash": "6f7e528196273a4954a7648128190d78",
    "wof:hierarchy": [
      {
        "continent_id": 102191581,
        "country_id": 85633159,
        "county_id": 1360698985,
        "empire_id": 136253055,
        "localadmin_id": 404449351,
        "locality_id": 1125800339,
        "macrocounty_id": 1880762123,
        "macroregion_id": 404227475,
        "postalcode_id": 504615841,
        "region_id": 1880773075
      },
      {
        "continent_id": 102191581,
        "country_id": 85633159,
        "empire_id": 136253055,
        "postalcode_id": 504615841,
        "postalregion_id": 1864210911
      }
    ],
    "wof:id": 504615841,
    "wof:lastmodified": 1763548117,
    "wof:name": "SY17 5HB",
    "wof:parent_id": 1125800339,
    "wof:placetype": "postalcode",
    "wof:repo": "whosonfirst-data-postalcode-gb",
    "wof:superseded_by": [],
    "wof:supersedes": [],
    "wof:tags": []
  },
  "bbox": [
    -3.420252,
    52.521499,
    -3.420252,
    52.521499
  ],
  "geometry": {"coordinates":[-3.420252,52.521499],"type":"Point"}
}
