{
  "id": 438004297,
  "type": "Feature",
  "properties": {
    "date:inception_lower": "2002-06-01",
    "date:inception_upper": "2002-06-01",
    "edtf:cessation": "",
    "edtf:inception": "2002-06-01",
    "geom:area": 0,
    "geom:bbox": "-2.055892,52.344186,-2.055892,52.344186",
    "geom:latitude": 52.344186,
    "geom:longitude": -2.055892,
    "iso:country": "GB",
    "mz:hierarchy_label": 1,
    "mz:is_current": 1,
    "os:country_code": "E92000001",
    "os:county_code": "E10000034",
    "os:district_code": "E07000234",
    "os:positional_quality_indicator": "1",
    "os:region_code": "E12000005",
    "src:geom": "os",
    "wof:belongsto": [
      85633159,
      102191581,
      136253055,
      1864205575,
      1880771703,
      101853023,
      1880762019,
      404227469,
      1880762691
    ],
    "wof:breaches": [],
    "wof:concordances": {
      "gp:id": "26859314"
    },
    "wof:country": "GB",
    "wof:created": 1583701065,
    "wof:geomhash": "00c79f1810026c9a7c7464eed2b3d4b5",
    "wof:hierarchy": [
      {
        "continent_id": 102191581,
        "country_id": 85633159,
        "county_id": 1880771703,
        "empire_id": 136253055,
        "locality_id": 101853023,
        "macrocounty_id": 1880762019,
        "macroregion_id": 404227469,
        "postalcode_id": 438004297,
        "region_id": 1880762691
      },
      {
        "continent_id": 102191581,
        "country_id": 85633159,
        "empire_id": 136253055,
        "postalcode_id": 438004297,
        "postalregion_id": 1864205575
      }
    ],
    "wof:id": 438004297,
    "wof:lastmodified": 1763548114,
    "wof:name": "B61 0BA",
    "wof:parent_id": 101853023,
    "wof:placetype": "postalcode",
    "wof:repo": "whosonfirst-data-postalcode-gb",
    "wof:superseded_by": [],
    "wof:supersedes": [],
    "wof:tags": []
  },
  "bbox": [
    -2.055892,
    52.344186,
    -2.055892,
    52.344186
  ],
  "geometry": {"coordinates":[-2.055892,52.344186],"type":"Point"}
}
