{
  "id": 471780275,
  "type": "Feature",
  "properties": {
    "date:inception_lower": "1980-01-01",
    "date:inception_upper": "1980-01-01",
    "edtf:cessation": "",
    "edtf:inception": "1980-01-01",
    "geom:area": 0,
    "geom:bbox": "-1.808938,53.194800,-1.808938,53.194800",
    "geom:latitude": 53.1948,
    "geom:longitude": -1.808938,
    "gp:parent_id": "20273",
    "iso:country": "GB",
    "mz:hierarchy_label": 1,
    "mz:is_current": 1,
    "os:country_code": "E92000001",
    "os:county_code": "E10000007",
    "os:district_code": "E07000035",
    "os:positional_quality_indicator": "1",
    "os:region_code": "E12000004",
    "src:geom": "os",
    "wof:belongsto": [
      85633159,
      102191581,
      136253055,
      1864210533,
      1880771389,
      404451249,
      1125874855,
      1880762133,
      404227469,
      1880762707
    ],
    "wof:breaches": [],
    "wof:concordances": {
      "gp:id": "27920529"
    },
    "wof:country": "GB",
    "wof:created": 1583701736,
    "wof:geomhash": "ed4d1976269b91c77b64ae6c65d471a3",
    "wof:hierarchy": [
      {
        "continent_id": 102191581,
        "country_id": 85633159,
        "county_id": 1880771389,
        "empire_id": 136253055,
        "localadmin_id": 404451249,
        "locality_id": 1125874855,
        "macrocounty_id": 1880762133,
        "macroregion_id": 404227469,
        "postalcode_id": 471780275,
        "region_id": 1880762707
      },
      {
        "continent_id": 102191581,
        "country_id": 85633159,
        "empire_id": 136253055,
        "postalcode_id": 471780275,
        "postalregion_id": 1864210533
      }
    ],
    "wof:id": 471780275,
    "wof:lastmodified": 1763548421,
    "wof:name": "SK17 9QQ",
    "wof:parent_id": 1125874855,
    "wof:placetype": "postalcode",
    "wof:repo": "whosonfirst-data-postalcode-gb",
    "wof:superseded_by": [],
    "wof:supersedes": [],
    "wof:tags": []
  },
  "bbox": [
    -1.808938,
    53.1948,
    -1.808938,
    53.1948
  ],
  "geometry": {"coordinates":[-1.808938,53.1948],"type":"Point"}
}
