{
  "id": 1160724280,
  "type": "Feature",
  "properties": {
    "date:cessation_lower": "1988-12-01",
    "date:cessation_upper": "1988-12-01",
    "date:inception_lower": "1986-04-01",
    "date:inception_upper": "1986-04-01",
    "edtf:cessation": "1988-12-01",
    "edtf:inception": "1986-04-01",
    "geom:area": 0,
    "geom:bbox": "-0.742415,53.915275,-0.742415,53.915275",
    "geom:latitude": 53.915275,
    "geom:longitude": -0.742415,
    "iso:country": "GB",
    "mz:hierarchy_label": 1,
    "mz:is_current": 0,
    "os:country_code": "E92000001",
    "os:county_code": "E99999999",
    "os:district_code": "E06000011",
    "os:positional_quality_indicator": "8",
    "os:region_code": "E12000003",
    "src:geom": "os",
    "wof:belongsto": [
      102191581,
      85633159,
      1360699001,
      136253055,
      404444207,
      1126036337,
      1880762147,
      404227469,
      1880773091
    ],
    "wof:breaches": [],
    "wof:country": "GB",
    "wof:created": 1583787147,
    "wof:geomhash": "8cfcc6b004b0132d793eb4604a62189b",
    "wof:hierarchy": [
      {
        "continent_id": 102191581,
        "country_id": 85633159,
        "county_id": 1360699001,
        "empire_id": 136253055,
        "localadmin_id": 404444207,
        "locality_id": 1126036337,
        "macrocounty_id": 1880762147,
        "macroregion_id": 404227469,
        "postalcode_id": 1160724280,
        "region_id": 1880773091
      }
    ],
    "wof:id": 1160724280,
    "wof:lastmodified": 1763548330,
    "wof:name": "YO4 2SG",
    "wof:parent_id": 1126036337,
    "wof:placetype": "postalcode",
    "wof:repo": "whosonfirst-data-postalcode-gb",
    "wof:superseded_by": [],
    "wof:supersedes": [],
    "wof:tags": []
  },
  "bbox": [
    -0.742415,
    53.915275,
    -0.742415,
    53.915275
  ],
  "geometry": {"coordinates":[-0.742415,53.915275],"type":"Point"}
}
