{
  "id": 455008751,
  "type": "Feature",
  "properties": {
    "date:inception_lower": "1980-01-01",
    "date:inception_upper": "1980-01-01",
    "edtf:cessation": "",
    "edtf:inception": "1980-01-01",
    "geom:area": 0,
    "geom:bbox": "-1.233084,52.761499,-1.233084,52.761499",
    "geom:latitude": 52.761499,
    "geom:longitude": -1.233084,
    "iso:country": "GB",
    "mz:hierarchy_label": 1,
    "mz:is_current": 1,
    "os:country_code": "E92000001",
    "os:county_code": "E10000018",
    "os:district_code": "E07000130",
    "os:positional_quality_indicator": "1",
    "os:region_code": "E12000004",
    "src:geom": "os",
    "wof:belongsto": [
      85633159,
      102191581,
      136253055,
      1864208395,
      1880771567,
      101750487,
      1880762051,
      404227469,
      1880773085
    ],
    "wof:breaches": [],
    "wof:concordances": {
      "gp:id": "26502562"
    },
    "wof:country": "GB",
    "wof:created": 1583701069,
    "wof:geomhash": "863b9ca72214ace637fb8d352c81e789",
    "wof:hierarchy": [
      {
        "continent_id": 102191581,
        "country_id": 85633159,
        "county_id": 1880771567,
        "empire_id": 136253055,
        "locality_id": 101750487,
        "macrocounty_id": 1880762051,
        "macroregion_id": 404227469,
        "postalcode_id": 455008751,
        "region_id": 1880773085
      },
      {
        "continent_id": 102191581,
        "country_id": 85633159,
        "empire_id": 136253055,
        "postalcode_id": 455008751,
        "postalregion_id": 1864208395
      }
    ],
    "wof:id": 455008751,
    "wof:lastmodified": 1763547941,
    "wof:name": "LE11 3JY",
    "wof:parent_id": 101750487,
    "wof:placetype": "postalcode",
    "wof:repo": "whosonfirst-data-postalcode-gb",
    "wof:superseded_by": [],
    "wof:supersedes": [],
    "wof:tags": []
  },
  "bbox": [
    -1.233084,
    52.761499,
    -1.233084,
    52.761499
  ],
  "geometry": {"coordinates":[-1.233084,52.761499],"type":"Point"}
}
