{
  "id": 454695709,
  "type": "Feature",
  "properties": {
    "date:inception_lower": "1980-01-01",
    "date:inception_upper": "1980-01-01",
    "edtf:cessation": "",
    "edtf:inception": "1980-01-01",
    "geom:area": 0,
    "geom:bbox": "-0.740815,50.987196,-0.740815,50.987196",
    "geom:latitude": 50.987196,
    "geom:longitude": -0.740815,
    "iso:country": "GB",
    "mz:hierarchy_label": 1,
    "mz:is_current": 1,
    "os:country_code": "E92000001",
    "os:county_code": "E10000032",
    "os:district_code": "E07000225",
    "os:positional_quality_indicator": "1",
    "os:region_code": "E12000008",
    "src:geom": "os",
    "wof:belongsto": [
      85633159,
      102191581,
      136253055,
      1864207547,
      1880771685,
      404442971,
      101854609,
      1880762061
    ],
    "wof:breaches": [],
    "wof:concordances": {
      "gp:id": "27330623"
    },
    "wof:country": "GB",
    "wof:created": 1583701700,
    "wof:geomhash": "3a10dae82045f63064adfccb530e7177",
    "wof:hierarchy": [
      {
        "continent_id": -1,
        "country_id": -1,
        "county_id": 1880771685,
        "localadmin_id": 404442971,
        "locality_id": 101854609,
        "macrocounty_id": 1880762061,
        "postalcode_id": 454695709,
        "region_id": -1
      },
      {
        "continent_id": 102191581,
        "country_id": 85633159,
        "empire_id": 136253055,
        "postalcode_id": 454695709,
        "postalregion_id": 1864207547
      }
    ],
    "wof:id": 454695709,
    "wof:lastmodified": 1763548369,
    "wof:name": "GU29 9EL",
    "wof:parent_id": 101854609,
    "wof:placetype": "postalcode",
    "wof:repo": "whosonfirst-data-postalcode-gb",
    "wof:superseded_by": [],
    "wof:supersedes": [],
    "wof:tags": []
  },
  "bbox": [
    -0.740815,
    50.987196,
    -0.740815,
    50.987196
  ],
  "geometry": {"coordinates":[-0.740815,50.987196],"type":"Point"}
}
