{
  "id": 39683745,
  "type": "Feature",
  "properties": {
    "date:cessation_lower": "1998-06-01",
    "date:cessation_upper": "1998-06-01",
    "date:inception_lower": "1980-01-01",
    "date:inception_upper": "1980-01-01",
    "edtf:cessation": "1998-06-01",
    "edtf:inception": "1980-01-01",
    "geom:area": 0,
    "geom:bbox": "-1.014463,53.977819,-1.014463,53.977819",
    "geom:latitude": 53.977819,
    "geom:longitude": -1.014463,
    "iso:country": "GB",
    "mz:hierarchy_label": 1,
    "mz:is_current": 0,
    "os:country_code": "E92000001",
    "os:county_code": "E99999999",
    "os:district_code": "E06000014",
    "os:positional_quality_indicator": "1",
    "os:region_code": "E12000003",
    "src:geom": "os",
    "wof:belongsto": [
      1360698977,
      404442407,
      1360757793,
      1880762011
    ],
    "wof:breaches": [],
    "wof:country": "GB",
    "wof:created": 1583804177,
    "wof:geomhash": "f65c820956286165c8d1f62688182f44",
    "wof:hierarchy": [
      {
        "continent_id": -1,
        "country_id": -1,
        "county_id": 1360698977,
        "localadmin_id": 404442407,
        "locality_id": 1360757793,
        "macrocounty_id": 1880762011,
        "postalcode_id": 39683745,
        "region_id": -1
      }
    ],
    "wof:id": 39683745,
    "wof:lastmodified": 1763547908,
    "wof:name": "YO3 9XE",
    "wof:parent_id": 1360757793,
    "wof:placetype": "postalcode",
    "wof:repo": "whosonfirst-data-postalcode-gb",
    "wof:superseded_by": [],
    "wof:supersedes": [],
    "wof:tags": []
  },
  "bbox": [
    -1.014463,
    53.977819,
    -1.014463,
    53.977819
  ],
  "geometry": {"coordinates":[-1.014463,53.977819],"type":"Point"}
}
