{
  "id": 470851499,
  "type": "Feature",
  "properties": {
    "date:inception_lower": "1990-02-01",
    "date:inception_upper": "1990-02-01",
    "edtf:cessation": "",
    "edtf:inception": "1990-02-01",
    "geom:area": 0,
    "geom:bbox": "-0.477268,51.911731,-0.477268,51.911731",
    "geom:latitude": 51.911731,
    "geom:longitude": -0.477268,
    "gp:parent_id": "27997",
    "iso:country": "GB",
    "mz:hierarchy_label": 1,
    "mz:is_current": 1,
    "os:country_code": "E92000001",
    "os:county_code": "E99999999",
    "os:district_code": "E06000032",
    "os:positional_quality_indicator": "1",
    "os:region_code": "E12000006",
    "src:geom": "os",
    "wof:belongsto": [
      85633159,
      102191581,
      136253055,
      1864208705,
      1360698783,
      101750401,
      1880762167,
      404227469,
      1880773157
    ],
    "wof:breaches": [],
    "wof:concordances": {
      "gp:id": "27529706"
    },
    "wof:country": "GB",
    "wof:created": 1583701128,
    "wof:geomhash": "1b6d4ad78f0fa7d5da8e08f37737fca0",
    "wof:hierarchy": [
      {
        "continent_id": 102191581,
        "country_id": 85633159,
        "county_id": 1360698783,
        "empire_id": 136253055,
        "locality_id": 101750401,
        "macrocounty_id": 1880762167,
        "macroregion_id": 404227469,
        "postalcode_id": 470851499,
        "region_id": 1880773157
      },
      {
        "continent_id": 102191581,
        "country_id": 85633159,
        "empire_id": 136253055,
        "postalcode_id": 470851499,
        "postalregion_id": 1864208705
      }
    ],
    "wof:id": 470851499,
    "wof:lastmodified": 1763547967,
    "wof:name": "LU4 9JS",
    "wof:parent_id": 101750401,
    "wof:placetype": "postalcode",
    "wof:repo": "whosonfirst-data-postalcode-gb",
    "wof:superseded_by": [],
    "wof:supersedes": [],
    "wof:tags": []
  },
  "bbox": [
    -0.477268,
    51.911731,
    -0.477268,
    51.911731
  ],
  "geometry": {"coordinates":[-0.477268,51.911731],"type":"Point"}
}
