{
  "id": 1947778693,
  "type": "Feature",
  "properties": {
    "date:inception_lower": "2024-06-01",
    "date:inception_upper": "2024-06-01",
    "edtf:cessation": "",
    "edtf:inception": "2024-06-01",
    "geom:area": 0,
    "geom:bbox": "-0.110421,53.541142,-0.110421,53.541142",
    "geom:latitude": 53.541142,
    "geom:longitude": -0.110421,
    "iso:country": "GB",
    "mz:hierarchy_label": 1,
    "mz:is_current": 1,
    "os:country_code": "E92000001",
    "os:county_code": "E99999999",
    "os:district_code": "E06000012",
    "os:positional_quality_indicator": "1",
    "os:region_code": "E12000003",
    "src:geom": "os",
    "wof:belongsto": [
      102191581,
      85633159,
      1360698837,
      136253055,
      1880762033,
      404227469,
      1880762701,
      1864206829,
      1360817097,
      1209242129
    ],
    "wof:breaches": [],
    "wof:country": "GB",
    "wof:created": 1736335350,
    "wof:geomhash": "79903caef5644c4804b9b71f8d2c76d1",
    "wof:hierarchy": [
      {
        "continent_id": 102191581,
        "country_id": 85633159,
        "county_id": 1360698837,
        "empire_id": 136253055,
        "localadmin_id": 1360817097,
        "locality_id": 1209242129,
        "macrocounty_id": 1880762033,
        "macroregion_id": 404227469,
        "postalcode_id": 1947778693,
        "region_id": 1880762701
      },
      {
        "continent_id": 102191581,
        "country_id": 85633159,
        "empire_id": 136253055,
        "postalcode_id": 1947778693,
        "postalregion_id": 1864206829
      }
    ],
    "wof:id": 1947778693,
    "wof:lastmodified": 1763547893,
    "wof:name": "DN33 3ET",
    "wof:parent_id": 1209242129,
    "wof:placetype": "postalcode",
    "wof:repo": "whosonfirst-data-postalcode-gb",
    "wof:superseded_by": [],
    "wof:supersedes": [],
    "wof:tags": []
  },
  "bbox": [
    -0.110421,
    53.541142,
    -0.110421,
    53.541142
  ],
  "geometry": {"coordinates":[-0.110421,53.541142],"type":"Point"}
}
