{
  "id": 454473415,
  "type": "Feature",
  "properties": {
    "date:cessation_lower": "2014-05-01",
    "date:cessation_upper": "2014-05-01",
    "date:inception_lower": "1980-01-01",
    "date:inception_upper": "1980-01-01",
    "edtf:cessation": "2014-05-01",
    "edtf:inception": "1980-01-01",
    "geom:area": 0,
    "geom:bbox": "-2.740297,50.810006,-2.740297,50.810006",
    "geom:latitude": 50.810006,
    "geom:longitude": -2.740297,
    "iso:country": "GB",
    "mz:hierarchy_label": 1,
    "mz:is_current": 0,
    "os:country_code": "E92000001",
    "os:county_code": "E99999999",
    "os:district_code": "E06000059",
    "os:positional_quality_indicator": "1",
    "os:region_code": "E12000009",
    "src:geom": "os",
    "wof:belongsto": [
      85633159,
      102191581,
      136253055,
      1864206883,
      1360698745,
      404449409,
      101852363,
      1880762151,
      404227469,
      1880772881
    ],
    "wof:breaches": [],
    "wof:concordances": {
      "gp:id": "26613467"
    },
    "wof:country": "GB",
    "wof:created": 1583701594,
    "wof:geomhash": "51b39415c474129c0f5e3eae5e35c841",
    "wof:hierarchy": [
      {
        "continent_id": 102191581,
        "country_id": 85633159,
        "county_id": 1360698745,
        "empire_id": 136253055,
        "localadmin_id": 404449409,
        "locality_id": 101852363,
        "macrocounty_id": 1880762151,
        "macroregion_id": 404227469,
        "postalcode_id": 454473415,
        "region_id": 1880772881
      },
      {
        "continent_id": 102191581,
        "country_id": 85633159,
        "empire_id": 136253055,
        "postalcode_id": 454473415,
        "postalregion_id": 1864206883
      }
    ],
    "wof:id": 454473415,
    "wof:lastmodified": 1763548491,
    "wof:name": "DT8 3AD",
    "wof:parent_id": 101852363,
    "wof:placetype": "postalcode",
    "wof:repo": "whosonfirst-data-postalcode-gb",
    "wof:superseded_by": [],
    "wof:supersedes": [],
    "wof:tags": []
  },
  "bbox": [
    -2.740297,
    50.810006,
    -2.740297,
    50.810006
  ],
  "geometry": {"coordinates":[-2.740297,50.810006],"type":"Point"}
}
