{
  "id": 1160827360,
  "type": "Feature",
  "properties": {
    "date:cessation_lower": "1981-12-01",
    "date:cessation_upper": "1981-12-01",
    "date:inception_lower": "1980-01-01",
    "date:inception_upper": "1980-01-01",
    "edtf:cessation": "1981-12-01",
    "edtf:inception": "1980-01-01",
    "geom:area": 0,
    "geom:bbox": "-2.831119,52.674001,-2.831119,52.674001",
    "geom:latitude": 52.674001,
    "geom:longitude": -2.831119,
    "iso:country": "GB",
    "mz:hierarchy_label": 1,
    "mz:is_current": 0,
    "os:country_code": "E92000001",
    "os:county_code": "E99999999",
    "os:district_code": "E06000051",
    "os:positional_quality_indicator": "8",
    "os:region_code": "E12000005",
    "src:geom": "os",
    "wof:belongsto": [
      85633159,
      102191581,
      136253055,
      1864210937,
      1360698821,
      404450877,
      1126014645,
      1880762073,
      404227469,
      1880772941
    ],
    "wof:breaches": [],
    "wof:country": "GB",
    "wof:created": 1583791737,
    "wof:geomhash": "7cdb38bf14ee451c3882fe066112c7d2",
    "wof:hierarchy": [
      {
        "continent_id": 102191581,
        "country_id": 85633159,
        "county_id": 1360698821,
        "empire_id": 136253055,
        "localadmin_id": 404450877,
        "locality_id": 1126014645,
        "macrocounty_id": 1880762073,
        "macroregion_id": 404227469,
        "postalcode_id": 1160827360,
        "region_id": 1880772941
      },
      {
        "continent_id": 102191581,
        "country_id": 85633159,
        "empire_id": 136253055,
        "postalcode_id": 1160827360,
        "postalregion_id": 1864210937
      }
    ],
    "wof:id": 1160827360,
    "wof:lastmodified": 1763548232,
    "wof:name": "SY5 8JP",
    "wof:parent_id": 1126014645,
    "wof:placetype": "postalcode",
    "wof:repo": "whosonfirst-data-postalcode-gb",
    "wof:superseded_by": [],
    "wof:supersedes": [],
    "wof:tags": []
  },
  "bbox": [
    -2.831119,
    52.674001,
    -2.831119,
    52.674001
  ],
  "geometry": {"coordinates":[-2.831119,52.674001],"type":"Point"}
}
