{
  "id": 471497667,
  "type": "Feature",
  "properties": {
    "date:inception_lower": "1980-01-01",
    "date:inception_upper": "1980-01-01",
    "edtf:cessation": "",
    "edtf:inception": "1980-01-01",
    "geom:area": 0,
    "geom:bbox": "-2.665853,53.777842,-2.665853,53.777842",
    "geom:latitude": 53.777842,
    "geom:longitude": -2.665853,
    "iso:country": "GB",
    "mz:hierarchy_label": 1,
    "mz:is_current": 1,
    "os:country_code": "E92000001",
    "os:county_code": "E10000017",
    "os:district_code": "E07000123",
    "os:positional_quality_indicator": "1",
    "os:region_code": "E12000002",
    "src:geom": "os",
    "wof:belongsto": [
      85633159,
      102191581,
      136253055,
      1864209993,
      1880771543,
      101750593,
      1880762053,
      404227469,
      1880762711
    ],
    "wof:breaches": [],
    "wof:concordances": {
      "gp:id": "27797672"
    },
    "wof:country": "GB",
    "wof:created": 1583701647,
    "wof:geomhash": "4da6b830e315a8a8fb67ca82283d52ac",
    "wof:hierarchy": [
      {
        "continent_id": 102191581,
        "country_id": 85633159,
        "county_id": 1880771543,
        "empire_id": 136253055,
        "locality_id": 101750593,
        "macrocounty_id": 1880762053,
        "macroregion_id": 404227469,
        "postalcode_id": 471497667,
        "region_id": 1880762711
      },
      {
        "continent_id": 102191581,
        "country_id": 85633159,
        "empire_id": 136253055,
        "postalcode_id": 471497667,
        "postalregion_id": 1864209993
      }
    ],
    "wof:id": 471497667,
    "wof:lastmodified": 1763548095,
    "wof:name": "PR2 6YL",
    "wof:parent_id": 101750593,
    "wof:placetype": "postalcode",
    "wof:repo": "whosonfirst-data-postalcode-gb",
    "wof:superseded_by": [],
    "wof:supersedes": [],
    "wof:tags": []
  },
  "bbox": [
    -2.665853,
    53.777842,
    -2.665853,
    53.777842
  ],
  "geometry": {"coordinates":[-2.665853,53.777842],"type":"Point"}
}
