{
  "id": 488338863,
  "type": "Feature",
  "properties": {
    "date:inception_lower": "2008-01-01",
    "date:inception_upper": "2008-01-01",
    "edtf:cessation": "",
    "edtf:inception": "2008-01-01",
    "geom:area": 0,
    "geom:bbox": "-1.322519,52.059143,-1.322519,52.059143",
    "geom:latitude": 52.059143,
    "geom:longitude": -1.322519,
    "iso:country": "GB",
    "mz:hierarchy_label": 1,
    "mz:is_current": 1,
    "os:country_code": "E92000001",
    "os:county_code": "E10000025",
    "os:district_code": "E07000177",
    "os:positional_quality_indicator": "1",
    "os:region_code": "E12000008",
    "src:geom": "os",
    "wof:belongsto": [
      85633159,
      102191581,
      136253055,
      1864209459,
      1880771613,
      404436741,
      101875471,
      1880762079,
      404227469,
      1880762695
    ],
    "wof:breaches": [],
    "wof:concordances": {
      "gp:id": "56167588"
    },
    "wof:country": "GB",
    "wof:created": 1583701354,
    "wof:geomhash": "d5eab7901fa960381457b90a6f6d01e0",
    "wof:hierarchy": [
      {
        "continent_id": 102191581,
        "country_id": 85633159,
        "county_id": 1880771613,
        "empire_id": 136253055,
        "localadmin_id": 404436741,
        "locality_id": 101875471,
        "macrocounty_id": 1880762079,
        "macroregion_id": 404227469,
        "postalcode_id": 488338863,
        "region_id": 1880762695
      },
      {
        "continent_id": 102191581,
        "country_id": 85633159,
        "empire_id": 136253055,
        "postalcode_id": 488338863,
        "postalregion_id": 1864209459
      }
    ],
    "wof:id": 488338863,
    "wof:lastmodified": 1763548402,
    "wof:name": "OX16 4TL",
    "wof:parent_id": 101875471,
    "wof:placetype": "postalcode",
    "wof:repo": "whosonfirst-data-postalcode-gb",
    "wof:superseded_by": [],
    "wof:supersedes": [],
    "wof:tags": []
  },
  "bbox": [
    -1.322519,
    52.059143,
    -1.322519,
    52.059143
  ],
  "geometry": {"coordinates":[-1.322519,52.059143],"type":"Point"}
}
