{
  "id": 38919708,
  "type": "Feature",
  "properties": {
    "date:cessation_lower": "1981-12-01",
    "date:cessation_upper": "1981-12-01",
    "date:inception_lower": "1980-01-01",
    "date:inception_upper": "1980-01-01",
    "edtf:cessation": "1981-12-01",
    "edtf:inception": "1980-01-01",
    "geom:area": 0,
    "geom:bbox": "-2.985184,53.404566,-2.985184,53.404566",
    "geom:latitude": 53.404566,
    "geom:longitude": -2.985184,
    "iso:country": "GB",
    "mz:hierarchy_label": 1,
    "mz:is_current": 0,
    "os:country_code": "E92000001",
    "os:county_code": "E99999999",
    "os:district_code": "E08000012",
    "os:positional_quality_indicator": "8",
    "os:region_code": "E12000002",
    "src:geom": "os",
    "wof:belongsto": [
      85633159,
      102191581,
      136253055,
      1864208213,
      1360698971,
      101750547,
      1880762035,
      404227469,
      1880773063
    ],
    "wof:breaches": [],
    "wof:country": "GB",
    "wof:created": 1583795712,
    "wof:geomhash": "ac011e95e861fccf20a8c667dde3a3b1",
    "wof:hierarchy": [
      {
        "continent_id": 102191581,
        "country_id": 85633159,
        "county_id": 1360698971,
        "empire_id": 136253055,
        "locality_id": 101750547,
        "macrocounty_id": 1880762035,
        "macroregion_id": 404227469,
        "postalcode_id": 38919708,
        "region_id": 1880773063
      },
      {
        "continent_id": 102191581,
        "country_id": 85633159,
        "empire_id": 136253055,
        "postalcode_id": 38919708,
        "postalregion_id": 1864208213
      }
    ],
    "wof:id": 38919708,
    "wof:lastmodified": 1763548630,
    "wof:name": "L1 3EQ",
    "wof:parent_id": 101750547,
    "wof:placetype": "postalcode",
    "wof:repo": "whosonfirst-data-postalcode-gb",
    "wof:superseded_by": [],
    "wof:supersedes": [],
    "wof:tags": []
  },
  "bbox": [
    -2.985184,
    53.404566,
    -2.985184,
    53.404566
  ],
  "geometry": {"coordinates":[-2.985184,53.404566],"type":"Point"}
}
