{
  "id": 470919071,
  "type": "Feature",
  "properties": {
    "date:inception_lower": "2003-04-01",
    "date:inception_upper": "2003-04-01",
    "edtf:cessation": "",
    "edtf:inception": "2003-04-01",
    "geom:area": 0,
    "geom:bbox": "-2.288114,53.494429,-2.288114,53.494429",
    "geom:latitude": 53.494429,
    "geom:longitude": -2.288114,
    "gp:parent_id": "33887",
    "iso:country": "GB",
    "mz:hierarchy_label": 1,
    "mz:is_current": 1,
    "os:country_code": "E92000001",
    "os:county_code": "E99999999",
    "os:district_code": "E08000006",
    "os:positional_quality_indicator": "1",
    "os:region_code": "E12000002",
    "src:geom": "os",
    "wof:belongsto": [
      85633159,
      102191581,
      136253055,
      1864208801,
      1360699005,
      1175612693,
      1880762163,
      404227469,
      1880773095
    ],
    "wof:breaches": [],
    "wof:concordances": {
      "gp:id": "27555237"
    },
    "wof:country": "GB",
    "wof:created": 1583701290,
    "wof:geomhash": "2514fec4f7ff26cacb03fbdf3c47bb96",
    "wof:hierarchy": [
      {
        "continent_id": 102191581,
        "country_id": 85633159,
        "county_id": 1360699005,
        "empire_id": 136253055,
        "locality_id": 1175612693,
        "macrocounty_id": 1880762163,
        "macroregion_id": 404227469,
        "postalcode_id": 470919071,
        "region_id": 1880773095
      },
      {
        "continent_id": 102191581,
        "country_id": 85633159,
        "empire_id": 136253055,
        "postalcode_id": 470919071,
        "postalregion_id": 1864208801
      }
    ],
    "wof:id": 470919071,
    "wof:lastmodified": 1763548050,
    "wof:name": "M6 6WE",
    "wof:parent_id": 1175612693,
    "wof:placetype": "postalcode",
    "wof:repo": "whosonfirst-data-postalcode-gb",
    "wof:superseded_by": [],
    "wof:supersedes": [],
    "wof:tags": []
  },
  "bbox": [
    -2.288114,
    53.494429,
    -2.288114,
    53.494429
  ],
  "geometry": {"coordinates":[-2.288114,53.494429],"type":"Point"}
}
