{
  "id": 487908155,
  "type": "Feature",
  "properties": {
    "date:inception_lower": "1980-01-01",
    "date:inception_upper": "1980-01-01",
    "edtf:cessation": "",
    "edtf:inception": "1980-01-01",
    "geom:area": 0,
    "geom:bbox": "-5.097233,50.187439,-5.097233,50.187439",
    "geom:latitude": 50.187439,
    "geom:longitude": -5.097233,
    "gp:parent_id": "35649",
    "iso:country": "GB",
    "mz:hierarchy_label": 1,
    "mz:is_current": 1,
    "os:country_code": "E92000001",
    "os:county_code": "E99999999",
    "os:district_code": "E06000052",
    "os:positional_quality_indicator": "1",
    "os:region_code": "E12000009",
    "src:geom": "os",
    "wof:belongsto": [
      85633159,
      102191581,
      136253055,
      1864211189,
      1360699085,
      404449471,
      1360753685,
      1880762119,
      404227469,
      1880773165
    ],
    "wof:breaches": [],
    "wof:concordances": {
      "gp:id": "28074137"
    },
    "wof:country": "GB",
    "wof:created": 1583701247,
    "wof:geomhash": "6a7cbe2eb721d1d464c9e310a6aea67b",
    "wof:hierarchy": [
      {
        "continent_id": 102191581,
        "country_id": 85633159,
        "county_id": 1360699085,
        "empire_id": 136253055,
        "localadmin_id": 404449471,
        "locality_id": 1360753685,
        "macrocounty_id": 1880762119,
        "macroregion_id": 404227469,
        "postalcode_id": 487908155,
        "region_id": 1880773165
      },
      {
        "continent_id": 102191581,
        "country_id": 85633159,
        "empire_id": 136253055,
        "postalcode_id": 487908155,
        "postalregion_id": 1864211189
      }
    ],
    "wof:id": 487908155,
    "wof:lastmodified": 1763548623,
    "wof:name": "TR10 9LD",
    "wof:parent_id": 1360753685,
    "wof:placetype": "postalcode",
    "wof:repo": "whosonfirst-data-postalcode-gb",
    "wof:superseded_by": [],
    "wof:supersedes": [],
    "wof:tags": []
  },
  "bbox": [
    -5.097233,
    50.187439,
    -5.097233,
    50.187439
  ],
  "geometry": {"coordinates":[-5.097233,50.187439],"type":"Point"}
}
