{
  "id": 454637341,
  "type": "Feature",
  "properties": {
    "date:inception_lower": "1987-04-01",
    "date:inception_upper": "1987-04-01",
    "edtf:cessation": "",
    "edtf:inception": "1987-04-01",
    "geom:area": 0,
    "geom:bbox": "-2.238833,51.956327,-2.238833,51.956327",
    "geom:latitude": 51.956327,
    "geom:longitude": -2.238833,
    "gp:parent_id": "37663",
    "iso:country": "GB",
    "mz:hierarchy_label": 1,
    "mz:is_current": 1,
    "os:country_code": "E92000001",
    "os:county_code": "E10000013",
    "os:district_code": "E07000083",
    "os:positional_quality_indicator": "1",
    "os:region_code": "E12000009",
    "src:geom": "os",
    "wof:belongsto": [
      85633159,
      102191581,
      136253055,
      1864207463,
      1880771453,
      404432089,
      1126050643,
      1880762161,
      404227469,
      1880762693
    ],
    "wof:breaches": [],
    "wof:concordances": {
      "gp:id": "26675264"
    },
    "wof:country": "GB",
    "wof:created": 1583701675,
    "wof:geomhash": "308b25b8f0044dc79d0fd0ab2c7ae390",
    "wof:hierarchy": [
      {
        "continent_id": 102191581,
        "country_id": 85633159,
        "county_id": 1880771453,
        "empire_id": 136253055,
        "localadmin_id": 404432089,
        "locality_id": 1126050643,
        "macrocounty_id": 1880762161,
        "macroregion_id": 404227469,
        "postalcode_id": 454637341,
        "region_id": 1880762693
      },
      {
        "continent_id": 102191581,
        "country_id": 85633159,
        "empire_id": 136253055,
        "postalcode_id": 454637341,
        "postalregion_id": 1864207463
      }
    ],
    "wof:id": 454637341,
    "wof:lastmodified": 1763548503,
    "wof:name": "GL19 4HW",
    "wof:parent_id": 1126050643,
    "wof:placetype": "postalcode",
    "wof:repo": "whosonfirst-data-postalcode-gb",
    "wof:superseded_by": [],
    "wof:supersedes": [],
    "wof:tags": []
  },
  "bbox": [
    -2.238833,
    51.956327,
    -2.238833,
    51.956327
  ],
  "geometry": {"coordinates":[-2.238833,51.956327],"type":"Point"}
}
