{
  "id": 504608705,
  "type": "Feature",
  "properties": {
    "date:inception_lower": "1994-05-01",
    "date:inception_upper": "1994-05-01",
    "edtf:cessation": "",
    "edtf:inception": "1994-05-01",
    "geom:area": 0,
    "geom:bbox": "-3.910782,51.657946,-3.910782,51.657946",
    "geom:latitude": 51.657946,
    "geom:longitude": -3.910782,
    "gp:parent_id": "27072",
    "iso:country": "GB",
    "mz:hierarchy_label": 1,
    "mz:is_current": 1,
    "os:country_code": "W92000004",
    "os:county_code": "W99999999",
    "os:district_code": "W06000011",
    "os:positional_quality_indicator": "1",
    "os:region_code": "W99999999",
    "src:geom": "os",
    "wof:belongsto": [
      85633159,
      102191581,
      136253055,
      1864210387,
      1360699095,
      404446219,
      1360711667,
      1880762113,
      404227475,
      1880773177
    ],
    "wof:breaches": [],
    "wof:concordances": {
      "gp:id": "27886667"
    },
    "wof:country": "GB",
    "wof:created": 1583701477,
    "wof:geomhash": "d2a5cab28559ec0201c42eeae272e80a",
    "wof:hierarchy": [
      {
        "continent_id": 102191581,
        "country_id": 85633159,
        "county_id": 1360699095,
        "empire_id": 136253055,
        "localadmin_id": 404446219,
        "locality_id": 1360711667,
        "macrocounty_id": 1880762113,
        "macroregion_id": 404227475,
        "postalcode_id": 504608705,
        "region_id": 1880773177
      },
      {
        "continent_id": 102191581,
        "country_id": 85633159,
        "empire_id": 136253055,
        "postalcode_id": 504608705,
        "postalregion_id": 1864210387
      }
    ],
    "wof:id": 504608705,
    "wof:lastmodified": 1763548136,
    "wof:name": "SA7 9FB",
    "wof:parent_id": 1360711667,
    "wof:placetype": "postalcode",
    "wof:repo": "whosonfirst-data-postalcode-gb",
    "wof:superseded_by": [],
    "wof:supersedes": [],
    "wof:tags": []
  },
  "bbox": [
    -3.910782,
    51.657946,
    -3.910782,
    51.657946
  ],
  "geometry": {"coordinates":[-3.910782,51.657946],"type":"Point"}
}
