{
  "id": 1161142892,
  "type": "Feature",
  "properties": {
    "date:cessation_lower": "1994-12-01",
    "date:cessation_upper": "1994-12-01",
    "date:inception_lower": "1992-08-01",
    "date:inception_upper": "1992-08-01",
    "edtf:cessation": "1994-12-01",
    "edtf:inception": "1992-08-01",
    "geom:area": 0,
    "geom:bbox": "-1.052650,54.601178,-1.052650,54.601178",
    "geom:latitude": 54.601178,
    "geom:longitude": -1.05265,
    "iso:country": "GB",
    "mz:hierarchy_label": 1,
    "mz:is_current": 0,
    "os:country_code": "E92000001",
    "os:county_code": "E99999999",
    "os:district_code": "E06000003",
    "os:positional_quality_indicator": "8",
    "os:region_code": "E12000001",
    "src:geom": "os",
    "wof:belongsto": [
      85633159,
      102191581,
      136253055,
      1864211251,
      1360698859,
      101873325,
      1880762011,
      404227469,
      1880772891
    ],
    "wof:breaches": [],
    "wof:country": "GB",
    "wof:created": 1583805801,
    "wof:geomhash": "f9f1e2d334b614627cf23b17268e49f0",
    "wof:hierarchy": [
      {
        "continent_id": 102191581,
        "country_id": 85633159,
        "county_id": 1360698859,
        "empire_id": 136253055,
        "locality_id": 101873325,
        "macrocounty_id": 1880762011,
        "macroregion_id": 404227469,
        "postalcode_id": 1161142892,
        "region_id": 1880772891
      },
      {
        "continent_id": 102191581,
        "country_id": 85633159,
        "empire_id": 136253055,
        "postalcode_id": 1161142892,
        "postalregion_id": 1864211251
      }
    ],
    "wof:id": 1161142892,
    "wof:lastmodified": 1763548345,
    "wof:name": "TS10 2YN",
    "wof:parent_id": 101873325,
    "wof:placetype": "postalcode",
    "wof:repo": "whosonfirst-data-postalcode-gb",
    "wof:superseded_by": [],
    "wof:supersedes": [],
    "wof:tags": []
  },
  "bbox": [
    -1.05265,
    54.601178,
    -1.05265,
    54.601178
  ],
  "geometry": {"coordinates":[-1.05265,54.601178],"type":"Point"}
}
