{
  "id": 1998353899,
  "type": "Feature",
  "properties": {
    "date:inception_lower": "2024-12-01",
    "date:inception_upper": "2024-12-01",
    "edtf:cessation": "",
    "edtf:inception": "2024-12-01",
    "geom:area": 0,
    "geom:bbox": "0.021963,53.370090,0.021963,53.370090",
    "geom:latitude": 53.37009,
    "geom:longitude": 0.021963,
    "iso:country": "GB",
    "mz:hierarchy_label": 1,
    "mz:is_current": 1,
    "os:country_code": "E92000001",
    "os:county_code": "E10000019",
    "os:district_code": "E07000137",
    "os:positional_quality_indicator": "1",
    "os:region_code": "E12000004",
    "src:geom": "os",
    "wof:belongsto": [
      102191581,
      85633159,
      1880771581,
      136253055,
      404434857,
      1126001425,
      1880762033,
      404227469,
      1880762701,
      1864208603
    ],
    "wof:breaches": [],
    "wof:country": "GB",
    "wof:created": 1763549455,
    "wof:geomhash": "f291998c723a1cf0fc9286c8c82400a1",
    "wof:hierarchy": [
      {
        "continent_id": 102191581,
        "country_id": 85633159,
        "county_id": 1880771581,
        "empire_id": 136253055,
        "localadmin_id": 404434857,
        "locality_id": 1126001425,
        "macrocounty_id": 1880762033,
        "macroregion_id": 404227469,
        "postalcode_id": 1998353899,
        "region_id": 1880762701
      },
      {
        "continent_id": 102191581,
        "country_id": 85633159,
        "empire_id": 136253055,
        "postalcode_id": 1998353899,
        "postalregion_id": 1864208603
      }
    ],
    "wof:id": 1998353899,
    "wof:lastmodified": 1763549455,
    "wof:name": "LN11 7FH",
    "wof:parent_id": 1126001425,
    "wof:placetype": "postalcode",
    "wof:repo": "whosonfirst-data-postalcode-gb",
    "wof:superseded_by": [],
    "wof:supersedes": [],
    "wof:tags": []
  },
  "bbox": [
    0.021963,
    53.37009,
    0.021963,
    53.37009
  ],
  "geometry": {"coordinates":[0.021963,53.37009],"type":"Point"}
}
