{
  "id": 487870129,
  "type": "Feature",
  "properties": {
    "date:inception_lower": "1980-01-01",
    "date:inception_upper": "1980-01-01",
    "edtf:cessation": "",
    "edtf:inception": "1980-01-01",
    "geom:area": 0,
    "geom:bbox": "0.594792,50.858705,0.594792,50.858705",
    "geom:latitude": 50.858705,
    "geom:longitude": 0.594792,
    "iso:country": "GB",
    "mz:hierarchy_label": 1,
    "mz:is_current": 1,
    "os:country_code": "E92000001",
    "os:county_code": "E10000011",
    "os:district_code": "E07000062",
    "os:positional_quality_indicator": "1",
    "os:region_code": "E12000008",
    "src:geom": "os",
    "wof:belongsto": [
      85633159,
      102191581,
      136253055,
      1864211127,
      1880771417,
      101750313,
      1880762145,
      404227469,
      1880762703
    ],
    "wof:breaches": [],
    "wof:concordances": {
      "gp:id": "28060379"
    },
    "wof:country": "GB",
    "wof:created": 1583701220,
    "wof:geomhash": "99b6745ba99f79873da7b0c7f8dc6ab4",
    "wof:hierarchy": [
      {
        "continent_id": 102191581,
        "country_id": 85633159,
        "county_id": 1880771417,
        "empire_id": 136253055,
        "locality_id": 101750313,
        "macrocounty_id": 1880762145,
        "macroregion_id": 404227469,
        "postalcode_id": 487870129,
        "region_id": 1880762703
      },
      {
        "continent_id": 102191581,
        "country_id": 85633159,
        "empire_id": 136253055,
        "postalcode_id": 487870129,
        "postalregion_id": 1864211127
      }
    ],
    "wof:id": 487870129,
    "wof:lastmodified": 1763548722,
    "wof:name": "TN34 3BG",
    "wof:parent_id": 101750313,
    "wof:placetype": "postalcode",
    "wof:repo": "whosonfirst-data-postalcode-gb",
    "wof:superseded_by": [],
    "wof:supersedes": [],
    "wof:tags": []
  },
  "bbox": [
    0.594792,
    50.858705,
    0.594792,
    50.858705
  ],
  "geometry": {"coordinates":[0.594792,50.858705],"type":"Point"}
}
