{
  "id": 437881943,
  "type": "Feature",
  "properties": {
    "date:cessation_lower": "2005-06-01",
    "date:cessation_upper": "2005-06-01",
    "date:inception_lower": "1980-01-01",
    "date:inception_upper": "1980-01-01",
    "edtf:cessation": "2005-06-01",
    "edtf:inception": "1980-01-01",
    "geom:area": 0,
    "geom:bbox": "-3.771243,51.585515,-3.771243,51.585515",
    "geom:latitude": 51.585515,
    "geom:longitude": -3.771243,
    "iso:country": "GB",
    "mz:hierarchy_label": 1,
    "mz:is_current": 0,
    "os:country_code": "W92000004",
    "os:county_code": "W99999999",
    "os:district_code": "W06000012",
    "os:positional_quality_indicator": "1",
    "os:region_code": "W99999999",
    "src:geom": "os",
    "wof:belongsto": [
      85633159,
      102191581,
      136253055,
      1864210297,
      1360698825,
      404432321,
      1125765089,
      1880762113,
      404227475,
      1880773177
    ],
    "wof:breaches": [],
    "wof:concordances": {
      "gp:id": "28927942"
    },
    "wof:country": "GB",
    "wof:created": 1583701610,
    "wof:geomhash": "044f83941a9dfa29b02c6f0d0a1032b3",
    "wof:hierarchy": [
      {
        "continent_id": 102191581,
        "country_id": 85633159,
        "county_id": 1360698825,
        "empire_id": 136253055,
        "localadmin_id": 404432321,
        "locality_id": 1125765089,
        "macrocounty_id": 1880762113,
        "macroregion_id": 404227475,
        "postalcode_id": 437881943,
        "region_id": 1880773177
      },
      {
        "continent_id": 102191581,
        "country_id": 85633159,
        "empire_id": 136253055,
        "postalcode_id": 437881943,
        "postalregion_id": 1864210297
      }
    ],
    "wof:id": 437881943,
    "wof:lastmodified": 1763548026,
    "wof:name": "SA13 1LL",
    "wof:parent_id": 1125765089,
    "wof:placetype": "postalcode",
    "wof:repo": "whosonfirst-data-postalcode-gb",
    "wof:superseded_by": [],
    "wof:supersedes": [],
    "wof:tags": []
  },
  "bbox": [
    -3.771243,
    51.585515,
    -3.771243,
    51.585515
  ],
  "geometry": {"coordinates":[-3.771243,51.585515],"type":"Point"}
}
