{
  "id": 488580045,
  "type": "Feature",
  "properties": {
    "date:inception_lower": "2016-08-01",
    "date:inception_upper": "2016-08-01",
    "edtf:cessation": "",
    "edtf:inception": "2016-08-01",
    "geom:area": 0,
    "geom:bbox": "-3.350460,51.720146,-3.350460,51.720146",
    "geom:latitude": 51.720146,
    "geom:longitude": -3.35046,
    "gp:parent_id": "38248",
    "iso:country": "GB",
    "mz:hierarchy_label": 1,
    "mz:is_current": 1,
    "os:country_code": "W92000004",
    "os:county_code": "W99999999",
    "os:district_code": "W06000024",
    "os:positional_quality_indicator": "1",
    "os:region_code": "W99999999",
    "src:geom": "os",
    "wof:belongsto": [
      85633159,
      102191581,
      136253055,
      1864206211,
      1360698803,
      404452685,
      1125783849,
      1880762185,
      404227475,
      1880773115
    ],
    "wof:breaches": [],
    "wof:concordances": {
      "gp:id": "27044821"
    },
    "wof:country": "GB",
    "wof:created": 1583701602,
    "wof:geomhash": "18084d1afe528c910c68907c31dc0a24",
    "wof:hierarchy": [
      {
        "continent_id": 102191581,
        "country_id": 85633159,
        "county_id": 1360698803,
        "empire_id": 136253055,
        "localadmin_id": 404452685,
        "locality_id": 1125783849,
        "macrocounty_id": 1880762185,
        "macroregion_id": 404227475,
        "postalcode_id": 488580045,
        "region_id": 1880773115
      },
      {
        "continent_id": 102191581,
        "country_id": 85633159,
        "empire_id": 136253055,
        "postalcode_id": 488580045,
        "postalregion_id": 1864206211
      }
    ],
    "wof:id": 488580045,
    "wof:lastmodified": 1763548523,
    "wof:name": "CF48 4LA",
    "wof:parent_id": 1125783849,
    "wof:placetype": "postalcode",
    "wof:repo": "whosonfirst-data-postalcode-gb",
    "wof:superseded_by": [],
    "wof:supersedes": [],
    "wof:tags": []
  },
  "bbox": [
    -3.35046,
    51.720146,
    -3.35046,
    51.720146
  ],
  "geometry": {"coordinates":[-3.35046,51.720146],"type":"Point"}
}
