{
  "id": 1947759627,
  "type": "Feature",
  "properties": {
    "date:inception_lower": "2024-12-01",
    "date:inception_upper": "2024-12-01",
    "edtf:cessation": "",
    "edtf:inception": "2024-12-01",
    "geom:area": 0,
    "geom:bbox": "-2.417100,53.100771,-2.417100,53.100771",
    "geom:latitude": 53.100771,
    "geom:longitude": -2.4171,
    "iso:country": "GB",
    "mz:hierarchy_label": 1,
    "mz:is_current": 1,
    "os:country_code": "E92000001",
    "os:county_code": "E99999999",
    "os:district_code": "E06000049",
    "os:positional_quality_indicator": "1",
    "os:region_code": "E12000002",
    "src:geom": "os",
    "wof:belongsto": [
      102191581,
      85633159,
      1360698929,
      136253055,
      101750515,
      1880762135,
      404227469,
      1880773021,
      1864206543
    ],
    "wof:breaches": [],
    "wof:country": "GB",
    "wof:created": 1736334470,
    "wof:geomhash": "176228c379a44f0dafb295e929cfa27b",
    "wof:hierarchy": [
      {
        "continent_id": 102191581,
        "country_id": 85633159,
        "county_id": 1360698929,
        "empire_id": 136253055,
        "locality_id": 101750515,
        "macrocounty_id": 1880762135,
        "macroregion_id": 404227469,
        "postalcode_id": 1947759627,
        "region_id": 1880773021
      },
      {
        "continent_id": 102191581,
        "country_id": 85633159,
        "empire_id": 136253055,
        "postalcode_id": 1947759627,
        "postalregion_id": 1864206543
      }
    ],
    "wof:id": 1947759627,
    "wof:lastmodified": 1763547898,
    "wof:name": "CW1 5DJ",
    "wof:parent_id": 101750515,
    "wof:placetype": "postalcode",
    "wof:repo": "whosonfirst-data-postalcode-gb",
    "wof:superseded_by": [],
    "wof:supersedes": [],
    "wof:tags": []
  },
  "bbox": [
    -2.4171,
    53.100771,
    -2.4171,
    53.100771
  ],
  "geometry": {"coordinates":[-2.4171,53.100771],"type":"Point"}
}
