{
  "id": 487886195,
  "type": "Feature",
  "properties": {
    "date:inception_lower": "1996-12-01",
    "date:inception_upper": "1996-12-01",
    "edtf:cessation": "",
    "edtf:inception": "1996-12-01",
    "geom:area": 0,
    "geom:bbox": "-3.813774,50.409259,-3.813774,50.409259",
    "geom:latitude": 50.409259,
    "geom:longitude": -3.813774,
    "gp:parent_id": "11469",
    "iso:country": "GB",
    "mz:hierarchy_label": 1,
    "mz:is_current": 1,
    "os:country_code": "E92000001",
    "os:county_code": "E10000008",
    "os:district_code": "E07000044",
    "os:positional_quality_indicator": "1",
    "os:region_code": "E12000009",
    "src:geom": "os",
    "wof:belongsto": [
      85633159,
      102191581,
      136253055,
      1864211159,
      1880771713,
      404438043,
      1226675377,
      1880762149
    ],
    "wof:breaches": [],
    "wof:concordances": {
      "gp:id": "28066055"
    },
    "wof:country": "GB",
    "wof:created": 1583701231,
    "wof:geomhash": "383cd5d4306ad8c8c50b97b69ead2220",
    "wof:hierarchy": [
      {
        "continent_id": -1,
        "country_id": -1,
        "county_id": 1880771713,
        "localadmin_id": 404438043,
        "locality_id": 1226675377,
        "macrocounty_id": 1880762149,
        "postalcode_id": 487886195,
        "region_id": -1
      },
      {
        "continent_id": 102191581,
        "country_id": 85633159,
        "empire_id": 136253055,
        "postalcode_id": 487886195,
        "postalregion_id": 1864211159
      }
    ],
    "wof:id": 487886195,
    "wof:lastmodified": 1763548643,
    "wof:name": "TQ10 9EE",
    "wof:parent_id": 1226675377,
    "wof:placetype": "postalcode",
    "wof:repo": "whosonfirst-data-postalcode-gb",
    "wof:superseded_by": [],
    "wof:supersedes": [],
    "wof:tags": []
  },
  "bbox": [
    -3.813774,
    50.409259,
    -3.813774,
    50.409259
  ],
  "geometry": {"coordinates":[-3.813774,50.409259],"type":"Point"}
}
