{
  "id": 471215945,
  "type": "Feature",
  "properties": {
    "date:inception_lower": "2009-01-01",
    "date:inception_upper": "2009-01-01",
    "edtf:cessation": "",
    "edtf:inception": "2009-01-01",
    "geom:area": 0,
    "geom:bbox": "0.976937,52.814980,0.976937,52.814980",
    "geom:latitude": 52.81498,
    "geom:longitude": 0.976937,
    "gp:parent_id": "40897",
    "iso:country": "GB",
    "mz:hierarchy_label": 1,
    "mz:is_current": 1,
    "os:country_code": "E92000001",
    "os:county_code": "E10000020",
    "os:district_code": "E07000147",
    "os:positional_quality_indicator": "1",
    "os:region_code": "E12000006",
    "src:geom": "os",
    "wof:belongsto": [
      85633159,
      102191581,
      136253055,
      1864209327,
      1880771711,
      404442929,
      1125979647,
      1880762037,
      404227469,
      1880762699
    ],
    "wof:breaches": [],
    "wof:concordances": {
      "gp:id": "27683115"
    },
    "wof:country": "GB",
    "wof:created": 1583701405,
    "wof:geomhash": "cbc349236addec992799ae215a16f6e6",
    "wof:hierarchy": [
      {
        "continent_id": 102191581,
        "country_id": 85633159,
        "county_id": 1880771711,
        "empire_id": 136253055,
        "localadmin_id": 404442929,
        "locality_id": 1125979647,
        "macrocounty_id": 1880762037,
        "macroregion_id": 404227469,
        "postalcode_id": 471215945,
        "region_id": 1880762699
      },
      {
        "continent_id": 102191581,
        "country_id": 85633159,
        "empire_id": 136253055,
        "postalcode_id": 471215945,
        "postalregion_id": 1864209327
      }
    ],
    "wof:id": 471215945,
    "wof:lastmodified": 1763548282,
    "wof:name": "NR20 5AZ",
    "wof:parent_id": 1125979647,
    "wof:placetype": "postalcode",
    "wof:repo": "whosonfirst-data-postalcode-gb",
    "wof:superseded_by": [],
    "wof:supersedes": [],
    "wof:tags": []
  },
  "bbox": [
    0.976937,
    52.81498,
    0.976937,
    52.81498
  ],
  "geometry": {"coordinates":[0.976937,52.81498],"type":"Point"}
}
