{
  "id": 38314206,
  "type": "Feature",
  "properties": {
    "date:cessation_lower": "1994-12-01",
    "date:cessation_upper": "1994-12-01",
    "date:inception_lower": "1986-01-01",
    "date:inception_upper": "1986-01-01",
    "edtf:cessation": "1994-12-01",
    "edtf:inception": "1986-01-01",
    "geom:area": 0,
    "geom:bbox": "-1.547739,50.755601,-1.547739,50.755601",
    "geom:latitude": 50.755601,
    "geom:longitude": -1.547739,
    "iso:country": "GB",
    "mz:hierarchy_label": 1,
    "mz:is_current": 0,
    "os:country_code": "E92000001",
    "os:county_code": "E10000014",
    "os:district_code": "E07000091",
    "os:positional_quality_indicator": "1",
    "os:region_code": "E12000008",
    "src:geom": "os",
    "wof:belongsto": [
      85633159,
      102191581,
      136253055,
      1864210679,
      1880771459,
      404451169,
      1360756307,
      1880762155,
      404227469,
      1880762717
    ],
    "wof:breaches": [],
    "wof:country": "GB",
    "wof:created": 1583788992,
    "wof:geomhash": "6ae4a7287c3d2416fd52befefdb53e11",
    "wof:hierarchy": [
      {
        "continent_id": 102191581,
        "country_id": 85633159,
        "county_id": 1880771459,
        "empire_id": 136253055,
        "localadmin_id": 404451169,
        "locality_id": 1360756307,
        "macrocounty_id": 1880762155,
        "macroregion_id": 404227469,
        "postalcode_id": 38314206,
        "region_id": 1880762717
      },
      {
        "continent_id": 102191581,
        "country_id": 85633159,
        "empire_id": 136253055,
        "postalcode_id": 38314206,
        "postalregion_id": 1864210679
      }
    ],
    "wof:id": 38314206,
    "wof:lastmodified": 1763548163,
    "wof:name": "SO41 9QX",
    "wof:parent_id": 1360756307,
    "wof:placetype": "postalcode",
    "wof:repo": "whosonfirst-data-postalcode-gb",
    "wof:superseded_by": [],
    "wof:supersedes": [],
    "wof:tags": []
  },
  "bbox": [
    -1.547739,
    50.755601,
    -1.547739,
    50.755601
  ],
  "geometry": {"coordinates":[-1.547739,50.755601],"type":"Point"}
}
