{
  "id": 454085149,
  "type": "Feature",
  "properties": {
    "date:inception_lower": "2006-09-01",
    "date:inception_upper": "2006-09-01",
    "edtf:cessation": "",
    "edtf:inception": "2006-09-01",
    "geom:area": 0,
    "geom:bbox": "0.009157,52.211791,0.009157,52.211791",
    "geom:latitude": 52.211791,
    "geom:longitude": 0.009157,
    "gp:parent_id": "22413",
    "iso:country": "GB",
    "mz:hierarchy_label": 1,
    "mz:is_current": 1,
    "os:country_code": "E92000001",
    "os:county_code": "E10000003",
    "os:district_code": "E07000012",
    "os:positional_quality_indicator": "1",
    "os:region_code": "E12000006",
    "src:geom": "os",
    "wof:belongsto": [
      85633159,
      102191581,
      136253055,
      1864206131,
      1880771367,
      404438593,
      1125925333,
      1880762143,
      404227469,
      1880762687
    ],
    "wof:breaches": [],
    "wof:concordances": {
      "gp:id": "28965122"
    },
    "wof:country": "GB",
    "wof:created": 1583701178,
    "wof:geomhash": "e5464610f5cadd9ae88ea6f702a7eb8a",
    "wof:hierarchy": [
      {
        "continent_id": 102191581,
        "country_id": 85633159,
        "county_id": 1880771367,
        "empire_id": 136253055,
        "localadmin_id": 404438593,
        "locality_id": 1125925333,
        "macrocounty_id": 1880762143,
        "macroregion_id": 404227469,
        "postalcode_id": 454085149,
        "region_id": 1880762687
      },
      {
        "continent_id": 102191581,
        "country_id": 85633159,
        "empire_id": 136253055,
        "postalcode_id": 454085149,
        "postalregion_id": 1864206131
      }
    ],
    "wof:id": 454085149,
    "wof:lastmodified": 1763548302,
    "wof:name": "CB23 7XT",
    "wof:parent_id": 1125925333,
    "wof:placetype": "postalcode",
    "wof:repo": "whosonfirst-data-postalcode-gb",
    "wof:superseded_by": [],
    "wof:supersedes": [],
    "wof:tags": []
  },
  "bbox": [
    0.009157,
    52.211791,
    0.009157,
    52.211791
  ],
  "geometry": {"coordinates":[0.009157,52.211791],"type":"Point"}
}
