{
  "id": 504721743,
  "type": "Feature",
  "properties": {
    "date:inception_lower": "2001-12-01",
    "date:inception_upper": "2001-12-01",
    "edtf:cessation": "",
    "edtf:inception": "2001-12-01",
    "geom:area": 0,
    "geom:bbox": "-2.970092,57.674580,-2.970092,57.674580",
    "geom:latitude": 57.67458,
    "geom:longitude": -2.970092,
    "gp:parent_id": "12696202",
    "iso:country": "GB",
    "mz:hierarchy_label": 1,
    "mz:is_current": 1,
    "os:country_code": "S92000003",
    "os:county_code": "S99999999",
    "os:district_code": "S12000020",
    "os:positional_quality_indicator": "1",
    "os:region_code": "S99999999",
    "src:geom": "os",
    "wof:belongsto": [
      85633159,
      102191581,
      136253055,
      1864205449,
      1360698869,
      1880762111,
      404227471,
      1880772981
    ],
    "wof:breaches": [],
    "wof:concordances": {
      "gp:id": "26836858"
    },
    "wof:country": "GB",
    "wof:created": 1583701522,
    "wof:geomhash": "507329cdcf07999d4d736d3e3a5f38b0",
    "wof:hierarchy": [
      {
        "continent_id": 102191581,
        "country_id": 85633159,
        "county_id": 1360698869,
        "empire_id": 136253055,
        "macrocounty_id": 1880762111,
        "macroregion_id": 404227471,
        "postalcode_id": 504721743,
        "region_id": 1880772981
      },
      {
        "continent_id": 102191581,
        "country_id": 85633159,
        "empire_id": 136253055,
        "postalcode_id": 504721743,
        "postalregion_id": 1864205449
      }
    ],
    "wof:id": 504721743,
    "wof:lastmodified": 1763548166,
    "wof:name": "AB56 1RZ",
    "wof:parent_id": 1360698869,
    "wof:placetype": "postalcode",
    "wof:repo": "whosonfirst-data-postalcode-gb",
    "wof:superseded_by": [],
    "wof:supersedes": [],
    "wof:tags": []
  },
  "bbox": [
    -2.970092,
    57.67458,
    -2.970092,
    57.67458
  ],
  "geometry": {"coordinates":[-2.970092,57.67458],"type":"Point"}
}
