{
  "id": 1780440681,
  "type": "Feature",
  "properties": {
    "date:inception_lower": "2022-03-01",
    "date:inception_upper": "2022-03-01",
    "edtf:cessation": "",
    "edtf:inception": "2022-03-01",
    "geom:area": 0,
    "geom:bbox": "-4.088239,55.918569,-4.088239,55.918569",
    "geom:latitude": 55.918569,
    "geom:longitude": -4.088239,
    "iso:country": "GB",
    "mz:hierarchy_label": 1,
    "mz:is_current": 1,
    "os:country_code": "S92000003",
    "os:county_code": "S99999999",
    "os:district_code": "S12000050",
    "os:positional_quality_indicator": "1",
    "os:region_code": "S99999999",
    "src:geom": "os",
    "wof:belongsto": [
      102191581,
      85633159,
      136253055,
      1864207403,
      1360698949,
      1880762099,
      404227471,
      1880773061
    ],
    "wof:breaches": [],
    "wof:country": "GB",
    "wof:created": 1662041182,
    "wof:geomhash": "f2a3ebdafbcef0e2b9655e78e7da8053",
    "wof:hierarchy": [
      {
        "continent_id": 102191581,
        "country_id": 85633159,
        "county_id": 1360698949,
        "empire_id": 136253055,
        "macrocounty_id": 1880762099,
        "macroregion_id": 404227471,
        "postalcode_id": 1780440681,
        "region_id": 1880773061
      },
      {
        "continent_id": 102191581,
        "country_id": 85633159,
        "empire_id": 136253055,
        "postalcode_id": 1780440681,
        "postalregion_id": 1864207403
      }
    ],
    "wof:id": 1780440681,
    "wof:lastmodified": 1763548672,
    "wof:name": "G69 0DA",
    "wof:parent_id": 1360698949,
    "wof:placetype": "postalcode",
    "wof:repo": "whosonfirst-data-postalcode-gb",
    "wof:superseded_by": [],
    "wof:supersedes": [],
    "wof:tags": []
  },
  "bbox": [
    -4.088239,
    55.918569,
    -4.088239,
    55.918569
  ],
  "geometry": {"coordinates":[-4.088239,55.918569],"type":"Point"}
}
