{
  "id": 890245641,
  "type": "Feature",
  "properties": {
    "date:inception_lower": "2014-10-01",
    "date:inception_upper": "2014-10-01",
    "edtf:cessation": "",
    "edtf:inception": "2014-10-01",
    "geom:area": 0,
    "geom:bbox": "-1.016385,51.550076,-1.016385,51.550076",
    "geom:latitude": 51.550076,
    "geom:longitude": -1.016385,
    "iso:country": "GB",
    "mz:hierarchy_label": 1,
    "mz:is_current": 1,
    "os:country_code": "E92000001",
    "os:county_code": "E10000025",
    "os:district_code": "E07000179",
    "os:positional_quality_indicator": "1",
    "os:region_code": "E12000008",
    "src:geom": "os",
    "wof:belongsto": [
      85633159,
      102191581,
      136253055,
      1864210081,
      1880771611,
      404450789,
      1126060093,
      1880762079,
      404227469,
      1880762695
    ],
    "wof:breaches": [],
    "wof:country": "GB",
    "wof:created": 1468897990,
    "wof:geomhash": "c0817779d1b34570a1557c59e444772a",
    "wof:hierarchy": [
      {
        "continent_id": 102191581,
        "country_id": 85633159,
        "county_id": 1880771611,
        "empire_id": 136253055,
        "localadmin_id": 404450789,
        "locality_id": 1126060093,
        "macrocounty_id": 1880762079,
        "macroregion_id": 404227469,
        "postalcode_id": 890245641,
        "region_id": 1880762695
      },
      {
        "continent_id": 102191581,
        "country_id": 85633159,
        "empire_id": 136253055,
        "postalcode_id": 890245641,
        "postalregion_id": 1864210081
      }
    ],
    "wof:id": 890245641,
    "wof:lastmodified": 1763548608,
    "wof:name": "RG9 5BF",
    "wof:parent_id": 1126060093,
    "wof:placetype": "postalcode",
    "wof:repo": "whosonfirst-data-postalcode-gb",
    "wof:superseded_by": [],
    "wof:supersedes": [],
    "wof:tags": []
  },
  "bbox": [
    -1.016385,
    51.550076,
    -1.016385,
    51.550076
  ],
  "geometry": {"coordinates":[-1.016385,51.550076],"type":"Point"}
}
