{
  "id": 1161123204,
  "type": "Feature",
  "properties": {
    "date:cessation_lower": "1994-12-01",
    "date:cessation_upper": "1994-12-01",
    "date:inception_lower": "1985-04-01",
    "date:inception_upper": "1985-04-01",
    "edtf:cessation": "1994-12-01",
    "edtf:inception": "1985-04-01",
    "geom:area": 0,
    "geom:bbox": "-1.505685,50.914960,-1.505685,50.914960",
    "geom:latitude": 50.91496,
    "geom:longitude": -1.505685,
    "iso:country": "GB",
    "mz:hierarchy_label": 1,
    "mz:is_current": 0,
    "os:country_code": "E92000001",
    "os:county_code": "E10000014",
    "os:district_code": "E07000091",
    "os:positional_quality_indicator": "1",
    "os:region_code": "E12000008",
    "src:geom": "os",
    "wof:belongsto": [
      102191581,
      85633159,
      1880771459,
      136253055,
      404445417,
      1360759363,
      1880762155,
      404227469,
      1880762717
    ],
    "wof:breaches": [],
    "wof:country": "GB",
    "wof:created": 1583804939,
    "wof:geomhash": "38db2e34f0b90140fbc6c74360e75ed2",
    "wof:hierarchy": [
      {
        "continent_id": 102191581,
        "country_id": 85633159,
        "county_id": 1880771459,
        "empire_id": 136253055,
        "localadmin_id": 404445417,
        "locality_id": 1360759363,
        "macrocounty_id": 1880762155,
        "macroregion_id": 404227469,
        "postalcode_id": 1161123204,
        "region_id": 1880762717
      }
    ],
    "wof:id": 1161123204,
    "wof:lastmodified": 1763548342,
    "wof:name": "SO4 3SU",
    "wof:parent_id": 1360759363,
    "wof:placetype": "postalcode",
    "wof:repo": "whosonfirst-data-postalcode-gb",
    "wof:superseded_by": [],
    "wof:supersedes": [],
    "wof:tags": []
  },
  "bbox": [
    -1.505685,
    50.91496,
    -1.505685,
    50.91496
  ],
  "geometry": {"coordinates":[-1.505685,50.91496],"type":"Point"}
}
