{
  "id": 39041838,
  "type": "Feature",
  "properties": {
    "date:cessation_lower": "1999-12-01",
    "date:cessation_upper": "1999-12-01",
    "date:inception_lower": "1980-01-01",
    "date:inception_upper": "1980-01-01",
    "edtf:cessation": "1999-12-01",
    "edtf:inception": "1980-01-01",
    "geom:area": 0,
    "geom:bbox": "0.748354,52.414265,0.748354,52.414265",
    "geom:latitude": 52.414265,
    "geom:longitude": 0.748354,
    "iso:country": "GB",
    "mz:hierarchy_label": 1,
    "mz:is_current": 0,
    "os:country_code": "E92000001",
    "os:county_code": "E10000020",
    "os:district_code": "E07000143",
    "os:positional_quality_indicator": "1",
    "os:region_code": "E12000006",
    "src:geom": "os",
    "wof:belongsto": [
      85633159,
      102191581,
      136253055,
      1864207857,
      1880771591,
      404433933,
      101854951,
      1880762037,
      404227469,
      1880762699
    ],
    "wof:breaches": [],
    "wof:country": "GB",
    "wof:created": 1583797075,
    "wof:geomhash": "1cd2899438b036822dac3def6866e6ed",
    "wof:hierarchy": [
      {
        "continent_id": 102191581,
        "country_id": 85633159,
        "county_id": 1880771591,
        "empire_id": 136253055,
        "localadmin_id": 404433933,
        "locality_id": 101854951,
        "macrocounty_id": 1880762037,
        "macroregion_id": 404227469,
        "postalcode_id": 39041838,
        "region_id": 1880762699
      },
      {
        "continent_id": 102191581,
        "country_id": 85633159,
        "empire_id": 136253055,
        "postalcode_id": 39041838,
        "postalregion_id": 1864207857
      }
    ],
    "wof:id": 39041838,
    "wof:lastmodified": 1763547931,
    "wof:name": "IP24 2AR",
    "wof:parent_id": 101854951,
    "wof:placetype": "postalcode",
    "wof:repo": "whosonfirst-data-postalcode-gb",
    "wof:superseded_by": [],
    "wof:supersedes": [],
    "wof:tags": []
  },
  "bbox": [
    0.748354,
    52.414265,
    0.748354,
    52.414265
  ],
  "geometry": {"coordinates":[0.748354,52.414265],"type":"Point"}
}
