{
  "id": 1161149138,
  "type": "Feature",
  "properties": {
    "date:cessation_lower": "1994-05-01",
    "date:cessation_upper": "1994-05-01",
    "date:inception_lower": "1980-01-01",
    "date:inception_upper": "1980-01-01",
    "edtf:cessation": "1994-05-01",
    "edtf:inception": "1980-01-01",
    "geom:area": 0,
    "geom:bbox": "-2.558403,51.458244,-2.558403,51.458244",
    "geom:latitude": 51.458244,
    "geom:longitude": -2.558403,
    "iso:country": "GB",
    "mz:hierarchy_label": 1,
    "mz:is_current": 0,
    "os:country_code": "E92000001",
    "os:county_code": "E99999999",
    "os:district_code": "E06000023",
    "os:positional_quality_indicator": "8",
    "os:region_code": "E12000009",
    "src:geom": "os",
    "wof:belongsto": [
      85633159,
      102191581,
      136253055,
      1864206039,
      1360698747,
      1175612699,
      1880762137,
      404227469,
      1880772883
    ],
    "wof:breaches": [],
    "wof:country": "GB",
    "wof:created": 1583806093,
    "wof:geomhash": "6fb16a1d2aad3af08680af576d6baf46",
    "wof:hierarchy": [
      {
        "continent_id": 102191581,
        "country_id": 85633159,
        "county_id": 1360698747,
        "empire_id": 136253055,
        "locality_id": 1175612699,
        "macrocounty_id": 1880762137,
        "macroregion_id": 404227469,
        "postalcode_id": 1161149138,
        "region_id": 1880772883
      },
      {
        "continent_id": 102191581,
        "country_id": 85633159,
        "empire_id": 136253055,
        "postalcode_id": 1161149138,
        "postalregion_id": 1864206039
      }
    ],
    "wof:id": 1161149138,
    "wof:lastmodified": 1763548346,
    "wof:name": "BS5 9LS",
    "wof:parent_id": 1175612699,
    "wof:placetype": "postalcode",
    "wof:repo": "whosonfirst-data-postalcode-gb",
    "wof:superseded_by": [],
    "wof:supersedes": [],
    "wof:tags": []
  },
  "bbox": [
    -2.558403,
    51.458244,
    -2.558403,
    51.458244
  ],
  "geometry": {"coordinates":[-2.558403,51.458244],"type":"Point"}
}
