{
  "id": 488224797,
  "type": "Feature",
  "properties": {
    "date:inception_lower": "1998-06-01",
    "date:inception_upper": "1998-06-01",
    "edtf:cessation": "",
    "edtf:inception": "1998-06-01",
    "geom:area": 0,
    "geom:bbox": "-1.037982,53.955010,-1.037982,53.955010",
    "geom:latitude": 53.95501,
    "geom:longitude": -1.037982,
    "gp:parent_id": "41415",
    "iso:country": "GB",
    "mz:hierarchy_label": 1,
    "mz:is_current": 1,
    "os:country_code": "E92000001",
    "os:county_code": "E99999999",
    "os:district_code": "E06000014",
    "os:positional_quality_indicator": "1",
    "os:region_code": "E12000003",
    "src:geom": "os",
    "wof:belongsto": [
      85633159,
      102191581,
      136253055,
      1864211717,
      1360698977,
      404432473,
      1125942943,
      1880762011
    ],
    "wof:breaches": [],
    "wof:concordances": {
      "gp:id": "28188036"
    },
    "wof:country": "GB",
    "wof:created": 1583701156,
    "wof:geomhash": "7d0c917e8e85f1eeadd9889ba884cfa4",
    "wof:hierarchy": [
      {
        "continent_id": -1,
        "country_id": -1,
        "county_id": 1360698977,
        "localadmin_id": 404432473,
        "locality_id": 1125942943,
        "macrocounty_id": 1880762011,
        "postalcode_id": 488224797,
        "region_id": -1
      },
      {
        "continent_id": 102191581,
        "country_id": 85633159,
        "empire_id": 136253055,
        "postalcode_id": 488224797,
        "postalregion_id": 1864211717
      }
    ],
    "wof:id": 488224797,
    "wof:lastmodified": 1763548560,
    "wof:name": "YO10 3QL",
    "wof:parent_id": 1125942943,
    "wof:placetype": "postalcode",
    "wof:repo": "whosonfirst-data-postalcode-gb",
    "wof:superseded_by": [],
    "wof:supersedes": [],
    "wof:tags": []
  },
  "bbox": [
    -1.037982,
    53.95501,
    -1.037982,
    53.95501
  ],
  "geometry": {"coordinates":[-1.037982,53.95501],"type":"Point"}
}
