{
  "id": 454629815,
  "type": "Feature",
  "properties": {
    "date:inception_lower": "1980-01-01",
    "date:inception_upper": "1980-01-01",
    "edtf:cessation": "",
    "edtf:inception": "1980-01-01",
    "geom:area": 0,
    "geom:bbox": "-2.347382,51.639988,-2.347382,51.639988",
    "geom:latitude": 51.639988,
    "geom:longitude": -2.347382,
    "iso:country": "GB",
    "mz:hierarchy_label": 1,
    "mz:is_current": 1,
    "os:country_code": "E92000001",
    "os:county_code": "E10000013",
    "os:district_code": "E07000082",
    "os:positional_quality_indicator": "1",
    "os:region_code": "E12000009",
    "src:geom": "os",
    "wof:belongsto": [
      85633159,
      102191581,
      136253055,
      1864207447,
      1880771451,
      404436145,
      1226377859,
      1880762161,
      404227469,
      1880762693
    ],
    "wof:breaches": [],
    "wof:concordances": {
      "gp:id": "26502556"
    },
    "wof:country": "GB",
    "wof:created": 1583701668,
    "wof:geomhash": "17d36a7adb1219f20d5075d707fb8cc2",
    "wof:hierarchy": [
      {
        "continent_id": 102191581,
        "country_id": 85633159,
        "county_id": 1880771451,
        "empire_id": 136253055,
        "localadmin_id": 404436145,
        "locality_id": 1226377859,
        "macrocounty_id": 1880762161,
        "macroregion_id": 404227469,
        "postalcode_id": 454629815,
        "region_id": 1880762693
      },
      {
        "continent_id": 102191581,
        "country_id": 85633159,
        "empire_id": 136253055,
        "postalcode_id": 454629815,
        "postalregion_id": 1864207447
      }
    ],
    "wof:id": 454629815,
    "wof:lastmodified": 1763548304,
    "wof:name": "GL12 7LU",
    "wof:parent_id": 1226377859,
    "wof:placetype": "postalcode",
    "wof:repo": "whosonfirst-data-postalcode-gb",
    "wof:superseded_by": [],
    "wof:supersedes": [],
    "wof:tags": []
  },
  "bbox": [
    -2.347382,
    51.639988,
    -2.347382,
    51.639988
  ],
  "geometry": {"coordinates":[-2.347382,51.639988],"type":"Point"}
}
