{
  "id": 39096117,
  "type": "Feature",
  "properties": {
    "date:cessation_lower": "2001-12-01",
    "date:cessation_upper": "2001-12-01",
    "date:inception_lower": "1999-12-01",
    "date:inception_upper": "1999-12-01",
    "edtf:cessation": "2001-12-01",
    "edtf:inception": "1999-12-01",
    "geom:area": 0,
    "geom:bbox": "-0.657906,50.842771,-0.657906,50.842771",
    "geom:latitude": 50.842771,
    "geom:longitude": -0.657906,
    "iso:country": "GB",
    "mz:hierarchy_label": 1,
    "mz:is_current": 0,
    "os:country_code": "E92000001",
    "os:county_code": "E10000032",
    "os:district_code": "E07000224",
    "os:positional_quality_indicator": "1",
    "os:region_code": "E12000008",
    "src:geom": "os",
    "wof:belongsto": [
      85633159,
      102191581,
      136253055,
      1864209939,
      1880771681,
      404452637,
      1125800941,
      1880762061
    ],
    "wof:breaches": [],
    "wof:country": "GB",
    "wof:created": 1583797675,
    "wof:geomhash": "2c10f6f02742a217656f11465290990e",
    "wof:hierarchy": [
      {
        "continent_id": -1,
        "country_id": -1,
        "county_id": 1880771681,
        "localadmin_id": 404452637,
        "locality_id": 1125800941,
        "macrocounty_id": 1880762061,
        "postalcode_id": 39096117,
        "region_id": -1
      },
      {
        "continent_id": 102191581,
        "country_id": 85633159,
        "empire_id": 136253055,
        "postalcode_id": 39096117,
        "postalregion_id": 1864209939
      }
    ],
    "wof:id": 39096117,
    "wof:lastmodified": 1763547927,
    "wof:name": "PO20 6JT",
    "wof:parent_id": 1125800941,
    "wof:placetype": "postalcode",
    "wof:repo": "whosonfirst-data-postalcode-gb",
    "wof:superseded_by": [],
    "wof:supersedes": [],
    "wof:tags": []
  },
  "bbox": [
    -0.657906,
    50.842771,
    -0.657906,
    50.842771
  ],
  "geometry": {"coordinates":[-0.657906,50.842771],"type":"Point"}
}
