{
  "id": 471051505,
  "type": "Feature",
  "properties": {
    "date:inception_lower": "1990-02-01",
    "date:inception_upper": "1990-02-01",
    "edtf:cessation": "",
    "edtf:inception": "1990-02-01",
    "geom:area": 0,
    "geom:bbox": "-1.528700,55.044157,-1.528700,55.044157",
    "geom:latitude": 55.044157,
    "geom:longitude": -1.5287,
    "gp:parent_id": "11539",
    "iso:country": "GB",
    "mz:hierarchy_label": 1,
    "mz:is_current": 1,
    "os:country_code": "E92000001",
    "os:county_code": "E99999999",
    "os:district_code": "E08000022",
    "os:positional_quality_indicator": "1",
    "os:region_code": "E12000001",
    "src:geom": "os",
    "wof:belongsto": [
      85633159,
      102191581,
      136253055,
      1864209043,
      1360699037,
      1360817045,
      1125978905,
      1880762063
    ],
    "wof:breaches": [],
    "wof:concordances": {
      "gp:id": "27610016"
    },
    "wof:country": "GB",
    "wof:created": 1583701178,
    "wof:geomhash": "0c952c24d918cbb756fb3bb3fabe1538",
    "wof:hierarchy": [
      {
        "continent_id": -1,
        "country_id": -1,
        "county_id": 1360699037,
        "localadmin_id": 1360817045,
        "locality_id": 1125978905,
        "macrocounty_id": 1880762063,
        "postalcode_id": 471051505,
        "region_id": -1
      },
      {
        "continent_id": 102191581,
        "country_id": 85633159,
        "empire_id": 136253055,
        "postalcode_id": 471051505,
        "postalregion_id": 1864209043
      }
    ],
    "wof:id": 471051505,
    "wof:lastmodified": 1763548387,
    "wof:name": "NE27 0HB",
    "wof:parent_id": 1125978905,
    "wof:placetype": "postalcode",
    "wof:repo": "whosonfirst-data-postalcode-gb",
    "wof:superseded_by": [],
    "wof:supersedes": [],
    "wof:tags": []
  },
  "bbox": [
    -1.5287,
    55.044157,
    -1.5287,
    55.044157
  ],
  "geometry": {"coordinates":[-1.5287,55.044157],"type":"Point"}
}
