{
  "id": 437472793,
  "type": "Feature",
  "properties": {
    "date:inception_lower": "2013-04-01",
    "date:inception_upper": "2013-04-01",
    "edtf:cessation": "",
    "edtf:inception": "2013-04-01",
    "geom:area": 0,
    "geom:bbox": "-2.152063,52.907616,-2.152063,52.907616",
    "geom:latitude": 52.907616,
    "geom:longitude": -2.152063,
    "gp:parent_id": "36272",
    "iso:country": "GB",
    "mz:hierarchy_label": 1,
    "mz:is_current": 1,
    "os:country_code": "E92000001",
    "os:county_code": "E10000028",
    "os:district_code": "E07000197",
    "os:positional_quality_indicator": "1",
    "os:region_code": "E12000005",
    "src:geom": "os",
    "wof:belongsto": [
      85633159,
      102191581,
      136253055,
      1864210793,
      1880771627,
      404432139,
      1360757049,
      1880761999,
      404227469,
      1880762719
    ],
    "wof:breaches": [],
    "wof:concordances": {
      "gp:id": "27988192"
    },
    "wof:country": "GB",
    "wof:created": 1583701252,
    "wof:geomhash": "d7ae1d4a51205eced35897995e0aa283",
    "wof:hierarchy": [
      {
        "continent_id": 102191581,
        "country_id": 85633159,
        "county_id": 1880771627,
        "empire_id": 136253055,
        "localadmin_id": 404432139,
        "locality_id": 1360757049,
        "macrocounty_id": 1880761999,
        "macroregion_id": 404227469,
        "postalcode_id": 437472793,
        "region_id": 1880762719
      },
      {
        "continent_id": 102191581,
        "country_id": 85633159,
        "empire_id": 136253055,
        "postalcode_id": 437472793,
        "postalregion_id": 1864210793
      }
    ],
    "wof:id": 437472793,
    "wof:lastmodified": 1763548201,
    "wof:name": "ST15 8PQ",
    "wof:parent_id": 1360757049,
    "wof:placetype": "postalcode",
    "wof:repo": "whosonfirst-data-postalcode-gb",
    "wof:superseded_by": [],
    "wof:supersedes": [],
    "wof:tags": []
  },
  "bbox": [
    -2.152063,
    52.907616,
    -2.152063,
    52.907616
  ],
  "geometry": {"coordinates":[-2.152063,52.907616],"type":"Point"}
}
