{
  "id": 471312881,
  "type": "Feature",
  "properties": {
    "date:inception_lower": "1999-06-01",
    "date:inception_upper": "1999-06-01",
    "edtf:cessation": "",
    "edtf:inception": "1999-06-01",
    "geom:area": 0,
    "geom:bbox": "-1.360770,51.707074,-1.360770,51.707074",
    "geom:latitude": 51.707074,
    "geom:longitude": -1.36077,
    "gp:parent_id": "10893",
    "iso:country": "GB",
    "mz:hierarchy_label": 1,
    "mz:is_current": 1,
    "os:country_code": "E92000001",
    "os:county_code": "E10000025",
    "os:district_code": "E07000180",
    "os:positional_quality_indicator": "1",
    "os:region_code": "E12000008",
    "src:geom": "os",
    "wof:belongsto": [
      85633159,
      102191581,
      136253055,
      1864209453,
      1880771609,
      404442921,
      1360758061,
      1880762079,
      404227469,
      1880762695
    ],
    "wof:breaches": [],
    "wof:concordances": {
      "gp:id": "27717433"
    },
    "wof:country": "GB",
    "wof:created": 1583701492,
    "wof:geomhash": "7b1400cbb4f49f6277a166f2f59ef713",
    "wof:hierarchy": [
      {
        "continent_id": 102191581,
        "country_id": 85633159,
        "county_id": 1880771609,
        "empire_id": 136253055,
        "localadmin_id": 404442921,
        "locality_id": 1360758061,
        "macrocounty_id": 1880762079,
        "macroregion_id": 404227469,
        "postalcode_id": 471312881,
        "region_id": 1880762695
      },
      {
        "continent_id": 102191581,
        "country_id": 85633159,
        "empire_id": 136253055,
        "postalcode_id": 471312881,
        "postalregion_id": 1864209453
      }
    ],
    "wof:id": 471312881,
    "wof:lastmodified": 1763548166,
    "wof:name": "OX13 5LH",
    "wof:parent_id": 1360758061,
    "wof:placetype": "postalcode",
    "wof:repo": "whosonfirst-data-postalcode-gb",
    "wof:superseded_by": [],
    "wof:supersedes": [],
    "wof:tags": []
  },
  "bbox": [
    -1.36077,
    51.707074,
    -1.36077,
    51.707074
  ],
  "geometry": {"coordinates":[-1.36077,51.707074],"type":"Point"}
}
