{
  "id": 471455085,
  "type": "Feature",
  "properties": {
    "date:inception_lower": "1987-10-01",
    "date:inception_upper": "1987-10-01",
    "edtf:cessation": "",
    "edtf:inception": "1987-10-01",
    "geom:area": 0,
    "geom:bbox": "-0.902189,50.842482,-0.902189,50.842482",
    "geom:latitude": 50.842482,
    "geom:longitude": -0.902189,
    "gp:parent_id": "30754",
    "iso:country": "GB",
    "mz:hierarchy_label": 1,
    "mz:is_current": 1,
    "os:country_code": "E92000001",
    "os:county_code": "E10000032",
    "os:district_code": "E07000225",
    "os:positional_quality_indicator": "1",
    "os:region_code": "E12000008",
    "src:geom": "os",
    "wof:belongsto": [
      85633159,
      102191581,
      136253055,
      1864209931,
      1880771685,
      404448373,
      1125767383,
      1880762061,
      404227469,
      1880762709
    ],
    "wof:breaches": [],
    "wof:concordances": {
      "gp:id": "27783161"
    },
    "wof:country": "GB",
    "wof:created": 1583701619,
    "wof:geomhash": "f3fe90f5b0fda58766b49bd3a1e3f43b",
    "wof:hierarchy": [
      {
        "continent_id": 102191581,
        "country_id": 85633159,
        "county_id": 1880771685,
        "empire_id": 136253055,
        "localadmin_id": 404448373,
        "locality_id": 1125767383,
        "macrocounty_id": 1880762061,
        "macroregion_id": 404227469,
        "postalcode_id": 471455085,
        "region_id": 1880762709
      },
      {
        "continent_id": 102191581,
        "country_id": 85633159,
        "empire_id": 136253055,
        "postalcode_id": 471455085,
        "postalregion_id": 1864209931
      }
    ],
    "wof:id": 471455085,
    "wof:lastmodified": 1763548105,
    "wof:name": "PO18 8XA",
    "wof:parent_id": 1125767383,
    "wof:placetype": "postalcode",
    "wof:repo": "whosonfirst-data-postalcode-gb",
    "wof:superseded_by": [],
    "wof:supersedes": [],
    "wof:tags": []
  },
  "bbox": [
    -0.902189,
    50.842482,
    -0.902189,
    50.842482
  ],
  "geometry": {"coordinates":[-0.902189,50.842482],"type":"Point"}
}
