{
  "id": 437890489,
  "type": "Feature",
  "properties": {
    "date:cessation_lower": "2002-07-01",
    "date:cessation_upper": "2002-07-01",
    "date:inception_lower": "1980-01-01",
    "date:inception_upper": "1980-01-01",
    "edtf:cessation": "2002-07-01",
    "edtf:inception": "1980-01-01",
    "geom:area": 0,
    "geom:bbox": "-0.656585,51.567730,-0.656585,51.567730",
    "geom:latitude": 51.56773,
    "geom:longitude": -0.656585,
    "gp:parent_id": "14586",
    "iso:country": "GB",
    "mz:hierarchy_label": 1,
    "mz:is_current": 0,
    "os:country_code": "E92000001",
    "os:county_code": "E99999999",
    "os:district_code": "E06000060",
    "os:positional_quality_indicator": "1",
    "os:region_code": "E12000008",
    "src:geom": "os",
    "wof:belongsto": [
      85633159,
      102191581,
      136253055,
      1864210559,
      1360698997,
      404448483,
      1125971625,
      1880762141,
      404227469,
      1880773087
    ],
    "wof:breaches": [],
    "wof:concordances": {
      "gp:id": "28932771"
    },
    "wof:country": "GB",
    "wof:created": 1583701617,
    "wof:geomhash": "0e72b8e91322ca9a143f6325dd70b10b",
    "wof:hierarchy": [
      {
        "continent_id": 102191581,
        "country_id": 85633159,
        "county_id": 1360698997,
        "empire_id": 136253055,
        "localadmin_id": 404448483,
        "locality_id": 1125971625,
        "macrocounty_id": 1880762141,
        "macroregion_id": 404227469,
        "postalcode_id": 437890489,
        "region_id": 1880773087
      },
      {
        "continent_id": 102191581,
        "country_id": 85633159,
        "empire_id": 136253055,
        "postalcode_id": 437890489,
        "postalregion_id": 1864210559
      }
    ],
    "wof:id": 437890489,
    "wof:lastmodified": 1763548261,
    "wof:name": "SL1 8NQ",
    "wof:parent_id": 1125971625,
    "wof:placetype": "postalcode",
    "wof:repo": "whosonfirst-data-postalcode-gb",
    "wof:superseded_by": [],
    "wof:supersedes": [],
    "wof:tags": []
  },
  "bbox": [
    -0.656585,
    51.56773,
    -0.656585,
    51.56773
  ],
  "geometry": {"coordinates":[-0.656585,51.56773],"type":"Point"}
}
