{
  "id": 454763749,
  "type": "Feature",
  "properties": {
    "date:inception_lower": "1980-01-01",
    "date:inception_upper": "1980-01-01",
    "edtf:cessation": "",
    "edtf:inception": "1980-01-01",
    "geom:area": 0,
    "geom:bbox": "-1.569804,54.205603,-1.569804,54.205603",
    "geom:latitude": 54.205603,
    "geom:longitude": -1.569804,
    "gp:parent_id": "39813",
    "iso:country": "GB",
    "mz:hierarchy_label": 1,
    "mz:is_current": 1,
    "os:country_code": "E92000001",
    "os:county_code": "E99999999",
    "os:district_code": "E06000065",
    "os:positional_quality_indicator": "1",
    "os:region_code": "E12000003",
    "src:geom": "os",
    "wof:belongsto": [
      85633159,
      102191581,
      136253055,
      1864207637,
      1360698753,
      1880762011,
      404448047,
      1360756259
    ],
    "wof:breaches": [],
    "wof:concordances": {
      "gp:id": "27353448"
    },
    "wof:country": "GB",
    "wof:created": 1583701713,
    "wof:geomhash": "29c740baabc655314d0ea5f6d6ae8e79",
    "wof:hierarchy": [
      {
        "continent_id": -1,
        "country_id": -1,
        "county_id": 1360698753,
        "localadmin_id": 404448047,
        "locality_id": 1360756259,
        "macrocounty_id": 1880762011,
        "postalcode_id": 454763749,
        "region_id": -1
      },
      {
        "continent_id": 102191581,
        "country_id": 85633159,
        "empire_id": 136253055,
        "postalcode_id": 454763749,
        "postalregion_id": 1864207637
      }
    ],
    "wof:id": 454763749,
    "wof:lastmodified": 1763548159,
    "wof:name": "HG4 5LH",
    "wof:parent_id": 1360756259,
    "wof:placetype": "postalcode",
    "wof:repo": "whosonfirst-data-postalcode-gb",
    "wof:superseded_by": [],
    "wof:supersedes": [],
    "wof:tags": []
  },
  "bbox": [
    -1.569804,
    54.205603,
    -1.569804,
    54.205603
  ],
  "geometry": {"coordinates":[-1.569804,54.205603],"type":"Point"}
}
