{
  "id": 1998344379,
  "type": "Feature",
  "properties": {
    "date:inception_lower": "2025-04-01",
    "date:inception_upper": "2025-04-01",
    "edtf:cessation": "",
    "edtf:inception": "2025-04-01",
    "geom:area": 0,
    "geom:bbox": "0.425470,52.773970,0.425470,52.773970",
    "geom:latitude": 52.77397,
    "geom:longitude": 0.42547,
    "iso:country": "GB",
    "mz:hierarchy_label": 1,
    "mz:is_current": 1,
    "os:country_code": "E92000001",
    "os:county_code": "E10000020",
    "os:district_code": "E07000146",
    "os:positional_quality_indicator": "1",
    "os:region_code": "E12000006",
    "src:geom": "os",
    "wof:belongsto": [
      102191581,
      85633159,
      1880771587,
      136253055,
      1125881621,
      1880762037,
      404227469,
      1880762699,
      1864209701
    ],
    "wof:breaches": [],
    "wof:country": "GB",
    "wof:created": 1763549031,
    "wof:geomhash": "885bbe0c531ed2d61b2faf496b7783e2",
    "wof:hierarchy": [
      {
        "continent_id": 102191581,
        "country_id": 85633159,
        "county_id": 1880771587,
        "empire_id": 136253055,
        "locality_id": 1125881621,
        "macrocounty_id": 1880762037,
        "macroregion_id": 404227469,
        "postalcode_id": 1998344379,
        "region_id": 1880762699
      },
      {
        "continent_id": 102191581,
        "country_id": 85633159,
        "empire_id": 136253055,
        "postalcode_id": 1998344379,
        "postalregion_id": 1864209701
      }
    ],
    "wof:id": 1998344379,
    "wof:lastmodified": 1763549031,
    "wof:name": "PE30 3GB",
    "wof:parent_id": 1125881621,
    "wof:placetype": "postalcode",
    "wof:repo": "whosonfirst-data-postalcode-gb",
    "wof:superseded_by": [],
    "wof:supersedes": [],
    "wof:tags": []
  },
  "bbox": [
    0.42547,
    52.77397,
    0.42547,
    52.77397
  ],
  "geometry": {"coordinates":[0.42547,52.77397],"type":"Point"}
}
