{
  "id": 874457129,
  "type": "Feature",
  "properties": {
    "date:inception_lower": "2014-04-01",
    "date:inception_upper": "2014-04-01",
    "edtf:cessation": "",
    "edtf:inception": "2014-04-01",
    "geom:area": 0,
    "geom:bbox": "-2.950225,53.877015,-2.950225,53.877015",
    "geom:latitude": 53.877015,
    "geom:longitude": -2.950225,
    "iso:country": "GB",
    "mz:hierarchy_label": 1,
    "mz:is_current": 1,
    "os:country_code": "E92000001",
    "os:county_code": "E10000017",
    "os:district_code": "E07000128",
    "os:positional_quality_indicator": "1",
    "os:region_code": "E12000002",
    "src:geom": "os",
    "wof:belongsto": [
      85633159,
      102191581,
      136253055,
      1864207311,
      1880771545,
      404441239,
      101873261,
      1880762053,
      404227469,
      1880762711
    ],
    "wof:breaches": [],
    "wof:country": "GB",
    "wof:created": 1468879644,
    "wof:geomhash": "24ad49ceb9715104241e4cf47ad6093b",
    "wof:hierarchy": [
      {
        "continent_id": 102191581,
        "country_id": 85633159,
        "county_id": 1880771545,
        "empire_id": 136253055,
        "localadmin_id": 404441239,
        "locality_id": 101873261,
        "macrocounty_id": 1880762053,
        "macroregion_id": 404227469,
        "postalcode_id": 874457129,
        "region_id": 1880762711
      },
      {
        "continent_id": 102191581,
        "country_id": 85633159,
        "empire_id": 136253055,
        "postalcode_id": 874457129,
        "postalregion_id": 1864207311
      }
    ],
    "wof:id": 874457129,
    "wof:lastmodified": 1763547984,
    "wof:name": "FY6 9EZ",
    "wof:parent_id": 101873261,
    "wof:placetype": "postalcode",
    "wof:repo": "whosonfirst-data-postalcode-gb",
    "wof:superseded_by": [],
    "wof:supersedes": [],
    "wof:tags": []
  },
  "bbox": [
    -2.950225,
    53.877015,
    -2.950225,
    53.877015
  ],
  "geometry": {"coordinates":[-2.950225,53.877015],"type":"Point"}
}
