{
  "id": 488075897,
  "type": "Feature",
  "properties": {
    "date:inception_lower": "1984-10-01",
    "date:inception_upper": "1984-10-01",
    "edtf:cessation": "",
    "edtf:inception": "1984-10-01",
    "geom:area": 0,
    "geom:bbox": "-2.502990,53.429988,-2.502990,53.429988",
    "geom:latitude": 53.429988,
    "geom:longitude": -2.50299,
    "gp:parent_id": "12689",
    "iso:country": "GB",
    "mz:hierarchy_label": 1,
    "mz:is_current": 1,
    "os:country_code": "E92000001",
    "os:county_code": "E99999999",
    "os:district_code": "E06000007",
    "os:positional_quality_indicator": "1",
    "os:region_code": "E12000002",
    "src:geom": "os",
    "wof:belongsto": [
      85633159,
      102191581,
      136253055,
      1864211471,
      1360698965,
      404454217,
      1125781887,
      1880762135,
      404227469,
      1880773021
    ],
    "wof:breaches": [],
    "wof:concordances": {
      "gp:id": "26620317"
    },
    "wof:country": "GB",
    "wof:created": 1583701232,
    "wof:geomhash": "34d6b4ad416c2e4bf4bbfff6813ed2bc",
    "wof:hierarchy": [
      {
        "continent_id": 102191581,
        "country_id": 85633159,
        "county_id": 1360698965,
        "empire_id": 136253055,
        "localadmin_id": 404454217,
        "locality_id": 1125781887,
        "macrocounty_id": 1880762135,
        "macroregion_id": 404227469,
        "postalcode_id": 488075897,
        "region_id": 1880773021
      },
      {
        "continent_id": 102191581,
        "country_id": 85633159,
        "empire_id": 136253055,
        "postalcode_id": 488075897,
        "postalregion_id": 1864211471
      }
    ],
    "wof:id": 488075897,
    "wof:lastmodified": 1763548563,
    "wof:name": "WA3 6TR",
    "wof:parent_id": 1125781887,
    "wof:placetype": "postalcode",
    "wof:repo": "whosonfirst-data-postalcode-gb",
    "wof:superseded_by": [],
    "wof:supersedes": [],
    "wof:tags": []
  },
  "bbox": [
    -2.50299,
    53.429988,
    -2.50299,
    53.429988
  ],
  "geometry": {"coordinates":[-2.50299,53.429988],"type":"Point"}
}
