{
  "id": 1160992670,
  "type": "Feature",
  "properties": {
    "date:cessation_lower": "1997-08-01",
    "date:cessation_upper": "1997-08-01",
    "date:inception_lower": "1980-01-01",
    "date:inception_upper": "1980-01-01",
    "edtf:cessation": "1997-08-01",
    "edtf:inception": "1980-01-01",
    "geom:area": 0,
    "geom:bbox": "-2.730887,51.346874,-2.730887,51.346874",
    "geom:latitude": 51.346874,
    "geom:longitude": -2.730887,
    "iso:country": "GB",
    "mz:hierarchy_label": 1,
    "mz:is_current": 0,
    "os:country_code": "E92000001",
    "os:county_code": "E99999999",
    "os:district_code": "E06000024",
    "os:positional_quality_indicator": "1",
    "os:region_code": "E12000009",
    "src:geom": "os",
    "wof:belongsto": [
      102191581,
      85633159,
      1360699111,
      136253055,
      404450917,
      1126008941,
      1880762071,
      404227469,
      1880773145
    ],
    "wof:breaches": [],
    "wof:country": "GB",
    "wof:created": 1583799110,
    "wof:geomhash": "feae7c4e81b54004b9b6c98215b4a5d9",
    "wof:hierarchy": [
      {
        "continent_id": 102191581,
        "country_id": 85633159,
        "county_id": 1360699111,
        "empire_id": 136253055,
        "localadmin_id": 404450917,
        "locality_id": 1126008941,
        "macrocounty_id": 1880762071,
        "macroregion_id": 404227469,
        "postalcode_id": 1160992670,
        "region_id": 1880773145
      }
    ],
    "wof:id": 1160992670,
    "wof:lastmodified": 1763548264,
    "wof:name": "BS18 7RF",
    "wof:parent_id": 1126008941,
    "wof:placetype": "postalcode",
    "wof:repo": "whosonfirst-data-postalcode-gb",
    "wof:superseded_by": [],
    "wof:supersedes": [],
    "wof:tags": []
  },
  "bbox": [
    -2.730887,
    51.346874,
    -2.730887,
    51.346874
  ],
  "geometry": {"coordinates":[-2.730887,51.346874],"type":"Point"}
}
