{
  "id": 437685103,
  "type": "Feature",
  "properties": {
    "date:inception_lower": "2025-06-01",
    "date:inception_upper": "2025-06-01",
    "edtf:cessation": "",
    "edtf:inception": "2025-06-01",
    "geom:area": 0,
    "geom:bbox": "1.640655,52.705139,1.640655,52.705139",
    "geom:latitude": 52.705139,
    "geom:longitude": 1.640655,
    "iso:country": "GB",
    "mz:hierarchy_label": 1,
    "mz:is_current": 1,
    "os:country_code": "E92000001",
    "os:county_code": "E10000020",
    "os:district_code": "E07000145",
    "os:positional_quality_indicator": "1",
    "os:region_code": "E12000006",
    "src:geom": "os",
    "wof:belongsto": [
      85633159,
      102191581,
      136253055,
      1864209347,
      1880771583,
      1880762037,
      404227469,
      1880762699,
      404430961,
      101854981
    ],
    "wof:breaches": [],
    "wof:concordances": {
      "gp:id": "27686298"
    },
    "wof:country": "GB",
    "wof:created": 1583701481,
    "wof:geomhash": "fed80831927a77fe3e6180ec89f0f647",
    "wof:hierarchy": [
      {
        "continent_id": 102191581,
        "country_id": 85633159,
        "county_id": 1880771583,
        "empire_id": 136253055,
        "localadmin_id": 404430961,
        "locality_id": 101854981,
        "macrocounty_id": 1880762037,
        "macroregion_id": 404227469,
        "postalcode_id": 437685103,
        "region_id": 1880762699
      },
      {
        "continent_id": 102191581,
        "country_id": 85633159,
        "empire_id": 136253055,
        "postalcode_id": 437685103,
        "postalregion_id": 1864209347
      }
    ],
    "wof:id": 437685103,
    "wof:lastmodified": 1763548190,
    "wof:name": "NR29 4WX",
    "wof:parent_id": 101854981,
    "wof:placetype": "postalcode",
    "wof:repo": "whosonfirst-data-postalcode-gb",
    "wof:superseded_by": [],
    "wof:supersedes": [],
    "wof:tags": []
  },
  "bbox": [
    1.640655,
    52.705139,
    1.640655,
    52.705139
  ],
  "geometry": {"coordinates":[1.640655,52.705139],"type":"Point"}
}
