{
  "id": 454593319,
  "type": "Feature",
  "properties": {
    "date:inception_lower": "1980-01-01",
    "date:inception_upper": "1980-01-01",
    "edtf:cessation": "",
    "edtf:inception": "1980-01-01",
    "geom:area": 0,
    "geom:bbox": "-4.067550,51.212791,-4.067550,51.212791",
    "geom:latitude": 51.212791,
    "geom:longitude": -4.06755,
    "gp:parent_id": "12432",
    "iso:country": "GB",
    "mz:hierarchy_label": 1,
    "mz:is_current": 1,
    "os:country_code": "E92000001",
    "os:county_code": "E10000008",
    "os:district_code": "E07000043",
    "os:positional_quality_indicator": "1",
    "os:region_code": "E12000009",
    "src:geom": "os",
    "wof:belongsto": [
      85633159,
      102191581,
      136253055,
      1864207225,
      1880771395,
      404439611,
      1125972203,
      1880762149,
      404227469,
      1880762683
    ],
    "wof:breaches": [],
    "wof:concordances": {
      "gp:id": "27262281"
    },
    "wof:country": "GB",
    "wof:created": 1583701654,
    "wof:geomhash": "78ce0b56eaa4eb130cbb2ca822d5c6e7",
    "wof:hierarchy": [
      {
        "continent_id": 102191581,
        "country_id": 85633159,
        "county_id": 1880771395,
        "empire_id": 136253055,
        "localadmin_id": 404439611,
        "locality_id": 1125972203,
        "macrocounty_id": 1880762149,
        "macroregion_id": 404227469,
        "postalcode_id": 454593319,
        "region_id": 1880762683
      },
      {
        "continent_id": 102191581,
        "country_id": 85633159,
        "empire_id": 136253055,
        "postalcode_id": 454593319,
        "postalregion_id": 1864207225
      }
    ],
    "wof:id": 454593319,
    "wof:lastmodified": 1763548177,
    "wof:name": "EX34 9SJ",
    "wof:parent_id": 1125972203,
    "wof:placetype": "postalcode",
    "wof:repo": "whosonfirst-data-postalcode-gb",
    "wof:superseded_by": [],
    "wof:supersedes": [],
    "wof:tags": []
  },
  "bbox": [
    -4.06755,
    51.212791,
    -4.06755,
    51.212791
  ],
  "geometry": {"coordinates":[-4.06755,51.212791],"type":"Point"}
}
