{
  "id": 437430941,
  "type": "Feature",
  "properties": {
    "date:cessation_lower": "2007-04-01",
    "date:cessation_upper": "2007-04-01",
    "date:inception_lower": "1980-01-01",
    "date:inception_upper": "1980-01-01",
    "edtf:cessation": "2007-04-01",
    "edtf:inception": "1980-01-01",
    "geom:area": 0,
    "geom:bbox": "-2.299501,53.595915,-2.299501,53.595915",
    "geom:latitude": 53.595915,
    "geom:longitude": -2.299501,
    "gp:parent_id": "14711",
    "iso:country": "GB",
    "mz:hierarchy_label": 1,
    "mz:is_current": 0,
    "os:country_code": "E92000001",
    "os:county_code": "E99999999",
    "os:district_code": "E08000002",
    "os:positional_quality_indicator": "1",
    "os:region_code": "E12000002",
    "src:geom": "os",
    "wof:belongsto": [
      85633159,
      102191581,
      136253055,
      1864205867,
      1360698847,
      101750567,
      1880762163,
      404227469,
      1880773095
    ],
    "wof:breaches": [],
    "wof:concordances": {
      "gp:id": "26924869"
    },
    "wof:country": "GB",
    "wof:created": 1583701158,
    "wof:geomhash": "a10ef9d64ac41b7c00e9ce51c354a401",
    "wof:hierarchy": [
      {
        "continent_id": 102191581,
        "country_id": 85633159,
        "county_id": 1360698847,
        "empire_id": 136253055,
        "locality_id": 101750567,
        "macrocounty_id": 1880762163,
        "macroregion_id": 404227469,
        "postalcode_id": 437430941,
        "region_id": 1880773095
      },
      {
        "continent_id": 102191581,
        "country_id": 85633159,
        "empire_id": 136253055,
        "postalcode_id": 437430941,
        "postalregion_id": 1864205867
      }
    ],
    "wof:id": 437430941,
    "wof:lastmodified": 1763548042,
    "wof:name": "BL9 0LR",
    "wof:parent_id": 101750567,
    "wof:placetype": "postalcode",
    "wof:repo": "whosonfirst-data-postalcode-gb",
    "wof:superseded_by": [],
    "wof:supersedes": [],
    "wof:tags": []
  },
  "bbox": [
    -2.299501,
    53.595915,
    -2.299501,
    53.595915
  ],
  "geometry": {"coordinates":[-2.299501,53.595915],"type":"Point"}
}
