{
  "id": 1712795479,
  "type": "Feature",
  "properties": {
    "date:cessation_lower": "1996-06-01",
    "date:cessation_upper": "1996-06-01",
    "date:inception_lower": "1980-01-01",
    "date:inception_upper": "1980-01-01",
    "edtf:cessation": "1996-06-01",
    "edtf:inception": "1980-01-01",
    "geom:area": 0,
    "geom:bbox": "-0.227854,51.760922,-0.227854,51.760922",
    "geom:latitude": 51.760922,
    "geom:longitude": -0.227854,
    "iso:country": "GB",
    "mz:hierarchy_label": 1,
    "mz:is_current": 0,
    "os:country_code": "E92000001",
    "os:county_code": "E10000015",
    "os:district_code": "E07000241",
    "os:positional_quality_indicator": "8",
    "os:region_code": "E12000006",
    "src:geom": "os",
    "wof:belongsto": [
      85633159,
      102191581,
      136253055,
      1864205455,
      1880771495,
      404446407,
      101854781,
      1880762153,
      404227469,
      1880762721
    ],
    "wof:breaches": [],
    "wof:country": "GB",
    "wof:created": 1583803930,
    "wof:geomhash": "39425d43d3a9cb4c670e95c1a85f697d",
    "wof:hierarchy": [
      {
        "continent_id": 102191581,
        "country_id": 85633159,
        "county_id": 1880771495,
        "empire_id": 136253055,
        "localadmin_id": 404446407,
        "locality_id": 101854781,
        "macrocounty_id": 1880762153,
        "macroregion_id": 404227469,
        "postalcode_id": 1712795479,
        "region_id": 1880762721
      },
      {
        "continent_id": 102191581,
        "country_id": 85633159,
        "empire_id": 136253055,
        "postalcode_id": 1712795479,
        "postalregion_id": 1864205455
      }
    ],
    "wof:id": 1712795479,
    "wof:lastmodified": 1763548726,
    "wof:name": "AL10 8NQ",
    "wof:parent_id": 101854781,
    "wof:placetype": "postalcode",
    "wof:repo": "whosonfirst-data-postalcode-gb",
    "wof:superseded_by": [],
    "wof:supersedes": [],
    "wof:tags": []
  },
  "bbox": [
    -0.227854,
    51.760922,
    -0.227854,
    51.760922
  ],
  "geometry": {"coordinates":[-0.227854,51.760922],"type":"Point"}
}
