{
  "id": 487968621,
  "type": "Feature",
  "properties": {
    "date:inception_lower": "1980-01-01",
    "date:inception_upper": "1980-01-01",
    "edtf:cessation": "",
    "edtf:inception": "1980-01-01",
    "geom:area": 0,
    "geom:bbox": "-1.137518,54.484853,-1.137518,54.484853",
    "geom:latitude": 54.484853,
    "geom:longitude": -1.137518,
    "iso:country": "GB",
    "mz:hierarchy_label": 1,
    "mz:is_current": 1,
    "os:country_code": "E92000001",
    "os:county_code": "E99999999",
    "os:district_code": "E06000065",
    "os:positional_quality_indicator": "1",
    "os:region_code": "E12000003",
    "src:geom": "os",
    "wof:belongsto": [
      85633159,
      102191581,
      136253055,
      1864211311,
      1360698753,
      404434703,
      1259812677,
      1880762011,
      404227469,
      1880772891
    ],
    "wof:breaches": [],
    "wof:concordances": {
      "gp:id": "28098765"
    },
    "wof:country": "GB",
    "wof:created": 1583701294,
    "wof:geomhash": "9dbcd1a5b5a5bb9eb3c390bb8d2ab4d2",
    "wof:hierarchy": [
      {
        "continent_id": 102191581,
        "country_id": 85633159,
        "county_id": 1360698753,
        "empire_id": 136253055,
        "localadmin_id": 404434703,
        "locality_id": 1259812677,
        "macrocounty_id": 1880762011,
        "macroregion_id": 404227469,
        "postalcode_id": 487968621,
        "region_id": 1880772891
      },
      {
        "continent_id": 102191581,
        "country_id": 85633159,
        "empire_id": 136253055,
        "postalcode_id": 487968621,
        "postalregion_id": 1864211311
      }
    ],
    "wof:id": 487968621,
    "wof:lastmodified": 1763548697,
    "wof:name": "TS9 6LA",
    "wof:parent_id": 1259812677,
    "wof:placetype": "postalcode",
    "wof:repo": "whosonfirst-data-postalcode-gb",
    "wof:superseded_by": [],
    "wof:supersedes": [],
    "wof:tags": []
  },
  "bbox": [
    -1.137518,
    54.484853,
    -1.137518,
    54.484853
  ],
  "geometry": {"coordinates":[-1.137518,54.484853],"type":"Point"}
}
