{
  "id": 39142692,
  "type": "Feature",
  "properties": {
    "date:cessation_lower": "1999-06-01",
    "date:cessation_upper": "1999-06-01",
    "date:inception_lower": "1995-12-01",
    "date:inception_upper": "1995-12-01",
    "edtf:cessation": "1999-06-01",
    "edtf:inception": "1995-12-01",
    "geom:area": 0,
    "geom:bbox": "-1.393304,51.369554,-1.393304,51.369554",
    "geom:latitude": 51.369554,
    "geom:longitude": -1.393304,
    "iso:country": "GB",
    "mz:hierarchy_label": 1,
    "mz:is_current": 0,
    "os:country_code": "E92000001",
    "os:county_code": "E10000014",
    "os:district_code": "E07000084",
    "os:positional_quality_indicator": "6",
    "os:region_code": "E12000008",
    "src:geom": "os",
    "wof:belongsto": [
      85633159,
      102191581,
      136253055,
      1864210033,
      1880771457,
      404453851,
      1126000553,
      1880762155,
      404227469,
      1880762717
    ],
    "wof:breaches": [],
    "wof:country": "GB",
    "wof:created": 1583798208,
    "wof:geomhash": "d3f6e4ad4f295d9285ccd5a1bc426727",
    "wof:hierarchy": [
      {
        "continent_id": 102191581,
        "country_id": 85633159,
        "county_id": 1880771457,
        "empire_id": 136253055,
        "localadmin_id": 404453851,
        "locality_id": 1126000553,
        "macrocounty_id": 1880762155,
        "macroregion_id": 404227469,
        "postalcode_id": 39142692,
        "region_id": 1880762717
      },
      {
        "continent_id": 102191581,
        "country_id": 85633159,
        "empire_id": 136253055,
        "postalcode_id": 39142692,
        "postalregion_id": 1864210033
      }
    ],
    "wof:id": 39142692,
    "wof:lastmodified": 1763547905,
    "wof:name": "RG20 0YA",
    "wof:parent_id": 1126000553,
    "wof:placetype": "postalcode",
    "wof:repo": "whosonfirst-data-postalcode-gb",
    "wof:superseded_by": [],
    "wof:supersedes": [],
    "wof:tags": []
  },
  "bbox": [
    -1.393304,
    51.369554,
    -1.393304,
    51.369554
  ],
  "geometry": {"coordinates":[-1.393304,51.369554],"type":"Point"}
}
