{
  "id": 454354883,
  "type": "Feature",
  "properties": {
    "date:inception_lower": "1992-08-01",
    "date:inception_upper": "1992-08-01",
    "edtf:cessation": "",
    "edtf:inception": "1992-08-01",
    "geom:area": 0,
    "geom:bbox": "-1.477997,53.044260,-1.477997,53.044260",
    "geom:latitude": 53.04426,
    "geom:longitude": -1.477997,
    "iso:country": "GB",
    "mz:hierarchy_label": 1,
    "mz:is_current": 1,
    "os:country_code": "E92000001",
    "os:county_code": "E10000007",
    "os:district_code": "E07000032",
    "os:positional_quality_indicator": "1",
    "os:region_code": "E12000004",
    "src:geom": "os",
    "wof:belongsto": [
      85633159,
      102191581,
      136253055,
      1864206671,
      1880771385,
      404444533,
      101872073,
      1880762133,
      404227469,
      1880762707
    ],
    "wof:breaches": [],
    "wof:concordances": {
      "gp:id": "27149290"
    },
    "wof:country": "GB",
    "wof:created": 1583701513,
    "wof:geomhash": "9c9dae8e5d4d1587cbd3376802ac3611",
    "wof:hierarchy": [
      {
        "continent_id": 102191581,
        "country_id": 85633159,
        "county_id": 1880771385,
        "empire_id": 136253055,
        "localadmin_id": 404444533,
        "locality_id": 101872073,
        "macrocounty_id": 1880762133,
        "macroregion_id": 404227469,
        "postalcode_id": 454354883,
        "region_id": 1880762707
      },
      {
        "continent_id": 102191581,
        "country_id": 85633159,
        "empire_id": 136253055,
        "postalcode_id": 454354883,
        "postalregion_id": 1864206671
      }
    ],
    "wof:id": 454354883,
    "wof:lastmodified": 1763548202,
    "wof:name": "DE56 2JG",
    "wof:parent_id": 101872073,
    "wof:placetype": "postalcode",
    "wof:repo": "whosonfirst-data-postalcode-gb",
    "wof:superseded_by": [],
    "wof:supersedes": [],
    "wof:tags": []
  },
  "bbox": [
    -1.477997,
    53.04426,
    -1.477997,
    53.04426
  ],
  "geometry": {"coordinates":[-1.477997,53.04426],"type":"Point"}
}
