{
  "id": 39419451,
  "type": "Feature",
  "properties": {
    "date:cessation_lower": "1991-12-01",
    "date:cessation_upper": "1991-12-01",
    "date:inception_lower": "1980-01-01",
    "date:inception_upper": "1980-01-01",
    "edtf:cessation": "1991-12-01",
    "edtf:inception": "1980-01-01",
    "geom:area": 0,
    "geom:bbox": "-1.827361,53.683549,-1.827361,53.683549",
    "geom:latitude": 53.683549,
    "geom:longitude": -1.827361,
    "iso:country": "GB",
    "mz:hierarchy_label": 1,
    "mz:is_current": 0,
    "os:country_code": "E92000001",
    "os:county_code": "E99999999",
    "os:district_code": "E08000033",
    "os:positional_quality_indicator": "8",
    "os:region_code": "E12000003",
    "src:geom": "os",
    "wof:belongsto": [
      85633159,
      102191581,
      136253055,
      1864207789,
      1360698833,
      1360817303,
      101872229,
      1880762059,
      404227469,
      1880773017
    ],
    "wof:breaches": [],
    "wof:country": "GB",
    "wof:created": 1583801249,
    "wof:geomhash": "89f1de2cbd6b42f5759b7154cc9aab97",
    "wof:hierarchy": [
      {
        "continent_id": 102191581,
        "country_id": 85633159,
        "county_id": 1360698833,
        "empire_id": 136253055,
        "localadmin_id": 1360817303,
        "locality_id": 101872229,
        "macrocounty_id": 1880762059,
        "macroregion_id": 404227469,
        "postalcode_id": 39419451,
        "region_id": 1880773017
      },
      {
        "continent_id": 102191581,
        "country_id": 85633159,
        "empire_id": 136253055,
        "postalcode_id": 39419451,
        "postalregion_id": 1864207789
      }
    ],
    "wof:id": 39419451,
    "wof:lastmodified": 1763548401,
    "wof:name": "HX5 9BQ",
    "wof:parent_id": 101872229,
    "wof:placetype": "postalcode",
    "wof:repo": "whosonfirst-data-postalcode-gb",
    "wof:superseded_by": [],
    "wof:supersedes": [],
    "wof:tags": []
  },
  "bbox": [
    -1.827361,
    53.683549,
    -1.827361,
    53.683549
  ],
  "geometry": {"coordinates":[-1.827361,53.683549],"type":"Point"}
}
