{
  "id": 454277595,
  "type": "Feature",
  "properties": {
    "date:inception_lower": "1999-12-01",
    "date:inception_upper": "1999-12-01",
    "edtf:cessation": "",
    "edtf:inception": "1999-12-01",
    "geom:area": 0,
    "geom:bbox": "-1.396803,52.244515,-1.396803,52.244515",
    "geom:latitude": 52.244515,
    "geom:longitude": -1.396803,
    "gp:parent_id": "35354",
    "iso:country": "GB",
    "mz:hierarchy_label": 1,
    "mz:is_current": 1,
    "os:country_code": "E92000001",
    "os:county_code": "E10000031",
    "os:district_code": "E07000221",
    "os:positional_quality_indicator": "1",
    "os:region_code": "E12000005",
    "src:geom": "os",
    "wof:belongsto": [
      85633159,
      102191581,
      136253055,
      1864206529,
      1880771675,
      404432701,
      1125914471,
      1880762065,
      404227469,
      1880762725
    ],
    "wof:breaches": [],
    "wof:concordances": {
      "gp:id": "26426140"
    },
    "wof:country": "GB",
    "wof:created": 1583701436,
    "wof:geomhash": "7c153baeb2b84b7ea929927e22e15554",
    "wof:hierarchy": [
      {
        "continent_id": 102191581,
        "country_id": 85633159,
        "county_id": 1880771675,
        "empire_id": 136253055,
        "localadmin_id": 404432701,
        "locality_id": 1125914471,
        "macrocounty_id": 1880762065,
        "macroregion_id": 404227469,
        "postalcode_id": 454277595,
        "region_id": 1880762725
      },
      {
        "continent_id": 102191581,
        "country_id": 85633159,
        "empire_id": 136253055,
        "postalcode_id": 454277595,
        "postalregion_id": 1864206529
      }
    ],
    "wof:id": 454277595,
    "wof:lastmodified": 1763548470,
    "wof:name": "CV47 0FB",
    "wof:parent_id": 1125914471,
    "wof:placetype": "postalcode",
    "wof:repo": "whosonfirst-data-postalcode-gb",
    "wof:superseded_by": [],
    "wof:supersedes": [],
    "wof:tags": []
  },
  "bbox": [
    -1.396803,
    52.244515,
    -1.396803,
    52.244515
  ],
  "geometry": {"coordinates":[-1.396803,52.244515],"type":"Point"}
}
