{
  "id": 38532123,
  "type": "Feature",
  "properties": {
    "date:cessation_lower": "2000-09-01",
    "date:cessation_upper": "2000-09-01",
    "date:inception_lower": "1999-12-01",
    "date:inception_upper": "1999-12-01",
    "edtf:cessation": "2000-09-01",
    "edtf:inception": "1999-12-01",
    "geom:area": 0,
    "geom:bbox": "-1.865652,54.962671,-1.865652,54.962671",
    "geom:latitude": 54.962671,
    "geom:longitude": -1.865652,
    "iso:country": "GB",
    "mz:hierarchy_label": 1,
    "mz:is_current": 0,
    "os:country_code": "E92000001",
    "os:county_code": "E99999999",
    "os:district_code": "E06000057",
    "os:positional_quality_indicator": "6",
    "os:region_code": "E12000001",
    "src:geom": "os",
    "wof:belongsto": [
      85633159,
      102191581,
      136253055,
      1864209081,
      1360698769,
      404450797,
      1125840701,
      1880761987,
      404227469,
      1880772897
    ],
    "wof:breaches": [],
    "wof:country": "GB",
    "wof:created": 1583791435,
    "wof:geomhash": "ec91496aaddada5b5591dfe80608ea66",
    "wof:hierarchy": [
      {
        "continent_id": 102191581,
        "country_id": 85633159,
        "county_id": 1360698769,
        "empire_id": 136253055,
        "localadmin_id": 404450797,
        "locality_id": 1125840701,
        "macrocounty_id": 1880761987,
        "macroregion_id": 404227469,
        "postalcode_id": 38532123,
        "region_id": 1880772897
      },
      {
        "continent_id": 102191581,
        "country_id": 85633159,
        "empire_id": 136253055,
        "postalcode_id": 38532123,
        "postalregion_id": 1864209081
      }
    ],
    "wof:id": 38532123,
    "wof:lastmodified": 1763548358,
    "wof:name": "NE42 6YQ",
    "wof:parent_id": 1125840701,
    "wof:placetype": "postalcode",
    "wof:repo": "whosonfirst-data-postalcode-gb",
    "wof:superseded_by": [],
    "wof:supersedes": [],
    "wof:tags": []
  },
  "bbox": [
    -1.865652,
    54.962671,
    -1.865652,
    54.962671
  ],
  "geometry": {"coordinates":[-1.865652,54.962671],"type":"Point"}
}
