{
  "id": 471165081,
  "type": "Feature",
  "properties": {
    "date:inception_lower": "1993-08-01",
    "date:inception_upper": "1993-08-01",
    "edtf:cessation": "",
    "edtf:inception": "1993-08-01",
    "geom:area": 0,
    "geom:bbox": "-0.600510,52.301641,-0.600510,52.301641",
    "geom:latitude": 52.301641,
    "geom:longitude": -0.60051,
    "iso:country": "GB",
    "mz:hierarchy_label": 1,
    "mz:is_current": 1,
    "os:country_code": "E92000001",
    "os:county_code": "E99999999",
    "os:district_code": "E06000061",
    "os:positional_quality_indicator": "1",
    "os:region_code": "E12000004",
    "src:geom": "os",
    "wof:belongsto": [
      85633159,
      102191581,
      136253055,
      1864209219,
      1880773237,
      404444165,
      101853573,
      1880762029,
      404227469,
      1880773265
    ],
    "wof:breaches": [],
    "wof:concordances": {
      "gp:id": "27651771"
    },
    "wof:country": "GB",
    "wof:created": 1583701359,
    "wof:geomhash": "6c9d03108d9757f27319a59ccc20c90a",
    "wof:hierarchy": [
      {
        "continent_id": 102191581,
        "country_id": 85633159,
        "county_id": 1880773237,
        "empire_id": 136253055,
        "localadmin_id": 404444165,
        "locality_id": 101853573,
        "macrocounty_id": 1880762029,
        "macroregion_id": 404227469,
        "postalcode_id": 471165081,
        "region_id": 1880773265
      },
      {
        "continent_id": 102191581,
        "country_id": 85633159,
        "empire_id": 136253055,
        "postalcode_id": 471165081,
        "postalregion_id": 1864209219
      }
    ],
    "wof:id": 471165081,
    "wof:lastmodified": 1763548223,
    "wof:name": "NN10 6EG",
    "wof:parent_id": 101853573,
    "wof:placetype": "postalcode",
    "wof:repo": "whosonfirst-data-postalcode-gb",
    "wof:superseded_by": [],
    "wof:supersedes": [],
    "wof:tags": []
  },
  "bbox": [
    -0.60051,
    52.301641,
    -0.60051,
    52.301641
  ],
  "geometry": {"coordinates":[-0.60051,52.301641],"type":"Point"}
}
