{
  "id": 454469289,
  "type": "Feature",
  "properties": {
    "date:inception_lower": "1980-01-01",
    "date:inception_upper": "1980-01-01",
    "edtf:cessation": "",
    "edtf:inception": "1980-01-01",
    "geom:area": 0,
    "geom:bbox": "-2.455742,50.603246,-2.455742,50.603246",
    "geom:latitude": 50.603246,
    "geom:longitude": -2.455742,
    "iso:country": "GB",
    "mz:hierarchy_label": 1,
    "mz:is_current": 1,
    "os:country_code": "E92000001",
    "os:county_code": "E99999999",
    "os:district_code": "E06000059",
    "os:positional_quality_indicator": "1",
    "os:region_code": "E12000009",
    "src:geom": "os",
    "wof:belongsto": [
      85633159,
      102191581,
      136253055,
      1864206875,
      1360698745,
      101751585,
      1880762151,
      404227469,
      1880772881
    ],
    "wof:breaches": [],
    "wof:concordances": {
      "gp:id": "26577011"
    },
    "wof:country": "GB",
    "wof:created": 1583701590,
    "wof:geomhash": "3095193b1c6cd2955c184a60bcde6d99",
    "wof:hierarchy": [
      {
        "continent_id": 102191581,
        "country_id": 85633159,
        "county_id": 1360698745,
        "empire_id": 136253055,
        "locality_id": 101751585,
        "macrocounty_id": 1880762151,
        "macroregion_id": 404227469,
        "postalcode_id": 454469289,
        "region_id": 1880772881
      },
      {
        "continent_id": 102191581,
        "country_id": 85633159,
        "empire_id": 136253055,
        "postalcode_id": 454469289,
        "postalregion_id": 1864206875
      }
    ],
    "wof:id": 454469289,
    "wof:lastmodified": 1763548498,
    "wof:name": "DT4 8XB",
    "wof:parent_id": 101751585,
    "wof:placetype": "postalcode",
    "wof:repo": "whosonfirst-data-postalcode-gb",
    "wof:superseded_by": [],
    "wof:supersedes": [],
    "wof:tags": []
  },
  "bbox": [
    -2.455742,
    50.603246,
    -2.455742,
    50.603246
  ],
  "geometry": {"coordinates":[-2.455742,50.603246],"type":"Point"}
}
