{
  "id": 504519897,
  "type": "Feature",
  "properties": {
    "date:inception_lower": "1980-01-01",
    "date:inception_upper": "1980-01-01",
    "edtf:cessation": "",
    "edtf:inception": "1980-01-01",
    "geom:area": 0,
    "geom:bbox": "-3.847210,55.555074,-3.847210,55.555074",
    "geom:latitude": 55.555074,
    "geom:longitude": -3.84721,
    "iso:country": "GB",
    "mz:hierarchy_label": 1,
    "mz:is_current": 1,
    "os:country_code": "S92000003",
    "os:county_code": "S99999999",
    "os:district_code": "S12000029",
    "os:positional_quality_indicator": "1",
    "os:region_code": "S99999999",
    "src:geom": "os",
    "wof:belongsto": [
      85633159,
      102191581,
      136253055,
      1864208929,
      1360698969,
      1880762099,
      404227471,
      1880773061
    ],
    "wof:breaches": [],
    "wof:concordances": {
      "gp:id": "27582827"
    },
    "wof:country": "GB",
    "wof:created": 1583701400,
    "wof:geomhash": "aad2ccc9201546f274d5b21782511f75",
    "wof:hierarchy": [
      {
        "continent_id": 102191581,
        "country_id": 85633159,
        "county_id": 1360698969,
        "empire_id": 136253055,
        "macrocounty_id": 1880762099,
        "macroregion_id": 404227471,
        "postalcode_id": 504519897,
        "region_id": 1880773061
      },
      {
        "continent_id": 102191581,
        "country_id": 85633159,
        "empire_id": 136253055,
        "postalcode_id": 504519897,
        "postalregion_id": 1864208929
      }
    ],
    "wof:id": 504519897,
    "wof:lastmodified": 1763548040,
    "wof:name": "ML11 0QB",
    "wof:parent_id": 1360698969,
    "wof:placetype": "postalcode",
    "wof:repo": "whosonfirst-data-postalcode-gb",
    "wof:superseded_by": [],
    "wof:supersedes": [],
    "wof:tags": []
  },
  "bbox": [
    -3.84721,
    55.555074,
    -3.84721,
    55.555074
  ],
  "geometry": {"coordinates":[-3.84721,55.555074],"type":"Point"}
}
