{
  "id": 488086001,
  "type": "Feature",
  "properties": {
    "date:inception_lower": "1980-01-01",
    "date:inception_upper": "1980-01-01",
    "edtf:cessation": "",
    "edtf:inception": "1980-01-01",
    "geom:area": 0,
    "geom:bbox": "-2.738303,53.334211,-2.738303,53.334211",
    "geom:latitude": 53.334211,
    "geom:longitude": -2.738303,
    "iso:country": "GB",
    "mz:hierarchy_label": 1,
    "mz:is_current": 1,
    "os:country_code": "E92000001",
    "os:county_code": "E99999999",
    "os:district_code": "E06000006",
    "os:positional_quality_indicator": "1",
    "os:region_code": "E12000002",
    "src:geom": "os",
    "wof:belongsto": [
      85633159,
      102191581,
      136253055,
      1864211483,
      1360698991,
      1729579505,
      1729579503,
      1880762135,
      404227469,
      1880773021
    ],
    "wof:breaches": [],
    "wof:concordances": {
      "gp:id": "28138265"
    },
    "wof:country": "GB",
    "wof:created": 1583701236,
    "wof:geomhash": "0ccfd26b4fd90a83586a0231d9ea4740",
    "wof:hierarchy": [
      {
        "continent_id": 102191581,
        "country_id": 85633159,
        "county_id": 1360698991,
        "empire_id": 136253055,
        "localadmin_id": 1729579505,
        "locality_id": 1729579503,
        "macrocounty_id": 1880762135,
        "macroregion_id": 404227469,
        "postalcode_id": 488086001,
        "region_id": 1880773021
      },
      {
        "continent_id": 102191581,
        "country_id": 85633159,
        "empire_id": 136253055,
        "postalcode_id": 488086001,
        "postalregion_id": 1864211483
      }
    ],
    "wof:id": 488086001,
    "wof:lastmodified": 1763548566,
    "wof:name": "WA7 4NW",
    "wof:parent_id": 1729579503,
    "wof:placetype": "postalcode",
    "wof:repo": "whosonfirst-data-postalcode-gb",
    "wof:superseded_by": [],
    "wof:supersedes": [],
    "wof:tags": []
  },
  "bbox": [
    -2.738303,
    53.334211,
    -2.738303,
    53.334211
  ],
  "geometry": {"coordinates":[-2.738303,53.334211],"type":"Point"}
}
