{
  "id": 471588997,
  "type": "Feature",
  "properties": {
    "date:inception_lower": "1980-01-01",
    "date:inception_upper": "1980-01-01",
    "edtf:cessation": "",
    "edtf:inception": "1980-01-01",
    "geom:area": 0,
    "geom:bbox": "-0.078512,51.048383,-0.078512,51.048383",
    "geom:latitude": 51.048383,
    "geom:longitude": -0.078512,
    "gp:parent_id": "10945",
    "iso:country": "GB",
    "mz:hierarchy_label": 1,
    "mz:is_current": 1,
    "os:country_code": "E92000001",
    "os:county_code": "E10000032",
    "os:district_code": "E07000228",
    "os:positional_quality_indicator": "1",
    "os:region_code": "E12000008",
    "src:geom": "os",
    "wof:belongsto": [
      85633159,
      102191581,
      136253055,
      1864210101,
      1880771687,
      404439551,
      1360755511,
      1880762061,
      404227469,
      1880762709
    ],
    "wof:breaches": [],
    "wof:concordances": {
      "gp:id": "27830489"
    },
    "wof:country": "GB",
    "wof:created": 1583701678,
    "wof:geomhash": "c6caa6e3b31ef9aefec9465a142ece91",
    "wof:hierarchy": [
      {
        "continent_id": 102191581,
        "country_id": 85633159,
        "county_id": 1880771687,
        "empire_id": 136253055,
        "localadmin_id": 404439551,
        "locality_id": 1360755511,
        "macrocounty_id": 1880762061,
        "macroregion_id": 404227469,
        "postalcode_id": 471588997,
        "region_id": 1880762709
      },
      {
        "continent_id": 102191581,
        "country_id": 85633159,
        "empire_id": 136253055,
        "postalcode_id": 471588997,
        "postalregion_id": 1864210101
      }
    ],
    "wof:id": 471588997,
    "wof:lastmodified": 1763548159,
    "wof:name": "RH17 6SZ",
    "wof:parent_id": 1360755511,
    "wof:placetype": "postalcode",
    "wof:repo": "whosonfirst-data-postalcode-gb",
    "wof:superseded_by": [],
    "wof:supersedes": [],
    "wof:tags": []
  },
  "bbox": [
    -0.078512,
    51.048383,
    -0.078512,
    51.048383
  ],
  "geometry": {"coordinates":[-0.078512,51.048383],"type":"Point"}
}
