{
  "id": 471414241,
  "type": "Feature",
  "properties": {
    "date:inception_lower": "1980-01-01",
    "date:inception_upper": "1980-01-01",
    "edtf:cessation": "",
    "edtf:inception": "1980-01-01",
    "geom:area": 0,
    "geom:bbox": "-4.095750,50.579811,-4.095750,50.579811",
    "geom:latitude": 50.579811,
    "geom:longitude": -4.09575,
    "gp:parent_id": "31930",
    "iso:country": "GB",
    "mz:hierarchy_label": 1,
    "mz:is_current": 1,
    "os:country_code": "E92000001",
    "os:county_code": "E10000008",
    "os:district_code": "E07000047",
    "os:positional_quality_indicator": "1",
    "os:region_code": "E12000009",
    "src:geom": "os",
    "wof:belongsto": [
      85633159,
      102191581,
      136253055,
      1864209853,
      1880771401,
      404448199,
      1343388021,
      1880762149,
      404227469,
      1880762683
    ],
    "wof:breaches": [],
    "wof:concordances": {
      "gp:id": "27768696"
    },
    "wof:country": "GB",
    "wof:created": 1583701573,
    "wof:geomhash": "1bbd2789d152df98f6526832d60b32b0",
    "wof:hierarchy": [
      {
        "continent_id": 102191581,
        "country_id": 85633159,
        "county_id": 1880771401,
        "empire_id": 136253055,
        "localadmin_id": 404448199,
        "locality_id": 1343388021,
        "macrocounty_id": 1880762149,
        "macroregion_id": 404227469,
        "postalcode_id": 471414241,
        "region_id": 1880762683
      },
      {
        "continent_id": 102191581,
        "country_id": 85633159,
        "empire_id": 136253055,
        "postalcode_id": 471414241,
        "postalregion_id": 1864209853
      }
    ],
    "wof:id": 471414241,
    "wof:lastmodified": 1763548030,
    "wof:name": "PL19 9NT",
    "wof:parent_id": 1343388021,
    "wof:placetype": "postalcode",
    "wof:repo": "whosonfirst-data-postalcode-gb",
    "wof:superseded_by": [],
    "wof:supersedes": [],
    "wof:tags": []
  },
  "bbox": [
    -4.09575,
    50.579811,
    -4.09575,
    50.579811
  ],
  "geometry": {"coordinates":[-4.09575,50.579811],"type":"Point"}
}
