{
  "id": 454188917,
  "type": "Feature",
  "properties": {
    "date:inception_lower": "1980-01-01",
    "date:inception_upper": "1980-01-01",
    "edtf:cessation": "",
    "edtf:inception": "1980-01-01",
    "geom:area": 0,
    "geom:bbox": "0.709152,51.824798,0.709152,51.824798",
    "geom:latitude": 51.824798,
    "geom:longitude": 0.709152,
    "iso:country": "GB",
    "mz:hierarchy_label": 1,
    "mz:is_current": 1,
    "os:country_code": "E92000001",
    "os:county_code": "E10000012",
    "os:district_code": "E07000067",
    "os:positional_quality_indicator": "1",
    "os:region_code": "E12000006",
    "src:geom": "os",
    "wof:belongsto": [
      85633159,
      102191581,
      136253055,
      1864206409,
      1880771437,
      404429379,
      101854723,
      1880762159,
      404227469,
      1880762723
    ],
    "wof:breaches": [],
    "wof:concordances": {
      "gp:id": "27086503"
    },
    "wof:country": "GB",
    "wof:created": 1583701353,
    "wof:geomhash": "3c1b720b7916e2e6f18b2bbeed9d3d97",
    "wof:hierarchy": [
      {
        "continent_id": 102191581,
        "country_id": 85633159,
        "county_id": 1880771437,
        "empire_id": 136253055,
        "localadmin_id": 404429379,
        "locality_id": 101854723,
        "macrocounty_id": 1880762159,
        "macroregion_id": 404227469,
        "postalcode_id": 454188917,
        "region_id": 1880762723
      },
      {
        "continent_id": 102191581,
        "country_id": 85633159,
        "empire_id": 136253055,
        "postalcode_id": 454188917,
        "postalregion_id": 1864206409
      }
    ],
    "wof:id": 454188917,
    "wof:lastmodified": 1763548408,
    "wof:name": "CO5 9BJ",
    "wof:parent_id": 101854723,
    "wof:placetype": "postalcode",
    "wof:repo": "whosonfirst-data-postalcode-gb",
    "wof:superseded_by": [],
    "wof:supersedes": [],
    "wof:tags": []
  },
  "bbox": [
    0.709152,
    51.824798,
    0.709152,
    51.824798
  ],
  "geometry": {"coordinates":[0.709152,51.824798],"type":"Point"}
}
