{
  "id": 488484965,
  "type": "Feature",
  "properties": {
    "date:inception_lower": "1980-01-01",
    "date:inception_upper": "1980-01-01",
    "edtf:cessation": "",
    "edtf:inception": "1980-01-01",
    "geom:area": 0,
    "geom:bbox": "-4.322508,51.844860,-4.322508,51.844860",
    "geom:latitude": 51.84486,
    "geom:longitude": -4.322508,
    "gp:parent_id": "12696118",
    "iso:country": "GB",
    "mz:hierarchy_label": 1,
    "mz:is_current": 1,
    "os:country_code": "W92000004",
    "os:county_code": "W99999999",
    "os:district_code": "W06000010",
    "os:positional_quality_indicator": "1",
    "os:region_code": "W99999999",
    "src:geom": "os",
    "wof:belongsto": [
      85633159,
      102191581,
      136253055,
      1864210319,
      1360698785,
      404445927,
      101852977,
      1880762181,
      404227475,
      1880772913
    ],
    "wof:breaches": [],
    "wof:concordances": {
      "gp:id": "27877858"
    },
    "wof:country": "GB",
    "wof:created": 1583701497,
    "wof:geomhash": "ef0abe5396e1b40008f2594cc291fca6",
    "wof:hierarchy": [
      {
        "continent_id": 102191581,
        "country_id": 85633159,
        "county_id": 1360698785,
        "empire_id": 136253055,
        "localadmin_id": 404445927,
        "locality_id": 101852977,
        "macrocounty_id": 1880762181,
        "macroregion_id": 404227475,
        "postalcode_id": 488484965,
        "region_id": 1880772913
      },
      {
        "continent_id": 102191581,
        "country_id": 85633159,
        "empire_id": 136253055,
        "postalcode_id": 488484965,
        "postalregion_id": 1864210319
      }
    ],
    "wof:id": 488484965,
    "wof:lastmodified": 1763548453,
    "wof:name": "SA31 3NN",
    "wof:parent_id": 101852977,
    "wof:placetype": "postalcode",
    "wof:repo": "whosonfirst-data-postalcode-gb",
    "wof:superseded_by": [],
    "wof:supersedes": [],
    "wof:tags": []
  },
  "bbox": [
    -4.322508,
    51.84486,
    -4.322508,
    51.84486
  ],
  "geometry": {"coordinates":[-4.322508,51.84486],"type":"Point"}
}
