{
  "id": 488374819,
  "type": "Feature",
  "properties": {
    "date:inception_lower": "2007-07-01",
    "date:inception_upper": "2007-07-01",
    "edtf:cessation": "",
    "edtf:inception": "2007-07-01",
    "geom:area": 0,
    "geom:bbox": "-1.377766,54.725916,-1.377766,54.725916",
    "geom:latitude": 54.725916,
    "geom:longitude": -1.377766,
    "gp:parent_id": "12695931",
    "iso:country": "GB",
    "mz:hierarchy_label": 1,
    "mz:is_current": 1,
    "os:country_code": "E92000001",
    "os:county_code": "E99999999",
    "os:district_code": "E06000047",
    "os:positional_quality_indicator": "1",
    "os:region_code": "E12000001",
    "src:geom": "os",
    "wof:belongsto": [
      85633159,
      102191581,
      136253055,
      1864211293,
      1360699055,
      404451977,
      1125773467,
      1880762117,
      404227469,
      1880773141
    ],
    "wof:breaches": [],
    "wof:concordances": {
      "gp:id": "56184662"
    },
    "wof:country": "GB",
    "wof:created": 1583701386,
    "wof:geomhash": "e5f5e630f348f8cd89db31b967b2b4dc",
    "wof:hierarchy": [
      {
        "continent_id": 102191581,
        "country_id": 85633159,
        "county_id": 1360699055,
        "empire_id": 136253055,
        "localadmin_id": 404451977,
        "locality_id": 1125773467,
        "macrocounty_id": 1880762117,
        "macroregion_id": 404227469,
        "postalcode_id": 488374819,
        "region_id": 1880773141
      },
      {
        "continent_id": 102191581,
        "country_id": 85633159,
        "empire_id": 136253055,
        "postalcode_id": 488374819,
        "postalregion_id": 1864211293
      }
    ],
    "wof:id": 488374819,
    "wof:lastmodified": 1763548600,
    "wof:name": "TS28 5FD",
    "wof:parent_id": 1125773467,
    "wof:placetype": "postalcode",
    "wof:repo": "whosonfirst-data-postalcode-gb",
    "wof:superseded_by": [],
    "wof:supersedes": [],
    "wof:tags": []
  },
  "bbox": [
    -1.377766,
    54.725916,
    -1.377766,
    54.725916
  ],
  "geometry": {"coordinates":[-1.377766,54.725916],"type":"Point"}
}
