{
  "id": 454747471,
  "type": "Feature",
  "properties": {
    "date:inception_lower": "1980-01-01",
    "date:inception_upper": "1980-01-01",
    "edtf:cessation": "",
    "edtf:inception": "1980-01-01",
    "geom:area": 0,
    "geom:bbox": "-1.743870,53.649631,-1.743870,53.649631",
    "geom:latitude": 53.649631,
    "geom:longitude": -1.74387,
    "gp:parent_id": "24083",
    "iso:country": "GB",
    "mz:hierarchy_label": 1,
    "mz:is_current": 1,
    "os:country_code": "E92000001",
    "os:county_code": "E99999999",
    "os:district_code": "E08000034",
    "os:positional_quality_indicator": "1",
    "os:region_code": "E12000003",
    "src:geom": "os",
    "wof:belongsto": [
      85633159,
      102191581,
      136253055,
      1864207619,
      1360698917,
      101750573,
      1880762059,
      404227469,
      1880773017
    ],
    "wof:breaches": [],
    "wof:concordances": {
      "gp:id": "27347756"
    },
    "wof:country": "GB",
    "wof:created": 1583701708,
    "wof:geomhash": "a3b84d56a2bdebfbb256fcc2c3e4691b",
    "wof:hierarchy": [
      {
        "continent_id": 102191581,
        "country_id": 85633159,
        "county_id": 1360698917,
        "empire_id": 136253055,
        "locality_id": 101750573,
        "macrocounty_id": 1880762059,
        "macroregion_id": 404227469,
        "postalcode_id": 454747471,
        "region_id": 1880773017
      },
      {
        "continent_id": 102191581,
        "country_id": 85633159,
        "empire_id": 136253055,
        "postalcode_id": 454747471,
        "postalregion_id": 1864207619
      }
    ],
    "wof:id": 454747471,
    "wof:lastmodified": 1763548397,
    "wof:name": "HD5 9UG",
    "wof:parent_id": 101750573,
    "wof:placetype": "postalcode",
    "wof:repo": "whosonfirst-data-postalcode-gb",
    "wof:superseded_by": [],
    "wof:supersedes": [],
    "wof:tags": []
  },
  "bbox": [
    -1.74387,
    53.649631,
    -1.74387,
    53.649631
  ],
  "geometry": {"coordinates":[-1.74387,53.649631],"type":"Point"}
}
