{
  "id": 454741743,
  "type": "Feature",
  "properties": {
    "date:inception_lower": "1980-01-01",
    "date:inception_upper": "1980-01-01",
    "edtf:cessation": "",
    "edtf:inception": "1980-01-01",
    "geom:area": 0,
    "geom:bbox": "-1.758749,53.669490,-1.758749,53.669490",
    "geom:latitude": 53.66949,
    "geom:longitude": -1.758749,
    "gp:parent_id": "24083",
    "iso:country": "GB",
    "mz:hierarchy_label": 1,
    "mz:is_current": 1,
    "os:country_code": "E92000001",
    "os:county_code": "E99999999",
    "os:district_code": "E08000034",
    "os:positional_quality_indicator": "1",
    "os:region_code": "E12000003",
    "src:geom": "os",
    "wof:belongsto": [
      85633159,
      102191581,
      136253055,
      1864207613,
      1360698917,
      101750573,
      1880762059,
      404227469,
      1880773017
    ],
    "wof:breaches": [],
    "wof:concordances": {
      "gp:id": "27345886"
    },
    "wof:country": "GB",
    "wof:created": 1583701707,
    "wof:geomhash": "176c1231beb83664c20976fb5356ca40",
    "wof:hierarchy": [
      {
        "continent_id": 102191581,
        "country_id": 85633159,
        "county_id": 1360698917,
        "empire_id": 136253055,
        "locality_id": 101750573,
        "macrocounty_id": 1880762059,
        "macroregion_id": 404227469,
        "postalcode_id": 454741743,
        "region_id": 1880773017
      },
      {
        "continent_id": 102191581,
        "country_id": 85633159,
        "empire_id": 136253055,
        "postalcode_id": 454741743,
        "postalregion_id": 1864207613
      }
    ],
    "wof:id": 454741743,
    "wof:lastmodified": 1763548430,
    "wof:name": "HD2 1HY",
    "wof:parent_id": 101750573,
    "wof:placetype": "postalcode",
    "wof:repo": "whosonfirst-data-postalcode-gb",
    "wof:superseded_by": [],
    "wof:supersedes": [],
    "wof:tags": []
  },
  "bbox": [
    -1.758749,
    53.66949,
    -1.758749,
    53.66949
  ],
  "geometry": {"coordinates":[-1.758749,53.66949],"type":"Point"}
}
