{
  "id": 471040377,
  "type": "Feature",
  "properties": {
    "date:cessation_lower": "2019-10-01",
    "date:cessation_upper": "2019-10-01",
    "date:inception_lower": "1980-01-01",
    "date:inception_upper": "1980-01-01",
    "edtf:cessation": "2019-10-01",
    "edtf:inception": "1980-01-01",
    "geom:area": 0,
    "geom:bbox": "-1.603024,54.981976,-1.603024,54.981976",
    "geom:latitude": 54.981976,
    "geom:longitude": -1.603024,
    "iso:country": "GB",
    "mz:hierarchy_label": 1,
    "mz:is_current": 0,
    "os:country_code": "E92000001",
    "os:county_code": "E99999999",
    "os:district_code": "E08000021",
    "os:positional_quality_indicator": "1",
    "os:region_code": "E12000001",
    "src:geom": "os",
    "wof:belongsto": [
      85633159,
      102191581,
      136253055,
      1864209025,
      1360698961,
      101750617,
      1880762063,
      404227469,
      1880773053
    ],
    "wof:breaches": [],
    "wof:concordances": {
      "gp:id": "26369816"
    },
    "wof:country": "GB",
    "wof:created": 1583701153,
    "wof:geomhash": "ee3ba3f64a2f7fb7d174c1ca6c16edf6",
    "wof:hierarchy": [
      {
        "continent_id": 102191581,
        "country_id": 85633159,
        "county_id": 1360698961,
        "empire_id": 136253055,
        "locality_id": 101750617,
        "macrocounty_id": 1880762063,
        "macroregion_id": 404227469,
        "postalcode_id": 471040377,
        "region_id": 1880773053
      },
      {
        "continent_id": 102191581,
        "country_id": 85633159,
        "empire_id": 136253055,
        "postalcode_id": 471040377,
        "postalregion_id": 1864209025
      }
    ],
    "wof:id": 471040377,
    "wof:lastmodified": 1763548064,
    "wof:name": "NE2 1SN",
    "wof:parent_id": 101750617,
    "wof:placetype": "postalcode",
    "wof:repo": "whosonfirst-data-postalcode-gb",
    "wof:superseded_by": [],
    "wof:supersedes": [],
    "wof:tags": []
  },
  "bbox": [
    -1.603024,
    54.981976,
    -1.603024,
    54.981976
  ],
  "geometry": {"coordinates":[-1.603024,54.981976],"type":"Point"}
}
