{
  "id": 488208003,
  "type": "Feature",
  "properties": {
    "date:inception_lower": "1980-01-01",
    "date:inception_upper": "1980-01-01",
    "edtf:cessation": "",
    "edtf:inception": "1980-01-01",
    "geom:area": 0,
    "geom:bbox": "-2.077395,52.611789,-2.077395,52.611789",
    "geom:latitude": 52.611789,
    "geom:longitude": -2.077395,
    "gp:parent_id": "40859",
    "iso:country": "GB",
    "mz:hierarchy_label": 1,
    "mz:is_current": 1,
    "os:country_code": "E92000001",
    "os:county_code": "E99999999",
    "os:district_code": "E08000031",
    "os:positional_quality_indicator": "1",
    "os:region_code": "E12000005",
    "src:geom": "os",
    "wof:belongsto": [
      85633159,
      102191581,
      136253055,
      1864211677,
      1360698737,
      1126027181,
      1880762069,
      404227469,
      1880773161
    ],
    "wof:breaches": [],
    "wof:concordances": {
      "gp:id": "28181961"
    },
    "wof:country": "GB",
    "wof:created": 1583701114,
    "wof:geomhash": "42a6ead0f2cc34212367641da6022e88",
    "wof:hierarchy": [
      {
        "continent_id": 102191581,
        "country_id": 85633159,
        "county_id": 1360698737,
        "empire_id": 136253055,
        "locality_id": 1126027181,
        "macrocounty_id": 1880762069,
        "macroregion_id": 404227469,
        "postalcode_id": 488208003,
        "region_id": 1880773161
      },
      {
        "continent_id": 102191581,
        "country_id": 85633159,
        "empire_id": 136253055,
        "postalcode_id": 488208003,
        "postalregion_id": 1864211677
      }
    ],
    "wof:id": 488208003,
    "wof:lastmodified": 1763548585,
    "wof:name": "WV11 3TR",
    "wof:parent_id": 1126027181,
    "wof:placetype": "postalcode",
    "wof:repo": "whosonfirst-data-postalcode-gb",
    "wof:superseded_by": [],
    "wof:supersedes": [],
    "wof:tags": []
  },
  "bbox": [
    -2.077395,
    52.611789,
    -2.077395,
    52.611789
  ],
  "geometry": {"coordinates":[-2.077395,52.611789],"type":"Point"}
}
