{
  "id": 454590393,
  "type": "Feature",
  "properties": {
    "date:inception_lower": "1980-01-01",
    "date:inception_upper": "1980-01-01",
    "edtf:cessation": "",
    "edtf:inception": "1980-01-01",
    "geom:area": 0,
    "geom:bbox": "-3.861040,51.127622,-3.861040,51.127622",
    "geom:latitude": 51.127622,
    "geom:longitude": -3.86104,
    "gp:parent_id": "13722",
    "iso:country": "GB",
    "mz:hierarchy_label": 1,
    "mz:is_current": 1,
    "os:country_code": "E92000001",
    "os:county_code": "E10000008",
    "os:district_code": "E07000043",
    "os:positional_quality_indicator": "1",
    "os:region_code": "E12000009",
    "src:geom": "os",
    "wof:belongsto": [
      85633159,
      102191581,
      136253055,
      1864207221,
      1880771395,
      404434307,
      1225879927,
      1880762149,
      404227469,
      1880762683
    ],
    "wof:breaches": [],
    "wof:concordances": {
      "gp:id": "27261122"
    },
    "wof:country": "GB",
    "wof:created": 1583701652,
    "wof:geomhash": "d720b0b871b1c29188ae31d2ae6480bd",
    "wof:hierarchy": [
      {
        "continent_id": 102191581,
        "country_id": 85633159,
        "county_id": 1880771395,
        "empire_id": 136253055,
        "localadmin_id": 404434307,
        "locality_id": 1225879927,
        "macrocounty_id": 1880762149,
        "macroregion_id": 404227469,
        "postalcode_id": 454590393,
        "region_id": 1880762683
      },
      {
        "continent_id": 102191581,
        "country_id": 85633159,
        "empire_id": 136253055,
        "postalcode_id": 454590393,
        "postalregion_id": 1864207221
      }
    ],
    "wof:id": 454590393,
    "wof:lastmodified": 1763548445,
    "wof:name": "EX32 7QR",
    "wof:parent_id": 1225879927,
    "wof:placetype": "postalcode",
    "wof:repo": "whosonfirst-data-postalcode-gb",
    "wof:superseded_by": [],
    "wof:supersedes": [],
    "wof:tags": []
  },
  "bbox": [
    -3.86104,
    51.127622,
    -3.86104,
    51.127622
  ],
  "geometry": {"coordinates":[-3.86104,51.127622],"type":"Point"}
}
