{
  "id": 454388387,
  "type": "Feature",
  "properties": {
    "date:inception_lower": "1980-01-01",
    "date:inception_upper": "1980-01-01",
    "edtf:cessation": "",
    "edtf:inception": "1980-01-01",
    "geom:area": 0,
    "geom:bbox": "-1.805585,54.507765,-1.805585,54.507765",
    "geom:latitude": 54.507765,
    "geom:longitude": -1.805585,
    "gp:parent_id": "24242",
    "iso:country": "GB",
    "mz:hierarchy_label": 1,
    "mz:is_current": 1,
    "os:country_code": "E92000001",
    "os:county_code": "E99999999",
    "os:district_code": "E06000047",
    "os:positional_quality_indicator": "1",
    "os:region_code": "E12000001",
    "src:geom": "os",
    "wof:belongsto": [
      85633159,
      102191581,
      136253055,
      1864206757,
      1360699055,
      404449733,
      1343691073,
      1880762117
    ],
    "wof:breaches": [],
    "wof:concordances": {
      "gp:id": "27168887"
    },
    "wof:country": "GB",
    "wof:created": 1583701535,
    "wof:geomhash": "b4e2dd46f61f133d012c64df3977d55b",
    "wof:hierarchy": [
      {
        "continent_id": -1,
        "country_id": -1,
        "county_id": 1360699055,
        "localadmin_id": 404449733,
        "locality_id": 1343691073,
        "macrocounty_id": 1880762117,
        "postalcode_id": 454388387,
        "region_id": -1
      },
      {
        "continent_id": 102191581,
        "country_id": 85633159,
        "empire_id": 136253055,
        "postalcode_id": 454388387,
        "postalregion_id": 1864206757
      }
    ],
    "wof:id": 454388387,
    "wof:lastmodified": 1763548576,
    "wof:name": "DL11 7HH",
    "wof:parent_id": 1343691073,
    "wof:placetype": "postalcode",
    "wof:repo": "whosonfirst-data-postalcode-gb",
    "wof:superseded_by": [],
    "wof:supersedes": [],
    "wof:tags": []
  },
  "bbox": [
    -1.805585,
    54.507765,
    -1.805585,
    54.507765
  ],
  "geometry": {"coordinates":[-1.805585,54.507765],"type":"Point"}
}
