{
  "id": 487660003,
  "type": "Feature",
  "properties": {
    "date:inception_lower": "1980-01-01",
    "date:inception_upper": "1980-01-01",
    "edtf:cessation": "",
    "edtf:inception": "1980-01-01",
    "geom:area": 0,
    "geom:bbox": "-1.359993,54.810378,-1.359993,54.810378",
    "geom:latitude": 54.810378,
    "geom:longitude": -1.359993,
    "gp:parent_id": "16559",
    "iso:country": "GB",
    "mz:hierarchy_label": 1,
    "mz:is_current": 1,
    "os:country_code": "E92000001",
    "os:county_code": "E99999999",
    "os:district_code": "E06000047",
    "os:positional_quality_indicator": "1",
    "os:region_code": "E12000001",
    "src:geom": "os",
    "wof:belongsto": [
      85633159,
      102191581,
      136253055,
      1864210735,
      1360699055,
      404434169,
      1310530665,
      1880762117,
      404227469,
      1880773141
    ],
    "wof:breaches": [],
    "wof:concordances": {
      "gp:id": "27974812"
    },
    "wof:country": "GB",
    "wof:created": 1583701108,
    "wof:geomhash": "d603e9df2e96573083ff30e52ffd1127",
    "wof:hierarchy": [
      {
        "continent_id": 102191581,
        "country_id": 85633159,
        "county_id": 1360699055,
        "empire_id": 136253055,
        "localadmin_id": 404434169,
        "locality_id": 1310530665,
        "macrocounty_id": 1880762117,
        "macroregion_id": 404227469,
        "postalcode_id": 487660003,
        "region_id": 1880773141
      },
      {
        "continent_id": 102191581,
        "country_id": 85633159,
        "empire_id": 136253055,
        "postalcode_id": 487660003,
        "postalregion_id": 1864210735
      }
    ],
    "wof:id": 487660003,
    "wof:lastmodified": 1763548654,
    "wof:name": "SR7 8RW",
    "wof:parent_id": 1310530665,
    "wof:placetype": "postalcode",
    "wof:repo": "whosonfirst-data-postalcode-gb",
    "wof:superseded_by": [],
    "wof:supersedes": [],
    "wof:tags": []
  },
  "bbox": [
    -1.359993,
    54.810378,
    -1.359993,
    54.810378
  ],
  "geometry": {"coordinates":[-1.359993,54.810378],"type":"Point"}
}
