{
  "id": 454864657,
  "type": "Feature",
  "properties": {
    "date:inception_lower": "1980-01-01",
    "date:inception_upper": "1980-01-01",
    "edtf:cessation": "",
    "edtf:inception": "1980-01-01",
    "geom:area": 0,
    "geom:bbox": "1.271140,52.104690,1.271140,52.104690",
    "geom:latitude": 52.10469,
    "geom:longitude": 1.27114,
    "gp:parent_id": "22603",
    "iso:country": "GB",
    "mz:hierarchy_label": 1,
    "mz:is_current": 1,
    "os:country_code": "E92000001",
    "os:county_code": "E10000029",
    "os:district_code": "E07000244",
    "os:positional_quality_indicator": "1",
    "os:region_code": "E12000006",
    "src:geom": "os",
    "wof:belongsto": [
      85633159,
      102191581,
      136253055,
      1864207831,
      1880771635,
      404435071,
      1126048701,
      1880762001
    ],
    "wof:breaches": [],
    "wof:concordances": {
      "gp:id": "27392763"
    },
    "wof:country": "GB",
    "wof:created": 1583701744,
    "wof:geomhash": "62a2c0fc6ba78b451dab1975b03c6a2e",
    "wof:hierarchy": [
      {
        "continent_id": -1,
        "country_id": -1,
        "county_id": 1880771635,
        "localadmin_id": 404435071,
        "locality_id": 1126048701,
        "macrocounty_id": 1880762001,
        "postalcode_id": 454864657,
        "region_id": -1
      },
      {
        "continent_id": 102191581,
        "country_id": 85633159,
        "empire_id": 136253055,
        "postalcode_id": 454864657,
        "postalregion_id": 1864207831
      }
    ],
    "wof:id": 454864657,
    "wof:lastmodified": 1763548528,
    "wof:name": "IP13 6HQ",
    "wof:parent_id": 1126048701,
    "wof:placetype": "postalcode",
    "wof:repo": "whosonfirst-data-postalcode-gb",
    "wof:superseded_by": [],
    "wof:supersedes": [],
    "wof:tags": []
  },
  "bbox": [
    1.27114,
    52.10469,
    1.27114,
    52.10469
  ],
  "geometry": {"coordinates":[1.27114,52.10469],"type":"Point"}
}
