{
  "id": 1161138732,
  "type": "Feature",
  "properties": {
    "date:cessation_lower": "1995-07-01",
    "date:cessation_upper": "1995-07-01",
    "date:inception_lower": "1991-01-01",
    "date:inception_upper": "1991-01-01",
    "edtf:cessation": "1995-07-01",
    "edtf:inception": "1991-01-01",
    "geom:area": 0,
    "geom:bbox": "-3.237496,51.666611,-3.237496,51.666611",
    "geom:latitude": 51.666611,
    "geom:longitude": -3.237496,
    "iso:country": "GB",
    "mz:hierarchy_label": 1,
    "mz:is_current": 0,
    "os:country_code": "W92000004",
    "os:county_code": "W99999999",
    "os:district_code": "W06000018",
    "os:positional_quality_indicator": "1",
    "os:region_code": "W99999999",
    "src:geom": "os",
    "wof:belongsto": [
      102191581,
      85633159,
      1360698925,
      136253055,
      404440235,
      101852783,
      1880762173,
      404227475,
      1880773189
    ],
    "wof:breaches": [],
    "wof:country": "GB",
    "wof:created": 1583805676,
    "wof:geomhash": "6c60b3131f477d034776f4591a4f4943",
    "wof:hierarchy": [
      {
        "continent_id": 102191581,
        "country_id": 85633159,
        "county_id": 1360698925,
        "empire_id": 136253055,
        "localadmin_id": 404440235,
        "locality_id": 101852783,
        "macrocounty_id": 1880762173,
        "macroregion_id": 404227475,
        "postalcode_id": 1161138732,
        "region_id": 1880773189
      }
    ],
    "wof:id": 1161138732,
    "wof:lastmodified": 1763548349,
    "wof:name": "CF8 7TQ",
    "wof:parent_id": 101852783,
    "wof:placetype": "postalcode",
    "wof:repo": "whosonfirst-data-postalcode-gb",
    "wof:superseded_by": [],
    "wof:supersedes": [],
    "wof:tags": []
  },
  "bbox": [
    -3.237496,
    51.666611,
    -3.237496,
    51.666611
  ],
  "geometry": {"coordinates":[-3.237496,51.666611],"type":"Point"}
}
