{
  "id": 471055309,
  "type": "Feature",
  "properties": {
    "date:inception_lower": "2002-12-01",
    "date:inception_upper": "2002-12-01",
    "edtf:cessation": "",
    "edtf:inception": "2002-12-01",
    "geom:area": 0,
    "geom:bbox": "-1.485931,55.004840,-1.485931,55.004840",
    "geom:latitude": 55.00484,
    "geom:longitude": -1.485931,
    "gp:parent_id": "40541",
    "iso:country": "GB",
    "mz:hierarchy_label": 1,
    "mz:is_current": 1,
    "os:country_code": "E92000001",
    "os:county_code": "E99999999",
    "os:district_code": "E08000022",
    "os:positional_quality_indicator": "1",
    "os:region_code": "E12000001",
    "src:geom": "os",
    "wof:belongsto": [
      85633159,
      102191581,
      136253055,
      1864209047,
      1360699037,
      1360817045,
      1126021593,
      1880762063,
      404227469,
      1880773053
    ],
    "wof:breaches": [],
    "wof:concordances": {
      "gp:id": "27611409"
    },
    "wof:country": "GB",
    "wof:created": 1583701187,
    "wof:geomhash": "4b0e4ccd7c1e9608bbdfeac1cb845eed",
    "wof:hierarchy": [
      {
        "continent_id": 102191581,
        "country_id": 85633159,
        "county_id": 1360699037,
        "empire_id": 136253055,
        "localadmin_id": 1360817045,
        "locality_id": 1126021593,
        "macrocounty_id": 1880762063,
        "macroregion_id": 404227469,
        "postalcode_id": 471055309,
        "region_id": 1880773053
      },
      {
        "continent_id": 102191581,
        "country_id": 85633159,
        "empire_id": 136253055,
        "postalcode_id": 471055309,
        "postalregion_id": 1864209047
      }
    ],
    "wof:id": 471055309,
    "wof:lastmodified": 1763548113,
    "wof:name": "NE29 7SJ",
    "wof:parent_id": 1126021593,
    "wof:placetype": "postalcode",
    "wof:repo": "whosonfirst-data-postalcode-gb",
    "wof:superseded_by": [],
    "wof:supersedes": [],
    "wof:tags": []
  },
  "bbox": [
    -1.485931,
    55.00484,
    -1.485931,
    55.00484
  ],
  "geometry": {"coordinates":[-1.485931,55.00484],"type":"Point"}
}
