{
  "id": 454627751,
  "type": "Feature",
  "properties": {
    "date:inception_lower": "1980-01-01",
    "date:inception_upper": "1980-01-01",
    "edtf:cessation": "",
    "edtf:inception": "1980-01-01",
    "geom:area": 0,
    "geom:bbox": "-2.287407,51.791925,-2.287407,51.791925",
    "geom:latitude": 51.791925,
    "geom:longitude": -2.287407,
    "gp:parent_id": "22434",
    "iso:country": "GB",
    "mz:hierarchy_label": 1,
    "mz:is_current": 1,
    "os:country_code": "E92000001",
    "os:county_code": "E10000013",
    "os:district_code": "E07000082",
    "os:positional_quality_indicator": "1",
    "os:region_code": "E12000009",
    "src:geom": "os",
    "wof:belongsto": [
      85633159,
      102191581,
      136253055,
      1864207443,
      1880771451,
      404429169,
      1125863707,
      1880762161,
      404227469,
      1880762693
    ],
    "wof:breaches": [],
    "wof:concordances": {
      "gp:id": "27305573"
    },
    "wof:country": "GB",
    "wof:created": 1583701665,
    "wof:geomhash": "a3fd72a76dad6f4c99efe8ac1c2c5fce",
    "wof:hierarchy": [
      {
        "continent_id": 102191581,
        "country_id": 85633159,
        "county_id": 1880771451,
        "empire_id": 136253055,
        "localadmin_id": 404429169,
        "locality_id": 1125863707,
        "macrocounty_id": 1880762161,
        "macroregion_id": 404227469,
        "postalcode_id": 454627751,
        "region_id": 1880762693
      },
      {
        "continent_id": 102191581,
        "country_id": 85633159,
        "empire_id": 136253055,
        "postalcode_id": 454627751,
        "postalregion_id": 1864207443
      }
    ],
    "wof:id": 454627751,
    "wof:lastmodified": 1763548300,
    "wof:name": "GL10 3DP",
    "wof:parent_id": 1125863707,
    "wof:placetype": "postalcode",
    "wof:repo": "whosonfirst-data-postalcode-gb",
    "wof:superseded_by": [],
    "wof:supersedes": [],
    "wof:tags": []
  },
  "bbox": [
    -2.287407,
    51.791925,
    -2.287407,
    51.791925
  ],
  "geometry": {"coordinates":[-2.287407,51.791925],"type":"Point"}
}
