{
  "id": 438283249,
  "type": "Feature",
  "properties": {
    "date:cessation_lower": "2017-07-01",
    "date:cessation_upper": "2017-07-01",
    "date:inception_lower": "1980-01-01",
    "date:inception_upper": "1980-01-01",
    "edtf:cessation": "2017-07-01",
    "edtf:inception": "1980-01-01",
    "geom:area": 0,
    "geom:bbox": "-2.960980,51.363943,-2.960980,51.363943",
    "geom:latitude": 51.363943,
    "geom:longitude": -2.96098,
    "gp:parent_id": "24887",
    "iso:country": "GB",
    "mz:hierarchy_label": 1,
    "mz:is_current": 0,
    "os:country_code": "E92000001",
    "os:county_code": "E99999999",
    "os:district_code": "E06000024",
    "os:positional_quality_indicator": "1",
    "os:region_code": "E12000009",
    "src:geom": "os",
    "wof:belongsto": [
      85633159,
      102191581,
      136253055,
      1864205989,
      1360699111,
      404435267,
      1125903779,
      1880762071,
      404227469,
      1880773145
    ],
    "wof:breaches": [],
    "wof:concordances": {
      "gp:id": "26956130"
    },
    "wof:country": "GB",
    "wof:created": 1583701471,
    "wof:geomhash": "b259d37c19213f4a6ae2bbcbd1dbe5e4",
    "wof:hierarchy": [
      {
        "continent_id": 102191581,
        "country_id": 85633159,
        "county_id": 1360699111,
        "empire_id": 136253055,
        "localadmin_id": 404435267,
        "locality_id": 1125903779,
        "macrocounty_id": 1880762071,
        "macroregion_id": 404227469,
        "postalcode_id": 438283249,
        "region_id": 1880773145
      },
      {
        "continent_id": 102191581,
        "country_id": 85633159,
        "empire_id": 136253055,
        "postalcode_id": 438283249,
        "postalregion_id": 1864205989
      }
    ],
    "wof:id": 438283249,
    "wof:lastmodified": 1763548088,
    "wof:name": "BS22 9YB",
    "wof:parent_id": 1125903779,
    "wof:placetype": "postalcode",
    "wof:repo": "whosonfirst-data-postalcode-gb",
    "wof:superseded_by": [],
    "wof:supersedes": [],
    "wof:tags": []
  },
  "bbox": [
    -2.96098,
    51.363943,
    -2.96098,
    51.363943
  ],
  "geometry": {"coordinates":[-2.96098,51.363943],"type":"Point"}
}
