{
  "id": 454246107,
  "type": "Feature",
  "properties": {
    "date:cessation_lower": "2024-06-01",
    "date:cessation_upper": "2024-06-01",
    "date:inception_lower": "1980-01-01",
    "date:inception_upper": "1980-01-01",
    "edtf:cessation": "2024-06-01",
    "edtf:inception": "1980-01-01",
    "geom:area": 0,
    "geom:bbox": "-1.513414,52.405521,-1.513414,52.405521",
    "geom:latitude": 52.405521,
    "geom:longitude": -1.513414,
    "gp:parent_id": "17044",
    "iso:country": "GB",
    "mz:hierarchy_label": 1,
    "mz:is_current": 0,
    "os:country_code": "E92000001",
    "os:county_code": "E99999999",
    "os:district_code": "E08000026",
    "os:positional_quality_indicator": "1",
    "os:region_code": "E12000005",
    "src:geom": "os",
    "wof:belongsto": [
      85633159,
      102191581,
      136253055,
      1864206489,
      1360699115,
      101750449,
      1880762069,
      404227469,
      1880773161
    ],
    "wof:breaches": [],
    "wof:concordances": {
      "gp:id": "27105521"
    },
    "wof:country": "GB",
    "wof:created": 1583701411,
    "wof:geomhash": "9f506e6bc3f5a91384e15e6d12a9db97",
    "wof:hierarchy": [
      {
        "continent_id": 102191581,
        "country_id": 85633159,
        "county_id": 1360699115,
        "empire_id": 136253055,
        "locality_id": 101750449,
        "macrocounty_id": 1880762069,
        "macroregion_id": 404227469,
        "postalcode_id": 454246107,
        "region_id": 1880773161
      },
      {
        "continent_id": 102191581,
        "country_id": 85633159,
        "empire_id": 136253055,
        "postalcode_id": 454246107,
        "postalregion_id": 1864206489
      }
    ],
    "wof:id": 454246107,
    "wof:lastmodified": 1763548474,
    "wof:name": "CV1 1EE",
    "wof:parent_id": 101750449,
    "wof:placetype": "postalcode",
    "wof:repo": "whosonfirst-data-postalcode-gb",
    "wof:superseded_by": [],
    "wof:supersedes": [],
    "wof:tags": []
  },
  "bbox": [
    -1.513414,
    52.405521,
    -1.513414,
    52.405521
  ],
  "geometry": {"coordinates":[-1.513414,52.405521],"type":"Point"}
}
