{
  "id": 470819517,
  "type": "Feature",
  "properties": {
    "date:inception_lower": "2003-10-01",
    "date:inception_upper": "2003-10-01",
    "edtf:cessation": "",
    "edtf:inception": "2003-10-01",
    "geom:area": 0,
    "geom:bbox": "-1.558612,53.807122,-1.558612,53.807122",
    "geom:latitude": 53.807122,
    "geom:longitude": -1.558612,
    "gp:parent_id": "26042",
    "iso:country": "GB",
    "mz:hierarchy_label": 1,
    "mz:is_current": 1,
    "os:country_code": "E92000001",
    "os:county_code": "E99999999",
    "os:district_code": "E08000035",
    "os:positional_quality_indicator": "1",
    "os:region_code": "E12000003",
    "src:geom": "os",
    "wof:belongsto": [
      85633159,
      102191581,
      136253055,
      1864208651,
      1360698749,
      101750579,
      1880762059,
      404227469,
      1880773017
    ],
    "wof:breaches": [],
    "wof:concordances": {
      "gp:id": "27518756"
    },
    "wof:country": "GB",
    "wof:created": 1583701131,
    "wof:geomhash": "1145f9ea489a3007c1463537bda929f9",
    "wof:hierarchy": [
      {
        "continent_id": 102191581,
        "country_id": 85633159,
        "county_id": 1360698749,
        "empire_id": 136253055,
        "locality_id": 101750579,
        "macrocounty_id": 1880762059,
        "macroregion_id": 404227469,
        "postalcode_id": 470819517,
        "region_id": 1880773017
      },
      {
        "continent_id": 102191581,
        "country_id": 85633159,
        "empire_id": 136253055,
        "postalcode_id": 470819517,
        "postalregion_id": 1864208651
      }
    ],
    "wof:id": 470819517,
    "wof:lastmodified": 1763547951,
    "wof:name": "LS2 9JX",
    "wof:parent_id": 101750579,
    "wof:placetype": "postalcode",
    "wof:repo": "whosonfirst-data-postalcode-gb",
    "wof:superseded_by": [],
    "wof:supersedes": [],
    "wof:tags": []
  },
  "bbox": [
    -1.558612,
    53.807122,
    -1.558612,
    53.807122
  ],
  "geometry": {"coordinates":[-1.558612,53.807122],"type":"Point"}
}
