{
  "id": 437489363,
  "type": "Feature",
  "properties": {
    "date:cessation_lower": "2008-07-01",
    "date:cessation_upper": "2008-07-01",
    "date:inception_lower": "2001-12-01",
    "date:inception_upper": "2001-12-01",
    "edtf:cessation": "2008-07-01",
    "edtf:inception": "2001-12-01",
    "geom:area": 0,
    "geom:bbox": "-1.516715,51.791914,-1.516715,51.791914",
    "geom:latitude": 51.791914,
    "geom:longitude": -1.516715,
    "iso:country": "GB",
    "mz:hierarchy_label": 1,
    "mz:is_current": 0,
    "os:country_code": "E92000001",
    "os:county_code": "E10000025",
    "os:district_code": "E07000181",
    "os:positional_quality_indicator": "1",
    "os:region_code": "E12000008",
    "src:geom": "os",
    "wof:belongsto": [
      85633159,
      102191581,
      136253055,
      1864209479,
      1880771615,
      404450543,
      101852913,
      1880762079,
      404227469,
      1880762695
    ],
    "wof:breaches": [],
    "wof:concordances": {
      "gp:id": "27725016"
    },
    "wof:country": "GB",
    "wof:created": 1583701291,
    "wof:geomhash": "48d1364268f105d56c5d249c66767cfe",
    "wof:hierarchy": [
      {
        "continent_id": 102191581,
        "country_id": 85633159,
        "county_id": 1880771615,
        "empire_id": 136253055,
        "localadmin_id": 404450543,
        "locality_id": 101852913,
        "macrocounty_id": 1880762079,
        "macroregion_id": 404227469,
        "postalcode_id": 437489363,
        "region_id": 1880762695
      },
      {
        "continent_id": 102191581,
        "country_id": 85633159,
        "empire_id": 136253055,
        "postalcode_id": 437489363,
        "postalregion_id": 1864209479
      }
    ],
    "wof:id": 437489363,
    "wof:lastmodified": 1763548221,
    "wof:name": "OX29 7DU",
    "wof:parent_id": 101852913,
    "wof:placetype": "postalcode",
    "wof:repo": "whosonfirst-data-postalcode-gb",
    "wof:superseded_by": [],
    "wof:supersedes": [],
    "wof:tags": []
  },
  "bbox": [
    -1.516715,
    51.791914,
    -1.516715,
    51.791914
  ],
  "geometry": {"coordinates":[-1.516715,51.791914],"type":"Point"}
}
