{
  "id": 1712814789,
  "type": "Feature",
  "properties": {
    "date:cessation_lower": "2001-01-01",
    "date:cessation_upper": "2001-01-01",
    "date:inception_lower": "1980-01-01",
    "date:inception_upper": "1980-01-01",
    "edtf:cessation": "2001-01-01",
    "edtf:inception": "1980-01-01",
    "geom:area": 0,
    "geom:bbox": "-4.409164,53.287880,-4.409164,53.287880",
    "geom:latitude": 53.28788,
    "geom:longitude": -4.409164,
    "iso:country": "GB",
    "mz:hierarchy_label": 1,
    "mz:is_current": 0,
    "os:country_code": "W92000004",
    "os:county_code": "W99999999",
    "os:district_code": "W06000001",
    "os:positional_quality_indicator": "1",
    "os:region_code": "W99999999",
    "src:geom": "os",
    "wof:belongsto": [
      85633159,
      102191581,
      136253055,
      1864208579,
      1360698787,
      404440319,
      1360711571,
      1880762187,
      404227475,
      1880773051
    ],
    "wof:breaches": [],
    "wof:country": "GB",
    "wof:created": 1583804800,
    "wof:geomhash": "d28dace6f0a6ddb44dbe10f0e2751267",
    "wof:hierarchy": [
      {
        "continent_id": 102191581,
        "country_id": 85633159,
        "county_id": 1360698787,
        "empire_id": 136253055,
        "localadmin_id": 404440319,
        "locality_id": 1360711571,
        "macrocounty_id": 1880762187,
        "macroregion_id": 404227475,
        "postalcode_id": 1712814789,
        "region_id": 1880773051
      },
      {
        "continent_id": 102191581,
        "country_id": 85633159,
        "empire_id": 136253055,
        "postalcode_id": 1712814789,
        "postalregion_id": 1864208579
      }
    ],
    "wof:id": 1712814789,
    "wof:lastmodified": 1763548679,
    "wof:name": "LL71 7AS",
    "wof:parent_id": 1360711571,
    "wof:placetype": "postalcode",
    "wof:repo": "whosonfirst-data-postalcode-gb",
    "wof:superseded_by": [],
    "wof:supersedes": [],
    "wof:tags": []
  },
  "bbox": [
    -4.409164,
    53.28788,
    -4.409164,
    53.28788
  ],
  "geometry": {"coordinates":[-4.409164,53.28788],"type":"Point"}
}
