{
  "id": 890273121,
  "type": "Feature",
  "properties": {
    "date:inception_lower": "2011-03-01",
    "date:inception_upper": "2011-03-01",
    "edtf:cessation": "",
    "edtf:inception": "2011-03-01",
    "geom:area": 0,
    "geom:bbox": "0.229073,51.133711,0.229073,51.133711",
    "geom:latitude": 51.133711,
    "geom:longitude": 0.229073,
    "iso:country": "GB",
    "mz:hierarchy_label": 1,
    "mz:is_current": 1,
    "os:country_code": "E92000001",
    "os:county_code": "E10000016",
    "os:district_code": "E07000116",
    "os:positional_quality_indicator": "1",
    "os:region_code": "E12000008",
    "src:geom": "os",
    "wof:belongsto": [
      85633159,
      102191581,
      136253055,
      1864211141,
      1880771413,
      404450849,
      1126059953,
      1880762145,
      404227469,
      1880762703
    ],
    "wof:breaches": [],
    "wof:country": "GB",
    "wof:created": 1468902680,
    "wof:geomhash": "6872b993fd8762cc2dcd3c95f70badcf",
    "wof:hierarchy": [
      {
        "continent_id": 102191581,
        "country_id": 85633159,
        "county_id": 1880771413,
        "empire_id": 136253055,
        "localadmin_id": 404450849,
        "locality_id": 1126059953,
        "macrocounty_id": 1880762145,
        "macroregion_id": 404227469,
        "postalcode_id": 890273121,
        "region_id": 1880762703
      },
      {
        "continent_id": 102191581,
        "country_id": 85633159,
        "empire_id": 136253055,
        "postalcode_id": 890273121,
        "postalregion_id": 1864211141
      }
    ],
    "wof:id": 890273121,
    "wof:lastmodified": 1763548607,
    "wof:name": "TN4 8AJ",
    "wof:parent_id": 1126059953,
    "wof:placetype": "postalcode",
    "wof:repo": "whosonfirst-data-postalcode-gb",
    "wof:superseded_by": [],
    "wof:supersedes": [],
    "wof:tags": []
  },
  "bbox": [
    0.229073,
    51.133711,
    0.229073,
    51.133711
  ],
  "geometry": {"coordinates":[0.229073,51.133711],"type":"Point"}
}
