{
  "id": 454878289,
  "type": "Feature",
  "properties": {
    "date:inception_lower": "1980-01-01",
    "date:inception_upper": "1980-01-01",
    "edtf:cessation": "",
    "edtf:inception": "1980-01-01",
    "geom:area": 0,
    "geom:bbox": "0.930270,52.373076,0.930270,52.373076",
    "geom:latitude": 52.373076,
    "geom:longitude": 0.93027,
    "gp:parent_id": "23867",
    "iso:country": "GB",
    "mz:hierarchy_label": 1,
    "mz:is_current": 1,
    "os:country_code": "E92000001",
    "os:county_code": "E10000029",
    "os:district_code": "E07000245",
    "os:positional_quality_indicator": "1",
    "os:region_code": "E12000006",
    "src:geom": "os",
    "wof:belongsto": [
      85633159,
      102191581,
      136253055,
      1864207853,
      1880771639,
      404443281,
      1125996617,
      1880762001,
      404227469,
      1880762685
    ],
    "wof:breaches": [],
    "wof:concordances": {
      "gp:id": "27398311"
    },
    "wof:country": "GB",
    "wof:created": 1583701745,
    "wof:geomhash": "130a54c9d6e0c72c50c3be1b414e0e3c",
    "wof:hierarchy": [
      {
        "continent_id": 102191581,
        "country_id": 85633159,
        "county_id": 1880771639,
        "empire_id": 136253055,
        "localadmin_id": 404443281,
        "locality_id": 1125996617,
        "macrocounty_id": 1880762001,
        "macroregion_id": 404227469,
        "postalcode_id": 454878289,
        "region_id": 1880762685
      },
      {
        "continent_id": 102191581,
        "country_id": 85633159,
        "empire_id": 136253055,
        "postalcode_id": 454878289,
        "postalregion_id": 1864207853
      }
    ],
    "wof:id": 454878289,
    "wof:lastmodified": 1763548487,
    "wof:name": "IP22 2QL",
    "wof:parent_id": 1125996617,
    "wof:placetype": "postalcode",
    "wof:repo": "whosonfirst-data-postalcode-gb",
    "wof:superseded_by": [],
    "wof:supersedes": [],
    "wof:tags": []
  },
  "bbox": [
    0.93027,
    52.373076,
    0.93027,
    52.373076
  ],
  "geometry": {"coordinates":[0.93027,52.373076],"type":"Point"}
}
