{
  "id": 1712560119,
  "type": "Feature",
  "properties": {
    "date:cessation_lower": "1994-05-01",
    "date:cessation_upper": "1994-05-01",
    "date:inception_lower": "1980-01-01",
    "date:inception_upper": "1980-01-01",
    "edtf:cessation": "1994-05-01",
    "edtf:inception": "1980-01-01",
    "geom:area": 0,
    "geom:bbox": "-0.587740,53.398491,-0.587740,53.398491",
    "geom:latitude": 53.398491,
    "geom:longitude": -0.58774,
    "iso:country": "GB",
    "mz:hierarchy_label": 1,
    "mz:is_current": 0,
    "os:country_code": "E92000001",
    "os:county_code": "E10000019",
    "os:district_code": "E07000142",
    "os:positional_quality_indicator": "8",
    "os:region_code": "E12000004",
    "src:geom": "os",
    "wof:belongsto": [
      85633159,
      102191581,
      136253055,
      1864206817,
      1880771569,
      404448091,
      1125874081,
      1880762033,
      404227469,
      1880762701
    ],
    "wof:breaches": [],
    "wof:country": "GB",
    "wof:created": 1583793464,
    "wof:geomhash": "c59d0cf7a3c8f62b022916d68a744364",
    "wof:hierarchy": [
      {
        "continent_id": 102191581,
        "country_id": 85633159,
        "county_id": 1880771569,
        "empire_id": 136253055,
        "localadmin_id": 404448091,
        "locality_id": 1125874081,
        "macrocounty_id": 1880762033,
        "macroregion_id": 404227469,
        "postalcode_id": 1712560119,
        "region_id": 1880762701
      },
      {
        "continent_id": 102191581,
        "country_id": 85633159,
        "empire_id": 136253055,
        "postalcode_id": 1712560119,
        "postalregion_id": 1864206817
      }
    ],
    "wof:id": 1712560119,
    "wof:lastmodified": 1763548704,
    "wof:name": "DN21 5UB",
    "wof:parent_id": 1125874081,
    "wof:placetype": "postalcode",
    "wof:repo": "whosonfirst-data-postalcode-gb",
    "wof:superseded_by": [],
    "wof:supersedes": [],
    "wof:tags": []
  },
  "bbox": [
    -0.58774,
    53.398491,
    -0.58774,
    53.398491
  ],
  "geometry": {"coordinates":[-0.58774,53.398491],"type":"Point"}
}
