{
  "id": 454241213,
  "type": "Feature",
  "properties": {
    "date:inception_lower": "1980-01-01",
    "date:inception_upper": "1980-01-01",
    "edtf:cessation": "",
    "edtf:inception": "1980-01-01",
    "geom:area": 0,
    "geom:bbox": "1.136050,51.357721,1.136050,51.357721",
    "geom:latitude": 51.357721,
    "geom:longitude": 1.13605,
    "gp:parent_id": "23078",
    "iso:country": "GB",
    "mz:hierarchy_label": 1,
    "mz:is_current": 1,
    "os:country_code": "E92000001",
    "os:county_code": "E10000016",
    "os:district_code": "E07000106",
    "os:positional_quality_indicator": "1",
    "os:region_code": "E12000008",
    "src:geom": "os",
    "wof:belongsto": [
      85633159,
      102191581,
      136253055,
      1864206481,
      1880771515,
      404436185,
      1360758325,
      1880762057,
      404227469,
      1880762705
    ],
    "wof:breaches": [],
    "wof:concordances": {
      "gp:id": "27103945"
    },
    "wof:country": "GB",
    "wof:created": 1583701406,
    "wof:geomhash": "9eabfd9ead9cd6d2777492c39cc3ff65",
    "wof:hierarchy": [
      {
        "continent_id": 102191581,
        "country_id": 85633159,
        "county_id": 1880771515,
        "empire_id": 136253055,
        "localadmin_id": 404436185,
        "locality_id": 1360758325,
        "macrocounty_id": 1880762057,
        "macroregion_id": 404227469,
        "postalcode_id": 454241213,
        "region_id": 1880762705
      },
      {
        "continent_id": 102191581,
        "country_id": 85633159,
        "empire_id": 136253055,
        "postalcode_id": 454241213,
        "postalregion_id": 1864206481
      }
    ],
    "wof:id": 454241213,
    "wof:lastmodified": 1763548473,
    "wof:name": "CT6 7DH",
    "wof:parent_id": 1360758325,
    "wof:placetype": "postalcode",
    "wof:repo": "whosonfirst-data-postalcode-gb",
    "wof:superseded_by": [],
    "wof:supersedes": [],
    "wof:tags": []
  },
  "bbox": [
    1.13605,
    51.357721,
    1.13605,
    51.357721
  ],
  "geometry": {"coordinates":[1.13605,51.357721],"type":"Point"}
}
