{
  "id": 470909617,
  "type": "Feature",
  "properties": {
    "date:inception_lower": "1994-05-01",
    "date:inception_upper": "1994-05-01",
    "edtf:cessation": "",
    "edtf:inception": "1994-05-01",
    "geom:area": 0,
    "geom:bbox": "-2.340252,53.454823,-2.340252,53.454823",
    "geom:latitude": 53.454823,
    "geom:longitude": -2.340252,
    "gp:parent_id": "38822",
    "iso:country": "GB",
    "mz:hierarchy_label": 1,
    "mz:is_current": 1,
    "os:country_code": "E92000001",
    "os:county_code": "E99999999",
    "os:district_code": "E08000009",
    "os:positional_quality_indicator": "1",
    "os:region_code": "E12000002",
    "src:geom": "os",
    "wof:belongsto": [
      85633159,
      102191581,
      136253055,
      1864208785,
      1360698935,
      1360817437,
      1125957071,
      1880762163,
      404227469,
      1880773095
    ],
    "wof:breaches": [],
    "wof:concordances": {
      "gp:id": "27551360"
    },
    "wof:country": "GB",
    "wof:created": 1583701267,
    "wof:geomhash": "6c1c34c896d7dbc1815529f2396ab90e",
    "wof:hierarchy": [
      {
        "continent_id": 102191581,
        "country_id": 85633159,
        "county_id": 1360698935,
        "empire_id": 136253055,
        "localadmin_id": 1360817437,
        "locality_id": 1125957071,
        "macrocounty_id": 1880762163,
        "macroregion_id": 404227469,
        "postalcode_id": 470909617,
        "region_id": 1880773095
      },
      {
        "continent_id": 102191581,
        "country_id": 85633159,
        "empire_id": 136253055,
        "postalcode_id": 470909617,
        "postalregion_id": 1864208785
      }
    ],
    "wof:id": 470909617,
    "wof:lastmodified": 1763547914,
    "wof:name": "M41 0GJ",
    "wof:parent_id": 1125957071,
    "wof:placetype": "postalcode",
    "wof:repo": "whosonfirst-data-postalcode-gb",
    "wof:superseded_by": [],
    "wof:supersedes": [],
    "wof:tags": []
  },
  "bbox": [
    -2.340252,
    53.454823,
    -2.340252,
    53.454823
  ],
  "geometry": {"coordinates":[-2.340252,53.454823],"type":"Point"}
}
