{
  "id": 38872413,
  "type": "Feature",
  "properties": {
    "date:cessation_lower": "1994-12-01",
    "date:cessation_upper": "1994-12-01",
    "date:inception_lower": "1992-08-01",
    "date:inception_upper": "1992-08-01",
    "edtf:cessation": "1994-12-01",
    "edtf:inception": "1992-08-01",
    "geom:area": 0,
    "geom:bbox": "0.017202,53.372724,0.017202,53.372724",
    "geom:latitude": 53.372724,
    "geom:longitude": 0.017202,
    "iso:country": "GB",
    "mz:hierarchy_label": 1,
    "mz:is_current": 0,
    "os:country_code": "E92000001",
    "os:county_code": "E10000019",
    "os:district_code": "E07000137",
    "os:positional_quality_indicator": "8",
    "os:region_code": "E12000004",
    "src:geom": "os",
    "wof:belongsto": [
      85633159,
      102191581,
      136253055,
      1864208603,
      1880771581,
      404438399,
      101874119,
      1880762033,
      404227469,
      1880762701
    ],
    "wof:breaches": [],
    "wof:country": "GB",
    "wof:created": 1583795183,
    "wof:geomhash": "def67e034c05d7eace4ff340b0afb338",
    "wof:hierarchy": [
      {
        "continent_id": 102191581,
        "country_id": 85633159,
        "county_id": 1880771581,
        "empire_id": 136253055,
        "localadmin_id": 404438399,
        "locality_id": 101874119,
        "macrocounty_id": 1880762033,
        "macroregion_id": 404227469,
        "postalcode_id": 38872413,
        "region_id": 1880762701
      },
      {
        "continent_id": 102191581,
        "country_id": 85633159,
        "empire_id": 136253055,
        "postalcode_id": 38872413,
        "postalregion_id": 1864208603
      }
    ],
    "wof:id": 38872413,
    "wof:lastmodified": 1763548765,
    "wof:name": "LN11 7AU",
    "wof:parent_id": 101874119,
    "wof:placetype": "postalcode",
    "wof:repo": "whosonfirst-data-postalcode-gb",
    "wof:superseded_by": [],
    "wof:supersedes": [],
    "wof:tags": []
  },
  "bbox": [
    0.017202,
    53.372724,
    0.017202,
    53.372724
  ],
  "geometry": {"coordinates":[0.017202,53.372724],"type":"Point"}
}
