{
  "id": 488358121,
  "type": "Feature",
  "properties": {
    "date:inception_lower": "2009-09-01",
    "date:inception_upper": "2009-09-01",
    "edtf:cessation": "",
    "edtf:inception": "2009-09-01",
    "geom:area": 0,
    "geom:bbox": "0.020190,52.088016,0.020190,52.088016",
    "geom:latitude": 52.088016,
    "geom:longitude": 0.02019,
    "gp:parent_id": "12695886",
    "iso:country": "GB",
    "mz:hierarchy_label": 1,
    "mz:is_current": 1,
    "os:country_code": "E92000001",
    "os:county_code": "E10000003",
    "os:district_code": "E07000012",
    "os:positional_quality_indicator": "1",
    "os:region_code": "E12000006",
    "src:geom": "os",
    "wof:belongsto": [
      85633159,
      102191581,
      136253055,
      1864210511,
      1880771367,
      404436563,
      1125993111,
      1880762143,
      404227469,
      1880762687
    ],
    "wof:breaches": [],
    "wof:concordances": {
      "gp:id": "56177150"
    },
    "wof:country": "GB",
    "wof:created": 1583701369,
    "wof:geomhash": "deafe9187cf5c3d1dc7ffe28b2ca8daa",
    "wof:hierarchy": [
      {
        "continent_id": 102191581,
        "country_id": 85633159,
        "county_id": 1880771367,
        "empire_id": 136253055,
        "localadmin_id": 404436563,
        "locality_id": 1125993111,
        "macrocounty_id": 1880762143,
        "macroregion_id": 404227469,
        "postalcode_id": 488358121,
        "region_id": 1880762687
      },
      {
        "continent_id": 102191581,
        "country_id": 85633159,
        "empire_id": 136253055,
        "postalcode_id": 488358121,
        "postalregion_id": 1864210511
      }
    ],
    "wof:id": 488358121,
    "wof:lastmodified": 1763548540,
    "wof:name": "SG8 6FF",
    "wof:parent_id": 1125993111,
    "wof:placetype": "postalcode",
    "wof:repo": "whosonfirst-data-postalcode-gb",
    "wof:superseded_by": [],
    "wof:supersedes": [],
    "wof:tags": []
  },
  "bbox": [
    0.02019,
    52.088016,
    0.02019,
    52.088016
  ],
  "geometry": {"coordinates":[0.02019,52.088016],"type":"Point"}
}
