{
  "id": 454334971,
  "type": "Feature",
  "properties": {
    "date:inception_lower": "2000-06-01",
    "date:inception_upper": "2000-06-01",
    "edtf:cessation": "",
    "edtf:inception": "2000-06-01",
    "geom:area": 0,
    "geom:bbox": "-1.660124,52.799842,-1.660124,52.799842",
    "geom:latitude": 52.799842,
    "geom:longitude": -1.660124,
    "gp:parent_id": "14696",
    "iso:country": "GB",
    "mz:hierarchy_label": 1,
    "mz:is_current": 1,
    "os:country_code": "E92000001",
    "os:county_code": "E10000028",
    "os:district_code": "E07000193",
    "os:positional_quality_indicator": "1",
    "os:region_code": "E12000005",
    "src:geom": "os",
    "wof:belongsto": [
      85633159,
      102191581,
      136253055,
      1864206647,
      1880771629,
      404433037,
      1360753643,
      1880761999
    ],
    "wof:breaches": [],
    "wof:concordances": {
      "gp:id": "27142600"
    },
    "wof:country": "GB",
    "wof:created": 1583701498,
    "wof:geomhash": "27574d4ed6fe5cd295c2bcf0da93bb73",
    "wof:hierarchy": [
      {
        "continent_id": -1,
        "country_id": -1,
        "county_id": 1880771629,
        "localadmin_id": 404433037,
        "locality_id": 1360753643,
        "macrocounty_id": 1880761999,
        "postalcode_id": 454334971,
        "region_id": -1
      },
      {
        "continent_id": 102191581,
        "country_id": 85633159,
        "empire_id": 136253055,
        "postalcode_id": 454334971,
        "postalregion_id": 1864206647
      }
    ],
    "wof:id": 454334971,
    "wof:lastmodified": 1763548459,
    "wof:name": "DE14 2WP",
    "wof:parent_id": 1360753643,
    "wof:placetype": "postalcode",
    "wof:repo": "whosonfirst-data-postalcode-gb",
    "wof:superseded_by": [],
    "wof:supersedes": [],
    "wof:tags": []
  },
  "bbox": [
    -1.660124,
    52.799842,
    -1.660124,
    52.799842
  ],
  "geometry": {"coordinates":[-1.660124,52.799842],"type":"Point"}
}
