{
  "id": 438273953,
  "type": "Feature",
  "properties": {
    "date:inception_lower": "1980-01-01",
    "date:inception_upper": "1980-01-01",
    "edtf:cessation": "",
    "edtf:inception": "1980-01-01",
    "geom:area": 0,
    "geom:bbox": "-2.533120,51.473557,-2.533120,51.473557",
    "geom:latitude": 51.473557,
    "geom:longitude": -2.53312,
    "iso:country": "GB",
    "mz:hierarchy_label": 1,
    "mz:is_current": 1,
    "os:country_code": "E92000001",
    "os:county_code": "E99999999",
    "os:district_code": "E06000023",
    "os:positional_quality_indicator": "1",
    "os:region_code": "E12000009",
    "src:geom": "os",
    "wof:belongsto": [
      85633159,
      102191581,
      136253055,
      1864205981,
      1360698747,
      1175612699,
      1880762137,
      404227469,
      1880772883
    ],
    "wof:breaches": [],
    "wof:concordances": {
      "gp:id": "26952572"
    },
    "wof:country": "GB",
    "wof:created": 1583701462,
    "wof:geomhash": "e2374965f247038e7244ea9a4fb796ce",
    "wof:hierarchy": [
      {
        "continent_id": 102191581,
        "country_id": 85633159,
        "county_id": 1360698747,
        "empire_id": 136253055,
        "locality_id": 1175612699,
        "macrocounty_id": 1880762137,
        "macroregion_id": 404227469,
        "postalcode_id": 438273953,
        "region_id": 1880772883
      },
      {
        "continent_id": 102191581,
        "country_id": 85633159,
        "empire_id": 136253055,
        "postalcode_id": 438273953,
        "postalregion_id": 1864205981
      }
    ],
    "wof:id": 438273953,
    "wof:lastmodified": 1763548000,
    "wof:name": "BS16 3NT",
    "wof:parent_id": 1175612699,
    "wof:placetype": "postalcode",
    "wof:repo": "whosonfirst-data-postalcode-gb",
    "wof:superseded_by": [],
    "wof:supersedes": [],
    "wof:tags": []
  },
  "bbox": [
    -2.53312,
    51.473557,
    -2.53312,
    51.473557
  ],
  "geometry": {"coordinates":[-2.53312,51.473557],"type":"Point"}
}
