{
  "id": 488406993,
  "type": "Feature",
  "properties": {
    "date:inception_lower": "1985-10-01",
    "date:inception_upper": "1985-10-01",
    "edtf:cessation": "",
    "edtf:inception": "1985-10-01",
    "geom:area": 0,
    "geom:bbox": "-3.533466,53.300337,-3.533466,53.300337",
    "geom:latitude": 53.300337,
    "geom:longitude": -3.533466,
    "gp:parent_id": "37907",
    "iso:country": "GB",
    "mz:hierarchy_label": 1,
    "mz:is_current": 1,
    "os:country_code": "W92000004",
    "os:county_code": "W99999999",
    "os:district_code": "W06000003",
    "os:positional_quality_indicator": "1",
    "os:region_code": "W99999999",
    "src:geom": "os",
    "wof:belongsto": [
      85633159,
      102191581,
      136253055,
      1864208471,
      1360698739,
      404452183,
      1360711371,
      1880762183,
      404227475,
      1880772909
    ],
    "wof:breaches": [],
    "wof:concordances": {
      "gp:id": "27492520"
    },
    "wof:country": "GB",
    "wof:created": 1583701420,
    "wof:geomhash": "f93a4bb1f6c657ba3d1f98bea0144b9c",
    "wof:hierarchy": [
      {
        "continent_id": 102191581,
        "country_id": 85633159,
        "county_id": 1360698739,
        "empire_id": 136253055,
        "localadmin_id": 404452183,
        "locality_id": 1360711371,
        "macrocounty_id": 1880762183,
        "macroregion_id": 404227475,
        "postalcode_id": 488406993,
        "region_id": 1880772909
      },
      {
        "continent_id": 102191581,
        "country_id": 85633159,
        "empire_id": 136253055,
        "postalcode_id": 488406993,
        "postalregion_id": 1864208471
      }
    ],
    "wof:id": 488406993,
    "wof:lastmodified": 1763548468,
    "wof:name": "LL22 9NY",
    "wof:parent_id": 1360711371,
    "wof:placetype": "postalcode",
    "wof:repo": "whosonfirst-data-postalcode-gb",
    "wof:superseded_by": [],
    "wof:supersedes": [],
    "wof:tags": []
  },
  "bbox": [
    -3.533466,
    53.300337,
    -3.533466,
    53.300337
  ],
  "geometry": {"coordinates":[-3.533466,53.300337],"type":"Point"}
}
