{
  "id": 504537539,
  "type": "Feature",
  "properties": {
    "date:inception_lower": "1999-06-01",
    "date:inception_upper": "1999-06-01",
    "edtf:cessation": "",
    "edtf:inception": "1999-06-01",
    "geom:area": 0,
    "geom:bbox": "-2.701539,51.666630,-2.701539,51.666630",
    "geom:latitude": 51.66663,
    "geom:longitude": -2.701539,
    "gp:parent_id": "35578",
    "iso:country": "GB",
    "mz:hierarchy_label": 1,
    "mz:is_current": 1,
    "os:country_code": "W92000004",
    "os:county_code": "W99999999",
    "os:district_code": "W06000021",
    "os:positional_quality_indicator": "1",
    "os:region_code": "W99999999",
    "src:geom": "os",
    "wof:belongsto": [
      85633159,
      102191581,
      136253055,
      1864209271,
      1360699109,
      404442761,
      1125978135,
      1880762173,
      404227475,
      1880773189
    ],
    "wof:breaches": [],
    "wof:concordances": {
      "gp:id": "27666292"
    },
    "wof:country": "GB",
    "wof:created": 1583701412,
    "wof:geomhash": "3cd3edd3f0530d4bf167f70c36c5955a",
    "wof:hierarchy": [
      {
        "continent_id": 102191581,
        "country_id": 85633159,
        "county_id": 1360699109,
        "empire_id": 136253055,
        "localadmin_id": 404442761,
        "locality_id": 1125978135,
        "macrocounty_id": 1880762173,
        "macroregion_id": 404227475,
        "postalcode_id": 504537539,
        "region_id": 1880773189
      },
      {
        "continent_id": 102191581,
        "country_id": 85633159,
        "empire_id": 136253055,
        "postalcode_id": 504537539,
        "postalregion_id": 1864209271
      }
    ],
    "wof:id": 504537539,
    "wof:lastmodified": 1763548067,
    "wof:name": "NP16 6ED",
    "wof:parent_id": 1125978135,
    "wof:placetype": "postalcode",
    "wof:repo": "whosonfirst-data-postalcode-gb",
    "wof:superseded_by": [],
    "wof:supersedes": [],
    "wof:tags": []
  },
  "bbox": [
    -2.701539,
    51.66663,
    -2.701539,
    51.66663
  ],
  "geometry": {"coordinates":[-2.701539,51.66663],"type":"Point"}
}
