{
  "id": 438151949,
  "type": "Feature",
  "properties": {
    "date:inception_lower": "1980-01-01",
    "date:inception_upper": "1980-01-01",
    "edtf:cessation": "",
    "edtf:inception": "1980-01-01",
    "geom:area": 0,
    "geom:bbox": "-1.961184,50.736614,-1.961184,50.736614",
    "geom:latitude": 50.736614,
    "geom:longitude": -1.961184,
    "gp:parent_id": "32326",
    "iso:country": "GB",
    "mz:hierarchy_label": 1,
    "mz:is_current": 1,
    "os:country_code": "E92000001",
    "os:county_code": "E99999999",
    "os:district_code": "E06000058",
    "os:positional_quality_indicator": "1",
    "os:region_code": "E12000009",
    "src:geom": "os",
    "wof:belongsto": [
      85633159,
      102191581,
      136253055,
      1864205799,
      1880773233,
      101750309,
      1880762151,
      404227469,
      1880772881
    ],
    "wof:breaches": [],
    "wof:concordances": {
      "gp:id": "26774925"
    },
    "wof:country": "GB",
    "wof:created": 1583701344,
    "wof:geomhash": "5613c1a523aefb2f2c172f8e4ca20a81",
    "wof:hierarchy": [
      {
        "continent_id": 102191581,
        "country_id": 85633159,
        "county_id": 1880773233,
        "empire_id": 136253055,
        "locality_id": 101750309,
        "macrocounty_id": 1880762151,
        "macroregion_id": 404227469,
        "postalcode_id": 438151949,
        "region_id": 1880772881
      },
      {
        "continent_id": 102191581,
        "country_id": 85633159,
        "empire_id": 136253055,
        "postalcode_id": 438151949,
        "postalregion_id": 1864205799
      }
    ],
    "wof:id": 438151949,
    "wof:lastmodified": 1763547988,
    "wof:name": "BH15 3JG",
    "wof:parent_id": 101750309,
    "wof:placetype": "postalcode",
    "wof:repo": "whosonfirst-data-postalcode-gb",
    "wof:superseded_by": [],
    "wof:supersedes": [],
    "wof:tags": []
  },
  "bbox": [
    -1.961184,
    50.736614,
    -1.961184,
    50.736614
  ],
  "geometry": {"coordinates":[-1.961184,50.736614],"type":"Point"}
}
