{
  "id": 470914103,
  "type": "Feature",
  "properties": {
    "date:inception_lower": "1994-05-01",
    "date:inception_upper": "1994-05-01",
    "edtf:cessation": "",
    "edtf:inception": "1994-05-01",
    "geom:area": 0,
    "geom:bbox": "-2.412429,53.453184,-2.412429,53.453184",
    "geom:latitude": 53.453184,
    "geom:longitude": -2.412429,
    "gp:parent_id": "24533",
    "iso:country": "GB",
    "mz:hierarchy_label": 1,
    "mz:is_current": 1,
    "os:country_code": "E92000001",
    "os:county_code": "E99999999",
    "os:district_code": "E08000006",
    "os:positional_quality_indicator": "1",
    "os:region_code": "E12000002",
    "src:geom": "os",
    "wof:belongsto": [
      85633159,
      102191581,
      136253055,
      1864208789,
      1360699005,
      1175612693,
      1880762163,
      404227469,
      1880773095
    ],
    "wof:breaches": [],
    "wof:concordances": {
      "gp:id": "27553236"
    },
    "wof:country": "GB",
    "wof:created": 1583701277,
    "wof:geomhash": "ffad1f7b84a08fd5b0fae881635ff5e2",
    "wof:hierarchy": [
      {
        "continent_id": 102191581,
        "country_id": 85633159,
        "county_id": 1360699005,
        "empire_id": 136253055,
        "locality_id": 1175612693,
        "macrocounty_id": 1880762163,
        "macroregion_id": 404227469,
        "postalcode_id": 470914103,
        "region_id": 1880773095
      },
      {
        "continent_id": 102191581,
        "country_id": 85633159,
        "empire_id": 136253055,
        "postalcode_id": 470914103,
        "postalregion_id": 1864208789
      }
    ],
    "wof:id": 470914103,
    "wof:lastmodified": 1763547991,
    "wof:name": "M44 6QE",
    "wof:parent_id": 1175612693,
    "wof:placetype": "postalcode",
    "wof:repo": "whosonfirst-data-postalcode-gb",
    "wof:superseded_by": [],
    "wof:supersedes": [],
    "wof:tags": []
  },
  "bbox": [
    -2.412429,
    53.453184,
    -2.412429,
    53.453184
  ],
  "geometry": {"coordinates":[-2.412429,53.453184],"type":"Point"}
}
