{
  "id": 1712471149,
  "type": "Feature",
  "properties": {
    "date:cessation_lower": "1990-12-01",
    "date:cessation_upper": "1990-12-01",
    "date:inception_lower": "1980-01-01",
    "date:inception_upper": "1980-01-01",
    "edtf:cessation": "1990-12-01",
    "edtf:inception": "1980-01-01",
    "geom:area": 0,
    "geom:bbox": "-0.291335,50.841003,-0.291335,50.841003",
    "geom:latitude": 50.841003,
    "geom:longitude": -0.291335,
    "iso:country": "GB",
    "mz:hierarchy_label": 1,
    "mz:is_current": 0,
    "os:country_code": "E92000001",
    "os:county_code": "E10000032",
    "os:district_code": "E07000223",
    "os:positional_quality_indicator": "8",
    "os:region_code": "E12000008",
    "src:geom": "os",
    "wof:belongsto": [
      1880771683,
      404433635,
      1125843731,
      1880762061
    ],
    "wof:breaches": [],
    "wof:country": "GB",
    "wof:created": 1583789511,
    "wof:geomhash": "0ea7f6b55ec468437df1f0e3e157687f",
    "wof:hierarchy": [
      {
        "continent_id": -1,
        "country_id": -1,
        "county_id": 1880771683,
        "localadmin_id": 404433635,
        "locality_id": 1125843731,
        "macrocounty_id": 1880762061,
        "postalcode_id": 1712471149,
        "region_id": -1
      }
    ],
    "wof:id": 1712471149,
    "wof:lastmodified": 1763548736,
    "wof:name": "BN4 5FG",
    "wof:parent_id": 1125843731,
    "wof:placetype": "postalcode",
    "wof:repo": "whosonfirst-data-postalcode-gb",
    "wof:superseded_by": [],
    "wof:supersedes": [],
    "wof:tags": []
  },
  "bbox": [
    -0.291335,
    50.841003,
    -0.291335,
    50.841003
  ],
  "geometry": {"coordinates":[-0.291335,50.841003],"type":"Point"}
}
