{
  "id": 454403669,
  "type": "Feature",
  "properties": {
    "date:inception_lower": "1980-01-01",
    "date:inception_upper": "1980-01-01",
    "edtf:cessation": "",
    "edtf:inception": "1980-01-01",
    "geom:area": 0,
    "geom:bbox": "-1.644197,54.636027,-1.644197,54.636027",
    "geom:latitude": 54.636027,
    "geom:longitude": -1.644197,
    "iso:country": "GB",
    "mz:hierarchy_label": 1,
    "mz:is_current": 1,
    "os:country_code": "E92000001",
    "os:county_code": "E99999999",
    "os:district_code": "E06000047",
    "os:positional_quality_indicator": "1",
    "os:region_code": "E12000001",
    "src:geom": "os",
    "wof:belongsto": [
      85633159,
      102191581,
      136253055,
      1864206777,
      1360699055,
      404452391,
      101873329,
      1880762117,
      404227469,
      1880773141
    ],
    "wof:breaches": [],
    "wof:concordances": {
      "gp:id": "27175003"
    },
    "wof:country": "GB",
    "wof:created": 1583701544,
    "wof:geomhash": "b4fd419332054d7dc1de0e3faea94eb1",
    "wof:hierarchy": [
      {
        "continent_id": 102191581,
        "country_id": 85633159,
        "county_id": 1360699055,
        "empire_id": 136253055,
        "localadmin_id": 404452391,
        "locality_id": 101873329,
        "macrocounty_id": 1880762117,
        "macroregion_id": 404227469,
        "postalcode_id": 454403669,
        "region_id": 1880773141
      },
      {
        "continent_id": 102191581,
        "country_id": 85633159,
        "empire_id": 136253055,
        "postalcode_id": 454403669,
        "postalregion_id": 1864206777
      }
    ],
    "wof:id": 454403669,
    "wof:lastmodified": 1763548526,
    "wof:name": "DL4 2HR",
    "wof:parent_id": 101873329,
    "wof:placetype": "postalcode",
    "wof:repo": "whosonfirst-data-postalcode-gb",
    "wof:superseded_by": [],
    "wof:supersedes": [],
    "wof:tags": []
  },
  "bbox": [
    -1.644197,
    54.636027,
    -1.644197,
    54.636027
  ],
  "geometry": {"coordinates":[-1.644197,54.636027],"type":"Point"}
}
