{
  "id": 454334419,
  "type": "Feature",
  "properties": {
    "date:cessation_lower": "2012-11-01",
    "date:cessation_upper": "2012-11-01",
    "date:inception_lower": "1980-01-01",
    "date:inception_upper": "1980-01-01",
    "edtf:cessation": "2012-11-01",
    "edtf:inception": "1980-01-01",
    "geom:area": 0,
    "geom:bbox": "-1.633419,52.814910,-1.633419,52.814910",
    "geom:latitude": 52.81491,
    "geom:longitude": -1.633419,
    "gp:parent_id": "14696",
    "iso:country": "GB",
    "mz:hierarchy_label": 1,
    "mz:is_current": 0,
    "os:country_code": "E92000001",
    "os:county_code": "E10000028",
    "os:district_code": "E07000193",
    "os:positional_quality_indicator": "1",
    "os:region_code": "E12000005",
    "src:geom": "os",
    "wof:belongsto": [
      85633159,
      102191581,
      136253055,
      1864206647,
      1880771629,
      404455255,
      1360754891,
      1880761999
    ],
    "wof:breaches": [],
    "wof:concordances": {
      "gp:id": "27142421"
    },
    "wof:country": "GB",
    "wof:created": 1583701497,
    "wof:geomhash": "662b45dff43156a0aeaf0cecbcdb6e5c",
    "wof:hierarchy": [
      {
        "continent_id": -1,
        "country_id": -1,
        "county_id": 1880771629,
        "localadmin_id": 404455255,
        "locality_id": 1360754891,
        "macrocounty_id": 1880761999,
        "postalcode_id": 454334419,
        "region_id": -1
      },
      {
        "continent_id": 102191581,
        "country_id": 85633159,
        "empire_id": 136253055,
        "postalcode_id": 454334419,
        "postalregion_id": 1864206647
      }
    ],
    "wof:id": 454334419,
    "wof:lastmodified": 1763548459,
    "wof:name": "DE14 1RX",
    "wof:parent_id": 1360754891,
    "wof:placetype": "postalcode",
    "wof:repo": "whosonfirst-data-postalcode-gb",
    "wof:superseded_by": [],
    "wof:supersedes": [],
    "wof:tags": []
  },
  "bbox": [
    -1.633419,
    52.81491,
    -1.633419,
    52.81491
  ],
  "geometry": {"coordinates":[-1.633419,52.81491],"type":"Point"}
}
