{
  "id": 437405765,
  "type": "Feature",
  "properties": {
    "date:cessation_lower": "2009-08-01",
    "date:cessation_upper": "2009-08-01",
    "date:inception_lower": "1995-07-01",
    "date:inception_upper": "1995-07-01",
    "edtf:cessation": "2009-08-01",
    "edtf:inception": "1995-07-01",
    "geom:area": 0,
    "geom:bbox": "-6.383851,58.208054,-6.383851,58.208054",
    "geom:latitude": 58.208054,
    "geom:longitude": -6.383851,
    "gp:parent_id": "12696213",
    "iso:country": "GB",
    "mz:hierarchy_label": 1,
    "mz:is_current": 0,
    "os:country_code": "S92000003",
    "os:county_code": "S99999999",
    "os:district_code": "S12000013",
    "os:positional_quality_indicator": "1",
    "os:region_code": "S99999999",
    "src:geom": "os",
    "wof:belongsto": [
      85633159,
      102191581,
      136253055,
      1864207715,
      1360699007,
      1880762027,
      404227471,
      1880773097
    ],
    "wof:breaches": [],
    "wof:concordances": {
      "gp:id": "27370116"
    },
    "wof:country": "GB",
    "wof:created": 1583701092,
    "wof:geomhash": "fab0d11305c3fa5c58b70f669bdc39e6",
    "wof:hierarchy": [
      {
        "continent_id": 102191581,
        "country_id": 85633159,
        "county_id": 1360699007,
        "empire_id": 136253055,
        "macrocounty_id": 1880762027,
        "macroregion_id": 404227471,
        "postalcode_id": 437405765,
        "region_id": 1880773097
      },
      {
        "continent_id": 102191581,
        "country_id": 85633159,
        "empire_id": 136253055,
        "postalcode_id": 437405765,
        "postalregion_id": 1864207715
      }
    ],
    "wof:id": 437405765,
    "wof:lastmodified": 1763548233,
    "wof:name": "HS1 2QW",
    "wof:parent_id": 1360699007,
    "wof:placetype": "postalcode",
    "wof:repo": "whosonfirst-data-postalcode-gb",
    "wof:superseded_by": [],
    "wof:supersedes": [],
    "wof:tags": []
  },
  "bbox": [
    -6.383851,
    58.208054,
    -6.383851,
    58.208054
  ],
  "geometry": {"coordinates":[-6.383851,58.208054],"type":"Point"}
}
