{
  "id": 1712597513,
  "type": "Feature",
  "properties": {
    "date:cessation_lower": "1999-12-01",
    "date:cessation_upper": "1999-12-01",
    "date:inception_lower": "1998-12-01",
    "date:inception_upper": "1998-12-01",
    "edtf:cessation": "1999-12-01",
    "edtf:inception": "1998-12-01",
    "geom:area": 0,
    "geom:bbox": "-1.088450,52.696792,-1.088450,52.696792",
    "geom:latitude": 52.696792,
    "geom:longitude": -1.08845,
    "iso:country": "GB",
    "mz:hierarchy_label": 1,
    "mz:is_current": 0,
    "os:country_code": "E92000001",
    "os:county_code": "E10000018",
    "os:district_code": "E07000130",
    "os:positional_quality_indicator": "8",
    "os:region_code": "E12000004",
    "src:geom": "os",
    "wof:belongsto": [
      85633159,
      102191581,
      136253055,
      1864208435,
      1880771567,
      404431619,
      1125918707,
      1880762051,
      404227469,
      1880773085
    ],
    "wof:breaches": [],
    "wof:country": "GB",
    "wof:created": 1583795129,
    "wof:geomhash": "fd12092dc728e320b5b834f8d8c87230",
    "wof:hierarchy": [
      {
        "continent_id": 102191581,
        "country_id": 85633159,
        "county_id": 1880771567,
        "empire_id": 136253055,
        "localadmin_id": 404431619,
        "locality_id": 1125918707,
        "macrocounty_id": 1880762051,
        "macroregion_id": 404227469,
        "postalcode_id": 1712597513,
        "region_id": 1880773085
      },
      {
        "continent_id": 102191581,
        "country_id": 85633159,
        "empire_id": 136253055,
        "postalcode_id": 1712597513,
        "postalregion_id": 1864208435
      }
    ],
    "wof:id": 1712597513,
    "wof:lastmodified": 1763548687,
    "wof:name": "LE7 1WY",
    "wof:parent_id": 1125918707,
    "wof:placetype": "postalcode",
    "wof:repo": "whosonfirst-data-postalcode-gb",
    "wof:superseded_by": [],
    "wof:supersedes": [],
    "wof:tags": []
  },
  "bbox": [
    -1.08845,
    52.696792,
    -1.08845,
    52.696792
  ],
  "geometry": {"coordinates":[-1.08845,52.696792],"type":"Point"}
}
