{
  "id": 488255467,
  "type": "Feature",
  "properties": {
    "date:inception_lower": "1998-06-01",
    "date:inception_upper": "1998-06-01",
    "edtf:cessation": "",
    "edtf:inception": "1998-06-01",
    "geom:area": 0,
    "geom:bbox": "-0.962534,54.051290,-0.962534,54.051290",
    "geom:latitude": 54.05129,
    "geom:longitude": -0.962534,
    "gp:parent_id": "20289",
    "iso:country": "GB",
    "mz:hierarchy_label": 1,
    "mz:is_current": 1,
    "os:country_code": "E92000001",
    "os:county_code": "E99999999",
    "os:district_code": "E06000065",
    "os:positional_quality_indicator": "1",
    "os:region_code": "E12000003",
    "src:geom": "os",
    "wof:belongsto": [
      85633159,
      102191581,
      136253055,
      1864211767,
      1360698753,
      404454601,
      1125977131,
      1880762011
    ],
    "wof:breaches": [],
    "wof:concordances": {
      "gp:id": "28199741"
    },
    "wof:country": "GB",
    "wof:created": 1583701231,
    "wof:geomhash": "9f60c286fbc7754e60f4c2d22e691e8d",
    "wof:hierarchy": [
      {
        "continent_id": -1,
        "country_id": -1,
        "county_id": 1360698753,
        "localadmin_id": 404454601,
        "locality_id": 1125977131,
        "macrocounty_id": 1880762011,
        "postalcode_id": 488255467,
        "region_id": -1
      },
      {
        "continent_id": 102191581,
        "country_id": 85633159,
        "empire_id": 136253055,
        "postalcode_id": 488255467,
        "postalregion_id": 1864211767
      }
    ],
    "wof:id": 488255467,
    "wof:lastmodified": 1763548591,
    "wof:name": "YO60 7RR",
    "wof:parent_id": 1125977131,
    "wof:placetype": "postalcode",
    "wof:repo": "whosonfirst-data-postalcode-gb",
    "wof:superseded_by": [],
    "wof:supersedes": [],
    "wof:tags": []
  },
  "bbox": [
    -0.962534,
    54.05129,
    -0.962534,
    54.05129
  ],
  "geometry": {"coordinates":[-0.962534,54.05129],"type":"Point"}
}
