{
  "id": 454359053,
  "type": "Feature",
  "properties": {
    "date:inception_lower": "1980-01-01",
    "date:inception_upper": "1980-01-01",
    "edtf:cessation": "",
    "edtf:inception": "1980-01-01",
    "geom:area": 0,
    "geom:bbox": "-1.306161,52.965472,-1.306161,52.965472",
    "geom:latitude": 52.965472,
    "geom:longitude": -1.306161,
    "gp:parent_id": "16929",
    "iso:country": "GB",
    "mz:hierarchy_label": 1,
    "mz:is_current": 1,
    "os:country_code": "E92000001",
    "os:county_code": "E10000007",
    "os:district_code": "E07000036",
    "os:positional_quality_indicator": "1",
    "os:region_code": "E12000004",
    "src:geom": "os",
    "wof:belongsto": [
      85633159,
      102191581,
      136253055,
      1864206679,
      1880771381,
      1360817223,
      101872095,
      1880762133,
      404227469,
      1880762707
    ],
    "wof:breaches": [],
    "wof:concordances": {
      "gp:id": "27150803"
    },
    "wof:country": "GB",
    "wof:created": 1583701511,
    "wof:geomhash": "ac51f897221b0e1e85cd0c88e466f784",
    "wof:hierarchy": [
      {
        "continent_id": 102191581,
        "country_id": 85633159,
        "county_id": 1880771381,
        "empire_id": 136253055,
        "localadmin_id": 1360817223,
        "locality_id": 101872095,
        "macrocounty_id": 1880762133,
        "macroregion_id": 404227469,
        "postalcode_id": 454359053,
        "region_id": 1880762707
      },
      {
        "continent_id": 102191581,
        "country_id": 85633159,
        "empire_id": 136253055,
        "postalcode_id": 454359053,
        "postalregion_id": 1864206679
      }
    ],
    "wof:id": 454359053,
    "wof:lastmodified": 1763548435,
    "wof:name": "DE7 5RL",
    "wof:parent_id": 101872095,
    "wof:placetype": "postalcode",
    "wof:repo": "whosonfirst-data-postalcode-gb",
    "wof:superseded_by": [],
    "wof:supersedes": [],
    "wof:tags": []
  },
  "bbox": [
    -1.306161,
    52.965472,
    -1.306161,
    52.965472
  ],
  "geometry": {"coordinates":[-1.306161,52.965472],"type":"Point"}
}
