{
  "id": 1712776925,
  "type": "Feature",
  "properties": {
    "date:cessation_lower": "1992-12-01",
    "date:cessation_upper": "1992-12-01",
    "date:inception_lower": "1980-01-01",
    "date:inception_upper": "1980-01-01",
    "edtf:cessation": "1992-12-01",
    "edtf:inception": "1980-01-01",
    "geom:area": 0,
    "geom:bbox": "-1.786200,53.174204,-1.786200,53.174204",
    "geom:latitude": 53.174204,
    "geom:longitude": -1.7862,
    "iso:country": "GB",
    "mz:hierarchy_label": 1,
    "mz:is_current": 0,
    "os:country_code": "E92000001",
    "os:county_code": "E10000007",
    "os:district_code": "E07000035",
    "os:positional_quality_indicator": "1",
    "os:region_code": "E12000004",
    "src:geom": "os",
    "wof:belongsto": [
      85633159,
      102191581,
      136253055,
      1864206663,
      1880771389,
      404455291,
      1360754943,
      1880762133,
      404227469,
      1880762707
    ],
    "wof:breaches": [],
    "wof:country": "GB",
    "wof:created": 1583803102,
    "wof:geomhash": "cffa1bb6dfe1f3c0d6fb894035196627",
    "wof:hierarchy": [
      {
        "continent_id": 102191581,
        "country_id": 85633159,
        "county_id": 1880771389,
        "empire_id": 136253055,
        "localadmin_id": 404455291,
        "locality_id": 1360754943,
        "macrocounty_id": 1880762133,
        "macroregion_id": 404227469,
        "postalcode_id": 1712776925,
        "region_id": 1880762707
      },
      {
        "continent_id": 102191581,
        "country_id": 85633159,
        "empire_id": 136253055,
        "postalcode_id": 1712776925,
        "postalregion_id": 1864206663
      }
    ],
    "wof:id": 1712776925,
    "wof:lastmodified": 1763548723,
    "wof:name": "DE4 1JQ",
    "wof:parent_id": 1360754943,
    "wof:placetype": "postalcode",
    "wof:repo": "whosonfirst-data-postalcode-gb",
    "wof:superseded_by": [],
    "wof:supersedes": [],
    "wof:tags": []
  },
  "bbox": [
    -1.7862,
    53.174204,
    -1.7862,
    53.174204
  ],
  "geometry": {"coordinates":[-1.7862,53.174204],"type":"Point"}
}
