{
  "id": 874473891,
  "type": "Feature",
  "properties": {
    "date:inception_lower": "2012-05-01",
    "date:inception_upper": "2012-05-01",
    "edtf:cessation": "",
    "edtf:inception": "2012-05-01",
    "geom:area": 0,
    "geom:bbox": "-3.353509,56.119420,-3.353509,56.119420",
    "geom:latitude": 56.11942,
    "geom:longitude": -3.353509,
    "iso:country": "GB",
    "mz:hierarchy_label": 1,
    "mz:is_current": 1,
    "os:country_code": "S92000003",
    "os:county_code": "S99999999",
    "os:district_code": "S12000047",
    "os:positional_quality_indicator": "1",
    "os:region_code": "S99999999",
    "src:geom": "os",
    "wof:belongsto": [
      85633159,
      102191581,
      136253055,
      1864208197,
      1360699123,
      1880762125,
      404227471,
      1880773203
    ],
    "wof:breaches": [],
    "wof:country": "GB",
    "wof:created": 1468886420,
    "wof:geomhash": "80b4b17e438da5e0e57f6fc0ef04e0b6",
    "wof:hierarchy": [
      {
        "continent_id": 102191581,
        "country_id": 85633159,
        "county_id": 1360699123,
        "empire_id": 136253055,
        "macrocounty_id": 1880762125,
        "macroregion_id": 404227471,
        "postalcode_id": 874473891,
        "region_id": 1880773203
      },
      {
        "continent_id": 102191581,
        "country_id": 85633159,
        "empire_id": 136253055,
        "postalcode_id": 874473891,
        "postalregion_id": 1864208197
      }
    ],
    "wof:id": 874473891,
    "wof:lastmodified": 1763547971,
    "wof:name": "KY4 9BT",
    "wof:parent_id": 1360699123,
    "wof:placetype": "postalcode",
    "wof:repo": "whosonfirst-data-postalcode-gb",
    "wof:superseded_by": [],
    "wof:supersedes": [],
    "wof:tags": []
  },
  "bbox": [
    -3.353509,
    56.11942,
    -3.353509,
    56.11942
  ],
  "geometry": {"coordinates":[-3.353509,56.11942],"type":"Point"}
}
