{
  "id": 454394527,
  "type": "Feature",
  "properties": {
    "date:inception_lower": "1980-01-01",
    "date:inception_upper": "1980-01-01",
    "edtf:cessation": "",
    "edtf:inception": "1980-01-01",
    "geom:area": 0,
    "geom:bbox": "-1.635786,54.642796,-1.635786,54.642796",
    "geom:latitude": 54.642796,
    "geom:longitude": -1.635786,
    "gp:parent_id": "19440",
    "iso:country": "GB",
    "mz:hierarchy_label": 1,
    "mz:is_current": 1,
    "os:country_code": "E92000001",
    "os:county_code": "E99999999",
    "os:district_code": "E06000047",
    "os:positional_quality_indicator": "1",
    "os:region_code": "E12000001",
    "src:geom": "os",
    "wof:belongsto": [
      85633159,
      102191581,
      136253055,
      1864206763,
      1360699055,
      404453303,
      1360759033,
      1880762117
    ],
    "wof:breaches": [],
    "wof:concordances": {
      "gp:id": "27171362"
    },
    "wof:country": "GB",
    "wof:created": 1583701539,
    "wof:geomhash": "60227ac11dce725bdb19c8b825d6d920",
    "wof:hierarchy": [
      {
        "continent_id": -1,
        "country_id": -1,
        "county_id": 1360699055,
        "localadmin_id": 404453303,
        "locality_id": 1360759033,
        "macrocounty_id": 1880762117,
        "postalcode_id": 454394527,
        "region_id": -1
      },
      {
        "continent_id": 102191581,
        "country_id": 85633159,
        "empire_id": 136253055,
        "postalcode_id": 454394527,
        "postalregion_id": 1864206763
      }
    ],
    "wof:id": 454394527,
    "wof:lastmodified": 1763548458,
    "wof:name": "DL14 8UZ",
    "wof:parent_id": 1360759033,
    "wof:placetype": "postalcode",
    "wof:repo": "whosonfirst-data-postalcode-gb",
    "wof:superseded_by": [],
    "wof:supersedes": [],
    "wof:tags": []
  },
  "bbox": [
    -1.635786,
    54.642796,
    -1.635786,
    54.642796
  ],
  "geometry": {"coordinates":[-1.635786,54.642796],"type":"Point"}
}
