{
  "id": 471589409,
  "type": "Feature",
  "properties": {
    "date:inception_lower": "1980-01-01",
    "date:inception_upper": "1980-01-01",
    "edtf:cessation": "",
    "edtf:inception": "1980-01-01",
    "geom:area": 0,
    "geom:bbox": "-0.087308,50.962973,-0.087308,50.962973",
    "geom:latitude": 50.962973,
    "geom:longitude": -0.087308,
    "gp:parent_id": "40821",
    "iso:country": "GB",
    "mz:hierarchy_label": 1,
    "mz:is_current": 1,
    "os:country_code": "E92000001",
    "os:county_code": "E10000011",
    "os:district_code": "E07000063",
    "os:positional_quality_indicator": "1",
    "os:region_code": "E12000008",
    "src:geom": "os",
    "wof:belongsto": [
      85633159,
      102191581,
      136253055,
      1864210101,
      1880771407,
      404442627,
      1125871467,
      1880762145,
      404227469,
      1880762703
    ],
    "wof:breaches": [],
    "wof:concordances": {
      "gp:id": "27830697"
    },
    "wof:country": "GB",
    "wof:created": 1583701677,
    "wof:geomhash": "1bc67e8bd9dad5b31583a8ed80a830ee",
    "wof:hierarchy": [
      {
        "continent_id": 102191581,
        "country_id": 85633159,
        "county_id": 1880771407,
        "empire_id": 136253055,
        "localadmin_id": 404442627,
        "locality_id": 1125871467,
        "macrocounty_id": 1880762145,
        "macroregion_id": 404227469,
        "postalcode_id": 471589409,
        "region_id": 1880762703
      },
      {
        "continent_id": 102191581,
        "country_id": 85633159,
        "empire_id": 136253055,
        "postalcode_id": 471589409,
        "postalregion_id": 1864210101
      }
    ],
    "wof:id": 471589409,
    "wof:lastmodified": 1763548196,
    "wof:name": "RH17 7QH",
    "wof:parent_id": 1125871467,
    "wof:placetype": "postalcode",
    "wof:repo": "whosonfirst-data-postalcode-gb",
    "wof:superseded_by": [],
    "wof:supersedes": [],
    "wof:tags": []
  },
  "bbox": [
    -0.087308,
    50.962973,
    -0.087308,
    50.962973
  ],
  "geometry": {"coordinates":[-0.087308,50.962973],"type":"Point"}
}
