{
  "id": 454258867,
  "type": "Feature",
  "properties": {
    "date:inception_lower": "1980-01-01",
    "date:inception_upper": "1980-01-01",
    "edtf:cessation": "",
    "edtf:inception": "1980-01-01",
    "geom:area": 0,
    "geom:bbox": "-1.273902,52.363190,-1.273902,52.363190",
    "geom:latitude": 52.36319,
    "geom:longitude": -1.273902,
    "iso:country": "GB",
    "mz:hierarchy_label": 1,
    "mz:is_current": 1,
    "os:country_code": "E92000001",
    "os:county_code": "E10000031",
    "os:district_code": "E07000220",
    "os:positional_quality_indicator": "1",
    "os:region_code": "E12000005",
    "src:geom": "os",
    "wof:belongsto": [
      85633159,
      102191581,
      136253055,
      1864206505,
      1880771671,
      101750475,
      1880762065,
      404227469,
      1880762725
    ],
    "wof:breaches": [],
    "wof:concordances": {
      "gp:id": "26754535"
    },
    "wof:country": "GB",
    "wof:created": 1583701421,
    "wof:geomhash": "32eba99e854c3cfacb9f37cc6e493eb0",
    "wof:hierarchy": [
      {
        "continent_id": 102191581,
        "country_id": 85633159,
        "county_id": 1880771671,
        "empire_id": 136253055,
        "locality_id": 101750475,
        "macrocounty_id": 1880762065,
        "macroregion_id": 404227469,
        "postalcode_id": 454258867,
        "region_id": 1880762725
      },
      {
        "continent_id": 102191581,
        "country_id": 85633159,
        "empire_id": 136253055,
        "postalcode_id": 454258867,
        "postalregion_id": 1864206505
      }
    ],
    "wof:id": 454258867,
    "wof:lastmodified": 1763548355,
    "wof:name": "CV22 6BA",
    "wof:parent_id": 101750475,
    "wof:placetype": "postalcode",
    "wof:repo": "whosonfirst-data-postalcode-gb",
    "wof:superseded_by": [],
    "wof:supersedes": [],
    "wof:tags": []
  },
  "bbox": [
    -1.273902,
    52.36319,
    -1.273902,
    52.36319
  ],
  "geometry": {"coordinates":[-1.273902,52.36319],"type":"Point"}
}
