{
  "id": 454810865,
  "type": "Feature",
  "properties": {
    "date:inception_lower": "1980-01-01",
    "date:inception_upper": "1980-01-01",
    "edtf:cessation": "",
    "edtf:inception": "1980-01-01",
    "geom:area": 0,
    "geom:bbox": "-0.043844,53.748920,-0.043844,53.748920",
    "geom:latitude": 53.74892,
    "geom:longitude": -0.043844,
    "gp:parent_id": "33525",
    "iso:country": "GB",
    "mz:hierarchy_label": 1,
    "mz:is_current": 1,
    "os:country_code": "E92000001",
    "os:county_code": "E99999999",
    "os:district_code": "E06000011",
    "os:positional_quality_indicator": "1",
    "os:region_code": "E12000003",
    "src:geom": "os",
    "wof:belongsto": [
      85633159,
      102191581,
      136253055,
      1864207743,
      1360699001,
      404430029,
      1126030731,
      1880762147,
      404227469,
      1880773091
    ],
    "wof:breaches": [],
    "wof:concordances": {
      "gp:id": "27372172"
    },
    "wof:country": "GB",
    "wof:created": 1583701726,
    "wof:geomhash": "54c35bca9801d90de11576fb3460d997",
    "wof:hierarchy": [
      {
        "continent_id": 102191581,
        "country_id": 85633159,
        "county_id": 1360699001,
        "empire_id": 136253055,
        "localadmin_id": 404430029,
        "locality_id": 1126030731,
        "macrocounty_id": 1880762147,
        "macroregion_id": 404227469,
        "postalcode_id": 454810865,
        "region_id": 1880773091
      },
      {
        "continent_id": 102191581,
        "country_id": 85633159,
        "empire_id": 136253055,
        "postalcode_id": 454810865,
        "postalregion_id": 1864207743
      }
    ],
    "wof:id": 454810865,
    "wof:lastmodified": 1763548282,
    "wof:name": "HU12 0HL",
    "wof:parent_id": 1126030731,
    "wof:placetype": "postalcode",
    "wof:repo": "whosonfirst-data-postalcode-gb",
    "wof:superseded_by": [],
    "wof:supersedes": [],
    "wof:tags": []
  },
  "bbox": [
    -0.043844,
    53.74892,
    -0.043844,
    53.74892
  ],
  "geometry": {"coordinates":[-0.043844,53.74892],"type":"Point"}
}
