{
  "id": 454588513,
  "type": "Feature",
  "properties": {
    "date:inception_lower": "1980-01-01",
    "date:inception_upper": "1980-01-01",
    "edtf:cessation": "",
    "edtf:inception": "1980-01-01",
    "geom:area": 0,
    "geom:bbox": "-4.053505,50.980421,-4.053505,50.980421",
    "geom:latitude": 50.980421,
    "geom:longitude": -4.053505,
    "gp:parent_id": "41333",
    "iso:country": "GB",
    "mz:hierarchy_label": 1,
    "mz:is_current": 1,
    "os:country_code": "E92000001",
    "os:county_code": "E10000008",
    "os:district_code": "E07000046",
    "os:positional_quality_indicator": "1",
    "os:region_code": "E12000009",
    "src:geom": "os",
    "wof:belongsto": [
      85633159,
      102191581,
      136253055,
      1864207219,
      1880771717,
      404440205,
      1360756043,
      1880762149,
      404227469,
      1880762683
    ],
    "wof:breaches": [],
    "wof:concordances": {
      "gp:id": "27260318"
    },
    "wof:country": "GB",
    "wof:created": 1583701651,
    "wof:geomhash": "636f3e89e8b5685683dd63e38da71ac6",
    "wof:hierarchy": [
      {
        "continent_id": 102191581,
        "country_id": 85633159,
        "county_id": 1880771717,
        "empire_id": 136253055,
        "localadmin_id": 404440205,
        "locality_id": 1360756043,
        "macrocounty_id": 1880762149,
        "macroregion_id": 404227469,
        "postalcode_id": 454588513,
        "region_id": 1880762683
      },
      {
        "continent_id": 102191581,
        "country_id": 85633159,
        "empire_id": 136253055,
        "postalcode_id": 454588513,
        "postalregion_id": 1864207219
      }
    ],
    "wof:id": 454588513,
    "wof:lastmodified": 1763548399,
    "wof:name": "EX31 3NQ",
    "wof:parent_id": 1360756043,
    "wof:placetype": "postalcode",
    "wof:repo": "whosonfirst-data-postalcode-gb",
    "wof:superseded_by": [],
    "wof:supersedes": [],
    "wof:tags": []
  },
  "bbox": [
    -4.053505,
    50.980421,
    -4.053505,
    50.980421
  ],
  "geometry": {"coordinates":[-4.053505,50.980421],"type":"Point"}
}
