{
  "id": 874467859,
  "type": "Feature",
  "properties": {
    "date:inception_lower": "2010-10-01",
    "date:inception_upper": "2010-10-01",
    "edtf:cessation": "",
    "edtf:inception": "2010-10-01",
    "geom:area": 0,
    "geom:bbox": "-0.412040,53.837985,-0.412040,53.837985",
    "geom:latitude": 53.837985,
    "geom:longitude": -0.41204,
    "iso:country": "GB",
    "mz:hierarchy_label": 1,
    "mz:is_current": 1,
    "os:country_code": "E92000001",
    "os:county_code": "E99999999",
    "os:district_code": "E06000011",
    "os:positional_quality_indicator": "1",
    "os:region_code": "E12000003",
    "src:geom": "os",
    "wof:belongsto": [
      85633159,
      102191581,
      136253055,
      1864207753,
      1360699001,
      404429801,
      101874179,
      1880762147
    ],
    "wof:breaches": [],
    "wof:country": "GB",
    "wof:created": 1468880778,
    "wof:geomhash": "bdc50703e2e1622334dfec4e72de02d8",
    "wof:hierarchy": [
      {
        "continent_id": -1,
        "country_id": -1,
        "county_id": 1360699001,
        "localadmin_id": 404429801,
        "locality_id": 101874179,
        "macrocounty_id": 1880762147,
        "postalcode_id": 874467859,
        "region_id": -1
      },
      {
        "continent_id": 102191581,
        "country_id": 85633159,
        "empire_id": 136253055,
        "postalcode_id": 874467859,
        "postalregion_id": 1864207753
      }
    ],
    "wof:id": 874467859,
    "wof:lastmodified": 1763547976,
    "wof:name": "HU17 0FL",
    "wof:parent_id": 101874179,
    "wof:placetype": "postalcode",
    "wof:repo": "whosonfirst-data-postalcode-gb",
    "wof:superseded_by": [],
    "wof:supersedes": [],
    "wof:tags": []
  },
  "bbox": [
    -0.41204,
    53.837985,
    -0.41204,
    53.837985
  ],
  "geometry": {"coordinates":[-0.41204,53.837985],"type":"Point"}
}
