{
  "id": 437889959,
  "type": "Feature",
  "properties": {
    "date:cessation_lower": "2004-10-01",
    "date:cessation_upper": "2004-10-01",
    "date:inception_lower": "2000-12-01",
    "date:inception_upper": "2000-12-01",
    "edtf:cessation": "2004-10-01",
    "edtf:inception": "2000-12-01",
    "geom:area": 0,
    "geom:bbox": "-2.231778,53.327184,-2.231778,53.327184",
    "geom:latitude": 53.327184,
    "geom:longitude": -2.231778,
    "iso:country": "GB",
    "mz:hierarchy_label": 1,
    "mz:is_current": 0,
    "os:country_code": "E92000001",
    "os:county_code": "E99999999",
    "os:district_code": "E06000049",
    "os:positional_quality_indicator": "1",
    "os:region_code": "E12000002",
    "src:geom": "os",
    "wof:belongsto": [
      85633159,
      102191581,
      136253055,
      1864210555,
      1360698929,
      404439479,
      101751621,
      1880762135,
      404227469,
      1880773021
    ],
    "wof:breaches": [],
    "wof:concordances": {
      "gp:id": "28932486"
    },
    "wof:country": "GB",
    "wof:created": 1583701616,
    "wof:geomhash": "08cdf0e097d57267f277863b2c890405",
    "wof:hierarchy": [
      {
        "continent_id": 102191581,
        "country_id": 85633159,
        "county_id": 1360698929,
        "empire_id": 136253055,
        "localadmin_id": 404439479,
        "locality_id": 101751621,
        "macrocounty_id": 1880762135,
        "macroregion_id": 404227469,
        "postalcode_id": 437889959,
        "region_id": 1880773021
      },
      {
        "continent_id": 102191581,
        "country_id": 85633159,
        "empire_id": 136253055,
        "postalcode_id": 437889959,
        "postalregion_id": 1864210555
      }
    ],
    "wof:id": 437889959,
    "wof:lastmodified": 1763547999,
    "wof:name": "SK9 1DX",
    "wof:parent_id": 101751621,
    "wof:placetype": "postalcode",
    "wof:repo": "whosonfirst-data-postalcode-gb",
    "wof:superseded_by": [],
    "wof:supersedes": [],
    "wof:tags": []
  },
  "bbox": [
    -2.231778,
    53.327184,
    -2.231778,
    53.327184
  ],
  "geometry": {"coordinates":[-2.231778,53.327184],"type":"Point"}
}
