{
  "id": 890269357,
  "type": "Feature",
  "properties": {
    "date:inception_lower": "2010-12-01",
    "date:inception_upper": "2010-12-01",
    "edtf:cessation": "",
    "edtf:inception": "2010-12-01",
    "geom:area": 0,
    "geom:bbox": "-2.750126,52.700531,-2.750126,52.700531",
    "geom:latitude": 52.700531,
    "geom:longitude": -2.750126,
    "iso:country": "GB",
    "mz:hierarchy_label": 1,
    "mz:is_current": 1,
    "os:country_code": "E92000001",
    "os:county_code": "E99999999",
    "os:district_code": "E06000051",
    "os:positional_quality_indicator": "1",
    "os:region_code": "E12000005",
    "src:geom": "os",
    "wof:belongsto": [
      85633159,
      102191581,
      136253055,
      1864210933,
      1360698821,
      404448965,
      101750493,
      1880762073,
      404227469,
      1880772941
    ],
    "wof:breaches": [],
    "wof:country": "GB",
    "wof:created": 1468902020,
    "wof:geomhash": "430d589c83703dcb6cf748a88f4d57b4",
    "wof:hierarchy": [
      {
        "continent_id": 102191581,
        "country_id": 85633159,
        "county_id": 1360698821,
        "empire_id": 136253055,
        "localadmin_id": 404448965,
        "locality_id": 101750493,
        "macrocounty_id": 1880762073,
        "macroregion_id": 404227469,
        "postalcode_id": 890269357,
        "region_id": 1880772941
      },
      {
        "continent_id": 102191581,
        "country_id": 85633159,
        "empire_id": 136253055,
        "postalcode_id": 890269357,
        "postalregion_id": 1864210933
      }
    ],
    "wof:id": 890269357,
    "wof:lastmodified": 1763548614,
    "wof:name": "SY3 7BG",
    "wof:parent_id": 101750493,
    "wof:placetype": "postalcode",
    "wof:repo": "whosonfirst-data-postalcode-gb",
    "wof:superseded_by": [],
    "wof:supersedes": [],
    "wof:tags": []
  },
  "bbox": [
    -2.750126,
    52.700531,
    -2.750126,
    52.700531
  ],
  "geometry": {"coordinates":[-2.750126,52.700531],"type":"Point"}
}
