{
  "id": 488082243,
  "type": "Feature",
  "properties": {
    "date:inception_lower": "1980-01-01",
    "date:inception_upper": "1980-01-01",
    "edtf:cessation": "",
    "edtf:inception": "1980-01-01",
    "geom:area": 0,
    "geom:bbox": "-2.773487,53.262867,-2.773487,53.262867",
    "geom:latitude": 53.262867,
    "geom:longitude": -2.773487,
    "iso:country": "GB",
    "mz:hierarchy_label": 1,
    "mz:is_current": 1,
    "os:country_code": "E92000001",
    "os:county_code": "E99999999",
    "os:district_code": "E06000050",
    "os:positional_quality_indicator": "1",
    "os:region_code": "E12000002",
    "src:geom": "os",
    "wof:belongsto": [
      85633159,
      102191581,
      136253055,
      1864211479,
      1360698923,
      404451731,
      101871957,
      1880762135,
      404227469,
      1880773021
    ],
    "wof:breaches": [],
    "wof:concordances": {
      "gp:id": "28136773"
    },
    "wof:country": "GB",
    "wof:created": 1583701234,
    "wof:geomhash": "afe0c5be7d4231bb213a05fdc2f50b57",
    "wof:hierarchy": [
      {
        "continent_id": 102191581,
        "country_id": 85633159,
        "county_id": 1360698923,
        "empire_id": 136253055,
        "localadmin_id": 404451731,
        "locality_id": 101871957,
        "macrocounty_id": 1880762135,
        "macroregion_id": 404227469,
        "postalcode_id": 488082243,
        "region_id": 1880773021
      },
      {
        "continent_id": 102191581,
        "country_id": 85633159,
        "empire_id": 136253055,
        "postalcode_id": 488082243,
        "postalregion_id": 1864211479
      }
    ],
    "wof:id": 488082243,
    "wof:lastmodified": 1763548460,
    "wof:name": "WA6 0EL",
    "wof:parent_id": 101871957,
    "wof:placetype": "postalcode",
    "wof:repo": "whosonfirst-data-postalcode-gb",
    "wof:superseded_by": [],
    "wof:supersedes": [],
    "wof:tags": []
  },
  "bbox": [
    -2.773487,
    53.262867,
    -2.773487,
    53.262867
  ],
  "geometry": {"coordinates":[-2.773487,53.262867],"type":"Point"}
}
