{
  "id": 470964115,
  "type": "Feature",
  "properties": {
    "date:inception_lower": "1981-06-01",
    "date:inception_upper": "1981-06-01",
    "edtf:cessation": "",
    "edtf:inception": "1981-06-01",
    "geom:area": 0,
    "geom:bbox": "-0.796858,52.046040,-0.796858,52.046040",
    "geom:latitude": 52.04604,
    "geom:longitude": -0.796858,
    "gp:parent_id": "13581",
    "iso:country": "GB",
    "mz:hierarchy_label": 1,
    "mz:is_current": 1,
    "os:country_code": "E92000001",
    "os:county_code": "E99999999",
    "os:district_code": "E06000042",
    "os:positional_quality_indicator": "1",
    "os:region_code": "E12000008",
    "src:geom": "os",
    "wof:belongsto": [
      85633159,
      102191581,
      136253055,
      1864208873,
      1360698913,
      404443999,
      1293516795,
      1880762141,
      404227469,
      1880773087
    ],
    "wof:breaches": [],
    "wof:concordances": {
      "gp:id": "26432729"
    },
    "wof:country": "GB",
    "wof:created": 1583701341,
    "wof:geomhash": "cf203872dd6e7192186af5a57aa37ba8",
    "wof:hierarchy": [
      {
        "continent_id": 102191581,
        "country_id": 85633159,
        "county_id": 1360698913,
        "empire_id": 136253055,
        "localadmin_id": 404443999,
        "locality_id": 1293516795,
        "macrocounty_id": 1880762141,
        "macroregion_id": 404227469,
        "postalcode_id": 470964115,
        "region_id": 1880773087
      },
      {
        "continent_id": 102191581,
        "country_id": 85633159,
        "empire_id": 136253055,
        "postalcode_id": 470964115,
        "postalregion_id": 1864208873
      }
    ],
    "wof:id": 470964115,
    "wof:lastmodified": 1763547932,
    "wof:name": "MK13 9HB",
    "wof:parent_id": 1293516795,
    "wof:placetype": "postalcode",
    "wof:repo": "whosonfirst-data-postalcode-gb",
    "wof:superseded_by": [],
    "wof:supersedes": [],
    "wof:tags": []
  },
  "bbox": [
    -0.796858,
    52.04604,
    -0.796858,
    52.04604
  ],
  "geometry": {"coordinates":[-0.796858,52.04604],"type":"Point"}
}
