{
  "id": 1947765659,
  "type": "Feature",
  "properties": {
    "date:inception_lower": "2024-09-01",
    "date:inception_upper": "2024-09-01",
    "edtf:cessation": "",
    "edtf:inception": "2024-09-01",
    "geom:area": 0,
    "geom:bbox": "-0.094173,51.812829,-0.094173,51.812829",
    "geom:latitude": 51.812829,
    "geom:longitude": -0.094173,
    "iso:country": "GB",
    "mz:hierarchy_label": 1,
    "mz:is_current": 1,
    "os:country_code": "E92000001",
    "os:county_code": "E10000015",
    "os:district_code": "E07000242",
    "os:positional_quality_indicator": "1",
    "os:region_code": "E12000006",
    "src:geom": "os",
    "wof:belongsto": [
      102191581,
      85633159,
      1880771491,
      136253055,
      1880762153,
      404227469,
      1880762721,
      1864210483,
      404436169,
      101854785
    ],
    "wof:breaches": [],
    "wof:country": "GB",
    "wof:created": 1736334771,
    "wof:geomhash": "567a183c21f9d50443d87fc0dd6b8525",
    "wof:hierarchy": [
      {
        "continent_id": 102191581,
        "country_id": 85633159,
        "county_id": 1880771491,
        "empire_id": 136253055,
        "localadmin_id": 404436169,
        "locality_id": 101854785,
        "macrocounty_id": 1880762153,
        "macroregion_id": 404227469,
        "postalcode_id": 1947765659,
        "region_id": 1880762721
      },
      {
        "continent_id": 102191581,
        "country_id": 85633159,
        "empire_id": 136253055,
        "postalcode_id": 1947765659,
        "postalregion_id": 1864210483
      }
    ],
    "wof:id": 1947765659,
    "wof:lastmodified": 1763547895,
    "wof:name": "SG14 2RW",
    "wof:parent_id": 101854785,
    "wof:placetype": "postalcode",
    "wof:repo": "whosonfirst-data-postalcode-gb",
    "wof:superseded_by": [],
    "wof:supersedes": [],
    "wof:tags": []
  },
  "bbox": [
    -0.094173,
    51.812829,
    -0.094173,
    51.812829
  ],
  "geometry": {"coordinates":[-0.094173,51.812829],"type":"Point"}
}
