{
  "id": 470896631,
  "type": "Feature",
  "properties": {
    "date:inception_lower": "2002-05-01",
    "date:inception_upper": "2002-05-01",
    "edtf:cessation": "",
    "edtf:inception": "2002-05-01",
    "geom:area": 0,
    "geom:bbox": "-2.301784,53.449444,-2.301784,53.449444",
    "geom:latitude": 53.449444,
    "geom:longitude": -2.301784,
    "iso:country": "GB",
    "mz:hierarchy_label": 1,
    "mz:is_current": 1,
    "os:country_code": "E92000001",
    "os:county_code": "E99999999",
    "os:district_code": "E08000009",
    "os:positional_quality_indicator": "1",
    "os:region_code": "E12000002",
    "src:geom": "os",
    "wof:belongsto": [
      85633159,
      102191581,
      136253055,
      1864208769,
      1360698935,
      1360817437,
      1880762163,
      404227469,
      1880773095
    ],
    "wof:breaches": [],
    "wof:concordances": {
      "gp:id": "27546171"
    },
    "wof:country": "GB",
    "wof:created": 1583701237,
    "wof:geomhash": "ca67ec80d2a399350ee361443e6d46ba",
    "wof:hierarchy": [
      {
        "continent_id": 102191581,
        "country_id": 85633159,
        "county_id": 1360698935,
        "empire_id": 136253055,
        "localadmin_id": 1360817437,
        "macrocounty_id": 1880762163,
        "macroregion_id": 404227469,
        "postalcode_id": 470896631,
        "region_id": 1880773095
      },
      {
        "continent_id": 102191581,
        "country_id": 85633159,
        "empire_id": 136253055,
        "postalcode_id": 470896631,
        "postalregion_id": 1864208769
      }
    ],
    "wof:id": 470896631,
    "wof:lastmodified": 1763548033,
    "wof:name": "M32 0TA",
    "wof:parent_id": 1360817437,
    "wof:placetype": "postalcode",
    "wof:repo": "whosonfirst-data-postalcode-gb",
    "wof:superseded_by": [],
    "wof:supersedes": [],
    "wof:tags": []
  },
  "bbox": [
    -2.301784,
    53.449444,
    -2.301784,
    53.449444
  ],
  "geometry": {"coordinates":[-2.301784,53.449444],"type":"Point"}
}
