{
  "id": 1712712923,
  "type": "Feature",
  "properties": {
    "date:cessation_lower": "2000-07-01",
    "date:cessation_upper": "2000-07-01",
    "date:inception_lower": "1980-01-01",
    "date:inception_upper": "1980-01-01",
    "edtf:cessation": "2000-07-01",
    "edtf:inception": "1980-01-01",
    "geom:area": 0,
    "geom:bbox": "-0.399327,51.696779,-0.399327,51.696779",
    "geom:latitude": 51.696779,
    "geom:longitude": -0.399327,
    "iso:country": "GB",
    "mz:hierarchy_label": 1,
    "mz:is_current": 0,
    "os:country_code": "E92000001",
    "os:county_code": "E10000015",
    "os:district_code": "E07000103",
    "os:positional_quality_indicator": "1",
    "os:region_code": "E12000006",
    "src:geom": "os",
    "wof:belongsto": [
      102191581,
      85633159,
      1880771353,
      136253055,
      101751603,
      1880762153,
      404227469,
      1880762721
    ],
    "wof:breaches": [],
    "wof:country": "GB",
    "wof:created": 1583800257,
    "wof:geomhash": "7cfeb81782fb7f0b74743c83e02f55eb",
    "wof:hierarchy": [
      {
        "continent_id": 102191581,
        "country_id": 85633159,
        "county_id": 1880771353,
        "empire_id": 136253055,
        "locality_id": 101751603,
        "macrocounty_id": 1880762153,
        "macroregion_id": 404227469,
        "postalcode_id": 1712712923,
        "region_id": 1880762721
      }
    ],
    "wof:id": 1712712923,
    "wof:lastmodified": 1763548740,
    "wof:name": "WD2 7ES",
    "wof:parent_id": 101751603,
    "wof:placetype": "postalcode",
    "wof:repo": "whosonfirst-data-postalcode-gb",
    "wof:superseded_by": [],
    "wof:supersedes": [],
    "wof:tags": []
  },
  "bbox": [
    -0.399327,
    51.696779,
    -0.399327,
    51.696779
  ],
  "geometry": {"coordinates":[-0.399327,51.696779],"type":"Point"}
}
