{
  "id": 437430111,
  "type": "Feature",
  "properties": {
    "date:inception_lower": "2011-10-01",
    "date:inception_upper": "2011-10-01",
    "edtf:cessation": "",
    "edtf:inception": "2011-10-01",
    "geom:area": 0,
    "geom:bbox": "-2.219814,53.836086,-2.219814,53.836086",
    "geom:latitude": 53.836086,
    "geom:longitude": -2.219814,
    "gp:parent_id": "29760",
    "iso:country": "GB",
    "mz:hierarchy_label": 1,
    "mz:is_current": 1,
    "os:country_code": "E92000001",
    "os:county_code": "E10000017",
    "os:district_code": "E07000122",
    "os:positional_quality_indicator": "1",
    "os:region_code": "E12000002",
    "src:geom": "os",
    "wof:belongsto": [
      85633159,
      102191581,
      136253055,
      1864205719,
      1880771547,
      404435039,
      1126014715,
      1880762053,
      404227469,
      1880762711
    ],
    "wof:breaches": [],
    "wof:concordances": {
      "gp:id": "26894632"
    },
    "wof:country": "GB",
    "wof:created": 1583701156,
    "wof:geomhash": "9cbcc0672c902cf8a2855011fd3047ac",
    "wof:hierarchy": [
      {
        "continent_id": 102191581,
        "country_id": 85633159,
        "county_id": 1880771547,
        "empire_id": 136253055,
        "localadmin_id": 404435039,
        "locality_id": 1126014715,
        "macrocounty_id": 1880762053,
        "macroregion_id": 404227469,
        "postalcode_id": 437430111,
        "region_id": 1880762711
      },
      {
        "continent_id": 102191581,
        "country_id": 85633159,
        "empire_id": 136253055,
        "postalcode_id": 437430111,
        "postalregion_id": 1864205719
      }
    ],
    "wof:id": 437430111,
    "wof:lastmodified": 1763548042,
    "wof:name": "BB9 7HF",
    "wof:parent_id": 1126014715,
    "wof:placetype": "postalcode",
    "wof:repo": "whosonfirst-data-postalcode-gb",
    "wof:superseded_by": [],
    "wof:supersedes": [],
    "wof:tags": []
  },
  "bbox": [
    -2.219814,
    53.836086,
    -2.219814,
    53.836086
  ],
  "geometry": {"coordinates":[-2.219814,53.836086],"type":"Point"}
}
