{
  "id": 39249630,
  "type": "Feature",
  "properties": {
    "date:cessation_lower": "2000-06-01",
    "date:cessation_upper": "2000-06-01",
    "date:inception_lower": "1980-01-01",
    "date:inception_upper": "1980-01-01",
    "edtf:cessation": "2000-06-01",
    "edtf:inception": "1980-01-01",
    "geom:area": 0,
    "geom:bbox": "-0.829719,51.827017,-0.829719,51.827017",
    "geom:latitude": 51.827017,
    "geom:longitude": -0.829719,
    "iso:country": "GB",
    "mz:hierarchy_label": 1,
    "mz:is_current": 0,
    "os:country_code": "E92000001",
    "os:county_code": "E99999999",
    "os:district_code": "E06000060",
    "os:positional_quality_indicator": "1",
    "os:region_code": "E12000008",
    "src:geom": "os",
    "wof:belongsto": [
      85633159,
      102191581,
      136253055,
      1864207663,
      1360698997,
      404442821,
      101750423,
      1880762141,
      404227469,
      1880773087
    ],
    "wof:breaches": [],
    "wof:country": "GB",
    "wof:created": 1583799343,
    "wof:geomhash": "e1af02437a269d65224c8a77f17ebc22",
    "wof:hierarchy": [
      {
        "continent_id": 102191581,
        "country_id": 85633159,
        "county_id": 1360698997,
        "empire_id": 136253055,
        "localadmin_id": 404442821,
        "locality_id": 101750423,
        "macrocounty_id": 1880762141,
        "macroregion_id": 404227469,
        "postalcode_id": 39249630,
        "region_id": 1880773087
      },
      {
        "continent_id": 102191581,
        "country_id": 85633159,
        "empire_id": 136253055,
        "postalcode_id": 39249630,
        "postalregion_id": 1864207663
      }
    ],
    "wof:id": 39249630,
    "wof:lastmodified": 1763548381,
    "wof:name": "HP19 3JW",
    "wof:parent_id": 101750423,
    "wof:placetype": "postalcode",
    "wof:repo": "whosonfirst-data-postalcode-gb",
    "wof:superseded_by": [],
    "wof:supersedes": [],
    "wof:tags": []
  },
  "bbox": [
    -0.829719,
    51.827017,
    -0.829719,
    51.827017
  ],
  "geometry": {"coordinates":[-0.829719,51.827017],"type":"Point"}
}
