{
  "id": 471506745,
  "type": "Feature",
  "properties": {
    "date:inception_lower": "1980-01-01",
    "date:inception_upper": "1980-01-01",
    "edtf:cessation": "",
    "edtf:inception": "1980-01-01",
    "geom:area": 0,
    "geom:bbox": "-2.620868,53.733215,-2.620868,53.733215",
    "geom:latitude": 53.733215,
    "geom:longitude": -2.620868,
    "gp:parent_id": "23616",
    "iso:country": "GB",
    "mz:hierarchy_label": 1,
    "mz:is_current": 1,
    "os:country_code": "E92000001",
    "os:county_code": "E10000017",
    "os:district_code": "E07000126",
    "os:positional_quality_indicator": "1",
    "os:region_code": "E12000002",
    "src:geom": "os",
    "wof:belongsto": [
      85633159,
      102191581,
      136253055,
      1864210003,
      1880771537,
      1360817475,
      1126026757,
      1880762053,
      404227469,
      1880762711
    ],
    "wof:breaches": [],
    "wof:concordances": {
      "gp:id": "27800976"
    },
    "wof:country": "GB",
    "wof:created": 1583701648,
    "wof:geomhash": "d4fd6587e8d1ed16c685949df48d18f3",
    "wof:hierarchy": [
      {
        "continent_id": 102191581,
        "country_id": 85633159,
        "county_id": 1880771537,
        "empire_id": 136253055,
        "localadmin_id": 1360817475,
        "locality_id": 1126026757,
        "macrocounty_id": 1880762053,
        "macroregion_id": 404227469,
        "postalcode_id": 471506745,
        "region_id": 1880762711
      },
      {
        "continent_id": 102191581,
        "country_id": 85633159,
        "empire_id": 136253055,
        "postalcode_id": 471506745,
        "postalregion_id": 1864210003
      }
    ],
    "wof:id": 471506745,
    "wof:lastmodified": 1763548221,
    "wof:name": "PR5 0EB",
    "wof:parent_id": 1126026757,
    "wof:placetype": "postalcode",
    "wof:repo": "whosonfirst-data-postalcode-gb",
    "wof:superseded_by": [],
    "wof:supersedes": [],
    "wof:tags": []
  },
  "bbox": [
    -2.620868,
    53.733215,
    -2.620868,
    53.733215
  ],
  "geometry": {"coordinates":[-2.620868,53.733215],"type":"Point"}
}
