{
  "id": 1712663249,
  "type": "Feature",
  "properties": {
    "date:cessation_lower": "1983-12-01",
    "date:cessation_upper": "1983-12-01",
    "date:inception_lower": "1980-01-01",
    "date:inception_upper": "1980-01-01",
    "edtf:cessation": "1983-12-01",
    "edtf:inception": "1980-01-01",
    "geom:area": 0,
    "geom:bbox": "-2.479130,53.747428,-2.479130,53.747428",
    "geom:latitude": 53.747428,
    "geom:longitude": -2.47913,
    "iso:country": "GB",
    "mz:hierarchy_label": 1,
    "mz:is_current": 0,
    "os:country_code": "E92000001",
    "os:county_code": "E99999999",
    "os:district_code": "E06000008",
    "os:positional_quality_indicator": "8",
    "os:region_code": "E12000002",
    "src:geom": "os",
    "wof:belongsto": [
      85633159,
      102191581,
      136253055,
      1864205693,
      1360698999,
      101750575,
      1880762053,
      404227469,
      1880762711
    ],
    "wof:breaches": [],
    "wof:country": "GB",
    "wof:created": 1583798071,
    "wof:geomhash": "e8efc4a362228e406b302efdefe2d79e",
    "wof:hierarchy": [
      {
        "continent_id": 102191581,
        "country_id": 85633159,
        "county_id": 1360698999,
        "empire_id": 136253055,
        "locality_id": 101750575,
        "macrocounty_id": 1880762053,
        "macroregion_id": 404227469,
        "postalcode_id": 1712663249,
        "region_id": 1880762711
      },
      {
        "continent_id": 102191581,
        "country_id": 85633159,
        "empire_id": 136253055,
        "postalcode_id": 1712663249,
        "postalregion_id": 1864205693
      }
    ],
    "wof:id": 1712663249,
    "wof:lastmodified": 1763548686,
    "wof:name": "BB1 1HA",
    "wof:parent_id": 101750575,
    "wof:placetype": "postalcode",
    "wof:repo": "whosonfirst-data-postalcode-gb",
    "wof:superseded_by": [],
    "wof:supersedes": [],
    "wof:tags": []
  },
  "bbox": [
    -2.47913,
    53.747428,
    -2.47913,
    53.747428
  ],
  "geometry": {"coordinates":[-2.47913,53.747428],"type":"Point"}
}
