{
  "id": 1161101452,
  "type": "Feature",
  "properties": {
    "date:cessation_lower": "1997-06-01",
    "date:cessation_upper": "1997-06-01",
    "date:inception_lower": "1995-07-01",
    "date:inception_upper": "1995-07-01",
    "edtf:cessation": "1997-06-01",
    "edtf:inception": "1995-07-01",
    "geom:area": 0,
    "geom:bbox": "0.166337,51.852337,0.166337,51.852337",
    "geom:latitude": 51.852337,
    "geom:longitude": 0.166337,
    "iso:country": "GB",
    "mz:hierarchy_label": 1,
    "mz:is_current": 0,
    "os:country_code": "E92000001",
    "os:county_code": "E10000015",
    "os:district_code": "E07000242",
    "os:positional_quality_indicator": "8",
    "os:region_code": "E12000006",
    "src:geom": "os",
    "wof:belongsto": [
      85633159,
      102191581,
      136253055,
      1864206357,
      1880771491,
      404455267,
      1125911775,
      1880762153,
      404227469,
      1880762721
    ],
    "wof:breaches": [],
    "wof:country": "GB",
    "wof:created": 1583803916,
    "wof:geomhash": "55a5c169e3cdc85af1c663e269cde2cb",
    "wof:hierarchy": [
      {
        "continent_id": 102191581,
        "country_id": 85633159,
        "county_id": 1880771491,
        "empire_id": 136253055,
        "localadmin_id": 404455267,
        "locality_id": 1125911775,
        "macrocounty_id": 1880762153,
        "macroregion_id": 404227469,
        "postalcode_id": 1161101452,
        "region_id": 1880762721
      },
      {
        "continent_id": 102191581,
        "country_id": 85633159,
        "empire_id": 136253055,
        "postalcode_id": 1161101452,
        "postalregion_id": 1864206357
      }
    ],
    "wof:id": 1161101452,
    "wof:lastmodified": 1763548281,
    "wof:name": "CM23 3HQ",
    "wof:parent_id": 1125911775,
    "wof:placetype": "postalcode",
    "wof:repo": "whosonfirst-data-postalcode-gb",
    "wof:superseded_by": [],
    "wof:supersedes": [],
    "wof:tags": []
  },
  "bbox": [
    0.166337,
    51.852337,
    0.166337,
    51.852337
  ],
  "geometry": {"coordinates":[0.166337,51.852337],"type":"Point"}
}
