{
  "id": 1712656759,
  "type": "Feature",
  "properties": {
    "date:cessation_lower": "1991-12-01",
    "date:cessation_upper": "1991-12-01",
    "date:inception_lower": "1980-01-01",
    "date:inception_upper": "1980-01-01",
    "edtf:cessation": "1991-12-01",
    "edtf:inception": "1980-01-01",
    "geom:area": 0,
    "geom:bbox": "-1.343883,51.939684,-1.343883,51.939684",
    "geom:latitude": 51.939684,
    "geom:longitude": -1.343883,
    "iso:country": "GB",
    "mz:hierarchy_label": 1,
    "mz:is_current": 0,
    "os:country_code": "E92000001",
    "os:county_code": "E10000025",
    "os:district_code": "E07000181",
    "os:positional_quality_indicator": "8",
    "os:region_code": "E12000008",
    "src:geom": "os",
    "wof:belongsto": [
      85633159,
      102191581,
      136253055,
      1864209495,
      1880771615,
      404431727,
      1125865229,
      1880762079,
      404227469,
      1880762695
    ],
    "wof:breaches": [],
    "wof:country": "GB",
    "wof:created": 1583797774,
    "wof:geomhash": "5566744bc844826efd3d8d9c0fd42c2d",
    "wof:hierarchy": [
      {
        "continent_id": 102191581,
        "country_id": 85633159,
        "county_id": 1880771615,
        "empire_id": 136253055,
        "localadmin_id": 404431727,
        "locality_id": 1125865229,
        "macrocounty_id": 1880762079,
        "macroregion_id": 404227469,
        "postalcode_id": 1712656759,
        "region_id": 1880762695
      },
      {
        "continent_id": 102191581,
        "country_id": 85633159,
        "empire_id": 136253055,
        "postalcode_id": 1712656759,
        "postalregion_id": 1864209495
      }
    ],
    "wof:id": 1712656759,
    "wof:lastmodified": 1763548747,
    "wof:name": "OX5 4DQ",
    "wof:parent_id": 1125865229,
    "wof:placetype": "postalcode",
    "wof:repo": "whosonfirst-data-postalcode-gb",
    "wof:superseded_by": [],
    "wof:supersedes": [],
    "wof:tags": []
  },
  "bbox": [
    -1.343883,
    51.939684,
    -1.343883,
    51.939684
  ],
  "geometry": {"coordinates":[-1.343883,51.939684],"type":"Point"}
}
