{
  "id": 437997269,
  "type": "Feature",
  "properties": {
    "date:inception_lower": "1980-01-01",
    "date:inception_upper": "1980-01-01",
    "edtf:cessation": "",
    "edtf:inception": "1980-01-01",
    "geom:area": 0,
    "geom:bbox": "-2.018970,52.378162,-2.018970,52.378162",
    "geom:latitude": 52.378162,
    "geom:longitude": -2.01897,
    "iso:country": "GB",
    "mz:hierarchy_label": 1,
    "mz:is_current": 1,
    "os:country_code": "E92000001",
    "os:county_code": "E10000034",
    "os:district_code": "E07000234",
    "os:positional_quality_indicator": "1",
    "os:region_code": "E12000005",
    "src:geom": "os",
    "wof:belongsto": [
      85633159,
      102191581,
      136253055,
      1864205555,
      1880771703,
      404435805,
      1360757897,
      1880762019
    ],
    "wof:breaches": [],
    "wof:concordances": {
      "gp:id": "26856731"
    },
    "wof:country": "GB",
    "wof:created": 1583701670,
    "wof:geomhash": "7597fb22c11929bc4e72d12c8615077e",
    "wof:hierarchy": [
      {
        "continent_id": -1,
        "country_id": -1,
        "county_id": 1880771703,
        "localadmin_id": 404435805,
        "locality_id": 1360757897,
        "macrocounty_id": 1880762019,
        "postalcode_id": 437997269,
        "region_id": -1
      },
      {
        "continent_id": 102191581,
        "country_id": 85633159,
        "empire_id": 136253055,
        "postalcode_id": 437997269,
        "postalregion_id": 1864205555
      }
    ],
    "wof:id": 437997269,
    "wof:lastmodified": 1763547963,
    "wof:name": "B45 9QJ",
    "wof:parent_id": 1360757897,
    "wof:placetype": "postalcode",
    "wof:repo": "whosonfirst-data-postalcode-gb",
    "wof:superseded_by": [],
    "wof:supersedes": [],
    "wof:tags": []
  },
  "bbox": [
    -2.01897,
    52.378162,
    -2.01897,
    52.378162
  ],
  "geometry": {"coordinates":[-2.01897,52.378162],"type":"Point"}
}
