{
  "id": 437726539,
  "type": "Feature",
  "properties": {
    "date:cessation_lower": "2004-08-01",
    "date:cessation_upper": "2004-08-01",
    "date:inception_lower": "2003-07-01",
    "date:inception_upper": "2003-07-01",
    "edtf:cessation": "2004-08-01",
    "edtf:inception": "2003-07-01",
    "geom:area": 0,
    "geom:bbox": "-2.114497,57.188679,-2.114497,57.188679",
    "geom:latitude": 57.188679,
    "geom:longitude": -2.114497,
    "gp:parent_id": "13837",
    "iso:country": "GB",
    "mz:hierarchy_label": 1,
    "mz:is_current": 0,
    "os:country_code": "S92000003",
    "os:county_code": "S99999999",
    "os:district_code": "S12000033",
    "os:positional_quality_indicator": "5",
    "os:region_code": "S99999999",
    "src:geom": "os",
    "wof:belongsto": [
      85633159,
      102191581,
      136253055,
      1864205395,
      1360698989,
      1880762093,
      404227471,
      1880773079
    ],
    "wof:breaches": [],
    "wof:concordances": {
      "gp:id": "28837220"
    },
    "wof:country": "GB",
    "wof:created": 1583701510,
    "wof:geomhash": "d21f1d2a83bfd9e50f4164ca1fa5f641",
    "wof:hierarchy": [
      {
        "continent_id": 102191581,
        "country_id": 85633159,
        "county_id": 1360698989,
        "empire_id": 136253055,
        "macrocounty_id": 1880762093,
        "macroregion_id": 404227471,
        "postalcode_id": 437726539,
        "region_id": 1880773079
      },
      {
        "continent_id": 102191581,
        "country_id": 85633159,
        "empire_id": 136253055,
        "postalcode_id": 437726539,
        "postalregion_id": 1864205395
      }
    ],
    "wof:id": 437726539,
    "wof:lastmodified": 1763548283,
    "wof:name": "AB22 8HN",
    "wof:parent_id": 1360698989,
    "wof:placetype": "postalcode",
    "wof:repo": "whosonfirst-data-postalcode-gb",
    "wof:superseded_by": [],
    "wof:supersedes": [],
    "wof:tags": []
  },
  "bbox": [
    -2.114497,
    57.188679,
    -2.114497,
    57.188679
  ],
  "geometry": {"coordinates":[-2.114497,57.188679],"type":"Point"}
}
