{
  "id": 454882367,
  "type": "Feature",
  "properties": {
    "date:inception_lower": "1986-07-01",
    "date:inception_upper": "1986-07-01",
    "edtf:cessation": "",
    "edtf:inception": "1986-07-01",
    "geom:area": 0,
    "geom:bbox": "0.807777,52.579263,0.807777,52.579263",
    "geom:latitude": 52.579263,
    "geom:longitude": 0.807777,
    "gp:parent_id": "33867",
    "iso:country": "GB",
    "mz:hierarchy_label": 1,
    "mz:is_current": 1,
    "os:country_code": "E92000001",
    "os:county_code": "E10000020",
    "os:district_code": "E07000143",
    "os:positional_quality_indicator": "1",
    "os:region_code": "E12000006",
    "src:geom": "os",
    "wof:belongsto": [
      85633159,
      102191581,
      136253055,
      1864207859,
      1880771591,
      404432029,
      1125969211,
      1880762037,
      404227469,
      1880762699
    ],
    "wof:breaches": [],
    "wof:concordances": {
      "gp:id": "27399887"
    },
    "wof:country": "GB",
    "wof:created": 1583701745,
    "wof:geomhash": "029a40f7524db724f99d0fc4d5f7c5b5",
    "wof:hierarchy": [
      {
        "continent_id": 102191581,
        "country_id": 85633159,
        "county_id": 1880771591,
        "empire_id": 136253055,
        "localadmin_id": 404432029,
        "locality_id": 1125969211,
        "macrocounty_id": 1880762037,
        "macroregion_id": 404227469,
        "postalcode_id": 454882367,
        "region_id": 1880762699
      },
      {
        "continent_id": 102191581,
        "country_id": 85633159,
        "empire_id": 136253055,
        "postalcode_id": 454882367,
        "postalregion_id": 1864207859
      }
    ],
    "wof:id": 454882367,
    "wof:lastmodified": 1763548481,
    "wof:name": "IP25 7HS",
    "wof:parent_id": 1125969211,
    "wof:placetype": "postalcode",
    "wof:repo": "whosonfirst-data-postalcode-gb",
    "wof:superseded_by": [],
    "wof:supersedes": [],
    "wof:tags": []
  },
  "bbox": [
    0.807777,
    52.579263,
    0.807777,
    52.579263
  ],
  "geometry": {"coordinates":[0.807777,52.579263],"type":"Point"}
}
