{
  "id": 1998350673,
  "type": "Feature",
  "properties": {
    "date:inception_lower": "2025-05-01",
    "date:inception_upper": "2025-05-01",
    "edtf:cessation": "",
    "edtf:inception": "2025-05-01",
    "geom:area": 0,
    "geom:bbox": "-2.731672,51.592166,-2.731672,51.592166",
    "geom:latitude": 51.592166,
    "geom:longitude": -2.731672,
    "iso:country": "GB",
    "mz:hierarchy_label": 1,
    "mz:is_current": 1,
    "os:country_code": "W92000004",
    "os:county_code": "W99999999",
    "os:district_code": "W06000021",
    "os:positional_quality_indicator": "1",
    "os:region_code": "W99999999",
    "src:geom": "os",
    "wof:belongsto": [
      102191581,
      85633159,
      1360699109,
      136253055,
      404430083,
      1125904863,
      1880762173,
      404227475,
      1880773189,
      1864209289
    ],
    "wof:breaches": [],
    "wof:country": "GB",
    "wof:created": 1763549311,
    "wof:geomhash": "a47f3bda98addf316dac3df6c40cb65a",
    "wof:hierarchy": [
      {
        "continent_id": 102191581,
        "country_id": 85633159,
        "county_id": 1360699109,
        "empire_id": 136253055,
        "localadmin_id": 404430083,
        "locality_id": 1125904863,
        "macrocounty_id": 1880762173,
        "macroregion_id": 404227475,
        "postalcode_id": 1998350673,
        "region_id": 1880773189
      },
      {
        "continent_id": 102191581,
        "country_id": 85633159,
        "empire_id": 136253055,
        "postalcode_id": 1998350673,
        "postalregion_id": 1864209289
      }
    ],
    "wof:id": 1998350673,
    "wof:lastmodified": 1763549311,
    "wof:name": "NP26 5DP",
    "wof:parent_id": 1125904863,
    "wof:placetype": "postalcode",
    "wof:repo": "whosonfirst-data-postalcode-gb",
    "wof:superseded_by": [],
    "wof:supersedes": [],
    "wof:tags": []
  },
  "bbox": [
    -2.731672,
    51.592166,
    -2.731672,
    51.592166
  ],
  "geometry": {"coordinates":[-2.731672,51.592166],"type":"Point"}
}
