{
  "id": 1160880672,
  "type": "Feature",
  "properties": {
    "date:cessation_lower": "1995-07-01",
    "date:cessation_upper": "1995-07-01",
    "date:inception_lower": "1994-12-01",
    "date:inception_upper": "1994-12-01",
    "edtf:cessation": "1995-07-01",
    "edtf:inception": "1994-12-01",
    "geom:area": 0,
    "geom:bbox": "-3.409771,50.729875,-3.409771,50.729875",
    "geom:latitude": 50.729875,
    "geom:longitude": -3.409771,
    "iso:country": "GB",
    "mz:hierarchy_label": 1,
    "mz:is_current": 0,
    "os:country_code": "E92000001",
    "os:county_code": "E10000008",
    "os:district_code": "E07000040",
    "os:positional_quality_indicator": "8",
    "os:region_code": "E12000009",
    "src:geom": "os",
    "wof:belongsto": [
      85633159,
      102191581,
      136253055,
      1864207241,
      1880771397,
      404435455,
      1125800231,
      1880762149,
      404227469,
      1880762683
    ],
    "wof:breaches": [],
    "wof:country": "GB",
    "wof:created": 1583794123,
    "wof:geomhash": "c86056b21fea589aa3634ded47daca5c",
    "wof:hierarchy": [
      {
        "continent_id": 102191581,
        "country_id": 85633159,
        "county_id": 1880771397,
        "empire_id": 136253055,
        "localadmin_id": 404435455,
        "locality_id": 1125800231,
        "macrocounty_id": 1880762149,
        "macroregion_id": 404227469,
        "postalcode_id": 1160880672,
        "region_id": 1880762683
      },
      {
        "continent_id": 102191581,
        "country_id": 85633159,
        "empire_id": 136253055,
        "postalcode_id": 1160880672,
        "postalregion_id": 1864207241
      }
    ],
    "wof:id": 1160880672,
    "wof:lastmodified": 1763548332,
    "wof:name": "EX5 2YX",
    "wof:parent_id": 1125800231,
    "wof:placetype": "postalcode",
    "wof:repo": "whosonfirst-data-postalcode-gb",
    "wof:superseded_by": [],
    "wof:supersedes": [],
    "wof:tags": []
  },
  "bbox": [
    -3.409771,
    50.729875,
    -3.409771,
    50.729875
  ],
  "geometry": {"coordinates":[-3.409771,50.729875],"type":"Point"}
}
