{
  "id": 454990655,
  "type": "Feature",
  "properties": {
    "date:inception_lower": "1980-01-01",
    "date:inception_upper": "1980-01-01",
    "edtf:cessation": "",
    "edtf:inception": "1980-01-01",
    "geom:area": 0,
    "geom:bbox": "-2.509840,54.120753,-2.509840,54.120753",
    "geom:latitude": 54.120753,
    "geom:longitude": -2.50984,
    "gp:parent_id": "12602195",
    "iso:country": "GB",
    "mz:hierarchy_label": 1,
    "mz:is_current": 1,
    "os:country_code": "E92000001",
    "os:county_code": "E99999999",
    "os:district_code": "E06000065",
    "os:positional_quality_indicator": "1",
    "os:region_code": "E12000003",
    "src:geom": "os",
    "wof:belongsto": [
      85633159,
      102191581,
      136253055,
      1864208345,
      1360698753,
      404436793,
      1360758935,
      1880762011,
      404227469,
      1880772891
    ],
    "wof:breaches": [],
    "wof:concordances": {
      "gp:id": "27462230"
    },
    "wof:country": "GB",
    "wof:created": 1583701766,
    "wof:geomhash": "b758852614f90cfd0d6b3f6d3afc5668",
    "wof:hierarchy": [
      {
        "continent_id": 102191581,
        "country_id": 85633159,
        "county_id": 1360698753,
        "empire_id": 136253055,
        "localadmin_id": 404436793,
        "locality_id": 1360758935,
        "macrocounty_id": 1880762011,
        "macroregion_id": 404227469,
        "postalcode_id": 454990655,
        "region_id": 1880772891
      },
      {
        "continent_id": 102191581,
        "country_id": 85633159,
        "empire_id": 136253055,
        "postalcode_id": 454990655,
        "postalregion_id": 1864208345
      }
    ],
    "wof:id": 454990655,
    "wof:lastmodified": 1763548233,
    "wof:name": "LA2 7JJ",
    "wof:parent_id": 1360758935,
    "wof:placetype": "postalcode",
    "wof:repo": "whosonfirst-data-postalcode-gb",
    "wof:superseded_by": [],
    "wof:supersedes": [],
    "wof:tags": []
  },
  "bbox": [
    -2.50984,
    54.120753,
    -2.50984,
    54.120753
  ],
  "geometry": {"coordinates":[-2.50984,54.120753],"type":"Point"}
}
