{
  "id": 488142305,
  "type": "Feature",
  "properties": {
    "date:inception_lower": "2001-12-01",
    "date:inception_upper": "2001-12-01",
    "edtf:cessation": "",
    "edtf:inception": "2001-12-01",
    "geom:area": 0,
    "geom:bbox": "-1.374572,53.680040,-1.374572,53.680040",
    "geom:latitude": 53.68004,
    "geom:longitude": -1.374572,
    "gp:parent_id": "20014",
    "iso:country": "GB",
    "mz:hierarchy_label": 1,
    "mz:is_current": 1,
    "os:country_code": "E92000001",
    "os:county_code": "E99999999",
    "os:district_code": "E08000036",
    "os:positional_quality_indicator": "1",
    "os:region_code": "E12000003",
    "src:geom": "os",
    "wof:belongsto": [
      85633159,
      102191581,
      136253055,
      1864211577,
      1360698945,
      404445309,
      1209650655,
      1880762059,
      404227469,
      1880773017
    ],
    "wof:breaches": [],
    "wof:concordances": {
      "gp:id": "28157701"
    },
    "wof:country": "GB",
    "wof:created": 1583701272,
    "wof:geomhash": "7335ae07176a398c7b52e75a6b300b8f",
    "wof:hierarchy": [
      {
        "continent_id": 102191581,
        "country_id": 85633159,
        "county_id": 1360698945,
        "empire_id": 136253055,
        "localadmin_id": 404445309,
        "locality_id": 1209650655,
        "macrocounty_id": 1880762059,
        "macroregion_id": 404227469,
        "postalcode_id": 488142305,
        "region_id": 1880773017
      },
      {
        "continent_id": 102191581,
        "country_id": 85633159,
        "empire_id": 136253055,
        "postalcode_id": 488142305,
        "postalregion_id": 1864211577
      }
    ],
    "wof:id": 488142305,
    "wof:lastmodified": 1763548500,
    "wof:name": "WF7 6RA",
    "wof:parent_id": 1209650655,
    "wof:placetype": "postalcode",
    "wof:repo": "whosonfirst-data-postalcode-gb",
    "wof:superseded_by": [],
    "wof:supersedes": [],
    "wof:tags": []
  },
  "bbox": [
    -1.374572,
    53.68004,
    -1.374572,
    53.68004
  ],
  "geometry": {"coordinates":[-1.374572,53.68004],"type":"Point"}
}
