{
  "id": 471156739,
  "type": "Feature",
  "properties": {
    "date:inception_lower": "2004-11-01",
    "date:inception_upper": "2004-11-01",
    "edtf:cessation": "",
    "edtf:inception": "2004-11-01",
    "geom:area": 0,
    "geom:bbox": "-1.226662,52.955894,-1.226662,52.955894",
    "geom:latitude": 52.955894,
    "geom:longitude": -1.226662,
    "gp:parent_id": "30720",
    "iso:country": "GB",
    "mz:hierarchy_label": 1,
    "mz:is_current": 1,
    "os:country_code": "E92000001",
    "os:county_code": "E99999999",
    "os:district_code": "E06000018",
    "os:positional_quality_indicator": "1",
    "os:region_code": "E12000004",
    "src:geom": "os",
    "wof:belongsto": [
      85633159,
      102191581,
      136253055,
      1864209207,
      1360698801,
      1175612705,
      1880762077,
      404227469,
      1880762689
    ],
    "wof:breaches": [],
    "wof:concordances": {
      "gp:id": "28211863"
    },
    "wof:country": "GB",
    "wof:created": 1583701350,
    "wof:geomhash": "2b02cd897d07993e74a8e62010e2bf5f",
    "wof:hierarchy": [
      {
        "continent_id": 102191581,
        "country_id": 85633159,
        "county_id": 1360698801,
        "empire_id": 136253055,
        "locality_id": 1175612705,
        "macrocounty_id": 1880762077,
        "macroregion_id": 404227469,
        "postalcode_id": 471156739,
        "region_id": 1880762689
      },
      {
        "continent_id": 102191581,
        "country_id": 85633159,
        "empire_id": 136253055,
        "postalcode_id": 471156739,
        "postalregion_id": 1864209207
      }
    ],
    "wof:id": 471156739,
    "wof:lastmodified": 1763547992,
    "wof:name": "NG8 2AU",
    "wof:parent_id": 1175612705,
    "wof:placetype": "postalcode",
    "wof:repo": "whosonfirst-data-postalcode-gb",
    "wof:superseded_by": [],
    "wof:supersedes": [],
    "wof:tags": []
  },
  "bbox": [
    -1.226662,
    52.955894,
    -1.226662,
    52.955894
  ],
  "geometry": {"coordinates":[-1.226662,52.955894],"type":"Point"}
}
