{
  "id": 504516111,
  "type": "Feature",
  "properties": {
    "date:inception_lower": "1993-08-01",
    "date:inception_upper": "1993-08-01",
    "edtf:cessation": "",
    "edtf:inception": "1993-08-01",
    "geom:area": 0,
    "geom:bbox": "-4.313460,53.389772,-4.313460,53.389772",
    "geom:latitude": 53.389772,
    "geom:longitude": -4.31346,
    "gp:parent_id": "12696117",
    "iso:country": "GB",
    "mz:hierarchy_label": 1,
    "mz:is_current": 1,
    "os:country_code": "W92000004",
    "os:county_code": "W99999999",
    "os:district_code": "W06000001",
    "os:positional_quality_indicator": "1",
    "os:region_code": "W99999999",
    "src:geom": "os",
    "wof:belongsto": [
      85633159,
      102191581,
      136253055,
      1864208575,
      1360698787,
      404454803,
      1125911375,
      1880762187,
      404227475,
      1880773051
    ],
    "wof:breaches": [],
    "wof:concordances": {
      "gp:id": "27503038"
    },
    "wof:country": "GB",
    "wof:created": 1583701397,
    "wof:geomhash": "9c2d83f544f550b159d8fead1c32aa56",
    "wof:hierarchy": [
      {
        "continent_id": 102191581,
        "country_id": 85633159,
        "county_id": 1360698787,
        "empire_id": 136253055,
        "localadmin_id": 404454803,
        "locality_id": 1125911375,
        "macrocounty_id": 1880762187,
        "macroregion_id": 404227475,
        "postalcode_id": 504516111,
        "region_id": 1880773051
      },
      {
        "continent_id": 102191581,
        "country_id": 85633159,
        "empire_id": 136253055,
        "postalcode_id": 504516111,
        "postalregion_id": 1864208575
      }
    ],
    "wof:id": 504516111,
    "wof:lastmodified": 1763548056,
    "wof:name": "LL69 9BJ",
    "wof:parent_id": 1125911375,
    "wof:placetype": "postalcode",
    "wof:repo": "whosonfirst-data-postalcode-gb",
    "wof:superseded_by": [],
    "wof:supersedes": [],
    "wof:tags": []
  },
  "bbox": [
    -4.31346,
    53.389772,
    -4.31346,
    53.389772
  ],
  "geometry": {"coordinates":[-4.31346,53.389772],"type":"Point"}
}
