{
  "id": 471329627,
  "type": "Feature",
  "properties": {
    "date:inception_lower": "2000-10-01",
    "date:inception_upper": "2000-10-01",
    "edtf:cessation": "",
    "edtf:inception": "2000-10-01",
    "geom:area": 0,
    "geom:bbox": "-1.143693,51.889675,-1.143693,51.889675",
    "geom:latitude": 51.889675,
    "geom:longitude": -1.143693,
    "iso:country": "GB",
    "mz:hierarchy_label": 1,
    "mz:is_current": 1,
    "os:country_code": "E92000001",
    "os:county_code": "E10000025",
    "os:district_code": "E07000177",
    "os:positional_quality_indicator": "1",
    "os:region_code": "E12000008",
    "src:geom": "os",
    "wof:belongsto": [
      85633159,
      102191581,
      136253055,
      1864209473,
      1880771613,
      404454093,
      101852925,
      1880762079,
      404227469,
      1880762695
    ],
    "wof:breaches": [],
    "wof:concordances": {
      "gp:id": "27723767"
    },
    "wof:country": "GB",
    "wof:created": 1583701506,
    "wof:geomhash": "dc95ad0a1f0e46b966a13ae03f8419d9",
    "wof:hierarchy": [
      {
        "continent_id": 102191581,
        "country_id": 85633159,
        "county_id": 1880771613,
        "empire_id": 136253055,
        "localadmin_id": 404454093,
        "locality_id": 101852925,
        "macrocounty_id": 1880762079,
        "macroregion_id": 404227469,
        "postalcode_id": 471329627,
        "region_id": 1880762695
      },
      {
        "continent_id": 102191581,
        "country_id": 85633159,
        "empire_id": 136253055,
        "postalcode_id": 471329627,
        "postalregion_id": 1864209473
      }
    ],
    "wof:id": 471329627,
    "wof:lastmodified": 1763548402,
    "wof:name": "OX26 6XS",
    "wof:parent_id": 101852925,
    "wof:placetype": "postalcode",
    "wof:repo": "whosonfirst-data-postalcode-gb",
    "wof:superseded_by": [],
    "wof:supersedes": [],
    "wof:tags": []
  },
  "bbox": [
    -1.143693,
    51.889675,
    -1.143693,
    51.889675
  ],
  "geometry": {"coordinates":[-1.143693,51.889675],"type":"Point"}
}
