{
  "id": 1160919724,
  "type": "Feature",
  "properties": {
    "date:cessation_lower": "1996-06-01",
    "date:cessation_upper": "1996-06-01",
    "date:inception_lower": "1980-01-01",
    "date:inception_upper": "1980-01-01",
    "edtf:cessation": "1996-06-01",
    "edtf:inception": "1980-01-01",
    "geom:area": 0,
    "geom:bbox": "-2.114319,57.120085,-2.114319,57.120085",
    "geom:latitude": 57.120085,
    "geom:longitude": -2.114319,
    "iso:country": "GB",
    "mz:hierarchy_label": 1,
    "mz:is_current": 0,
    "os:country_code": "S92000003",
    "os:county_code": "S99999999",
    "os:district_code": "S12000033",
    "os:positional_quality_indicator": "1",
    "os:region_code": "S99999999",
    "src:geom": "os",
    "wof:belongsto": [
      102191581,
      85633159,
      1360698989,
      136253055,
      101750639,
      1880762093,
      404227471,
      1880773079
    ],
    "wof:breaches": [],
    "wof:country": "GB",
    "wof:created": 1583795833,
    "wof:geomhash": "241de38f0f743dbdd6dcbe1cf499f904",
    "wof:hierarchy": [
      {
        "continent_id": 102191581,
        "country_id": 85633159,
        "county_id": 1360698989,
        "empire_id": 136253055,
        "locality_id": 101750639,
        "macrocounty_id": 1880762093,
        "macroregion_id": 404227471,
        "postalcode_id": 1160919724,
        "region_id": 1880773079
      }
    ],
    "wof:id": 1160919724,
    "wof:lastmodified": 1763548256,
    "wof:name": "AB1 5RJ",
    "wof:parent_id": 101750639,
    "wof:placetype": "postalcode",
    "wof:repo": "whosonfirst-data-postalcode-gb",
    "wof:superseded_by": [],
    "wof:supersedes": [],
    "wof:tags": []
  },
  "bbox": [
    -2.114319,
    57.120085,
    -2.114319,
    57.120085
  ],
  "geometry": {"coordinates":[-2.114319,57.120085],"type":"Point"}
}
