{
  "id": 504608773,
  "type": "Feature",
  "properties": {
    "date:inception_lower": "1980-01-01",
    "date:inception_upper": "1980-01-01",
    "edtf:cessation": "",
    "edtf:inception": "1980-01-01",
    "geom:area": 0,
    "geom:bbox": "-3.861715,51.704946,-3.861715,51.704946",
    "geom:latitude": 51.704946,
    "geom:longitude": -3.861715,
    "gp:parent_id": "21089",
    "iso:country": "GB",
    "mz:hierarchy_label": 1,
    "mz:is_current": 1,
    "os:country_code": "W92000004",
    "os:county_code": "W99999999",
    "os:district_code": "W06000012",
    "os:positional_quality_indicator": "1",
    "os:region_code": "W99999999",
    "src:geom": "os",
    "wof:belongsto": [
      85633159,
      102191581,
      136253055,
      1864210387,
      1360698825,
      404435719,
      1209750809,
      1880762113,
      404227475,
      1880773177
    ],
    "wof:breaches": [],
    "wof:concordances": {
      "gp:id": "27886706"
    },
    "wof:country": "GB",
    "wof:created": 1583701477,
    "wof:geomhash": "51d05795aac00f1c614eafad99e9c605",
    "wof:hierarchy": [
      {
        "continent_id": 102191581,
        "country_id": 85633159,
        "county_id": 1360698825,
        "empire_id": 136253055,
        "localadmin_id": 404435719,
        "locality_id": 1209750809,
        "macrocounty_id": 1880762113,
        "macroregion_id": 404227475,
        "postalcode_id": 504608773,
        "region_id": 1880773177
      },
      {
        "continent_id": 102191581,
        "country_id": 85633159,
        "empire_id": 136253055,
        "postalcode_id": 504608773,
        "postalregion_id": 1864210387
      }
    ],
    "wof:id": 504608773,
    "wof:lastmodified": 1763548136,
    "wof:name": "SA7 9JE",
    "wof:parent_id": 1209750809,
    "wof:placetype": "postalcode",
    "wof:repo": "whosonfirst-data-postalcode-gb",
    "wof:superseded_by": [],
    "wof:supersedes": [],
    "wof:tags": []
  },
  "bbox": [
    -3.861715,
    51.704946,
    -3.861715,
    51.704946
  ],
  "geometry": {"coordinates":[-3.861715,51.704946],"type":"Point"}
}
