{
  "id": 1998348865,
  "type": "Feature",
  "properties": {
    "date:inception_lower": "2025-02-01",
    "date:inception_upper": "2025-02-01",
    "edtf:cessation": "",
    "edtf:inception": "2025-02-01",
    "geom:area": 0,
    "geom:bbox": "0.450044,51.743349,0.450044,51.743349",
    "geom:latitude": 51.743349,
    "geom:longitude": 0.450044,
    "iso:country": "GB",
    "mz:hierarchy_label": 1,
    "mz:is_current": 1,
    "os:country_code": "E92000001",
    "os:county_code": "E10000012",
    "os:district_code": "E07000070",
    "os:positional_quality_indicator": "1",
    "os:region_code": "E12000006",
    "src:geom": "os",
    "wof:belongsto": [
      102191581,
      85633159,
      1880771431,
      136253055,
      101750411,
      1880762159,
      404227469,
      1880762723,
      1864206325
    ],
    "wof:breaches": [],
    "wof:country": "GB",
    "wof:created": 1763549231,
    "wof:geomhash": "bece4d274b7a5bcb3bfa9f093ddc451b",
    "wof:hierarchy": [
      {
        "continent_id": 102191581,
        "country_id": 85633159,
        "county_id": 1880771431,
        "empire_id": 136253055,
        "locality_id": 101750411,
        "macrocounty_id": 1880762159,
        "macroregion_id": 404227469,
        "postalcode_id": 1998348865,
        "region_id": 1880762723
      },
      {
        "continent_id": 102191581,
        "country_id": 85633159,
        "empire_id": 136253055,
        "postalcode_id": 1998348865,
        "postalregion_id": 1864206325
      }
    ],
    "wof:id": 1998348865,
    "wof:lastmodified": 1763549231,
    "wof:name": "CM1 2XT",
    "wof:parent_id": 101750411,
    "wof:placetype": "postalcode",
    "wof:repo": "whosonfirst-data-postalcode-gb",
    "wof:superseded_by": [],
    "wof:supersedes": [],
    "wof:tags": []
  },
  "bbox": [
    0.450044,
    51.743349,
    0.450044,
    51.743349
  ],
  "geometry": {"coordinates":[0.450044,51.743349],"type":"Point"}
}
