{
  "id": 455032177,
  "type": "Feature",
  "properties": {
    "date:inception_lower": "1980-01-01",
    "date:inception_upper": "1980-01-01",
    "edtf:cessation": "",
    "edtf:inception": "1980-01-01",
    "geom:area": 0,
    "geom:bbox": "-1.161230,52.643928,-1.161230,52.643928",
    "geom:latitude": 52.643928,
    "geom:longitude": -1.16123,
    "gp:parent_id": "26062",
    "iso:country": "GB",
    "mz:hierarchy_label": 1,
    "mz:is_current": 1,
    "os:country_code": "E92000001",
    "os:county_code": "E99999999",
    "os:district_code": "E06000016",
    "os:positional_quality_indicator": "1",
    "os:region_code": "E12000004",
    "src:geom": "os",
    "wof:belongsto": [
      85633159,
      102191581,
      136253055,
      1864208419,
      1360698995,
      101750485,
      1880762051,
      404227469,
      1880773085
    ],
    "wof:breaches": [],
    "wof:concordances": {
      "gp:id": "27478746"
    },
    "wof:country": "GB",
    "wof:created": 1583701099,
    "wof:geomhash": "6e87ae225567ca66209936a5f0d1cb58",
    "wof:hierarchy": [
      {
        "continent_id": 102191581,
        "country_id": 85633159,
        "county_id": 1360698995,
        "empire_id": 136253055,
        "locality_id": 101750485,
        "macrocounty_id": 1880762051,
        "macroregion_id": 404227469,
        "postalcode_id": 455032177,
        "region_id": 1880773085
      },
      {
        "continent_id": 102191581,
        "country_id": 85633159,
        "empire_id": 136253055,
        "postalcode_id": 455032177,
        "postalregion_id": 1864208419
      }
    ],
    "wof:id": 455032177,
    "wof:lastmodified": 1763547961,
    "wof:name": "LE3 9RQ",
    "wof:parent_id": 101750485,
    "wof:placetype": "postalcode",
    "wof:repo": "whosonfirst-data-postalcode-gb",
    "wof:superseded_by": [],
    "wof:supersedes": [],
    "wof:tags": []
  },
  "bbox": [
    -1.16123,
    52.643928,
    -1.16123,
    52.643928
  ],
  "geometry": {"coordinates":[-1.16123,52.643928],"type":"Point"}
}
