{
  "id": 38568555,
  "type": "Feature",
  "properties": {
    "date:cessation_lower": "1997-12-01",
    "date:cessation_upper": "1997-12-01",
    "date:inception_lower": "1996-12-01",
    "date:inception_upper": "1996-12-01",
    "edtf:cessation": "1997-12-01",
    "edtf:inception": "1996-12-01",
    "geom:area": 0,
    "geom:bbox": "-3.761975,50.522500,-3.761975,50.522500",
    "geom:latitude": 50.5225,
    "geom:longitude": -3.761975,
    "iso:country": "GB",
    "mz:hierarchy_label": 1,
    "mz:is_current": 0,
    "os:country_code": "E92000001",
    "os:county_code": "E10000008",
    "os:district_code": "E07000045",
    "os:positional_quality_indicator": "6",
    "os:region_code": "E12000009",
    "src:geom": "os",
    "wof:belongsto": [
      85633159,
      102191581,
      136253055,
      1864211165,
      1880771399,
      404432009,
      101852569,
      1880762149,
      404227469,
      1880762683
    ],
    "wof:breaches": [],
    "wof:country": "GB",
    "wof:created": 1583791806,
    "wof:geomhash": "1677f83308eb27b270ceca440bb37f2e",
    "wof:hierarchy": [
      {
        "continent_id": 102191581,
        "country_id": 85633159,
        "county_id": 1880771399,
        "empire_id": 136253055,
        "localadmin_id": 404432009,
        "locality_id": 101852569,
        "macrocounty_id": 1880762149,
        "macroregion_id": 404227469,
        "postalcode_id": 38568555,
        "region_id": 1880762683
      },
      {
        "continent_id": 102191581,
        "country_id": 85633159,
        "empire_id": 136253055,
        "postalcode_id": 38568555,
        "postalregion_id": 1864211165
      }
    ],
    "wof:id": 38568555,
    "wof:lastmodified": 1763548356,
    "wof:name": "TQ13 7YP",
    "wof:parent_id": 101852569,
    "wof:placetype": "postalcode",
    "wof:repo": "whosonfirst-data-postalcode-gb",
    "wof:superseded_by": [],
    "wof:supersedes": [],
    "wof:tags": []
  },
  "bbox": [
    -3.761975,
    50.5225,
    -3.761975,
    50.5225
  ],
  "geometry": {"coordinates":[-3.761975,50.5225],"type":"Point"}
}
