{
  "id": 488585329,
  "type": "Feature",
  "properties": {
    "date:inception_lower": "1995-07-01",
    "date:inception_upper": "1995-07-01",
    "edtf:cessation": "",
    "edtf:inception": "1995-07-01",
    "geom:area": 0,
    "geom:bbox": "-3.364396,51.537528,-3.364396,51.537528",
    "geom:latitude": 51.537528,
    "geom:longitude": -3.364396,
    "gp:parent_id": "27096",
    "iso:country": "GB",
    "mz:hierarchy_label": 1,
    "mz:is_current": 1,
    "os:country_code": "W92000004",
    "os:county_code": "W99999999",
    "os:district_code": "W06000016",
    "os:positional_quality_indicator": "1",
    "os:region_code": "W99999999",
    "src:geom": "os",
    "wof:belongsto": [
      85633159,
      102191581,
      136253055,
      1864206227,
      1360699025,
      404451067,
      1125981629,
      1880762185,
      404227475,
      1880773115
    ],
    "wof:breaches": [],
    "wof:concordances": {
      "gp:id": "27048490"
    },
    "wof:country": "GB",
    "wof:created": 1583701608,
    "wof:geomhash": "7cd67e0b3dd7adba63667547015f7ca9",
    "wof:hierarchy": [
      {
        "continent_id": 102191581,
        "country_id": 85633159,
        "county_id": 1360699025,
        "empire_id": 136253055,
        "localadmin_id": 404451067,
        "locality_id": 1125981629,
        "macrocounty_id": 1880762185,
        "macroregion_id": 404227475,
        "postalcode_id": 488585329,
        "region_id": 1880773115
      },
      {
        "continent_id": 102191581,
        "country_id": 85633159,
        "empire_id": 136253055,
        "postalcode_id": 488585329,
        "postalregion_id": 1864206227
      }
    ],
    "wof:id": 488585329,
    "wof:lastmodified": 1763548596,
    "wof:name": "CF72 8BE",
    "wof:parent_id": 1125981629,
    "wof:placetype": "postalcode",
    "wof:repo": "whosonfirst-data-postalcode-gb",
    "wof:superseded_by": [],
    "wof:supersedes": [],
    "wof:tags": []
  },
  "bbox": [
    -3.364396,
    51.537528,
    -3.364396,
    51.537528
  ],
  "geometry": {"coordinates":[-3.364396,51.537528],"type":"Point"}
}
