{
  "id": 1160871690,
  "type": "Feature",
  "properties": {
    "date:cessation_lower": "1995-07-01",
    "date:cessation_upper": "1995-07-01",
    "date:inception_lower": "1983-01-01",
    "date:inception_upper": "1983-01-01",
    "edtf:cessation": "1995-07-01",
    "edtf:inception": "1983-01-01",
    "geom:area": 0,
    "geom:bbox": "-3.205456,51.587717,-3.205456,51.587717",
    "geom:latitude": 51.587717,
    "geom:longitude": -3.205456,
    "iso:country": "GB",
    "mz:hierarchy_label": 1,
    "mz:is_current": 0,
    "os:country_code": "W92000004",
    "os:county_code": "W99999999",
    "os:district_code": "W06000018",
    "os:positional_quality_indicator": "1",
    "os:region_code": "W99999999",
    "src:geom": "os",
    "wof:belongsto": [
      102191581,
      85633159,
      1360698925,
      136253055,
      404439529,
      1360711873,
      1880762173,
      404227475,
      1880773189
    ],
    "wof:breaches": [],
    "wof:country": "GB",
    "wof:created": 1583793748,
    "wof:geomhash": "d7797cc3a6b10838b97c364534dd8bdd",
    "wof:hierarchy": [
      {
        "continent_id": 102191581,
        "country_id": 85633159,
        "county_id": 1360698925,
        "empire_id": 136253055,
        "localadmin_id": 404439529,
        "locality_id": 1360711873,
        "macrocounty_id": 1880762173,
        "macroregion_id": 404227475,
        "postalcode_id": 1160871690,
        "region_id": 1880773189
      }
    ],
    "wof:id": 1160871690,
    "wof:lastmodified": 1763548306,
    "wof:name": "CF8 3AY",
    "wof:parent_id": 1360711873,
    "wof:placetype": "postalcode",
    "wof:repo": "whosonfirst-data-postalcode-gb",
    "wof:superseded_by": [],
    "wof:supersedes": [],
    "wof:tags": []
  },
  "bbox": [
    -3.205456,
    51.587717,
    -3.205456,
    51.587717
  ],
  "geometry": {"coordinates":[-3.205456,51.587717],"type":"Point"}
}
