{
  "id": 454574591,
  "type": "Feature",
  "properties": {
    "date:inception_lower": "2003-02-01",
    "date:inception_upper": "2003-02-01",
    "edtf:cessation": "",
    "edtf:inception": "2003-02-01",
    "geom:area": 0,
    "geom:bbox": "-3.655515,50.913168,-3.655515,50.913168",
    "geom:latitude": 50.913168,
    "geom:longitude": -3.655515,
    "gp:parent_id": "30345",
    "iso:country": "GB",
    "mz:hierarchy_label": 1,
    "mz:is_current": 1,
    "os:country_code": "E92000001",
    "os:county_code": "E10000008",
    "os:district_code": "E07000042",
    "os:positional_quality_indicator": "1",
    "os:region_code": "E12000009",
    "src:geom": "os",
    "wof:belongsto": [
      85633159,
      102191581,
      136253055,
      1864207193,
      1880771403,
      404440871,
      1360756535,
      1880762149,
      404227469,
      1880762683
    ],
    "wof:breaches": [],
    "wof:concordances": {
      "gp:id": "27254679"
    },
    "wof:country": "GB",
    "wof:created": 1583701643,
    "wof:geomhash": "f54891bf16669eff03d08496a5d4de79",
    "wof:hierarchy": [
      {
        "continent_id": 102191581,
        "country_id": 85633159,
        "county_id": 1880771403,
        "empire_id": 136253055,
        "localadmin_id": 404440871,
        "locality_id": 1360756535,
        "macrocounty_id": 1880762149,
        "macroregion_id": 404227469,
        "postalcode_id": 454574591,
        "region_id": 1880762683
      },
      {
        "continent_id": 102191581,
        "country_id": 85633159,
        "empire_id": 136253055,
        "postalcode_id": 454574591,
        "postalregion_id": 1864207193
      }
    ],
    "wof:id": 454574591,
    "wof:lastmodified": 1763548429,
    "wof:name": "EX16 8PP",
    "wof:parent_id": 1360756535,
    "wof:placetype": "postalcode",
    "wof:repo": "whosonfirst-data-postalcode-gb",
    "wof:superseded_by": [],
    "wof:supersedes": [],
    "wof:tags": []
  },
  "bbox": [
    -3.655515,
    50.913168,
    -3.655515,
    50.913168
  ],
  "geometry": {"coordinates":[-3.655515,50.913168],"type":"Point"}
}
