{
  "id": 1947760041,
  "type": "Feature",
  "properties": {
    "date:inception_lower": "2024-10-01",
    "date:inception_upper": "2024-10-01",
    "edtf:cessation": "",
    "edtf:inception": "2024-10-01",
    "geom:area": 0,
    "geom:bbox": "-1.450898,54.932446,-1.450898,54.932446",
    "geom:latitude": 54.932446,
    "geom:longitude": -1.450898,
    "iso:country": "GB",
    "mz:hierarchy_label": 1,
    "mz:is_current": 1,
    "os:country_code": "E92000001",
    "os:county_code": "E99999999",
    "os:district_code": "E08000024",
    "os:positional_quality_indicator": "1",
    "os:region_code": "E12000001",
    "src:geom": "os",
    "wof:belongsto": [
      102191581,
      85633159,
      1360698987,
      136253055,
      1360817213,
      101750611,
      1880762063,
      404227469,
      1880773053,
      1864210731
    ],
    "wof:breaches": [],
    "wof:country": "GB",
    "wof:created": 1736334488,
    "wof:geomhash": "42cbabe2c03a299d8df36c96ab295468",
    "wof:hierarchy": [
      {
        "continent_id": 102191581,
        "country_id": 85633159,
        "county_id": 1360698987,
        "empire_id": 136253055,
        "localadmin_id": 1360817213,
        "locality_id": 101750611,
        "macrocounty_id": 1880762063,
        "macroregion_id": 404227469,
        "postalcode_id": 1947760041,
        "region_id": 1880773053
      },
      {
        "continent_id": 102191581,
        "country_id": 85633159,
        "empire_id": 136253055,
        "postalcode_id": 1947760041,
        "postalregion_id": 1864210731
      }
    ],
    "wof:id": 1947760041,
    "wof:lastmodified": 1763547896,
    "wof:name": "SR5 4BP",
    "wof:parent_id": 101750611,
    "wof:placetype": "postalcode",
    "wof:repo": "whosonfirst-data-postalcode-gb",
    "wof:superseded_by": [],
    "wof:supersedes": [],
    "wof:tags": []
  },
  "bbox": [
    -1.450898,
    54.932446,
    -1.450898,
    54.932446
  ],
  "geometry": {"coordinates":[-1.450898,54.932446],"type":"Point"}
}
