{
  "id": 874432147,
  "type": "Feature",
  "properties": {
    "date:inception_lower": "2012-04-01",
    "date:inception_upper": "2012-04-01",
    "edtf:cessation": "",
    "edtf:inception": "2012-04-01",
    "geom:area": 0,
    "geom:bbox": "-3.029924,53.409168,-3.029924,53.409168",
    "geom:latitude": 53.409168,
    "geom:longitude": -3.029924,
    "iso:country": "GB",
    "mz:hierarchy_label": 1,
    "mz:is_current": 1,
    "os:country_code": "E92000001",
    "os:county_code": "E99999999",
    "os:district_code": "E08000015",
    "os:positional_quality_indicator": "1",
    "os:region_code": "E12000002",
    "src:geom": "os",
    "wof:belongsto": [
      85633159,
      102191581,
      136253055,
      1864206277,
      1360699049,
      101750549,
      1880762035,
      404227469,
      1880773063
    ],
    "wof:breaches": [],
    "wof:country": "GB",
    "wof:created": 1468876164,
    "wof:geomhash": "2b286d4d28dbcb6e1d3a603d87c30857",
    "wof:hierarchy": [
      {
        "continent_id": 102191581,
        "country_id": 85633159,
        "county_id": 1360699049,
        "empire_id": 136253055,
        "locality_id": 101750549,
        "macrocounty_id": 1880762035,
        "macroregion_id": 404227469,
        "postalcode_id": 874432147,
        "region_id": 1880773063
      },
      {
        "continent_id": 102191581,
        "country_id": 85633159,
        "empire_id": 136253055,
        "postalcode_id": 874432147,
        "postalregion_id": 1864206277
      }
    ],
    "wof:id": 874432147,
    "wof:lastmodified": 1763547992,
    "wof:name": "CH44 7HU",
    "wof:parent_id": 101750549,
    "wof:placetype": "postalcode",
    "wof:repo": "whosonfirst-data-postalcode-gb",
    "wof:superseded_by": [],
    "wof:supersedes": [],
    "wof:tags": []
  },
  "bbox": [
    -3.029924,
    53.409168,
    -3.029924,
    53.409168
  ],
  "geometry": {"coordinates":[-3.029924,53.409168],"type":"Point"}
}
