{
  "id": 1712731907,
  "type": "Feature",
  "properties": {
    "date:cessation_lower": "1992-12-01",
    "date:cessation_upper": "1992-12-01",
    "date:inception_lower": "1986-07-01",
    "date:inception_upper": "1986-07-01",
    "edtf:cessation": "1992-12-01",
    "edtf:inception": "1986-07-01",
    "geom:area": 0,
    "geom:bbox": "-0.476769,51.641220,-0.476769,51.641220",
    "geom:latitude": 51.64122,
    "geom:longitude": -0.476769,
    "iso:country": "GB",
    "mz:hierarchy_label": 1,
    "mz:is_current": 0,
    "os:country_code": "E92000001",
    "os:county_code": "E10000015",
    "os:district_code": "E07000102",
    "os:positional_quality_indicator": "8",
    "os:region_code": "E12000006",
    "src:geom": "os",
    "wof:belongsto": [
      85633159,
      102191581,
      136253055,
      1864211533,
      1880771491,
      404431565,
      1125834847,
      1880762153,
      404227469,
      1880762721
    ],
    "wof:breaches": [],
    "wof:country": "GB",
    "wof:created": 1583801116,
    "wof:geomhash": "db0be2a0f75af377e62164d5850255dd",
    "wof:hierarchy": [
      {
        "continent_id": 102191581,
        "country_id": 85633159,
        "county_id": 1880771491,
        "empire_id": 136253055,
        "localadmin_id": 404431565,
        "locality_id": 1125834847,
        "macrocounty_id": 1880762153,
        "macroregion_id": 404227469,
        "postalcode_id": 1712731907,
        "region_id": 1880762721
      },
      {
        "continent_id": 102191581,
        "country_id": 85633159,
        "empire_id": 136253055,
        "postalcode_id": 1712731907,
        "postalregion_id": 1864211533
      }
    ],
    "wof:id": 1712731907,
    "wof:lastmodified": 1763548659,
    "wof:name": "WD3 2FQ",
    "wof:parent_id": 1125834847,
    "wof:placetype": "postalcode",
    "wof:repo": "whosonfirst-data-postalcode-gb",
    "wof:superseded_by": [],
    "wof:supersedes": [],
    "wof:tags": []
  },
  "bbox": [
    -0.476769,
    51.64122,
    -0.476769,
    51.64122
  ],
  "geometry": {"coordinates":[-0.476769,51.64122],"type":"Point"}
}
