{
  "id": 488592509,
  "type": "Feature",
  "properties": {
    "date:cessation_lower": "2017-07-01",
    "date:cessation_upper": "2017-07-01",
    "date:inception_lower": "1980-01-01",
    "date:inception_upper": "1980-01-01",
    "edtf:cessation": "2017-07-01",
    "edtf:inception": "1980-01-01",
    "geom:area": 0,
    "geom:bbox": "-3.146152,53.168760,-3.146152,53.168760",
    "geom:latitude": 53.16876,
    "geom:longitude": -3.146152,
    "gp:parent_id": "12696124",
    "iso:country": "GB",
    "mz:hierarchy_label": 1,
    "mz:is_current": 0,
    "os:country_code": "W92000004",
    "os:county_code": "W99999999",
    "os:district_code": "W06000005",
    "os:positional_quality_indicator": "1",
    "os:region_code": "W99999999",
    "src:geom": "os",
    "wof:belongsto": [
      85633159,
      102191581,
      136253055,
      1864206311,
      1360698799,
      404449865,
      101872051,
      1880762183,
      404227475,
      1880772909
    ],
    "wof:breaches": [],
    "wof:concordances": {
      "gp:id": "27063513"
    },
    "wof:country": "GB",
    "wof:created": 1583701611,
    "wof:geomhash": "8b9a82d7e6eddc0474ab86a34ecf16c5",
    "wof:hierarchy": [
      {
        "continent_id": 102191581,
        "country_id": 85633159,
        "county_id": 1360698799,
        "empire_id": 136253055,
        "localadmin_id": 404449865,
        "locality_id": 101872051,
        "macrocounty_id": 1880762183,
        "macroregion_id": 404227475,
        "postalcode_id": 488592509,
        "region_id": 1880772909
      },
      {
        "continent_id": 102191581,
        "country_id": 85633159,
        "empire_id": 136253055,
        "postalcode_id": 488592509,
        "postalregion_id": 1864206311
      }
    ],
    "wof:id": 488592509,
    "wof:lastmodified": 1763548420,
    "wof:name": "CH7 1ST",
    "wof:parent_id": 101872051,
    "wof:placetype": "postalcode",
    "wof:repo": "whosonfirst-data-postalcode-gb",
    "wof:superseded_by": [],
    "wof:supersedes": [],
    "wof:tags": []
  },
  "bbox": [
    -3.146152,
    53.16876,
    -3.146152,
    53.16876
  ],
  "geometry": {"coordinates":[-3.146152,53.16876],"type":"Point"}
}
