{
  "id": 470861645,
  "type": "Feature",
  "properties": {
    "date:inception_lower": "1980-01-01",
    "date:inception_upper": "1980-01-01",
    "edtf:cessation": "",
    "edtf:inception": "1980-01-01",
    "geom:area": 0,
    "geom:bbox": "-2.203679,53.454730,-2.203679,53.454730",
    "geom:latitude": 53.45473,
    "geom:longitude": -2.203679,
    "iso:country": "GB",
    "mz:hierarchy_label": 1,
    "mz:is_current": 1,
    "os:country_code": "E92000001",
    "os:county_code": "E99999999",
    "os:district_code": "E08000003",
    "os:positional_quality_indicator": "1",
    "os:region_code": "E12000002",
    "src:geom": "os",
    "wof:belongsto": [
      85633159,
      102191581,
      136253055,
      1864208721,
      1360698893,
      101750525,
      1880762163,
      404227469,
      1880773095
    ],
    "wof:breaches": [],
    "wof:concordances": {
      "gp:id": "26506120"
    },
    "wof:country": "GB",
    "wof:created": 1583701155,
    "wof:geomhash": "04ec3acf3a708dc2e79af9983881081e",
    "wof:hierarchy": [
      {
        "continent_id": 102191581,
        "country_id": 85633159,
        "county_id": 1360698893,
        "empire_id": 136253055,
        "locality_id": 101750525,
        "macrocounty_id": 1880762163,
        "macroregion_id": 404227469,
        "postalcode_id": 470861645,
        "region_id": 1880773095
      },
      {
        "continent_id": 102191581,
        "country_id": 85633159,
        "empire_id": 136253055,
        "postalcode_id": 470861645,
        "postalregion_id": 1864208721
      }
    ],
    "wof:id": 470861645,
    "wof:lastmodified": 1763547961,
    "wof:name": "M13 0NQ",
    "wof:parent_id": 101750525,
    "wof:placetype": "postalcode",
    "wof:repo": "whosonfirst-data-postalcode-gb",
    "wof:superseded_by": [],
    "wof:supersedes": [],
    "wof:tags": []
  },
  "bbox": [
    -2.203679,
    53.45473,
    -2.203679,
    53.45473
  ],
  "geometry": {"coordinates":[-2.203679,53.45473],"type":"Point"}
}
