{
  "id": 488457949,
  "type": "Feature",
  "properties": {
    "date:inception_lower": "2000-12-01",
    "date:inception_upper": "2000-12-01",
    "edtf:cessation": "",
    "edtf:inception": "2000-12-01",
    "geom:area": 0,
    "geom:bbox": "-4.957750,56.715346,-4.957750,56.715346",
    "geom:latitude": 56.715346,
    "geom:longitude": -4.95775,
    "gp:parent_id": "12696199",
    "iso:country": "GB",
    "mz:hierarchy_label": 1,
    "mz:is_current": 1,
    "os:country_code": "S92000003",
    "os:county_code": "S99999999",
    "os:district_code": "S12000017",
    "os:positional_quality_indicator": "1",
    "os:region_code": "S99999999",
    "src:geom": "os",
    "wof:belongsto": [
      85633159,
      102191581,
      136253055,
      1864209819,
      1360699045,
      1880762005,
      404227471,
      1880773131
    ],
    "wof:breaches": [],
    "wof:concordances": {
      "gp:id": "26363542"
    },
    "wof:country": "GB",
    "wof:created": 1583701473,
    "wof:geomhash": "728e337a759459a5db0347ce396e46c4",
    "wof:hierarchy": [
      {
        "continent_id": 102191581,
        "country_id": 85633159,
        "county_id": 1360699045,
        "empire_id": 136253055,
        "macrocounty_id": 1880762005,
        "macroregion_id": 404227471,
        "postalcode_id": 488457949,
        "region_id": 1880773131
      },
      {
        "continent_id": 102191581,
        "country_id": 85633159,
        "empire_id": 136253055,
        "postalcode_id": 488457949,
        "postalregion_id": 1864209819
      }
    ],
    "wof:id": 488457949,
    "wof:lastmodified": 1763548585,
    "wof:name": "PH50 4RH",
    "wof:parent_id": 1360699045,
    "wof:placetype": "postalcode",
    "wof:repo": "whosonfirst-data-postalcode-gb",
    "wof:superseded_by": [],
    "wof:supersedes": [],
    "wof:tags": []
  },
  "bbox": [
    -4.95775,
    56.715346,
    -4.95775,
    56.715346
  ],
  "geometry": {"coordinates":[-4.95775,56.715346],"type":"Point"}
}
