{
  "id": 487647785,
  "type": "Feature",
  "properties": {
    "date:inception_lower": "1980-01-01",
    "date:inception_upper": "1980-01-01",
    "edtf:cessation": "",
    "edtf:inception": "1980-01-01",
    "geom:area": 0,
    "geom:bbox": "-1.674521,51.229904,-1.674521,51.229904",
    "geom:latitude": 51.229904,
    "geom:longitude": -1.674521,
    "gp:parent_id": "37572",
    "iso:country": "GB",
    "mz:hierarchy_label": 1,
    "mz:is_current": 1,
    "os:country_code": "E92000001",
    "os:county_code": "E99999999",
    "os:district_code": "E06000054",
    "os:positional_quality_indicator": "1",
    "os:region_code": "E12000009",
    "src:geom": "os",
    "wof:belongsto": [
      85633159,
      102191581,
      136253055,
      1864210719,
      1360698937,
      404442755,
      1125983017,
      1880762017,
      404227469,
      1880773035
    ],
    "wof:breaches": [],
    "wof:concordances": {
      "gp:id": "27970249"
    },
    "wof:country": "GB",
    "wof:created": 1583701105,
    "wof:geomhash": "5962582988c57d4179a8aa4904197bea",
    "wof:hierarchy": [
      {
        "continent_id": 102191581,
        "country_id": 85633159,
        "county_id": 1360698937,
        "empire_id": 136253055,
        "localadmin_id": 404442755,
        "locality_id": 1125983017,
        "macrocounty_id": 1880762017,
        "macroregion_id": 404227469,
        "postalcode_id": 487647785,
        "region_id": 1880773035
      },
      {
        "continent_id": 102191581,
        "country_id": 85633159,
        "empire_id": 136253055,
        "postalcode_id": 487647785,
        "postalregion_id": 1864210719
      }
    ],
    "wof:id": 487647785,
    "wof:lastmodified": 1763548728,
    "wof:name": "SP9 7AR",
    "wof:parent_id": 1125983017,
    "wof:placetype": "postalcode",
    "wof:repo": "whosonfirst-data-postalcode-gb",
    "wof:superseded_by": [],
    "wof:supersedes": [],
    "wof:tags": []
  },
  "bbox": [
    -1.674521,
    51.229904,
    -1.674521,
    51.229904
  ],
  "geometry": {"coordinates":[-1.674521,51.229904],"type":"Point"}
}
