{
  "id": 504459805,
  "type": "Feature",
  "properties": {
    "date:inception_lower": "1980-01-01",
    "date:inception_upper": "1980-01-01",
    "edtf:cessation": "",
    "edtf:inception": "1980-01-01",
    "geom:area": 0,
    "geom:bbox": "-4.396757,55.306972,-4.396757,55.306972",
    "geom:latitude": 55.306972,
    "geom:longitude": -4.396757,
    "gp:parent_id": "17862",
    "iso:country": "GB",
    "mz:hierarchy_label": 1,
    "mz:is_current": 1,
    "os:country_code": "S92000003",
    "os:county_code": "S99999999",
    "os:district_code": "S12000008",
    "os:positional_quality_indicator": "1",
    "os:region_code": "S99999999",
    "src:geom": "os",
    "wof:belongsto": [
      85633159,
      102191581,
      136253055,
      1864208075,
      1360698779,
      1880762041,
      404227471,
      1880772907
    ],
    "wof:breaches": [],
    "wof:concordances": {
      "gp:id": "27421221"
    },
    "wof:country": "GB",
    "wof:created": 1583701336,
    "wof:geomhash": "535f6f6efed7ceea16bd97b1105b010b",
    "wof:hierarchy": [
      {
        "continent_id": 102191581,
        "country_id": 85633159,
        "county_id": 1360698779,
        "empire_id": 136253055,
        "macrocounty_id": 1880762041,
        "macroregion_id": 404227471,
        "postalcode_id": 504459805,
        "region_id": 1880772907
      },
      {
        "continent_id": 102191581,
        "country_id": 85633159,
        "empire_id": 136253055,
        "postalcode_id": 504459805,
        "postalregion_id": 1864208075
      }
    ],
    "wof:id": 504459805,
    "wof:lastmodified": 1763548147,
    "wof:name": "KA6 7TN",
    "wof:parent_id": 1360698779,
    "wof:placetype": "postalcode",
    "wof:repo": "whosonfirst-data-postalcode-gb",
    "wof:superseded_by": [],
    "wof:supersedes": [],
    "wof:tags": []
  },
  "bbox": [
    -4.396757,
    55.306972,
    -4.396757,
    55.306972
  ],
  "geometry": {"coordinates":[-4.396757,55.306972],"type":"Point"}
}
