{
  "id": 1160784614,
  "type": "Feature",
  "properties": {
    "date:cessation_lower": "1995-12-01",
    "date:cessation_upper": "1995-12-01",
    "date:inception_lower": "1980-01-01",
    "date:inception_upper": "1980-01-01",
    "edtf:cessation": "1995-12-01",
    "edtf:inception": "1980-01-01",
    "geom:area": 0,
    "geom:bbox": "-2.206853,51.833786,-2.206853,51.833786",
    "geom:latitude": 51.833786,
    "geom:longitude": -2.206853,
    "iso:country": "GB",
    "mz:hierarchy_label": 1,
    "mz:is_current": 0,
    "os:country_code": "E92000001",
    "os:county_code": "E10000013",
    "os:district_code": "E07000081",
    "os:positional_quality_indicator": "1",
    "os:region_code": "E12000009",
    "src:geom": "os",
    "wof:belongsto": [
      85633159,
      102191581,
      136253055,
      1864207473,
      1880771351,
      101750437,
      1880762161,
      404227469,
      1880762693
    ],
    "wof:breaches": [],
    "wof:country": "GB",
    "wof:created": 1583789856,
    "wof:geomhash": "b27730f48e1dac1de19cb76613745602",
    "wof:hierarchy": [
      {
        "continent_id": 102191581,
        "country_id": 85633159,
        "county_id": 1880771351,
        "empire_id": 136253055,
        "locality_id": 101750437,
        "macrocounty_id": 1880762161,
        "macroregion_id": 404227469,
        "postalcode_id": 1160784614,
        "region_id": 1880762693
      },
      {
        "continent_id": 102191581,
        "country_id": 85633159,
        "empire_id": 136253055,
        "postalcode_id": 1160784614,
        "postalregion_id": 1864207473
      }
    ],
    "wof:id": 1160784614,
    "wof:lastmodified": 1763548250,
    "wof:name": "GL4 9YF",
    "wof:parent_id": 101750437,
    "wof:placetype": "postalcode",
    "wof:repo": "whosonfirst-data-postalcode-gb",
    "wof:superseded_by": [],
    "wof:supersedes": [],
    "wof:tags": []
  },
  "bbox": [
    -2.206853,
    51.833786,
    -2.206853,
    51.833786
  ],
  "geometry": {"coordinates":[-2.206853,51.833786],"type":"Point"}
}
