{
  "id": 39783105,
  "type": "Feature",
  "properties": {
    "date:cessation_lower": "1992-12-01",
    "date:cessation_upper": "1992-12-01",
    "date:inception_lower": "1991-09-01",
    "date:inception_upper": "1991-09-01",
    "edtf:cessation": "1992-12-01",
    "edtf:inception": "1991-09-01",
    "geom:area": 0,
    "geom:bbox": "-2.980779,54.448118,-2.980779,54.448118",
    "geom:latitude": 54.448118,
    "geom:longitude": -2.980779,
    "iso:country": "GB",
    "mz:hierarchy_label": 1,
    "mz:is_current": 0,
    "os:country_code": "E92000001",
    "os:county_code": "E99999999",
    "os:district_code": "E06000064",
    "os:positional_quality_indicator": "8",
    "os:region_code": "E12000002",
    "src:geom": "os",
    "wof:belongsto": [
      85633159,
      102191581,
      136253055,
      1864208353,
      1880773235,
      404445247,
      1360759267,
      1880761989,
      404227469,
      1880773269
    ],
    "wof:breaches": [],
    "wof:country": "GB",
    "wof:created": 1583805278,
    "wof:geomhash": "bdede93635bf71037240f507837d69f8",
    "wof:hierarchy": [
      {
        "continent_id": 102191581,
        "country_id": 85633159,
        "county_id": 1880773235,
        "empire_id": 136253055,
        "localadmin_id": 404445247,
        "locality_id": 1360759267,
        "macrocounty_id": 1880761989,
        "macroregion_id": 404227469,
        "postalcode_id": 39783105,
        "region_id": 1880773269
      },
      {
        "continent_id": 102191581,
        "country_id": 85633159,
        "empire_id": 136253055,
        "postalcode_id": 39783105,
        "postalregion_id": 1864208353
      }
    ],
    "wof:id": 39783105,
    "wof:lastmodified": 1763547911,
    "wof:name": "LA22 9LY",
    "wof:parent_id": 1360759267,
    "wof:placetype": "postalcode",
    "wof:repo": "whosonfirst-data-postalcode-gb",
    "wof:superseded_by": [],
    "wof:supersedes": [],
    "wof:tags": []
  },
  "bbox": [
    -2.980779,
    54.448118,
    -2.980779,
    54.448118
  ],
  "geometry": {"coordinates":[-2.980779,54.448118],"type":"Point"}
}
