{
  "id": 454275497,
  "type": "Feature",
  "properties": {
    "date:inception_lower": "1980-01-01",
    "date:inception_upper": "1980-01-01",
    "edtf:cessation": "",
    "edtf:inception": "1980-01-01",
    "geom:area": 0,
    "geom:bbox": "-1.671030,52.118658,-1.671030,52.118658",
    "geom:latitude": 52.118658,
    "geom:longitude": -1.67103,
    "gp:parent_id": "17326",
    "iso:country": "GB",
    "mz:hierarchy_label": 1,
    "mz:is_current": 1,
    "os:country_code": "E92000001",
    "os:county_code": "E10000031",
    "os:district_code": "E07000221",
    "os:positional_quality_indicator": "1",
    "os:region_code": "E12000005",
    "src:geom": "os",
    "wof:belongsto": [
      85633159,
      102191581,
      136253055,
      1864206525,
      1880771675,
      404437849,
      1293229817,
      1880762065,
      404227469,
      1880762725
    ],
    "wof:breaches": [],
    "wof:concordances": {
      "gp:id": "27115530"
    },
    "wof:country": "GB",
    "wof:created": 1583701434,
    "wof:geomhash": "6767d32a07d244db59a271146fc4e57a",
    "wof:hierarchy": [
      {
        "continent_id": 102191581,
        "country_id": 85633159,
        "county_id": 1880771675,
        "empire_id": 136253055,
        "localadmin_id": 404437849,
        "locality_id": 1293229817,
        "macrocounty_id": 1880762065,
        "macroregion_id": 404227469,
        "postalcode_id": 454275497,
        "region_id": 1880762725
      },
      {
        "continent_id": 102191581,
        "country_id": 85633159,
        "empire_id": 136253055,
        "postalcode_id": 454275497,
        "postalregion_id": 1864206525
      }
    ],
    "wof:id": 454275497,
    "wof:lastmodified": 1763548310,
    "wof:name": "CV37 8UF",
    "wof:parent_id": 1293229817,
    "wof:placetype": "postalcode",
    "wof:repo": "whosonfirst-data-postalcode-gb",
    "wof:superseded_by": [],
    "wof:supersedes": [],
    "wof:tags": []
  },
  "bbox": [
    -1.67103,
    52.118658,
    -1.67103,
    52.118658
  ],
  "geometry": {"coordinates":[-1.67103,52.118658],"type":"Point"}
}
