{
  "id": 39416031,
  "type": "Feature",
  "properties": {
    "date:cessation_lower": "1997-06-01",
    "date:cessation_upper": "1997-06-01",
    "date:inception_lower": "1980-01-01",
    "date:inception_upper": "1980-01-01",
    "edtf:cessation": "1997-06-01",
    "edtf:inception": "1980-01-01",
    "geom:area": 0,
    "geom:bbox": "-1.852800,52.452978,-1.852800,52.452978",
    "geom:latitude": 52.452978,
    "geom:longitude": -1.8528,
    "iso:country": "GB",
    "mz:hierarchy_label": 1,
    "mz:is_current": 0,
    "os:country_code": "E92000001",
    "os:county_code": "E99999999",
    "os:district_code": "E08000025",
    "os:positional_quality_indicator": "8",
    "os:region_code": "E12000005",
    "src:geom": "os",
    "wof:belongsto": [
      85633159,
      102191581,
      136253055,
      1864205479,
      1360699077,
      101750467,
      1880762069,
      404227469,
      1880773161
    ],
    "wof:breaches": [],
    "wof:country": "GB",
    "wof:created": 1583801232,
    "wof:geomhash": "c376b65118b38cd1c88238783010499c",
    "wof:hierarchy": [
      {
        "continent_id": 102191581,
        "country_id": 85633159,
        "county_id": 1360699077,
        "empire_id": 136253055,
        "locality_id": 101750467,
        "macrocounty_id": 1880762069,
        "macroregion_id": 404227469,
        "postalcode_id": 39416031,
        "region_id": 1880773161
      },
      {
        "continent_id": 102191581,
        "country_id": 85633159,
        "empire_id": 136253055,
        "postalcode_id": 39416031,
        "postalregion_id": 1864205479
      }
    ],
    "wof:id": 39416031,
    "wof:lastmodified": 1763548401,
    "wof:name": "B11 2JS",
    "wof:parent_id": 101750467,
    "wof:placetype": "postalcode",
    "wof:repo": "whosonfirst-data-postalcode-gb",
    "wof:superseded_by": [],
    "wof:supersedes": [],
    "wof:tags": []
  },
  "bbox": [
    -1.8528,
    52.452978,
    -1.8528,
    52.452978
  ],
  "geometry": {"coordinates":[-1.8528,52.452978],"type":"Point"}
}
