{
  "id": 437825695,
  "type": "Feature",
  "properties": {
    "date:cessation_lower": "2002-12-01",
    "date:cessation_upper": "2002-12-01",
    "date:inception_lower": "1980-01-01",
    "date:inception_upper": "1980-01-01",
    "edtf:cessation": "2002-12-01",
    "edtf:inception": "1980-01-01",
    "geom:area": 0,
    "geom:bbox": "-0.531993,53.099867,-0.531993,53.099867",
    "geom:latitude": 53.099867,
    "geom:longitude": -0.531993,
    "gp:parent_id": "29716",
    "iso:country": "GB",
    "mz:hierarchy_label": 1,
    "mz:is_current": 0,
    "os:country_code": "E92000001",
    "os:county_code": "E10000019",
    "os:district_code": "E07000139",
    "os:positional_quality_indicator": "1",
    "os:region_code": "E12000004",
    "src:geom": "os",
    "wof:belongsto": [
      85633159,
      102191581,
      136253055,
      1864208615,
      1880771579,
      404431049,
      1126007723,
      1880762033,
      404227469,
      1880762701
    ],
    "wof:breaches": [],
    "wof:concordances": {
      "gp:id": "28894938"
    },
    "wof:country": "GB",
    "wof:created": 1583701576,
    "wof:geomhash": "25e87ff7c84b7e6f324b51740adb6a12",
    "wof:hierarchy": [
      {
        "continent_id": 102191581,
        "country_id": 85633159,
        "county_id": 1880771579,
        "empire_id": 136253055,
        "localadmin_id": 404431049,
        "locality_id": 1126007723,
        "macrocounty_id": 1880762033,
        "macroregion_id": 404227469,
        "postalcode_id": 437825695,
        "region_id": 1880762701
      },
      {
        "continent_id": 102191581,
        "country_id": 85633159,
        "empire_id": 136253055,
        "postalcode_id": 437825695,
        "postalregion_id": 1864208615
      }
    ],
    "wof:id": 437825695,
    "wof:lastmodified": 1763548220,
    "wof:name": "LN5 0HJ",
    "wof:parent_id": 1126007723,
    "wof:placetype": "postalcode",
    "wof:repo": "whosonfirst-data-postalcode-gb",
    "wof:superseded_by": [],
    "wof:supersedes": [],
    "wof:tags": []
  },
  "bbox": [
    -0.531993,
    53.099867,
    -0.531993,
    53.099867
  ],
  "geometry": {"coordinates":[-0.531993,53.099867],"type":"Point"}
}
