{
  "id": 437950581,
  "type": "Feature",
  "properties": {
    "date:inception_lower": "1980-01-01",
    "date:inception_upper": "1980-01-01",
    "edtf:cessation": "",
    "edtf:inception": "1980-01-01",
    "geom:area": 0,
    "geom:bbox": "-0.162818,51.815873,-0.162818,51.815873",
    "geom:latitude": 51.815873,
    "geom:longitude": -0.162818,
    "gp:parent_id": "37138",
    "iso:country": "GB",
    "mz:hierarchy_label": 1,
    "mz:is_current": 1,
    "os:country_code": "E92000001",
    "os:county_code": "E10000015",
    "os:district_code": "E07000242",
    "os:positional_quality_indicator": "1",
    "os:region_code": "E12000006",
    "src:geom": "os",
    "wof:belongsto": [
      85633159,
      102191581,
      136253055,
      1864205465,
      1880771491,
      404434471,
      1125803677,
      1880762153,
      404227469,
      1880762721
    ],
    "wof:breaches": [],
    "wof:concordances": {
      "gp:id": "26841065"
    },
    "wof:country": "GB",
    "wof:created": 1583701647,
    "wof:geomhash": "c87c7dc926292817441d094c524c2d4d",
    "wof:hierarchy": [
      {
        "continent_id": 102191581,
        "country_id": 85633159,
        "county_id": 1880771491,
        "empire_id": 136253055,
        "localadmin_id": 404434471,
        "locality_id": 1125803677,
        "macrocounty_id": 1880762153,
        "macroregion_id": 404227469,
        "postalcode_id": 437950581,
        "region_id": 1880762721
      },
      {
        "continent_id": 102191581,
        "country_id": 85633159,
        "empire_id": 136253055,
        "postalcode_id": 437950581,
        "postalregion_id": 1864205465
      }
    ],
    "wof:id": 437950581,
    "wof:lastmodified": 1763548125,
    "wof:name": "AL6 0JP",
    "wof:parent_id": 1125803677,
    "wof:placetype": "postalcode",
    "wof:repo": "whosonfirst-data-postalcode-gb",
    "wof:superseded_by": [],
    "wof:supersedes": [],
    "wof:tags": []
  },
  "bbox": [
    -0.162818,
    51.815873,
    -0.162818,
    51.815873
  ],
  "geometry": {"coordinates":[-0.162818,51.815873],"type":"Point"}
}
