{
  "id": 438057713,
  "type": "Feature",
  "properties": {
    "date:inception_lower": "1993-01-01",
    "date:inception_upper": "1993-01-01",
    "edtf:cessation": "",
    "edtf:inception": "1993-01-01",
    "geom:area": 0,
    "geom:bbox": "-2.212147,51.322222,-2.212147,51.322222",
    "geom:latitude": 51.322222,
    "geom:longitude": -2.212147,
    "gp:parent_id": "38271",
    "iso:country": "GB",
    "mz:hierarchy_label": 1,
    "mz:is_current": 1,
    "os:country_code": "E92000001",
    "os:county_code": "E99999999",
    "os:district_code": "E06000054",
    "os:positional_quality_indicator": "1",
    "os:region_code": "E12000009",
    "src:geom": "os",
    "wof:belongsto": [
      85633159,
      102191581,
      136253055,
      1864205661,
      1360698937,
      404443955,
      101852699,
      1880762017,
      404227469,
      1880773035
    ],
    "wof:breaches": [],
    "wof:concordances": {
      "gp:id": "26877313"
    },
    "wof:country": "GB",
    "wof:created": 1583701167,
    "wof:geomhash": "fbea5185d4c7e6d8d9ffb8836f65fb1e",
    "wof:hierarchy": [
      {
        "continent_id": 102191581,
        "country_id": 85633159,
        "county_id": 1360698937,
        "empire_id": 136253055,
        "localadmin_id": 404443955,
        "locality_id": 101852699,
        "macrocounty_id": 1880762017,
        "macroregion_id": 404227469,
        "postalcode_id": 438057713,
        "region_id": 1880773035
      },
      {
        "continent_id": 102191581,
        "country_id": 85633159,
        "empire_id": 136253055,
        "postalcode_id": 438057713,
        "postalregion_id": 1864205661
      }
    ],
    "wof:id": 438057713,
    "wof:lastmodified": 1763548125,
    "wof:name": "BA14 8NS",
    "wof:parent_id": 101852699,
    "wof:placetype": "postalcode",
    "wof:repo": "whosonfirst-data-postalcode-gb",
    "wof:superseded_by": [],
    "wof:supersedes": [],
    "wof:tags": []
  },
  "bbox": [
    -2.212147,
    51.322222,
    -2.212147,
    51.322222
  ],
  "geometry": {"coordinates":[-2.212147,51.322222],"type":"Point"}
}
