{
  "id": 504552003,
  "type": "Feature",
  "properties": {
    "date:inception_lower": "1980-01-01",
    "date:inception_upper": "1980-01-01",
    "edtf:cessation": "",
    "edtf:inception": "1980-01-01",
    "geom:area": 0,
    "geom:bbox": "-3.011283,51.827280,-3.011283,51.827280",
    "geom:latitude": 51.82728,
    "geom:longitude": -3.011283,
    "gp:parent_id": "12696133",
    "iso:country": "GB",
    "mz:hierarchy_label": 1,
    "mz:is_current": 1,
    "os:country_code": "W92000004",
    "os:county_code": "W99999999",
    "os:district_code": "W06000021",
    "os:positional_quality_indicator": "1",
    "os:region_code": "W99999999",
    "src:geom": "os",
    "wof:belongsto": [
      85633159,
      102191581,
      136253055,
      1864209295,
      1360699109,
      404430819,
      101852897,
      1880762173,
      404227475,
      1880773189
    ],
    "wof:breaches": [],
    "wof:concordances": {
      "gp:id": "27674537"
    },
    "wof:country": "GB",
    "wof:created": 1583701419,
    "wof:geomhash": "ab2d8b368a2b9ccac03e45e066877ab6",
    "wof:hierarchy": [
      {
        "continent_id": 102191581,
        "country_id": 85633159,
        "county_id": 1360699109,
        "empire_id": 136253055,
        "localadmin_id": 404430819,
        "locality_id": 101852897,
        "macrocounty_id": 1880762173,
        "macroregion_id": 404227475,
        "postalcode_id": 504552003,
        "region_id": 1880773189
      },
      {
        "continent_id": 102191581,
        "country_id": 85633159,
        "empire_id": 136253055,
        "postalcode_id": 504552003,
        "postalregion_id": 1864209295
      }
    ],
    "wof:id": 504552003,
    "wof:lastmodified": 1763548076,
    "wof:name": "NP7 5RB",
    "wof:parent_id": 101852897,
    "wof:placetype": "postalcode",
    "wof:repo": "whosonfirst-data-postalcode-gb",
    "wof:superseded_by": [],
    "wof:supersedes": [],
    "wof:tags": []
  },
  "bbox": [
    -3.011283,
    51.82728,
    -3.011283,
    51.82728
  ],
  "geometry": {"coordinates":[-3.011283,51.82728],"type":"Point"}
}
