{
  "id": 1160988506,
  "type": "Feature",
  "properties": {
    "date:cessation_lower": "1981-12-01",
    "date:cessation_upper": "1981-12-01",
    "date:inception_lower": "1981-06-01",
    "date:inception_upper": "1981-06-01",
    "edtf:cessation": "1981-12-01",
    "edtf:inception": "1981-06-01",
    "geom:area": 0,
    "geom:bbox": "-1.539370,53.990177,-1.539370,53.990177",
    "geom:latitude": 53.990177,
    "geom:longitude": -1.53937,
    "iso:country": "GB",
    "mz:hierarchy_label": 1,
    "mz:is_current": 0,
    "os:country_code": "E92000001",
    "os:county_code": "E99999999",
    "os:district_code": "E06000065",
    "os:positional_quality_indicator": "8",
    "os:region_code": "E12000003",
    "src:geom": "os",
    "wof:belongsto": [
      85633159,
      102191581,
      136253055,
      1864207631,
      1360698753,
      101750597,
      1880762011,
      404227469,
      1880772891
    ],
    "wof:breaches": [],
    "wof:country": "GB",
    "wof:created": 1583798929,
    "wof:geomhash": "baa01912288f2999b564e1ca13b378a4",
    "wof:hierarchy": [
      {
        "continent_id": 102191581,
        "country_id": 85633159,
        "county_id": 1360698753,
        "empire_id": 136253055,
        "locality_id": 101750597,
        "macrocounty_id": 1880762011,
        "macroregion_id": 404227469,
        "postalcode_id": 1160988506,
        "region_id": 1880772891
      },
      {
        "continent_id": 102191581,
        "country_id": 85633159,
        "empire_id": 136253055,
        "postalcode_id": 1160988506,
        "postalregion_id": 1864207631
      }
    ],
    "wof:id": 1160988506,
    "wof:lastmodified": 1763548264,
    "wof:name": "HG1 1LN",
    "wof:parent_id": 101750597,
    "wof:placetype": "postalcode",
    "wof:repo": "whosonfirst-data-postalcode-gb",
    "wof:superseded_by": [],
    "wof:supersedes": [],
    "wof:tags": []
  },
  "bbox": [
    -1.53937,
    53.990177,
    -1.53937,
    53.990177
  ],
  "geometry": {"coordinates":[-1.53937,53.990177],"type":"Point"}
}
