{
  "id": 488281831,
  "type": "Feature",
  "properties": {
    "date:inception_lower": "2007-07-01",
    "date:inception_upper": "2007-07-01",
    "edtf:cessation": "",
    "edtf:inception": "2007-07-01",
    "geom:area": 0,
    "geom:bbox": "0.624444,51.850579,0.624444,51.850579",
    "geom:latitude": 51.850579,
    "geom:longitude": 0.624444,
    "gp:parent_id": "12695941",
    "iso:country": "GB",
    "mz:hierarchy_label": 1,
    "mz:is_current": 1,
    "os:country_code": "E92000001",
    "os:county_code": "E10000012",
    "os:district_code": "E07000067",
    "os:positional_quality_indicator": "1",
    "os:region_code": "E12000006",
    "src:geom": "os",
    "wof:belongsto": [
      85633159,
      102191581,
      136253055,
      1864206375,
      1880771437,
      404454607,
      1125974107,
      1880762159,
      404227469,
      1880762723
    ],
    "wof:breaches": [],
    "wof:concordances": {
      "gp:id": "56135911"
    },
    "wof:country": "GB",
    "wof:created": 1583701293,
    "wof:geomhash": "f49d0e727827f3854ce790dc480c31b6",
    "wof:hierarchy": [
      {
        "continent_id": 102191581,
        "country_id": 85633159,
        "county_id": 1880771437,
        "empire_id": 136253055,
        "localadmin_id": 404454607,
        "locality_id": 1125974107,
        "macrocounty_id": 1880762159,
        "macroregion_id": 404227469,
        "postalcode_id": 488281831,
        "region_id": 1880762723
      },
      {
        "continent_id": 102191581,
        "country_id": 85633159,
        "empire_id": 136253055,
        "postalcode_id": 488281831,
        "postalregion_id": 1864206375
      }
    ],
    "wof:id": 488281831,
    "wof:lastmodified": 1763548466,
    "wof:name": "CM8 3FN",
    "wof:parent_id": 1125974107,
    "wof:placetype": "postalcode",
    "wof:repo": "whosonfirst-data-postalcode-gb",
    "wof:superseded_by": [],
    "wof:supersedes": [],
    "wof:tags": []
  },
  "bbox": [
    0.624444,
    51.850579,
    0.624444,
    51.850579
  ],
  "geometry": {"coordinates":[0.624444,51.850579],"type":"Point"}
}
