{
  "id": 438265603,
  "type": "Feature",
  "properties": {
    "date:inception_lower": "1992-01-01",
    "date:inception_upper": "1992-01-01",
    "edtf:cessation": "",
    "edtf:inception": "1992-01-01",
    "geom:area": 0,
    "geom:bbox": "-2.617303,51.521294,-2.617303,51.521294",
    "geom:latitude": 51.521294,
    "geom:longitude": -2.617303,
    "iso:country": "GB",
    "mz:hierarchy_label": 1,
    "mz:is_current": 1,
    "os:country_code": "E92000001",
    "os:county_code": "E99999999",
    "os:district_code": "E06000025",
    "os:positional_quality_indicator": "1",
    "os:region_code": "E12000009",
    "src:geom": "os",
    "wof:belongsto": [
      85633159,
      102191581,
      136253055,
      1864205969,
      1360698895,
      404446115,
      101852759,
      1880762161,
      404227469,
      1880762693
    ],
    "wof:breaches": [],
    "wof:concordances": {
      "gp:id": "26949199"
    },
    "wof:country": "GB",
    "wof:created": 1583701453,
    "wof:geomhash": "96833c957a96c13510816834c940f929",
    "wof:hierarchy": [
      {
        "continent_id": 102191581,
        "country_id": 85633159,
        "county_id": 1360698895,
        "empire_id": 136253055,
        "localadmin_id": 404446115,
        "locality_id": 101852759,
        "macrocounty_id": 1880762161,
        "macroregion_id": 404227469,
        "postalcode_id": 438265603,
        "region_id": 1880762693
      },
      {
        "continent_id": 102191581,
        "country_id": 85633159,
        "empire_id": 136253055,
        "postalcode_id": 438265603,
        "postalregion_id": 1864205969
      }
    ],
    "wof:id": 438265603,
    "wof:lastmodified": 1763548124,
    "wof:name": "BS10 7TT",
    "wof:parent_id": 101852759,
    "wof:placetype": "postalcode",
    "wof:repo": "whosonfirst-data-postalcode-gb",
    "wof:superseded_by": [],
    "wof:supersedes": [],
    "wof:tags": []
  },
  "bbox": [
    -2.617303,
    51.521294,
    -2.617303,
    51.521294
  ],
  "geometry": {"coordinates":[-2.617303,51.521294],"type":"Point"}
}
