{
  "id": 454302345,
  "type": "Feature",
  "properties": {
    "date:inception_lower": "1980-01-01",
    "date:inception_upper": "1980-01-01",
    "edtf:cessation": "",
    "edtf:inception": "1980-01-01",
    "geom:area": 0,
    "geom:bbox": "-2.533130,53.176678,-2.533130,53.176678",
    "geom:latitude": 53.176678,
    "geom:longitude": -2.53313,
    "gp:parent_id": "40678",
    "iso:country": "GB",
    "mz:hierarchy_label": 1,
    "mz:is_current": 1,
    "os:country_code": "E92000001",
    "os:county_code": "E99999999",
    "os:district_code": "E06000050",
    "os:positional_quality_indicator": "1",
    "os:region_code": "E12000002",
    "src:geom": "os",
    "wof:belongsto": [
      85633159,
      102191581,
      136253055,
      1864206563,
      1360698923,
      404437769,
      1226681555,
      1880762135,
      404227469,
      1880773021
    ],
    "wof:breaches": [],
    "wof:concordances": {
      "gp:id": "26614115"
    },
    "wof:country": "GB",
    "wof:created": 1583701465,
    "wof:geomhash": "2a5b16e7e4caaddf6921851d7768f282",
    "wof:hierarchy": [
      {
        "continent_id": 102191581,
        "country_id": 85633159,
        "county_id": 1360698923,
        "empire_id": 136253055,
        "localadmin_id": 404437769,
        "locality_id": 1226681555,
        "macrocounty_id": 1880762135,
        "macroregion_id": 404227469,
        "postalcode_id": 454302345,
        "region_id": 1880773021
      },
      {
        "continent_id": 102191581,
        "country_id": 85633159,
        "empire_id": 136253055,
        "postalcode_id": 454302345,
        "postalregion_id": 1864206563
      }
    ],
    "wof:id": 454302345,
    "wof:lastmodified": 1763548466,
    "wof:name": "CW7 1PL",
    "wof:parent_id": 1226681555,
    "wof:placetype": "postalcode",
    "wof:repo": "whosonfirst-data-postalcode-gb",
    "wof:superseded_by": [],
    "wof:supersedes": [],
    "wof:tags": []
  },
  "bbox": [
    -2.53313,
    53.176678,
    -2.53313,
    53.176678
  ],
  "geometry": {"coordinates":[-2.53313,53.176678],"type":"Point"}
}
