{
  "id": 488370535,
  "type": "Feature",
  "properties": {
    "date:inception_lower": "2007-07-01",
    "date:inception_upper": "2007-07-01",
    "edtf:cessation": "",
    "edtf:inception": "2007-07-01",
    "geom:area": 0,
    "geom:bbox": "0.266521,51.340875,0.266521,51.340875",
    "geom:latitude": 51.340875,
    "geom:longitude": 0.266521,
    "gp:parent_id": "12695991",
    "iso:country": "GB",
    "mz:hierarchy_label": 1,
    "mz:is_current": 1,
    "os:country_code": "E92000001",
    "os:county_code": "E10000016",
    "os:district_code": "E07000111",
    "os:positional_quality_indicator": "1",
    "os:region_code": "E12000008",
    "src:geom": "os",
    "wof:belongsto": [
      85633159,
      102191581,
      136253055,
      1864211079,
      1880771507,
      404441753,
      1126060235,
      1880762057,
      404227469,
      1880762705
    ],
    "wof:breaches": [],
    "wof:concordances": {
      "gp:id": "56182767"
    },
    "wof:country": "GB",
    "wof:created": 1583701381,
    "wof:geomhash": "8d8cc313d3567ed04da618a4f61648dd",
    "wof:hierarchy": [
      {
        "continent_id": 102191581,
        "country_id": 85633159,
        "county_id": 1880771507,
        "empire_id": 136253055,
        "localadmin_id": 404441753,
        "locality_id": 1126060235,
        "macrocounty_id": 1880762057,
        "macroregion_id": 404227469,
        "postalcode_id": 488370535,
        "region_id": 1880762705
      },
      {
        "continent_id": 102191581,
        "country_id": 85633159,
        "empire_id": 136253055,
        "postalcode_id": 488370535,
        "postalregion_id": 1864211079
      }
    ],
    "wof:id": 488370535,
    "wof:lastmodified": 1763548499,
    "wof:name": "TN15 6HT",
    "wof:parent_id": 1126060235,
    "wof:placetype": "postalcode",
    "wof:repo": "whosonfirst-data-postalcode-gb",
    "wof:superseded_by": [],
    "wof:supersedes": [],
    "wof:tags": []
  },
  "bbox": [
    0.266521,
    51.340875,
    0.266521,
    51.340875
  ],
  "geometry": {"coordinates":[0.266521,51.340875],"type":"Point"}
}
