{
  "id": 1161033850,
  "type": "Feature",
  "properties": {
    "date:cessation_lower": "1995-07-01",
    "date:cessation_upper": "1995-07-01",
    "date:inception_lower": "1994-12-01",
    "date:inception_upper": "1994-12-01",
    "edtf:cessation": "1995-07-01",
    "edtf:inception": "1994-12-01",
    "geom:area": 0,
    "geom:bbox": "-2.863964,53.435166,-2.863964,53.435166",
    "geom:latitude": 53.435166,
    "geom:longitude": -2.863964,
    "iso:country": "GB",
    "mz:hierarchy_label": 1,
    "mz:is_current": 0,
    "os:country_code": "E92000001",
    "os:county_code": "E99999999",
    "os:district_code": "E08000011",
    "os:positional_quality_indicator": "8",
    "os:region_code": "E12000002",
    "src:geom": "os",
    "wof:belongsto": [
      85633159,
      102191581,
      136253055,
      1864208257,
      1360698941,
      404442915,
      1126015409,
      1880762035,
      404227469,
      1880773063
    ],
    "wof:breaches": [],
    "wof:country": "GB",
    "wof:created": 1583800978,
    "wof:geomhash": "d323df5f0360dcbed081b1374f583c25",
    "wof:hierarchy": [
      {
        "continent_id": 102191581,
        "country_id": 85633159,
        "county_id": 1360698941,
        "empire_id": 136253055,
        "localadmin_id": 404442915,
        "locality_id": 1126015409,
        "macrocounty_id": 1880762035,
        "macroregion_id": 404227469,
        "postalcode_id": 1161033850,
        "region_id": 1880773063
      },
      {
        "continent_id": 102191581,
        "country_id": 85633159,
        "empire_id": 136253055,
        "postalcode_id": 1161033850,
        "postalregion_id": 1864208257
      }
    ],
    "wof:id": 1161033850,
    "wof:lastmodified": 1763548196,
    "wof:name": "L28 1TB",
    "wof:parent_id": 1126015409,
    "wof:placetype": "postalcode",
    "wof:repo": "whosonfirst-data-postalcode-gb",
    "wof:superseded_by": [],
    "wof:supersedes": [],
    "wof:tags": []
  },
  "bbox": [
    -2.863964,
    53.435166,
    -2.863964,
    53.435166
  ],
  "geometry": {"coordinates":[-2.863964,53.435166],"type":"Point"}
}
