{
  "id": 1161064696,
  "type": "Feature",
  "properties": {
    "date:cessation_lower": "1992-12-01",
    "date:cessation_upper": "1992-12-01",
    "date:inception_lower": "1992-01-01",
    "date:inception_upper": "1992-01-01",
    "edtf:cessation": "1992-12-01",
    "edtf:inception": "1992-01-01",
    "geom:area": 0,
    "geom:bbox": "-2.187863,53.378821,-2.187863,53.378821",
    "geom:latitude": 53.378821,
    "geom:longitude": -2.187863,
    "iso:country": "GB",
    "mz:hierarchy_label": 1,
    "mz:is_current": 0,
    "os:country_code": "E92000001",
    "os:county_code": "E99999999",
    "os:district_code": "E08000007",
    "os:positional_quality_indicator": "8",
    "os:region_code": "E12000002",
    "src:geom": "os",
    "wof:belongsto": [
      85633159,
      102191581,
      136253055,
      1864210553,
      1360698879,
      101750527,
      1880762163,
      404227469,
      1880773095
    ],
    "wof:breaches": [],
    "wof:country": "GB",
    "wof:created": 1583802301,
    "wof:geomhash": "70c2f24ea404e2bf389ce37e1105d987",
    "wof:hierarchy": [
      {
        "continent_id": 102191581,
        "country_id": 85633159,
        "county_id": 1360698879,
        "empire_id": 136253055,
        "locality_id": 101750527,
        "macrocounty_id": 1880762163,
        "macroregion_id": 404227469,
        "postalcode_id": 1161064696,
        "region_id": 1880773095
      },
      {
        "continent_id": 102191581,
        "country_id": 85633159,
        "empire_id": 136253055,
        "postalcode_id": 1161064696,
        "postalregion_id": 1864210553
      }
    ],
    "wof:id": 1161064696,
    "wof:lastmodified": 1763548299,
    "wof:name": "SK8 5BH",
    "wof:parent_id": 101750527,
    "wof:placetype": "postalcode",
    "wof:repo": "whosonfirst-data-postalcode-gb",
    "wof:superseded_by": [],
    "wof:supersedes": [],
    "wof:tags": []
  },
  "bbox": [
    -2.187863,
    53.378821,
    -2.187863,
    53.378821
  ],
  "geometry": {"coordinates":[-2.187863,53.378821],"type":"Point"}
}
