{
  "id": 487818629,
  "type": "Feature",
  "properties": {
    "date:inception_lower": "1980-01-01",
    "date:inception_upper": "1980-01-01",
    "edtf:cessation": "",
    "edtf:inception": "1980-01-01",
    "geom:area": 0,
    "geom:bbox": "-2.123111,55.623538,-2.123111,55.623538",
    "geom:latitude": 55.623538,
    "geom:longitude": -2.123111,
    "iso:country": "GB",
    "mz:hierarchy_label": 1,
    "mz:is_current": 1,
    "os:country_code": "E92000001",
    "os:county_code": "E99999999",
    "os:district_code": "E06000057",
    "os:positional_quality_indicator": "1",
    "os:region_code": "E12000001",
    "src:geom": "os",
    "wof:belongsto": [
      85633159,
      102191581,
      136253055,
      1864211009,
      1360698769,
      404450749,
      1126054941,
      1880761987,
      404227469,
      1880772897
    ],
    "wof:breaches": [],
    "wof:concordances": {
      "gp:id": "28037391"
    },
    "wof:country": "GB",
    "wof:created": 1583701187,
    "wof:geomhash": "7f27f56f0bb002dfe3f052397bc51b3f",
    "wof:hierarchy": [
      {
        "continent_id": 102191581,
        "country_id": 85633159,
        "county_id": 1360698769,
        "empire_id": 136253055,
        "localadmin_id": 404450749,
        "locality_id": 1126054941,
        "macrocounty_id": 1880761987,
        "macroregion_id": 404227469,
        "postalcode_id": 487818629,
        "region_id": 1880772897
      },
      {
        "continent_id": 102191581,
        "country_id": 85633159,
        "empire_id": 136253055,
        "postalcode_id": 487818629,
        "postalregion_id": 1864211009
      }
    ],
    "wof:id": 487818629,
    "wof:lastmodified": 1763548631,
    "wof:name": "TD12 4TG",
    "wof:parent_id": 1126054941,
    "wof:placetype": "postalcode",
    "wof:repo": "whosonfirst-data-postalcode-gb",
    "wof:superseded_by": [],
    "wof:supersedes": [],
    "wof:tags": []
  },
  "bbox": [
    -2.123111,
    55.623538,
    -2.123111,
    55.623538
  ],
  "geometry": {"coordinates":[-2.123111,55.623538],"type":"Point"}
}
