{
  "id": 1160989652,
  "type": "Feature",
  "properties": {
    "date:cessation_lower": "1981-12-01",
    "date:cessation_upper": "1981-12-01",
    "date:inception_lower": "1981-06-01",
    "date:inception_upper": "1981-06-01",
    "edtf:cessation": "1981-12-01",
    "edtf:inception": "1981-06-01",
    "geom:area": 0,
    "geom:bbox": "0.253970,51.161815,0.253970,51.161815",
    "geom:latitude": 51.161815,
    "geom:longitude": 0.25397,
    "iso:country": "GB",
    "mz:hierarchy_label": 1,
    "mz:is_current": 0,
    "os:country_code": "E92000001",
    "os:county_code": "E10000016",
    "os:district_code": "E07000116",
    "os:positional_quality_indicator": "8",
    "os:region_code": "E12000008",
    "src:geom": "os",
    "wof:belongsto": [
      85633159,
      102191581,
      136253055,
      1864211141,
      1880771503,
      404454075,
      1360752965,
      1880762057,
      404227469,
      1880762705
    ],
    "wof:breaches": [],
    "wof:country": "GB",
    "wof:created": 1583798950,
    "wof:geomhash": "da6f4c4642c9ee206919b0c3583761d4",
    "wof:hierarchy": [
      {
        "continent_id": 102191581,
        "country_id": 85633159,
        "county_id": 1880771503,
        "empire_id": 136253055,
        "localadmin_id": 404454075,
        "locality_id": 1360752965,
        "macrocounty_id": 1880762057,
        "macroregion_id": 404227469,
        "postalcode_id": 1160989652,
        "region_id": 1880762705
      },
      {
        "continent_id": 102191581,
        "country_id": 85633159,
        "empire_id": 136253055,
        "postalcode_id": 1160989652,
        "postalregion_id": 1864211141
      }
    ],
    "wof:id": 1160989652,
    "wof:lastmodified": 1763548262,
    "wof:name": "TN4 0SF",
    "wof:parent_id": 1360752965,
    "wof:placetype": "postalcode",
    "wof:repo": "whosonfirst-data-postalcode-gb",
    "wof:superseded_by": [],
    "wof:supersedes": [],
    "wof:tags": []
  },
  "bbox": [
    0.25397,
    51.161815,
    0.25397,
    51.161815
  ],
  "geometry": {"coordinates":[0.25397,51.161815],"type":"Point"}
}
