{
  "id": 874467841,
  "type": "Feature",
  "properties": {
    "date:inception_lower": "2010-11-01",
    "date:inception_upper": "2010-11-01",
    "edtf:cessation": "",
    "edtf:inception": "2010-11-01",
    "geom:area": 0,
    "geom:bbox": "-0.396742,53.778060,-0.396742,53.778060",
    "geom:latitude": 53.77806,
    "geom:longitude": -0.396742,
    "iso:country": "GB",
    "mz:hierarchy_label": 1,
    "mz:is_current": 1,
    "os:country_code": "E92000001",
    "os:county_code": "E99999999",
    "os:district_code": "E06000011",
    "os:positional_quality_indicator": "1",
    "os:region_code": "E12000003",
    "src:geom": "os",
    "wof:belongsto": [
      85633159,
      102191581,
      136253055,
      1864207751,
      1360699001,
      404444827,
      1125949063,
      1880762147,
      404227469,
      1880773091
    ],
    "wof:breaches": [],
    "wof:country": "GB",
    "wof:created": 1468880773,
    "wof:geomhash": "873fe1a63f8c8a4d89ebf33e1fd1c30c",
    "wof:hierarchy": [
      {
        "continent_id": 102191581,
        "country_id": 85633159,
        "county_id": 1360699001,
        "empire_id": 136253055,
        "localadmin_id": 404444827,
        "locality_id": 1125949063,
        "macrocounty_id": 1880762147,
        "macroregion_id": 404227469,
        "postalcode_id": 874467841,
        "region_id": 1880773091
      },
      {
        "continent_id": 102191581,
        "country_id": 85633159,
        "empire_id": 136253055,
        "postalcode_id": 874467841,
        "postalregion_id": 1864207751
      }
    ],
    "wof:id": 874467841,
    "wof:lastmodified": 1763547976,
    "wof:name": "HU16 4PW",
    "wof:parent_id": 1125949063,
    "wof:placetype": "postalcode",
    "wof:repo": "whosonfirst-data-postalcode-gb",
    "wof:superseded_by": [],
    "wof:supersedes": [],
    "wof:tags": []
  },
  "bbox": [
    -0.396742,
    53.77806,
    -0.396742,
    53.77806
  ],
  "geometry": {"coordinates":[-0.396742,53.77806],"type":"Point"}
}
