{
  "id": 1160886476,
  "type": "Feature",
  "properties": {
    "date:cessation_lower": "2000-09-01",
    "date:cessation_upper": "2000-09-01",
    "date:inception_lower": "2000-08-01",
    "date:inception_upper": "2000-08-01",
    "edtf:cessation": "2000-09-01",
    "edtf:inception": "2000-08-01",
    "geom:area": 0,
    "geom:bbox": "1.573061,52.443183,1.573061,52.443183",
    "geom:latitude": 52.443183,
    "geom:longitude": 1.573061,
    "iso:country": "GB",
    "mz:hierarchy_label": 1,
    "mz:is_current": 0,
    "os:country_code": "E92000001",
    "os:county_code": "E10000029",
    "os:district_code": "E07000244",
    "os:positional_quality_indicator": "8",
    "os:region_code": "E12000006",
    "src:geom": "os",
    "wof:belongsto": [
      85633159,
      102191581,
      136253055,
      1864209361,
      1880771635,
      404454287,
      101854851,
      1880762001,
      404227469,
      1880762685
    ],
    "wof:breaches": [],
    "wof:country": "GB",
    "wof:created": 1583794393,
    "wof:geomhash": "ccf60e95664d6ce369669dc63cb1bbda",
    "wof:hierarchy": [
      {
        "continent_id": 102191581,
        "country_id": 85633159,
        "county_id": 1880771635,
        "empire_id": 136253055,
        "localadmin_id": 404454287,
        "locality_id": 101854851,
        "macrocounty_id": 1880762001,
        "macroregion_id": 404227469,
        "postalcode_id": 1160886476,
        "region_id": 1880762685
      },
      {
        "continent_id": 102191581,
        "country_id": 85633159,
        "empire_id": 136253055,
        "postalcode_id": 1160886476,
        "postalregion_id": 1864209361
      }
    ],
    "wof:id": 1160886476,
    "wof:lastmodified": 1763548331,
    "wof:name": "NR34 9PY",
    "wof:parent_id": 101854851,
    "wof:placetype": "postalcode",
    "wof:repo": "whosonfirst-data-postalcode-gb",
    "wof:superseded_by": [],
    "wof:supersedes": [],
    "wof:tags": []
  },
  "bbox": [
    1.573061,
    52.443183,
    1.573061,
    52.443183
  ],
  "geometry": {"coordinates":[1.573061,52.443183],"type":"Point"}
}
