{
  "id": 1160847016,
  "type": "Feature",
  "properties": {
    "date:cessation_lower": "1996-06-01",
    "date:cessation_upper": "1996-06-01",
    "date:inception_lower": "1995-12-01",
    "date:inception_upper": "1995-12-01",
    "edtf:cessation": "1996-06-01",
    "edtf:inception": "1995-12-01",
    "geom:area": 0,
    "geom:bbox": "-1.982648,57.474903,-1.982648,57.474903",
    "geom:latitude": 57.474903,
    "geom:longitude": -1.982648,
    "iso:country": "GB",
    "mz:hierarchy_label": 1,
    "mz:is_current": 0,
    "os:country_code": "S92000003",
    "os:county_code": "S99999999",
    "os:district_code": "S12000034",
    "os:positional_quality_indicator": "8",
    "os:region_code": "S99999999",
    "src:geom": "os",
    "wof:belongsto": [
      85633159,
      102191581,
      136253055,
      1864205429,
      1360699031,
      1880762109,
      404227471,
      1880773121
    ],
    "wof:breaches": [],
    "wof:country": "GB",
    "wof:created": 1583792625,
    "wof:geomhash": "37938976390a7c0cc9c5f7add6671695",
    "wof:hierarchy": [
      {
        "continent_id": 102191581,
        "country_id": 85633159,
        "county_id": 1360699031,
        "empire_id": 136253055,
        "macrocounty_id": 1880762109,
        "macroregion_id": 404227471,
        "postalcode_id": 1160847016,
        "region_id": 1880773121
      },
      {
        "continent_id": 102191581,
        "country_id": 85633159,
        "empire_id": 136253055,
        "postalcode_id": 1160847016,
        "postalregion_id": 1864205429
      }
    ],
    "wof:id": 1160847016,
    "wof:lastmodified": 1763548215,
    "wof:name": "AB42 8BH",
    "wof:parent_id": 1360699031,
    "wof:placetype": "postalcode",
    "wof:repo": "whosonfirst-data-postalcode-gb",
    "wof:superseded_by": [],
    "wof:supersedes": [],
    "wof:tags": []
  },
  "bbox": [
    -1.982648,
    57.474903,
    -1.982648,
    57.474903
  ],
  "geometry": {"coordinates":[-1.982648,57.474903],"type":"Point"}
}
