{
  "id": 38232747,
  "type": "Feature",
  "properties": {
    "date:inception_lower": "2021-12-01",
    "date:inception_upper": "2021-12-01",
    "edtf:cessation": "",
    "edtf:inception": "2021-12-01",
    "geom:area": 0,
    "geom:bbox": "0.145472,52.203465,0.145472,52.203465",
    "geom:latitude": 52.203465,
    "geom:longitude": 0.145472,
    "iso:country": "GB",
    "mz:hierarchy_label": 1,
    "mz:is_current": 1,
    "os:country_code": "E92000001",
    "os:county_code": "E10000003",
    "os:district_code": "E07000008",
    "os:positional_quality_indicator": "1",
    "os:region_code": "E12000006",
    "src:geom": "os",
    "wof:belongsto": [
      85633159,
      102191581,
      136253055,
      1864206119,
      1880771375,
      101750465,
      1880762143,
      404227469,
      1880762687
    ],
    "wof:breaches": [],
    "wof:country": "GB",
    "wof:created": 1583788060,
    "wof:geomhash": "e1c78ac18765382af5708b2bc16dda32",
    "wof:hierarchy": [
      {
        "continent_id": 102191581,
        "country_id": 85633159,
        "county_id": 1880771375,
        "empire_id": 136253055,
        "locality_id": 101750465,
        "macrocounty_id": 1880762143,
        "macroregion_id": 404227469,
        "postalcode_id": 38232747,
        "region_id": 1880762687
      },
      {
        "continent_id": 102191581,
        "country_id": 85633159,
        "empire_id": 136253055,
        "postalcode_id": 38232747,
        "postalregion_id": 1864206119
      }
    ],
    "wof:id": 38232747,
    "wof:lastmodified": 1763548371,
    "wof:name": "CB1 3FJ",
    "wof:parent_id": 101750465,
    "wof:placetype": "postalcode",
    "wof:repo": "whosonfirst-data-postalcode-gb",
    "wof:superseded_by": [],
    "wof:supersedes": [],
    "wof:tags": []
  },
  "bbox": [
    0.145472,
    52.203465,
    0.145472,
    52.203465
  ],
  "geometry": {"coordinates":[0.145472,52.203465],"type":"Point"}
}
