{
  "id": 1863945995,
  "type": "Feature",
  "properties": {
    "date:inception_lower": "2023-04-01",
    "date:inception_upper": "2023-04-01",
    "edtf:cessation": "",
    "edtf:inception": "2023-04-01",
    "geom:area": 0,
    "geom:bbox": "0.078860,52.643676,0.078860,52.643676",
    "geom:latitude": 52.643676,
    "geom:longitude": 0.07886,
    "iso:country": "GB",
    "mz:hierarchy_label": 1,
    "mz:is_current": 1,
    "os:country_code": "E92000001",
    "os:county_code": "E10000003",
    "os:district_code": "E07000010",
    "os:positional_quality_indicator": "1",
    "os:region_code": "E12000006",
    "src:geom": "os",
    "wof:belongsto": [
      102191581,
      85633159,
      136253055,
      1864209661,
      1880771365,
      404450221,
      1126011343,
      1880762143,
      404227469,
      1880762687
    ],
    "wof:breaches": [],
    "wof:country": "GB",
    "wof:created": 1687583436,
    "wof:geomhash": "02f3ed3937e9686c400683a73e80d60e",
    "wof:hierarchy": [
      {
        "continent_id": 102191581,
        "country_id": 85633159,
        "county_id": 1880771365,
        "empire_id": 136253055,
        "localadmin_id": 404450221,
        "locality_id": 1126011343,
        "macrocounty_id": 1880762143,
        "macroregion_id": 404227469,
        "postalcode_id": 1863945995,
        "region_id": 1880762687
      },
      {
        "continent_id": 102191581,
        "country_id": 85633159,
        "empire_id": 136253055,
        "postalcode_id": 1863945995,
        "postalregion_id": 1864209661
      }
    ],
    "wof:id": 1863945995,
    "wof:lastmodified": 1763548378,
    "wof:name": "PE13 4BF",
    "wof:parent_id": 1126011343,
    "wof:placetype": "postalcode",
    "wof:repo": "whosonfirst-data-postalcode-gb",
    "wof:superseded_by": [],
    "wof:supersedes": [],
    "wof:tags": []
  },
  "bbox": [
    0.07886,
    52.643676,
    0.07886,
    52.643676
  ],
  "geometry": {"coordinates":[0.07886,52.643676],"type":"Point"}
}
