{
  "id": 488543717,
  "type": "Feature",
  "properties": {
    "date:inception_lower": "1992-10-01",
    "date:inception_upper": "1992-10-01",
    "edtf:cessation": "",
    "edtf:inception": "1992-10-01",
    "geom:area": 0,
    "geom:bbox": "-2.701777,57.230608,-2.701777,57.230608",
    "geom:latitude": 57.230608,
    "geom:longitude": -2.701777,
    "iso:country": "GB",
    "mz:hierarchy_label": 1,
    "mz:is_current": 1,
    "os:country_code": "S92000003",
    "os:county_code": "S99999999",
    "os:district_code": "S12000034",
    "os:positional_quality_indicator": "1",
    "os:region_code": "S99999999",
    "src:geom": "os",
    "wof:belongsto": [
      85633159,
      102191581,
      136253055,
      1864205411,
      1360699031,
      1880762109,
      404227471,
      1880773121
    ],
    "wof:breaches": [],
    "wof:concordances": {
      "gp:id": "26829885"
    },
    "wof:country": "GB",
    "wof:created": 1583701561,
    "wof:geomhash": "e6f17bf7eb8aa6d1703865a3d4d2403d",
    "wof:hierarchy": [
      {
        "continent_id": 102191581,
        "country_id": 85633159,
        "county_id": 1360699031,
        "empire_id": 136253055,
        "macrocounty_id": 1880762109,
        "macroregion_id": 404227471,
        "postalcode_id": 488543717,
        "region_id": 1880773121
      },
      {
        "continent_id": 102191581,
        "country_id": 85633159,
        "empire_id": 136253055,
        "postalcode_id": 488543717,
        "postalregion_id": 1864205411
      }
    ],
    "wof:id": 488543717,
    "wof:lastmodified": 1763548506,
    "wof:name": "AB33 8GE",
    "wof:parent_id": 1360699031,
    "wof:placetype": "postalcode",
    "wof:repo": "whosonfirst-data-postalcode-gb",
    "wof:superseded_by": [],
    "wof:supersedes": [],
    "wof:tags": []
  },
  "bbox": [
    -2.701777,
    57.230608,
    -2.701777,
    57.230608
  ],
  "geometry": {"coordinates":[-2.701777,57.230608],"type":"Point"}
}
