{
  "id": 488433525,
  "type": "Feature",
  "properties": {
    "date:inception_lower": "1989-10-01",
    "date:inception_upper": "1989-10-01",
    "edtf:cessation": "",
    "edtf:inception": "1989-10-01",
    "geom:area": 0,
    "geom:bbox": "-3.175554,55.941582,-3.175554,55.941582",
    "geom:latitude": 55.941582,
    "geom:longitude": -3.175554,
    "iso:country": "GB",
    "mz:hierarchy_label": 1,
    "mz:is_current": 1,
    "os:country_code": "S92000003",
    "os:county_code": "S99999999",
    "os:district_code": "S12000036",
    "os:positional_quality_indicator": "1",
    "os:region_code": "S99999999",
    "src:geom": "os",
    "wof:belongsto": [
      85633159,
      102191581,
      136253055,
      1864207043,
      1360698761,
      101750629,
      1880762089,
      404227471,
      1880772893
    ],
    "wof:breaches": [],
    "wof:concordances": {
      "gp:id": "27230184"
    },
    "wof:country": "GB",
    "wof:created": 1583701446,
    "wof:geomhash": "e3997b1b4e80e8fa1b8bbcee0ec74fbd",
    "wof:hierarchy": [
      {
        "continent_id": 102191581,
        "country_id": 85633159,
        "county_id": 1360698761,
        "empire_id": 136253055,
        "locality_id": 101750629,
        "macrocounty_id": 1880762089,
        "macroregion_id": 404227471,
        "postalcode_id": 488433525,
        "region_id": 1880772893
      },
      {
        "continent_id": 102191581,
        "country_id": 85633159,
        "empire_id": 136253055,
        "postalcode_id": 488433525,
        "postalregion_id": 1864207043
      }
    ],
    "wof:id": 488433525,
    "wof:lastmodified": 1763548584,
    "wof:name": "EH16 5XW",
    "wof:parent_id": 101750629,
    "wof:placetype": "postalcode",
    "wof:repo": "whosonfirst-data-postalcode-gb",
    "wof:superseded_by": [],
    "wof:supersedes": [],
    "wof:tags": []
  },
  "bbox": [
    -3.175554,
    55.941582,
    -3.175554,
    55.941582
  ],
  "geometry": {"coordinates":[-3.175554,55.941582],"type":"Point"}
}
