{
  "id": 504592527,
  "type": "Feature",
  "properties": {
    "date:inception_lower": "1996-12-01",
    "date:inception_upper": "1996-12-01",
    "edtf:cessation": "",
    "edtf:inception": "1996-12-01",
    "geom:area": 0,
    "geom:bbox": "-4.290202,51.568908,-4.290202,51.568908",
    "geom:latitude": 51.568908,
    "geom:longitude": -4.290202,
    "gp:parent_id": "12696131",
    "iso:country": "GB",
    "mz:hierarchy_label": 1,
    "mz:is_current": 1,
    "os:country_code": "W92000004",
    "os:county_code": "W99999999",
    "os:district_code": "W06000011",
    "os:positional_quality_indicator": "1",
    "os:region_code": "W99999999",
    "src:geom": "os",
    "wof:belongsto": [
      85633159,
      102191581,
      136253055,
      1864210317,
      1360699095,
      404440577,
      1125805215,
      1880762113,
      404227475,
      1880773177
    ],
    "wof:breaches": [],
    "wof:concordances": {
      "gp:id": "27876967"
    },
    "wof:country": "GB",
    "wof:created": 1583701462,
    "wof:geomhash": "447e954824783e266d49d617ba23a256",
    "wof:hierarchy": [
      {
        "continent_id": 102191581,
        "country_id": 85633159,
        "county_id": 1360699095,
        "empire_id": 136253055,
        "localadmin_id": 404440577,
        "locality_id": 1125805215,
        "macrocounty_id": 1880762113,
        "macroregion_id": 404227475,
        "postalcode_id": 504592527,
        "region_id": 1880773177
      },
      {
        "continent_id": 102191581,
        "country_id": 85633159,
        "empire_id": 136253055,
        "postalcode_id": 504592527,
        "postalregion_id": 1864210317
      }
    ],
    "wof:id": 504592527,
    "wof:lastmodified": 1763547912,
    "wof:name": "SA3 1PR",
    "wof:parent_id": 1125805215,
    "wof:placetype": "postalcode",
    "wof:repo": "whosonfirst-data-postalcode-gb",
    "wof:superseded_by": [],
    "wof:supersedes": [],
    "wof:tags": []
  },
  "bbox": [
    -4.290202,
    51.568908,
    -4.290202,
    51.568908
  ],
  "geometry": {"coordinates":[-4.290202,51.568908],"type":"Point"}
}
