{
  "id": 437771009,
  "type": "Feature",
  "properties": {
    "date:cessation_lower": "2003-02-01",
    "date:cessation_upper": "2003-02-01",
    "date:inception_lower": "1988-03-01",
    "date:inception_upper": "1988-03-01",
    "edtf:cessation": "2003-02-01",
    "edtf:inception": "1988-03-01",
    "geom:area": 0,
    "geom:bbox": "0.357820,51.346834,0.357820,51.346834",
    "geom:latitude": 51.346834,
    "geom:longitude": 0.35782,
    "iso:country": "GB",
    "mz:hierarchy_label": 1,
    "mz:is_current": 0,
    "os:country_code": "E92000001",
    "os:county_code": "E10000016",
    "os:district_code": "E07000109",
    "os:positional_quality_indicator": "5",
    "os:region_code": "E12000008",
    "src:geom": "os",
    "wof:belongsto": [
      85633159,
      102191581,
      136253055,
      1864206581,
      1880771527,
      404441277,
      101854621,
      1880762057,
      404227469,
      1880762705
    ],
    "wof:breaches": [],
    "wof:concordances": {
      "gp:id": "28863469"
    },
    "wof:country": "GB",
    "wof:created": 1583701544,
    "wof:geomhash": "497998bb2d1614448e49aeccd42ee2ee",
    "wof:hierarchy": [
      {
        "continent_id": 102191581,
        "country_id": 85633159,
        "county_id": 1880771527,
        "empire_id": 136253055,
        "localadmin_id": 404441277,
        "locality_id": 101854621,
        "macrocounty_id": 1880762057,
        "macroregion_id": 404227469,
        "postalcode_id": 437771009,
        "region_id": 1880762705
      },
      {
        "continent_id": 102191581,
        "country_id": 85633159,
        "empire_id": 136253055,
        "postalcode_id": 437771009,
        "postalregion_id": 1864206581
      }
    ],
    "wof:id": 437771009,
    "wof:lastmodified": 1763548098,
    "wof:name": "DA13 0DX",
    "wof:parent_id": 101854621,
    "wof:placetype": "postalcode",
    "wof:repo": "whosonfirst-data-postalcode-gb",
    "wof:superseded_by": [],
    "wof:supersedes": [],
    "wof:tags": []
  },
  "bbox": [
    0.35782,
    51.346834,
    0.35782,
    51.346834
  ],
  "geometry": {"coordinates":[0.35782,51.346834],"type":"Point"}
}
