{
  "id": 1780432761,
  "type": "Feature",
  "properties": {
    "date:inception_lower": "2021-11-01",
    "date:inception_upper": "2021-11-01",
    "edtf:cessation": "",
    "edtf:inception": "2021-11-01",
    "geom:area": 0,
    "geom:bbox": "-2.185376,52.606805,-2.185376,52.606805",
    "geom:latitude": 52.606805,
    "geom:longitude": -2.185376,
    "iso:country": "GB",
    "mz:hierarchy_label": 1,
    "mz:is_current": 1,
    "os:country_code": "E92000001",
    "os:county_code": "E10000028",
    "os:district_code": "E07000196",
    "os:positional_quality_indicator": "1",
    "os:region_code": "E12000005",
    "src:geom": "os",
    "wof:belongsto": [
      102191581,
      85633159,
      136253055,
      1864211701,
      1880771619,
      404450243,
      1125783213,
      1880761999,
      404227469,
      1880762719
    ],
    "wof:breaches": [],
    "wof:country": "GB",
    "wof:created": 1662040831,
    "wof:geomhash": "87a5d28f12cd8cbc2314f49a461451ce",
    "wof:hierarchy": [
      {
        "continent_id": 102191581,
        "country_id": 85633159,
        "county_id": 1880771619,
        "empire_id": 136253055,
        "localadmin_id": 404450243,
        "locality_id": 1125783213,
        "macrocounty_id": 1880761999,
        "macroregion_id": 404227469,
        "postalcode_id": 1780432761,
        "region_id": 1880762719
      },
      {
        "continent_id": 102191581,
        "country_id": 85633159,
        "empire_id": 136253055,
        "postalcode_id": 1780432761,
        "postalregion_id": 1864211701
      }
    ],
    "wof:id": 1780432761,
    "wof:lastmodified": 1763548677,
    "wof:name": "WV6 8AX",
    "wof:parent_id": 1125783213,
    "wof:placetype": "postalcode",
    "wof:repo": "whosonfirst-data-postalcode-gb",
    "wof:superseded_by": [],
    "wof:supersedes": [],
    "wof:tags": []
  },
  "bbox": [
    -2.185376,
    52.606805,
    -2.185376,
    52.606805
  ],
  "geometry": {"coordinates":[-2.185376,52.606805],"type":"Point"}
}
