{
  "id": 1160989840,
  "type": "Feature",
  "properties": {
    "date:cessation_lower": "2001-06-01",
    "date:cessation_upper": "2001-06-01",
    "date:inception_lower": "1999-06-01",
    "date:inception_upper": "1999-06-01",
    "edtf:cessation": "2001-06-01",
    "edtf:inception": "1999-06-01",
    "geom:area": 0,
    "geom:bbox": "-1.333512,53.413768,-1.333512,53.413768",
    "geom:latitude": 53.413768,
    "geom:longitude": -1.333512,
    "iso:country": "GB",
    "mz:hierarchy_label": 1,
    "mz:is_current": 0,
    "os:country_code": "E92000001",
    "os:county_code": "E99999999",
    "os:district_code": "E08000018",
    "os:positional_quality_indicator": "6",
    "os:region_code": "E12000003",
    "src:geom": "os",
    "wof:belongsto": [
      85633159,
      102191581,
      136253055,
      1864210235,
      1360698851,
      1360817063,
      101750521,
      1880761997,
      404227469,
      1880772963
    ],
    "wof:breaches": [],
    "wof:country": "GB",
    "wof:created": 1583798960,
    "wof:geomhash": "ea8d9c592066f2809c7f4ffba2f51c15",
    "wof:hierarchy": [
      {
        "continent_id": 102191581,
        "country_id": 85633159,
        "county_id": 1360698851,
        "empire_id": 136253055,
        "localadmin_id": 1360817063,
        "locality_id": 101750521,
        "macrocounty_id": 1880761997,
        "macroregion_id": 404227469,
        "postalcode_id": 1160989840,
        "region_id": 1880772963
      },
      {
        "continent_id": 102191581,
        "country_id": 85633159,
        "empire_id": 136253055,
        "postalcode_id": 1160989840,
        "postalregion_id": 1864210235
      }
    ],
    "wof:id": 1160989840,
    "wof:lastmodified": 1763548265,
    "wof:name": "S60 3YE",
    "wof:parent_id": 101750521,
    "wof:placetype": "postalcode",
    "wof:repo": "whosonfirst-data-postalcode-gb",
    "wof:superseded_by": [],
    "wof:supersedes": [],
    "wof:tags": []
  },
  "bbox": [
    -1.333512,
    53.413768,
    -1.333512,
    53.413768
  ],
  "geometry": {"coordinates":[-1.333512,53.413768],"type":"Point"}
}
