{
  "id": 504731101,
  "type": "Feature",
  "properties": {
    "date:inception_lower": "2004-05-01",
    "date:inception_upper": "2004-05-01",
    "edtf:cessation": "",
    "edtf:inception": "2004-05-01",
    "geom:area": 0,
    "geom:bbox": "-4.239570,52.916363,-4.239570,52.916363",
    "geom:latitude": 52.916363,
    "geom:longitude": -4.23957,
    "gp:parent_id": "12696126",
    "iso:country": "GB",
    "mz:hierarchy_label": 1,
    "mz:is_current": 1,
    "os:country_code": "W92000004",
    "os:county_code": "W99999999",
    "os:district_code": "W06000002",
    "os:positional_quality_indicator": "1",
    "os:region_code": "W99999999",
    "src:geom": "os",
    "wof:belongsto": [
      85633159,
      102191581,
      136253055,
      1864208537,
      1360698959,
      404453555,
      101872019,
      1880762187,
      404227475,
      1880773051
    ],
    "wof:breaches": [],
    "wof:concordances": {
      "gp:id": "27497740"
    },
    "wof:country": "GB",
    "wof:created": 1583701529,
    "wof:geomhash": "29a6d16586a3946de833ec43107a459c",
    "wof:hierarchy": [
      {
        "continent_id": 102191581,
        "country_id": 85633159,
        "county_id": 1360698959,
        "empire_id": 136253055,
        "localadmin_id": 404453555,
        "locality_id": 101872019,
        "macrocounty_id": 1880762187,
        "macroregion_id": 404227475,
        "postalcode_id": 504731101,
        "region_id": 1880773051
      },
      {
        "continent_id": 102191581,
        "country_id": 85633159,
        "empire_id": 136253055,
        "postalcode_id": 504731101,
        "postalregion_id": 1864208537
      }
    ],
    "wof:id": 504731101,
    "wof:lastmodified": 1763547925,
    "wof:name": "LL52 0EJ",
    "wof:parent_id": 101872019,
    "wof:placetype": "postalcode",
    "wof:repo": "whosonfirst-data-postalcode-gb",
    "wof:superseded_by": [],
    "wof:supersedes": [],
    "wof:tags": []
  },
  "bbox": [
    -4.23957,
    52.916363,
    -4.23957,
    52.916363
  ],
  "geometry": {"coordinates":[-4.23957,52.916363],"type":"Point"}
}
