{
  "id": 874452859,
  "type": "Feature",
  "properties": {
    "date:cessation_lower": "2018-05-01",
    "date:cessation_upper": "2018-05-01",
    "date:inception_lower": "2015-07-01",
    "date:inception_upper": "2015-07-01",
    "edtf:cessation": "2018-05-01",
    "edtf:inception": "2015-07-01",
    "geom:area": 0,
    "geom:bbox": "-2.465563,55.972035,-2.465563,55.972035",
    "geom:latitude": 55.972035,
    "geom:longitude": -2.465563,
    "iso:country": "GB",
    "mz:hierarchy_label": 1,
    "mz:is_current": 0,
    "os:country_code": "S92000003",
    "os:county_code": "S99999999",
    "os:district_code": "S12000010",
    "os:positional_quality_indicator": "1",
    "os:region_code": "S99999999",
    "src:geom": "os",
    "wof:belongsto": [
      85633159,
      102191581,
      136253055,
      1864207109,
      1360699017,
      1880762091,
      404227471,
      1880773107
    ],
    "wof:breaches": [],
    "wof:country": "GB",
    "wof:created": 1468879002,
    "wof:geomhash": "a3e8bc96fac8760d8d0edb86696a48ab",
    "wof:hierarchy": [
      {
        "continent_id": 102191581,
        "country_id": 85633159,
        "county_id": 1360699017,
        "empire_id": 136253055,
        "macrocounty_id": 1880762091,
        "macroregion_id": 404227471,
        "postalcode_id": 874452859,
        "region_id": 1880773107
      },
      {
        "continent_id": 102191581,
        "country_id": 85633159,
        "empire_id": 136253055,
        "postalcode_id": 874452859,
        "postalregion_id": 1864207109
      }
    ],
    "wof:id": 874452859,
    "wof:lastmodified": 1763547946,
    "wof:name": "EH42 1FU",
    "wof:parent_id": 1360699017,
    "wof:placetype": "postalcode",
    "wof:repo": "whosonfirst-data-postalcode-gb",
    "wof:superseded_by": [],
    "wof:supersedes": [],
    "wof:tags": []
  },
  "bbox": [
    -2.465563,
    55.972035,
    -2.465563,
    55.972035
  ],
  "geometry": {"coordinates":[-2.465563,55.972035],"type":"Point"}
}
