{
  "id": 39375549,
  "type": "Feature",
  "properties": {
    "date:cessation_lower": "1998-06-01",
    "date:cessation_upper": "1998-06-01",
    "date:inception_lower": "1991-09-01",
    "date:inception_upper": "1991-09-01",
    "edtf:cessation": "1998-06-01",
    "edtf:inception": "1991-09-01",
    "geom:area": 0,
    "geom:bbox": "-0.934319,54.266688,-0.934319,54.266688",
    "geom:latitude": 54.266688,
    "geom:longitude": -0.934319,
    "iso:country": "GB",
    "mz:hierarchy_label": 1,
    "mz:is_current": 0,
    "os:country_code": "E92000001",
    "os:county_code": "E99999999",
    "os:district_code": "E06000065",
    "os:positional_quality_indicator": "1",
    "os:region_code": "E12000003",
    "src:geom": "os",
    "wof:belongsto": [
      102191581,
      85633159,
      1360698753,
      136253055,
      404431977,
      101877103,
      1880762011,
      404227469,
      1880772891
    ],
    "wof:breaches": [],
    "wof:country": "GB",
    "wof:created": 1583800758,
    "wof:geomhash": "2149b9cb82277f91a5532525d859caf2",
    "wof:hierarchy": [
      {
        "continent_id": 102191581,
        "country_id": 85633159,
        "county_id": 1360698753,
        "empire_id": 136253055,
        "localadmin_id": 404431977,
        "locality_id": 101877103,
        "macrocounty_id": 1880762011,
        "macroregion_id": 404227469,
        "postalcode_id": 39375549,
        "region_id": 1880772891
      }
    ],
    "wof:id": 39375549,
    "wof:lastmodified": 1763548390,
    "wof:name": "YO6 6LJ",
    "wof:parent_id": 101877103,
    "wof:placetype": "postalcode",
    "wof:repo": "whosonfirst-data-postalcode-gb",
    "wof:superseded_by": [],
    "wof:supersedes": [],
    "wof:tags": []
  },
  "bbox": [
    -0.934319,
    54.266688,
    -0.934319,
    54.266688
  ],
  "geometry": {"coordinates":[-0.934319,54.266688],"type":"Point"}
}
