{
  "id": 874456131,
  "type": "Feature",
  "properties": {
    "date:inception_lower": "2012-11-01",
    "date:inception_upper": "2012-11-01",
    "edtf:cessation": "",
    "edtf:inception": "2012-11-01",
    "geom:area": 0,
    "geom:bbox": "-3.497580,50.684082,-3.497580,50.684082",
    "geom:latitude": 50.684082,
    "geom:longitude": -3.49758,
    "iso:country": "GB",
    "mz:hierarchy_label": 1,
    "mz:is_current": 1,
    "os:country_code": "E92000001",
    "os:county_code": "E10000008",
    "os:district_code": "E07000045",
    "os:positional_quality_indicator": "1",
    "os:region_code": "E12000009",
    "src:geom": "os",
    "wof:belongsto": [
      85633159,
      102191581,
      136253055,
      1864207243,
      1880771399,
      404439367,
      1126013169,
      1880762149,
      404227469,
      1880762683
    ],
    "wof:breaches": [],
    "wof:country": "GB",
    "wof:created": 1468879551,
    "wof:geomhash": "07c6afaa108b17ad3cc1f0a300e1cea2",
    "wof:hierarchy": [
      {
        "continent_id": 102191581,
        "country_id": 85633159,
        "county_id": 1880771399,
        "empire_id": 136253055,
        "localadmin_id": 404439367,
        "locality_id": 1126013169,
        "macrocounty_id": 1880762149,
        "macroregion_id": 404227469,
        "postalcode_id": 874456131,
        "region_id": 1880762683
      },
      {
        "continent_id": 102191581,
        "country_id": 85633159,
        "empire_id": 136253055,
        "postalcode_id": 874456131,
        "postalregion_id": 1864207243
      }
    ],
    "wof:id": 874456131,
    "wof:lastmodified": 1763547980,
    "wof:name": "EX6 8FF",
    "wof:parent_id": 1126013169,
    "wof:placetype": "postalcode",
    "wof:repo": "whosonfirst-data-postalcode-gb",
    "wof:superseded_by": [],
    "wof:supersedes": [],
    "wof:tags": []
  },
  "bbox": [
    -3.49758,
    50.684082,
    -3.49758,
    50.684082
  ],
  "geometry": {"coordinates":[-3.49758,50.684082],"type":"Point"}
}
