{
  "id": 454860825,
  "type": "Feature",
  "properties": {
    "date:inception_lower": "1980-01-01",
    "date:inception_upper": "1980-01-01",
    "edtf:cessation": "",
    "edtf:inception": "1980-01-01",
    "geom:area": 0,
    "geom:bbox": "1.355292,51.965040,1.355292,51.965040",
    "geom:latitude": 51.96504,
    "geom:longitude": 1.355292,
    "iso:country": "GB",
    "mz:hierarchy_label": 1,
    "mz:is_current": 1,
    "os:country_code": "E92000001",
    "os:county_code": "E10000029",
    "os:district_code": "E07000244",
    "os:positional_quality_indicator": "1",
    "os:region_code": "E12000006",
    "src:geom": "os",
    "wof:belongsto": [
      85633159,
      102191581,
      136253055,
      1864207825,
      1880771635,
      404442389,
      101854847,
      1880762001,
      404227469,
      1880762685
    ],
    "wof:breaches": [],
    "wof:concordances": {
      "gp:id": "26515556"
    },
    "wof:country": "GB",
    "wof:created": 1583701739,
    "wof:geomhash": "68674dae67b38a76b070ede77ebf7b74",
    "wof:hierarchy": [
      {
        "continent_id": 102191581,
        "country_id": 85633159,
        "county_id": 1880771635,
        "empire_id": 136253055,
        "localadmin_id": 404442389,
        "locality_id": 101854847,
        "macrocounty_id": 1880762001,
        "macroregion_id": 404227469,
        "postalcode_id": 454860825,
        "region_id": 1880762685
      },
      {
        "continent_id": 102191581,
        "country_id": 85633159,
        "empire_id": 136253055,
        "postalcode_id": 454860825,
        "postalregion_id": 1864207825
      }
    ],
    "wof:id": 454860825,
    "wof:lastmodified": 1763548358,
    "wof:name": "IP11 7HS",
    "wof:parent_id": 101854847,
    "wof:placetype": "postalcode",
    "wof:repo": "whosonfirst-data-postalcode-gb",
    "wof:superseded_by": [],
    "wof:supersedes": [],
    "wof:tags": []
  },
  "bbox": [
    1.355292,
    51.96504,
    1.355292,
    51.96504
  ],
  "geometry": {"coordinates":[1.355292,51.96504],"type":"Point"}
}
