{
  "id": 471796727,
  "type": "Feature",
  "properties": {
    "date:inception_lower": "1980-01-01",
    "date:inception_upper": "1980-01-01",
    "edtf:cessation": "",
    "edtf:inception": "1980-01-01",
    "geom:area": 0,
    "geom:bbox": "-2.219834,53.325715,-2.219834,53.325715",
    "geom:latitude": 53.325715,
    "geom:longitude": -2.219834,
    "iso:country": "GB",
    "mz:hierarchy_label": 1,
    "mz:is_current": 1,
    "os:country_code": "E92000001",
    "os:county_code": "E99999999",
    "os:district_code": "E06000049",
    "os:positional_quality_indicator": "1",
    "os:region_code": "E12000002",
    "src:geom": "os",
    "wof:belongsto": [
      85633159,
      102191581,
      136253055,
      1864210555,
      1360698929,
      404439479,
      101751621,
      1880762135,
      404227469,
      1880773021
    ],
    "wof:breaches": [],
    "wof:concordances": {
      "gp:id": "27926162"
    },
    "wof:country": "GB",
    "wof:created": 1583701741,
    "wof:geomhash": "ad3102a2edc1b4f1a7a9be9ec7793c3b",
    "wof:hierarchy": [
      {
        "continent_id": 102191581,
        "country_id": 85633159,
        "county_id": 1360698929,
        "empire_id": 136253055,
        "localadmin_id": 404439479,
        "locality_id": 101751621,
        "macrocounty_id": 1880762135,
        "macroregion_id": 404227469,
        "postalcode_id": 471796727,
        "region_id": 1880773021
      },
      {
        "continent_id": 102191581,
        "country_id": 85633159,
        "empire_id": 136253055,
        "postalcode_id": 471796727,
        "postalregion_id": 1864210555
      }
    ],
    "wof:id": 471796727,
    "wof:lastmodified": 1763547972,
    "wof:name": "SK9 2AP",
    "wof:parent_id": 101751621,
    "wof:placetype": "postalcode",
    "wof:repo": "whosonfirst-data-postalcode-gb",
    "wof:superseded_by": [],
    "wof:supersedes": [],
    "wof:tags": []
  },
  "bbox": [
    -2.219834,
    53.325715,
    -2.219834,
    53.325715
  ],
  "geometry": {"coordinates":[-2.219834,53.325715],"type":"Point"}
}
