{
  "id": 471846291,
  "type": "Feature",
  "properties": {
    "date:inception_lower": "2004-03-01",
    "date:inception_upper": "2004-03-01",
    "edtf:cessation": "",
    "edtf:inception": "2004-03-01",
    "geom:area": 0,
    "geom:bbox": "-2.112083,51.587346,-2.112083,51.587346",
    "geom:latitude": 51.587346,
    "geom:longitude": -2.112083,
    "iso:country": "GB",
    "mz:hierarchy_label": 1,
    "mz:is_current": 1,
    "os:country_code": "E92000001",
    "os:county_code": "E99999999",
    "os:district_code": "E06000054",
    "os:positional_quality_indicator": "1",
    "os:region_code": "E12000009",
    "src:geom": "os",
    "wof:belongsto": [
      85633159,
      102191581,
      136253055,
      1864210615,
      1360698937,
      404444649,
      101852743,
      1880762017
    ],
    "wof:breaches": [],
    "wof:concordances": {
      "gp:id": "27943212"
    },
    "wof:country": "GB",
    "wof:created": 1583701754,
    "wof:geomhash": "d04d1d088ffb451f1d65260fe532f620",
    "wof:hierarchy": [
      {
        "continent_id": -1,
        "country_id": -1,
        "county_id": 1360698937,
        "localadmin_id": 404444649,
        "locality_id": 101852743,
        "macrocounty_id": 1880762017,
        "postalcode_id": 471846291,
        "region_id": -1
      },
      {
        "continent_id": 102191581,
        "country_id": 85633159,
        "empire_id": 136253055,
        "postalcode_id": 471846291,
        "postalregion_id": 1864210615
      }
    ],
    "wof:id": 471846291,
    "wof:lastmodified": 1763548264,
    "wof:name": "SN16 0QD",
    "wof:parent_id": 101852743,
    "wof:placetype": "postalcode",
    "wof:repo": "whosonfirst-data-postalcode-gb",
    "wof:superseded_by": [],
    "wof:supersedes": [],
    "wof:tags": []
  },
  "bbox": [
    -2.112083,
    51.587346,
    -2.112083,
    51.587346
  ],
  "geometry": {"coordinates":[-2.112083,51.587346],"type":"Point"}
}
