{
  "id": 454958547,
  "type": "Feature",
  "properties": {
    "date:inception_lower": "1980-01-01",
    "date:inception_upper": "1980-01-01",
    "edtf:cessation": "",
    "edtf:inception": "1980-01-01",
    "geom:area": 0,
    "geom:bbox": "-2.902427,53.478675,-2.902427,53.478675",
    "geom:latitude": 53.478675,
    "geom:longitude": -2.902427,
    "gp:parent_id": "26734",
    "iso:country": "GB",
    "mz:hierarchy_label": 1,
    "mz:is_current": 1,
    "os:country_code": "E92000001",
    "os:county_code": "E99999999",
    "os:district_code": "E08000011",
    "os:positional_quality_indicator": "1",
    "os:region_code": "E12000002",
    "src:geom": "os",
    "wof:belongsto": [
      85633159,
      102191581,
      136253055,
      1864208269,
      1360698941,
      101872163,
      1880762035,
      404227469,
      1880773063
    ],
    "wof:breaches": [],
    "wof:concordances": {
      "gp:id": "27450788"
    },
    "wof:country": "GB",
    "wof:created": 1583701761,
    "wof:geomhash": "0db15928f85bafd2db9d4f81dc6eda5c",
    "wof:hierarchy": [
      {
        "continent_id": 102191581,
        "country_id": 85633159,
        "county_id": 1360698941,
        "empire_id": 136253055,
        "locality_id": 101872163,
        "macrocounty_id": 1880762035,
        "macroregion_id": 404227469,
        "postalcode_id": 454958547,
        "region_id": 1880773063
      },
      {
        "continent_id": 102191581,
        "country_id": 85633159,
        "empire_id": 136253055,
        "postalcode_id": 454958547,
        "postalregion_id": 1864208269
      }
    ],
    "wof:id": 454958547,
    "wof:lastmodified": 1763548452,
    "wof:name": "L32 4UE",
    "wof:parent_id": 101872163,
    "wof:placetype": "postalcode",
    "wof:repo": "whosonfirst-data-postalcode-gb",
    "wof:superseded_by": [],
    "wof:supersedes": [],
    "wof:tags": []
  },
  "bbox": [
    -2.902427,
    53.478675,
    -2.902427,
    53.478675
  ],
  "geometry": {"coordinates":[-2.902427,53.478675],"type":"Point"}
}
