{
  "id": 1160750492,
  "type": "Feature",
  "properties": {
    "date:cessation_lower": "1995-12-01",
    "date:cessation_upper": "1995-12-01",
    "date:inception_lower": "1994-05-01",
    "date:inception_upper": "1994-05-01",
    "edtf:cessation": "1995-12-01",
    "edtf:inception": "1994-05-01",
    "geom:area": 0,
    "geom:bbox": "-2.863136,54.866012,-2.863136,54.866012",
    "geom:latitude": 54.866012,
    "geom:longitude": -2.863136,
    "iso:country": "GB",
    "mz:hierarchy_label": 1,
    "mz:is_current": 0,
    "os:country_code": "E92000001",
    "os:county_code": "E99999999",
    "os:district_code": "E06000063",
    "os:positional_quality_indicator": "8",
    "os:region_code": "E12000002",
    "src:geom": "os",
    "wof:belongsto": [
      85633159,
      102191581,
      136253055,
      1864206103,
      1880773239,
      404448487,
      1125905565,
      1880761989,
      404227469,
      1880773269
    ],
    "wof:breaches": [],
    "wof:country": "GB",
    "wof:created": 1583788315,
    "wof:geomhash": "06e74f1789a6bcd84081dc80b7e78fe3",
    "wof:hierarchy": [
      {
        "continent_id": 102191581,
        "country_id": 85633159,
        "county_id": 1880773239,
        "empire_id": 136253055,
        "localadmin_id": 404448487,
        "locality_id": 1125905565,
        "macrocounty_id": 1880761989,
        "macroregion_id": 404227469,
        "postalcode_id": 1160750492,
        "region_id": 1880773269
      },
      {
        "continent_id": 102191581,
        "country_id": 85633159,
        "empire_id": 136253055,
        "postalcode_id": 1160750492,
        "postalregion_id": 1864206103
      }
    ],
    "wof:id": 1160750492,
    "wof:lastmodified": 1763548327,
    "wof:name": "CA4 8DN",
    "wof:parent_id": 1125905565,
    "wof:placetype": "postalcode",
    "wof:repo": "whosonfirst-data-postalcode-gb",
    "wof:superseded_by": [],
    "wof:supersedes": [],
    "wof:tags": []
  },
  "bbox": [
    -2.863136,
    54.866012,
    -2.863136,
    54.866012
  ],
  "geometry": {"coordinates":[-2.863136,54.866012],"type":"Point"}
}
