{
  "id": 454130119,
  "type": "Feature",
  "properties": {
    "date:inception_lower": "1980-01-01",
    "date:inception_upper": "1980-01-01",
    "edtf:cessation": "",
    "edtf:inception": "1980-01-01",
    "geom:area": 0,
    "geom:bbox": "0.843755,51.667132,0.843755,51.667132",
    "geom:latitude": 51.667132,
    "geom:longitude": 0.843755,
    "iso:country": "GB",
    "mz:hierarchy_label": 1,
    "mz:is_current": 1,
    "os:country_code": "E92000001",
    "os:county_code": "E10000012",
    "os:district_code": "E07000074",
    "os:positional_quality_indicator": "1",
    "os:region_code": "E12000006",
    "src:geom": "os",
    "wof:belongsto": [
      85633159,
      102191581,
      136253055,
      1864206323,
      1880771435,
      404454079,
      101853525,
      1880762159,
      404227469,
      1880762723
    ],
    "wof:breaches": [],
    "wof:concordances": {
      "gp:id": "27065412"
    },
    "wof:country": "GB",
    "wof:created": 1583701282,
    "wof:geomhash": "5cb88b020b4b436aa1d863954bd34683",
    "wof:hierarchy": [
      {
        "continent_id": 102191581,
        "country_id": 85633159,
        "county_id": 1880771435,
        "empire_id": 136253055,
        "localadmin_id": 404454079,
        "locality_id": 101853525,
        "macrocounty_id": 1880762159,
        "macroregion_id": 404227469,
        "postalcode_id": 454130119,
        "region_id": 1880762723
      },
      {
        "continent_id": 102191581,
        "country_id": 85633159,
        "empire_id": 136253055,
        "postalcode_id": 454130119,
        "postalregion_id": 1864206323
      }
    ],
    "wof:id": 454130119,
    "wof:lastmodified": 1763548466,
    "wof:name": "CM0 7DR",
    "wof:parent_id": 101853525,
    "wof:placetype": "postalcode",
    "wof:repo": "whosonfirst-data-postalcode-gb",
    "wof:superseded_by": [],
    "wof:supersedes": [],
    "wof:tags": []
  },
  "bbox": [
    0.843755,
    51.667132,
    0.843755,
    51.667132
  ],
  "geometry": {"coordinates":[0.843755,51.667132],"type":"Point"}
}
