{
  "id": 1161107882,
  "type": "Feature",
  "properties": {
    "date:cessation_lower": "1992-07-01",
    "date:cessation_upper": "1992-07-01",
    "date:inception_lower": "1973-08-01",
    "date:inception_upper": "1973-08-01",
    "edtf:cessation": "1992-07-01",
    "edtf:inception": "1973-08-01",
    "geom:area": 0,
    "geom:bbox": "-2.992953,59.131409,-2.992953,59.131409",
    "geom:latitude": 59.131409,
    "geom:longitude": -2.992953,
    "iso:country": "GB",
    "mz:hierarchy_label": 1,
    "mz:is_current": 0,
    "os:country_code": "S92000003",
    "os:county_code": "S99999999",
    "os:district_code": "S12000023",
    "os:positional_quality_indicator": "8",
    "os:region_code": "S99999999",
    "src:geom": "os",
    "wof:belongsto": [
      85633159,
      102191581,
      136253055,
      1864208157,
      1360698823,
      1880762025,
      404227471,
      1880772943
    ],
    "wof:breaches": [],
    "wof:country": "GB",
    "wof:created": 1583804202,
    "wof:geomhash": "9a1531d78fb16de2205c3b9eea3b7d58",
    "wof:hierarchy": [
      {
        "continent_id": 102191581,
        "country_id": 85633159,
        "county_id": 1360698823,
        "empire_id": 136253055,
        "macrocounty_id": 1880762025,
        "macroregion_id": 404227471,
        "postalcode_id": 1161107882,
        "region_id": 1880772943
      },
      {
        "continent_id": 102191581,
        "country_id": 85633159,
        "empire_id": 136253055,
        "postalcode_id": 1161107882,
        "postalregion_id": 1864208157
      }
    ],
    "wof:id": 1161107882,
    "wof:lastmodified": 1763548286,
    "wof:name": "KW17 2PX",
    "wof:parent_id": 1360698823,
    "wof:placetype": "postalcode",
    "wof:repo": "whosonfirst-data-postalcode-gb",
    "wof:superseded_by": [],
    "wof:supersedes": [],
    "wof:tags": []
  },
  "bbox": [
    -2.992953,
    59.131409,
    -2.992953,
    59.131409
  ],
  "geometry": {"coordinates":[-2.992953,59.131409],"type":"Point"}
}
