{
  "id": 454310149,
  "type": "Feature",
  "properties": {
    "date:inception_lower": "1980-01-01",
    "date:inception_upper": "1980-01-01",
    "edtf:cessation": "",
    "edtf:inception": "1980-01-01",
    "geom:area": 0,
    "geom:bbox": "0.207992,51.454840,0.207992,51.454840",
    "geom:latitude": 51.45484,
    "geom:longitude": 0.207992,
    "gp:parent_id": "17953",
    "iso:country": "GB",
    "mz:hierarchy_label": 1,
    "mz:is_current": 1,
    "os:country_code": "E92000001",
    "os:county_code": "E10000016",
    "os:district_code": "E07000107",
    "os:positional_quality_indicator": "1",
    "os:region_code": "E12000008",
    "src:geom": "os",
    "wof:belongsto": [
      85633159,
      102191581,
      136253055,
      1864206573,
      1880771525,
      1126008977,
      1880762057,
      404227469,
      1880762705
    ],
    "wof:breaches": [],
    "wof:concordances": {
      "gp:id": "27127393"
    },
    "wof:country": "GB",
    "wof:created": 1583701471,
    "wof:geomhash": "6f9f80905d1221c86398a1c70ec0cdae",
    "wof:hierarchy": [
      {
        "continent_id": 102191581,
        "country_id": 85633159,
        "county_id": 1880771525,
        "empire_id": 136253055,
        "locality_id": 1126008977,
        "macrocounty_id": 1880762057,
        "macroregion_id": 404227469,
        "postalcode_id": 454310149,
        "region_id": 1880762705
      },
      {
        "continent_id": 102191581,
        "country_id": 85633159,
        "empire_id": 136253055,
        "postalcode_id": 454310149,
        "postalregion_id": 1864206573
      }
    ],
    "wof:id": 454310149,
    "wof:lastmodified": 1763548563,
    "wof:name": "DA1 5BN",
    "wof:parent_id": 1126008977,
    "wof:placetype": "postalcode",
    "wof:repo": "whosonfirst-data-postalcode-gb",
    "wof:superseded_by": [],
    "wof:supersedes": [],
    "wof:tags": []
  },
  "bbox": [
    0.207992,
    51.45484,
    0.207992,
    51.45484
  ],
  "geometry": {"coordinates":[0.207992,51.45484],"type":"Point"}
}
