{
  "id": 874499899,
  "type": "Feature",
  "properties": {
    "date:inception_lower": "2014-02-01",
    "date:inception_upper": "2014-02-01",
    "edtf:cessation": "",
    "edtf:inception": "2014-02-01",
    "geom:area": 0,
    "geom:bbox": "-3.007107,51.691993,-3.007107,51.691993",
    "geom:latitude": 51.691993,
    "geom:longitude": -3.007107,
    "iso:country": "GB",
    "mz:hierarchy_label": 1,
    "mz:is_current": 1,
    "os:country_code": "W92000004",
    "os:county_code": "W99999999",
    "os:district_code": "W06000020",
    "os:positional_quality_indicator": "1",
    "os:region_code": "W99999999",
    "src:geom": "os",
    "wof:belongsto": [
      85633159,
      102191581,
      136253055,
      1864209291,
      1360698919,
      404430265,
      1126023805,
      1880762173,
      404227475,
      1880773189
    ],
    "wof:breaches": [],
    "wof:country": "GB",
    "wof:created": 1468891013,
    "wof:geomhash": "86771b3fa809d4147c37a1f8362f71e8",
    "wof:hierarchy": [
      {
        "continent_id": 102191581,
        "country_id": 85633159,
        "county_id": 1360698919,
        "empire_id": 136253055,
        "localadmin_id": 404430265,
        "locality_id": 1126023805,
        "macrocounty_id": 1880762173,
        "macroregion_id": 404227475,
        "postalcode_id": 874499899,
        "region_id": 1880773189
      },
      {
        "continent_id": 102191581,
        "country_id": 85633159,
        "empire_id": 136253055,
        "postalcode_id": 874499899,
        "postalregion_id": 1864209291
      }
    ],
    "wof:id": 874499899,
    "wof:lastmodified": 1763547947,
    "wof:name": "NP4 0RJ",
    "wof:parent_id": 1126023805,
    "wof:placetype": "postalcode",
    "wof:repo": "whosonfirst-data-postalcode-gb",
    "wof:superseded_by": [],
    "wof:supersedes": [],
    "wof:tags": []
  },
  "bbox": [
    -3.007107,
    51.691993,
    -3.007107,
    51.691993
  ],
  "geometry": {"coordinates":[-3.007107,51.691993],"type":"Point"}
}
