{
  "id": 454423991,
  "type": "Feature",
  "properties": {
    "date:inception_lower": "2000-06-01",
    "date:inception_upper": "2000-06-01",
    "edtf:cessation": "",
    "edtf:inception": "2000-06-01",
    "geom:area": 0,
    "geom:bbox": "-0.634030,53.558649,-0.634030,53.558649",
    "geom:latitude": 53.558649,
    "geom:longitude": -0.63403,
    "gp:parent_id": "34260",
    "iso:country": "GB",
    "mz:hierarchy_label": 1,
    "mz:is_current": 1,
    "os:country_code": "E92000001",
    "os:county_code": "E99999999",
    "os:district_code": "E06000013",
    "os:positional_quality_indicator": "1",
    "os:region_code": "E12000003",
    "src:geom": "os",
    "wof:belongsto": [
      85633159,
      102191581,
      136253055,
      1864206805,
      1360698901,
      101750557,
      1880762033,
      404227469,
      1880762701
    ],
    "wof:breaches": [],
    "wof:concordances": {
      "gp:id": "27183044"
    },
    "wof:country": "GB",
    "wof:created": 1583701556,
    "wof:geomhash": "95edbcec5e2ff13ff2cf95c0967dada7",
    "wof:hierarchy": [
      {
        "continent_id": 102191581,
        "country_id": 85633159,
        "county_id": 1360698901,
        "empire_id": 136253055,
        "locality_id": 101750557,
        "macrocounty_id": 1880762033,
        "macroregion_id": 404227469,
        "postalcode_id": 454423991,
        "region_id": 1880762701
      },
      {
        "continent_id": 102191581,
        "country_id": 85633159,
        "empire_id": 136253055,
        "postalcode_id": 454423991,
        "postalregion_id": 1864206805
      }
    ],
    "wof:id": 454423991,
    "wof:lastmodified": 1763548308,
    "wof:name": "DN16 3GP",
    "wof:parent_id": 101750557,
    "wof:placetype": "postalcode",
    "wof:repo": "whosonfirst-data-postalcode-gb",
    "wof:superseded_by": [],
    "wof:supersedes": [],
    "wof:tags": []
  },
  "bbox": [
    -0.63403,
    53.558649,
    -0.63403,
    53.558649
  ],
  "geometry": {"coordinates":[-0.63403,53.558649],"type":"Point"}
}
