{
  "id": 488545015,
  "type": "Feature",
  "properties": {
    "date:inception_lower": "1990-08-01",
    "date:inception_upper": "1990-08-01",
    "edtf:cessation": "",
    "edtf:inception": "1990-08-01",
    "geom:area": 0,
    "geom:bbox": "-3.378189,57.442900,-3.378189,57.442900",
    "geom:latitude": 57.4429,
    "geom:longitude": -3.378189,
    "gp:parent_id": "12909",
    "iso:country": "GB",
    "mz:hierarchy_label": 1,
    "mz:is_current": 1,
    "os:country_code": "S92000003",
    "os:county_code": "S99999999",
    "os:district_code": "S12000020",
    "os:positional_quality_indicator": "1",
    "os:region_code": "S99999999",
    "src:geom": "os",
    "wof:belongsto": [
      85633159,
      102191581,
      136253055,
      1864205421,
      1360698869,
      1880762111,
      404227471,
      1880772981
    ],
    "wof:breaches": [],
    "wof:concordances": {
      "gp:id": "26830496"
    },
    "wof:country": "GB",
    "wof:created": 1583701565,
    "wof:geomhash": "3c0577a683570113e681a7d9e0ec8d73",
    "wof:hierarchy": [
      {
        "continent_id": 102191581,
        "country_id": 85633159,
        "county_id": 1360698869,
        "empire_id": 136253055,
        "macrocounty_id": 1880762111,
        "macroregion_id": 404227471,
        "postalcode_id": 488545015,
        "region_id": 1880772981
      },
      {
        "continent_id": 102191581,
        "country_id": 85633159,
        "empire_id": 136253055,
        "postalcode_id": 488545015,
        "postalregion_id": 1864205421
      }
    ],
    "wof:id": 488545015,
    "wof:lastmodified": 1763548520,
    "wof:name": "AB37 9BR",
    "wof:parent_id": 1360698869,
    "wof:placetype": "postalcode",
    "wof:repo": "whosonfirst-data-postalcode-gb",
    "wof:superseded_by": [],
    "wof:supersedes": [],
    "wof:tags": []
  },
  "bbox": [
    -3.378189,
    57.4429,
    -3.378189,
    57.4429
  ],
  "geometry": {"coordinates":[-3.378189,57.4429],"type":"Point"}
}
