{
  "id": 1160738504,
  "type": "Feature",
  "properties": {
    "date:cessation_lower": "2011-09-01",
    "date:cessation_upper": "2011-09-01",
    "date:inception_lower": "2011-08-01",
    "date:inception_upper": "2011-08-01",
    "edtf:cessation": "2011-09-01",
    "edtf:inception": "2011-08-01",
    "geom:area": 0,
    "geom:bbox": "-3.553009,50.680452,-3.553009,50.680452",
    "geom:latitude": 50.680452,
    "geom:longitude": -3.553009,
    "iso:country": "GB",
    "mz:hierarchy_label": 1,
    "mz:is_current": 0,
    "os:country_code": "E92000001",
    "os:county_code": "E10000008",
    "os:district_code": "E07000045",
    "os:positional_quality_indicator": "5",
    "os:region_code": "E12000009",
    "src:geom": "os",
    "wof:belongsto": [
      85633159,
      102191581,
      136253055,
      1864207203,
      1880771399,
      404435623,
      1360757663,
      1880762149,
      404227469,
      1880762683
    ],
    "wof:breaches": [],
    "wof:country": "GB",
    "wof:created": 1583787772,
    "wof:geomhash": "123ea4f5cb691be8bb94e68637029a97",
    "wof:hierarchy": [
      {
        "continent_id": 102191581,
        "country_id": 85633159,
        "county_id": 1880771399,
        "empire_id": 136253055,
        "localadmin_id": 404435623,
        "locality_id": 1360757663,
        "macrocounty_id": 1880762149,
        "macroregion_id": 404227469,
        "postalcode_id": 1160738504,
        "region_id": 1880762683
      },
      {
        "continent_id": 102191581,
        "country_id": 85633159,
        "empire_id": 136253055,
        "postalcode_id": 1160738504,
        "postalregion_id": 1864207203
      }
    ],
    "wof:id": 1160738504,
    "wof:lastmodified": 1763548308,
    "wof:name": "EX2 9US",
    "wof:parent_id": 1360757663,
    "wof:placetype": "postalcode",
    "wof:repo": "whosonfirst-data-postalcode-gb",
    "wof:superseded_by": [],
    "wof:supersedes": [],
    "wof:tags": []
  },
  "bbox": [
    -3.553009,
    50.680452,
    -3.553009,
    50.680452
  ],
  "geometry": {"coordinates":[-3.553009,50.680452],"type":"Point"}
}
