{
  "id": 471109409,
  "type": "Feature",
  "properties": {
    "date:inception_lower": "1984-10-01",
    "date:inception_upper": "1984-10-01",
    "edtf:cessation": "",
    "edtf:inception": "1984-10-01",
    "geom:area": 0,
    "geom:bbox": "-0.900371,52.952120,-0.900371,52.952120",
    "geom:latitude": 52.95212,
    "geom:longitude": -0.900371,
    "gp:parent_id": "11258",
    "iso:country": "GB",
    "mz:hierarchy_label": 1,
    "mz:is_current": 1,
    "os:country_code": "E92000001",
    "os:county_code": "E10000024",
    "os:district_code": "E07000176",
    "os:positional_quality_indicator": "1",
    "os:region_code": "E12000004",
    "src:geom": "os",
    "wof:belongsto": [
      85633159,
      102191581,
      136253055,
      1864209155,
      1880771597,
      404444505,
      1126029939,
      1880762077
    ],
    "wof:breaches": [],
    "wof:concordances": {
      "gp:id": "26495811"
    },
    "wof:country": "GB",
    "wof:created": 1583701306,
    "wof:geomhash": "532060f5a10ba8892e8264621787242c",
    "wof:hierarchy": [
      {
        "continent_id": -1,
        "country_id": -1,
        "county_id": 1880771597,
        "localadmin_id": 404444505,
        "locality_id": 1126029939,
        "macrocounty_id": 1880762077,
        "postalcode_id": 471109409,
        "region_id": -1
      },
      {
        "continent_id": 102191581,
        "country_id": 85633159,
        "empire_id": 136253055,
        "postalcode_id": 471109409,
        "postalregion_id": 1864209155
      }
    ],
    "wof:id": 471109409,
    "wof:lastmodified": 1763548231,
    "wof:name": "NG13 9AZ",
    "wof:parent_id": 1126029939,
    "wof:placetype": "postalcode",
    "wof:repo": "whosonfirst-data-postalcode-gb",
    "wof:superseded_by": [],
    "wof:supersedes": [],
    "wof:tags": []
  },
  "bbox": [
    -0.900371,
    52.95212,
    -0.900371,
    52.95212
  ],
  "geometry": {"coordinates":[-0.900371,52.95212],"type":"Point"}
}
