{
  "id": 1712665577,
  "type": "Feature",
  "properties": {
    "date:cessation_lower": "1995-12-01",
    "date:cessation_upper": "1995-12-01",
    "date:inception_lower": "1994-12-01",
    "date:inception_upper": "1994-12-01",
    "edtf:cessation": "1995-12-01",
    "edtf:inception": "1994-12-01",
    "geom:area": 0,
    "geom:bbox": "-2.703640,53.752613,-2.703640,53.752613",
    "geom:latitude": 53.752613,
    "geom:longitude": -2.70364,
    "iso:country": "GB",
    "mz:hierarchy_label": 1,
    "mz:is_current": 0,
    "os:country_code": "E92000001",
    "os:county_code": "E10000017",
    "os:district_code": "E07000123",
    "os:positional_quality_indicator": "8",
    "os:region_code": "E12000002",
    "src:geom": "os",
    "wof:belongsto": [
      85633159,
      102191581,
      136253055,
      1864209989,
      1880771543,
      101750593,
      1880762053,
      404227469,
      1880762711
    ],
    "wof:breaches": [],
    "wof:country": "GB",
    "wof:created": 1583798163,
    "wof:geomhash": "e70b28e6b0cac7a2bf5bc05898207253",
    "wof:hierarchy": [
      {
        "continent_id": 102191581,
        "country_id": 85633159,
        "county_id": 1880771543,
        "empire_id": 136253055,
        "locality_id": 101750593,
        "macrocounty_id": 1880762053,
        "macroregion_id": 404227469,
        "postalcode_id": 1712665577,
        "region_id": 1880762711
      },
      {
        "continent_id": 102191581,
        "country_id": 85633159,
        "empire_id": 136253055,
        "postalcode_id": 1712665577,
        "postalregion_id": 1864209989
      }
    ],
    "wof:id": 1712665577,
    "wof:lastmodified": 1763548683,
    "wof:name": "PR1 8JU",
    "wof:parent_id": 101750593,
    "wof:placetype": "postalcode",
    "wof:repo": "whosonfirst-data-postalcode-gb",
    "wof:superseded_by": [],
    "wof:supersedes": [],
    "wof:tags": []
  },
  "bbox": [
    -2.70364,
    53.752613,
    -2.70364,
    53.752613
  ],
  "geometry": {"coordinates":[-2.70364,53.752613],"type":"Point"}
}
