{
  "id": 437874755,
  "type": "Feature",
  "properties": {
    "date:cessation_lower": "2004-04-01",
    "date:cessation_upper": "2004-04-01",
    "date:inception_lower": "1980-01-01",
    "date:inception_upper": "1980-01-01",
    "edtf:cessation": "2004-04-01",
    "edtf:inception": "1980-01-01",
    "geom:area": 0,
    "geom:bbox": "-0.180597,51.116350,-0.180597,51.116350",
    "geom:latitude": 51.11635,
    "geom:longitude": -0.180597,
    "iso:country": "GB",
    "mz:hierarchy_label": 1,
    "mz:is_current": 0,
    "os:country_code": "E92000001",
    "os:county_code": "E10000032",
    "os:district_code": "E07000226",
    "os:positional_quality_indicator": "1",
    "os:region_code": "E12000008",
    "src:geom": "os",
    "wof:belongsto": [
      85633159,
      102191581,
      136253055,
      1864210085,
      1880771693,
      101750321,
      1880762061,
      404227469,
      1880762709
    ],
    "wof:breaches": [],
    "wof:concordances": {
      "gp:id": "28923706"
    },
    "wof:country": "GB",
    "wof:created": 1583701602,
    "wof:geomhash": "ebf5591cc1323d08296f65becc72599c",
    "wof:hierarchy": [
      {
        "continent_id": 102191581,
        "country_id": 85633159,
        "county_id": 1880771693,
        "empire_id": 136253055,
        "locality_id": 101750321,
        "macrocounty_id": 1880762061,
        "macroregion_id": 404227469,
        "postalcode_id": 437874755,
        "region_id": 1880762709
      },
      {
        "continent_id": 102191581,
        "country_id": 85633159,
        "empire_id": 136253055,
        "postalcode_id": 437874755,
        "postalregion_id": 1864210085
      }
    ],
    "wof:id": 437874755,
    "wof:lastmodified": 1763547999,
    "wof:name": "RH10 1NS",
    "wof:parent_id": 101750321,
    "wof:placetype": "postalcode",
    "wof:repo": "whosonfirst-data-postalcode-gb",
    "wof:superseded_by": [],
    "wof:supersedes": [],
    "wof:tags": []
  },
  "bbox": [
    -0.180597,
    51.11635,
    -0.180597,
    51.11635
  ],
  "geometry": {"coordinates":[-0.180597,51.11635],"type":"Point"}
}
