{
  "id": 504432025,
  "type": "Feature",
  "properties": {
    "date:inception_lower": "1995-07-01",
    "date:inception_upper": "1995-07-01",
    "edtf:cessation": "",
    "edtf:inception": "1995-07-01",
    "geom:area": 0,
    "geom:bbox": "-6.369635,58.213543,-6.369635,58.213543",
    "geom:latitude": 58.213543,
    "geom:longitude": -6.369635,
    "gp:parent_id": "12696213",
    "iso:country": "GB",
    "mz:hierarchy_label": 1,
    "mz:is_current": 1,
    "os:country_code": "S92000003",
    "os:county_code": "S99999999",
    "os:district_code": "S12000013",
    "os:positional_quality_indicator": "1",
    "os:region_code": "S99999999",
    "src:geom": "os",
    "wof:belongsto": [
      85633159,
      102191581,
      136253055,
      1864207715,
      1360699007,
      1880762027,
      404227471,
      1880773097
    ],
    "wof:breaches": [],
    "wof:concordances": {
      "gp:id": "27370098"
    },
    "wof:country": "GB",
    "wof:created": 1583701242,
    "wof:geomhash": "420db3eda1e7de949a47d25526fc6c9d",
    "wof:hierarchy": [
      {
        "continent_id": 102191581,
        "country_id": 85633159,
        "county_id": 1360699007,
        "empire_id": 136253055,
        "macrocounty_id": 1880762027,
        "macroregion_id": 404227471,
        "postalcode_id": 504432025,
        "region_id": 1880773097
      },
      {
        "continent_id": 102191581,
        "country_id": 85633159,
        "empire_id": 136253055,
        "postalcode_id": 504432025,
        "postalregion_id": 1864207715
      }
    ],
    "wof:id": 504432025,
    "wof:lastmodified": 1763548149,
    "wof:name": "HS1 2PH",
    "wof:parent_id": 1360699007,
    "wof:placetype": "postalcode",
    "wof:repo": "whosonfirst-data-postalcode-gb",
    "wof:superseded_by": [],
    "wof:supersedes": [],
    "wof:tags": []
  },
  "bbox": [
    -6.369635,
    58.213543,
    -6.369635,
    58.213543
  ],
  "geometry": {"coordinates":[-6.369635,58.213543],"type":"Point"}
}
