{
  "id": 438301851,
  "type": "Feature",
  "properties": {
    "date:inception_lower": "1997-12-01",
    "date:inception_upper": "1997-12-01",
    "edtf:cessation": "",
    "edtf:inception": "1997-12-01",
    "geom:area": 0,
    "geom:bbox": "-2.568967,51.364417,-2.568967,51.364417",
    "geom:latitude": 51.364417,
    "geom:longitude": -2.568967,
    "gp:parent_id": "35941",
    "iso:country": "GB",
    "mz:hierarchy_label": 1,
    "mz:is_current": 1,
    "os:country_code": "E92000001",
    "os:county_code": "E99999999",
    "os:district_code": "E06000022",
    "os:positional_quality_indicator": "1",
    "os:region_code": "E12000009",
    "src:geom": "os",
    "wof:belongsto": [
      85633159,
      102191581,
      136253055,
      1864206025,
      1360698775,
      404433345,
      1125993605,
      1880762071,
      404227469,
      1880773145
    ],
    "wof:breaches": [],
    "wof:concordances": {
      "gp:id": "26963559"
    },
    "wof:country": "GB",
    "wof:created": 1583701489,
    "wof:geomhash": "5f3129406b24e7db1a8159773c02f7ca",
    "wof:hierarchy": [
      {
        "continent_id": 102191581,
        "country_id": 85633159,
        "county_id": 1360698775,
        "empire_id": 136253055,
        "localadmin_id": 404433345,
        "locality_id": 1125993605,
        "macrocounty_id": 1880762071,
        "macroregion_id": 404227469,
        "postalcode_id": 438301851,
        "region_id": 1880773145
      },
      {
        "continent_id": 102191581,
        "country_id": 85633159,
        "empire_id": 136253055,
        "postalcode_id": 438301851,
        "postalregion_id": 1864206025
      }
    ],
    "wof:id": 438301851,
    "wof:lastmodified": 1763547982,
    "wof:name": "BS39 4DZ",
    "wof:parent_id": 1125993605,
    "wof:placetype": "postalcode",
    "wof:repo": "whosonfirst-data-postalcode-gb",
    "wof:superseded_by": [],
    "wof:supersedes": [],
    "wof:tags": []
  },
  "bbox": [
    -2.568967,
    51.364417,
    -2.568967,
    51.364417
  ],
  "geometry": {"coordinates":[-2.568967,51.364417],"type":"Point"}
}
