{
  "id": 455061351,
  "type": "Feature",
  "properties": {
    "date:cessation_lower": "2012-03-01",
    "date:cessation_upper": "2012-03-01",
    "date:inception_lower": "1980-01-01",
    "date:inception_upper": "1980-01-01",
    "edtf:cessation": "2012-03-01",
    "edtf:inception": "1980-01-01",
    "geom:area": 0,
    "geom:bbox": "-0.189450,53.104545,-0.189450,53.104545",
    "geom:latitude": 53.104545,
    "geom:longitude": -0.18945,
    "gp:parent_id": "37018",
    "iso:country": "GB",
    "mz:hierarchy_label": 1,
    "mz:is_current": 0,
    "os:country_code": "E92000001",
    "os:county_code": "E10000019",
    "os:district_code": "E07000137",
    "os:positional_quality_indicator": "1",
    "os:region_code": "E12000004",
    "src:geom": "os",
    "wof:belongsto": [
      85633159,
      102191581,
      136253055,
      1864208613,
      1880771581,
      404446681,
      1126025265,
      1880762033,
      404227469,
      1880762701
    ],
    "wof:breaches": [],
    "wof:concordances": {
      "gp:id": "26659062"
    },
    "wof:country": "GB",
    "wof:created": 1583701166,
    "wof:geomhash": "fc2c65f090a0abb90d4e8c9617dfd2a5",
    "wof:hierarchy": [
      {
        "continent_id": 102191581,
        "country_id": 85633159,
        "county_id": 1880771581,
        "empire_id": 136253055,
        "localadmin_id": 404446681,
        "locality_id": 1126025265,
        "macrocounty_id": 1880762033,
        "macroregion_id": 404227469,
        "postalcode_id": 455061351,
        "region_id": 1880762701
      },
      {
        "continent_id": 102191581,
        "country_id": 85633159,
        "empire_id": 136253055,
        "postalcode_id": 455061351,
        "postalregion_id": 1864208613
      }
    ],
    "wof:id": 455061351,
    "wof:lastmodified": 1763547962,
    "wof:name": "LN4 4LF",
    "wof:parent_id": 1126025265,
    "wof:placetype": "postalcode",
    "wof:repo": "whosonfirst-data-postalcode-gb",
    "wof:superseded_by": [],
    "wof:supersedes": [],
    "wof:tags": []
  },
  "bbox": [
    -0.18945,
    53.104545,
    -0.18945,
    53.104545
  ],
  "geometry": {"coordinates":[-0.18945,53.104545],"type":"Point"}
}
