{
  "id": 488084583,
  "type": "Feature",
  "properties": {
    "date:cessation_lower": "2025-05-01",
    "date:cessation_upper": "2025-05-01",
    "date:inception_lower": "1980-01-01",
    "date:inception_upper": "1980-01-01",
    "edtf:cessation": "2025-05-01",
    "edtf:inception": "1980-01-01",
    "geom:area": 0,
    "geom:bbox": "-2.653665,53.330147,-2.653665,53.330147",
    "geom:latitude": 53.330147,
    "geom:longitude": -2.653665,
    "gp:parent_id": "30667",
    "iso:country": "GB",
    "mz:hierarchy_label": 1,
    "mz:is_current": 0,
    "os:country_code": "E92000001",
    "os:county_code": "E99999999",
    "os:district_code": "E06000006",
    "os:positional_quality_indicator": "1",
    "os:region_code": "E12000002",
    "src:geom": "os",
    "wof:belongsto": [
      85633159,
      102191581,
      136253055,
      1864211483,
      1360698991,
      404442097,
      1360757517,
      1880762135,
      404227469,
      1880773021
    ],
    "wof:breaches": [],
    "wof:concordances": {
      "gp:id": "28137685"
    },
    "wof:country": "GB",
    "wof:created": 1583701236,
    "wof:geomhash": "e7cf60b65bf486a6ad5f9dfc23b6ce14",
    "wof:hierarchy": [
      {
        "continent_id": 102191581,
        "country_id": 85633159,
        "county_id": 1360698991,
        "empire_id": 136253055,
        "localadmin_id": 404442097,
        "locality_id": 1360757517,
        "macrocounty_id": 1880762135,
        "macroregion_id": 404227469,
        "postalcode_id": 488084583,
        "region_id": 1880773021
      },
      {
        "continent_id": 102191581,
        "country_id": 85633159,
        "empire_id": 136253055,
        "postalcode_id": 488084583,
        "postalregion_id": 1864211483
      }
    ],
    "wof:id": 488084583,
    "wof:lastmodified": 1763548451,
    "wof:name": "WA7 1QY",
    "wof:parent_id": 1360757517,
    "wof:placetype": "postalcode",
    "wof:repo": "whosonfirst-data-postalcode-gb",
    "wof:superseded_by": [],
    "wof:supersedes": [],
    "wof:tags": []
  },
  "bbox": [
    -2.653665,
    53.330147,
    -2.653665,
    53.330147
  ],
  "geometry": {"coordinates":[-2.653665,53.330147],"type":"Point"}
}
