{
  "id": 471030107,
  "type": "Feature",
  "properties": {
    "date:cessation_lower": "2022-03-01",
    "date:cessation_upper": "2022-03-01",
    "date:inception_lower": "1980-01-01",
    "date:inception_upper": "1980-01-01",
    "edtf:cessation": "2022-03-01",
    "edtf:inception": "1980-01-01",
    "geom:area": 0,
    "geom:bbox": "-1.608801,54.972631,-1.608801,54.972631",
    "geom:latitude": 54.972631,
    "geom:longitude": -1.608801,
    "iso:country": "GB",
    "mz:hierarchy_label": 1,
    "mz:is_current": 0,
    "os:country_code": "E92000001",
    "os:county_code": "E99999999",
    "os:district_code": "E08000021",
    "os:positional_quality_indicator": "1",
    "os:region_code": "E12000001",
    "src:geom": "os",
    "wof:belongsto": [
      85633159,
      102191581,
      136253055,
      1864209003,
      1360698961,
      101750617,
      1880762063,
      404227469,
      1880773053
    ],
    "wof:breaches": [],
    "wof:concordances": {
      "gp:id": "27601992"
    },
    "wof:country": "GB",
    "wof:created": 1583701127,
    "wof:geomhash": "c40ca6da5a52144fed25b2c18b48bca7",
    "wof:hierarchy": [
      {
        "continent_id": 102191581,
        "country_id": 85633159,
        "county_id": 1360698961,
        "empire_id": 136253055,
        "locality_id": 101750617,
        "macrocounty_id": 1880762063,
        "macroregion_id": 404227469,
        "postalcode_id": 471030107,
        "region_id": 1880773053
      },
      {
        "continent_id": 102191581,
        "country_id": 85633159,
        "empire_id": 136253055,
        "postalcode_id": 471030107,
        "postalregion_id": 1864209003
      }
    ],
    "wof:id": 471030107,
    "wof:lastmodified": 1763548124,
    "wof:name": "NE1 6UG",
    "wof:parent_id": 101750617,
    "wof:placetype": "postalcode",
    "wof:repo": "whosonfirst-data-postalcode-gb",
    "wof:superseded_by": [],
    "wof:supersedes": [],
    "wof:tags": []
  },
  "bbox": [
    -1.608801,
    54.972631,
    -1.608801,
    54.972631
  ],
  "geometry": {"coordinates":[-1.608801,54.972631],"type":"Point"}
}
