{
  "id": 874499091,
  "type": "Feature",
  "properties": {
    "date:cessation_lower": "2024-05-01",
    "date:cessation_upper": "2024-05-01",
    "date:inception_lower": "2015-11-01",
    "date:inception_upper": "2015-11-01",
    "edtf:cessation": "2024-05-01",
    "edtf:inception": "2015-11-01",
    "geom:area": 0,
    "geom:bbox": "-0.557279,52.329479,-0.557279,52.329479",
    "geom:latitude": 52.329479,
    "geom:longitude": -0.557279,
    "iso:country": "GB",
    "mz:hierarchy_label": 1,
    "mz:is_current": 0,
    "os:country_code": "E92000001",
    "os:county_code": "E99999999",
    "os:district_code": "E06000061",
    "os:positional_quality_indicator": "5",
    "os:region_code": "E12000004",
    "src:geom": "os",
    "wof:belongsto": [
      85633159,
      102191581,
      136253055,
      1864209257,
      1880773237,
      404453373,
      1125846607,
      1880762029,
      404227469,
      1880773265
    ],
    "wof:breaches": [],
    "wof:country": "GB",
    "wof:created": 1468890758,
    "wof:geomhash": "38429b05eeceb7ef598c2c0a8643b125",
    "wof:hierarchy": [
      {
        "continent_id": 102191581,
        "country_id": 85633159,
        "county_id": 1880773237,
        "empire_id": 136253055,
        "localadmin_id": 404453373,
        "locality_id": 1125846607,
        "macrocounty_id": 1880762029,
        "macroregion_id": 404227469,
        "postalcode_id": 874499091,
        "region_id": 1880773265
      },
      {
        "continent_id": 102191581,
        "country_id": 85633159,
        "empire_id": 136253055,
        "postalcode_id": 874499091,
        "postalregion_id": 1864209257
      }
    ],
    "wof:id": 874499091,
    "wof:lastmodified": 1763547946,
    "wof:name": "NN9 6GD",
    "wof:parent_id": 1125846607,
    "wof:placetype": "postalcode",
    "wof:repo": "whosonfirst-data-postalcode-gb",
    "wof:superseded_by": [],
    "wof:supersedes": [],
    "wof:tags": []
  },
  "bbox": [
    -0.557279,
    52.329479,
    -0.557279,
    52.329479
  ],
  "geometry": {"coordinates":[-0.557279,52.329479],"type":"Point"}
}
