{
  "id": 488400361,
  "type": "Feature",
  "properties": {
    "date:inception_lower": "1993-01-01",
    "date:inception_upper": "1993-01-01",
    "edtf:cessation": "",
    "edtf:inception": "1993-01-01",
    "geom:area": 0,
    "geom:bbox": "-4.058840,51.667907,-4.058840,51.667907",
    "geom:latitude": 51.667907,
    "geom:longitude": -4.05884,
    "gp:parent_id": "12696131",
    "iso:country": "GB",
    "mz:hierarchy_label": 1,
    "mz:is_current": 1,
    "os:country_code": "W92000004",
    "os:county_code": "W99999999",
    "os:district_code": "W06000011",
    "os:positional_quality_indicator": "1",
    "os:region_code": "W99999999",
    "src:geom": "os",
    "wof:belongsto": [
      85633159,
      102191581,
      136253055,
      1864210339,
      1360699095,
      404436853,
      1360711713,
      1880762113,
      404227475,
      1880773177
    ],
    "wof:breaches": [],
    "wof:concordances": {
      "gp:id": "26759731"
    },
    "wof:country": "GB",
    "wof:created": 1583701411,
    "wof:geomhash": "2dc63b04f228109423c5dee1b5d0e882",
    "wof:hierarchy": [
      {
        "continent_id": 102191581,
        "country_id": 85633159,
        "county_id": 1360699095,
        "empire_id": 136253055,
        "localadmin_id": 404436853,
        "locality_id": 1360711713,
        "macrocounty_id": 1880762113,
        "macroregion_id": 404227475,
        "postalcode_id": 488400361,
        "region_id": 1880773177
      },
      {
        "continent_id": 102191581,
        "country_id": 85633159,
        "empire_id": 136253055,
        "postalcode_id": 488400361,
        "postalregion_id": 1864210339
      }
    ],
    "wof:id": 488400361,
    "wof:lastmodified": 1763548487,
    "wof:name": "SA4 6RT",
    "wof:parent_id": 1360711713,
    "wof:placetype": "postalcode",
    "wof:repo": "whosonfirst-data-postalcode-gb",
    "wof:superseded_by": [],
    "wof:supersedes": [],
    "wof:tags": []
  },
  "bbox": [
    -4.05884,
    51.667907,
    -4.05884,
    51.667907
  ],
  "geometry": {"coordinates":[-4.05884,51.667907],"type":"Point"}
}
