{
  "id": 488069031,
  "type": "Feature",
  "properties": {
    "date:inception_lower": "1980-01-01",
    "date:inception_upper": "1980-01-01",
    "edtf:cessation": "",
    "edtf:inception": "1980-01-01",
    "geom:area": 0,
    "geom:bbox": "-2.370948,53.303480,-2.370948,53.303480",
    "geom:latitude": 53.30348,
    "geom:longitude": -2.370948,
    "iso:country": "GB",
    "mz:hierarchy_label": 1,
    "mz:is_current": 1,
    "os:country_code": "E92000001",
    "os:county_code": "E99999999",
    "os:district_code": "E06000049",
    "os:positional_quality_indicator": "1",
    "os:region_code": "E12000002",
    "src:geom": "os",
    "wof:belongsto": [
      85633159,
      102191581,
      136253055,
      1864211467,
      1360698929,
      404452127,
      101871983,
      1880762135,
      404227469,
      1880773021
    ],
    "wof:breaches": [],
    "wof:concordances": {
      "gp:id": "28131822"
    },
    "wof:country": "GB",
    "wof:created": 1583701226,
    "wof:geomhash": "e35c2de0c2f1676b2d4930172a48bd03",
    "wof:hierarchy": [
      {
        "continent_id": 102191581,
        "country_id": 85633159,
        "county_id": 1360698929,
        "empire_id": 136253055,
        "localadmin_id": 404452127,
        "locality_id": 101871983,
        "macrocounty_id": 1880762135,
        "macroregion_id": 404227469,
        "postalcode_id": 488069031,
        "region_id": 1880773021
      },
      {
        "continent_id": 102191581,
        "country_id": 85633159,
        "empire_id": 136253055,
        "postalcode_id": 488069031,
        "postalregion_id": 1864211467
      }
    ],
    "wof:id": 488069031,
    "wof:lastmodified": 1763548588,
    "wof:name": "WA16 6DS",
    "wof:parent_id": 101871983,
    "wof:placetype": "postalcode",
    "wof:repo": "whosonfirst-data-postalcode-gb",
    "wof:superseded_by": [],
    "wof:supersedes": [],
    "wof:tags": []
  },
  "bbox": [
    -2.370948,
    53.30348,
    -2.370948,
    53.30348
  ],
  "geometry": {"coordinates":[-2.370948,53.30348],"type":"Point"}
}
