{
  "id": 1160954480,
  "type": "Feature",
  "properties": {
    "date:cessation_lower": "1990-12-01",
    "date:cessation_upper": "1990-12-01",
    "date:inception_lower": "1988-03-01",
    "date:inception_upper": "1988-03-01",
    "edtf:cessation": "1990-12-01",
    "edtf:inception": "1988-03-01",
    "geom:area": 0,
    "geom:bbox": "-1.562110,55.015669,-1.562110,55.015669",
    "geom:latitude": 55.015669,
    "geom:longitude": -1.56211,
    "iso:country": "GB",
    "mz:hierarchy_label": 1,
    "mz:is_current": 0,
    "os:country_code": "E92000001",
    "os:county_code": "E99999999",
    "os:district_code": "E08000022",
    "os:positional_quality_indicator": "8",
    "os:region_code": "E12000001",
    "src:geom": "os",
    "wof:belongsto": [
      85633159,
      102191581,
      136253055,
      1864209009,
      1360699037,
      1360817045,
      1360832421,
      1880762063,
      404227469,
      1880773053
    ],
    "wof:breaches": [],
    "wof:country": "GB",
    "wof:created": 1583797408,
    "wof:geomhash": "cab59385e895a3e21ea0d95e6d81a481",
    "wof:hierarchy": [
      {
        "continent_id": 102191581,
        "country_id": 85633159,
        "county_id": 1360699037,
        "empire_id": 136253055,
        "localadmin_id": 1360817045,
        "locality_id": 1360832421,
        "macrocounty_id": 1880762063,
        "macroregion_id": 404227469,
        "postalcode_id": 1160954480,
        "region_id": 1880773053
      },
      {
        "continent_id": 102191581,
        "country_id": 85633159,
        "empire_id": 136253055,
        "postalcode_id": 1160954480,
        "postalregion_id": 1864209009
      }
    ],
    "wof:id": 1160954480,
    "wof:lastmodified": 1763548335,
    "wof:name": "NE12 9LY",
    "wof:parent_id": 1360832421,
    "wof:placetype": "postalcode",
    "wof:repo": "whosonfirst-data-postalcode-gb",
    "wof:superseded_by": [],
    "wof:supersedes": [],
    "wof:tags": []
  },
  "bbox": [
    -1.56211,
    55.015669,
    -1.56211,
    55.015669
  ],
  "geometry": {"coordinates":[-1.56211,55.015669],"type":"Point"}
}
