{
  "id": 488289617,
  "type": "Feature",
  "properties": {
    "date:inception_lower": "2008-07-01",
    "date:inception_upper": "2008-07-01",
    "edtf:cessation": "",
    "edtf:inception": "2008-07-01",
    "geom:area": 0,
    "geom:bbox": "-1.296888,52.955179,-1.296888,52.955179",
    "geom:latitude": 52.955179,
    "geom:longitude": -1.296888,
    "gp:parent_id": "12695910",
    "iso:country": "GB",
    "mz:hierarchy_label": 1,
    "mz:is_current": 1,
    "os:country_code": "E92000001",
    "os:county_code": "E10000007",
    "os:district_code": "E07000036",
    "os:positional_quality_indicator": "1",
    "os:region_code": "E12000004",
    "src:geom": "os",
    "wof:belongsto": [
      85633159,
      102191581,
      136253055,
      1864206679,
      1880771381,
      1360817223,
      101872095,
      1880762133,
      404227469,
      1880762707
    ],
    "wof:breaches": [],
    "wof:concordances": {
      "gp:id": "56139572"
    },
    "wof:country": "GB",
    "wof:created": 1583701308,
    "wof:geomhash": "35293f1884f759b665715ba0ec0ebc7e",
    "wof:hierarchy": [
      {
        "continent_id": 102191581,
        "country_id": 85633159,
        "county_id": 1880771381,
        "empire_id": 136253055,
        "localadmin_id": 1360817223,
        "locality_id": 101872095,
        "macrocounty_id": 1880762133,
        "macroregion_id": 404227469,
        "postalcode_id": 488289617,
        "region_id": 1880762707
      },
      {
        "continent_id": 102191581,
        "country_id": 85633159,
        "empire_id": 136253055,
        "postalcode_id": 488289617,
        "postalregion_id": 1864206679
      }
    ],
    "wof:id": 488289617,
    "wof:lastmodified": 1763548449,
    "wof:name": "DE7 4RL",
    "wof:parent_id": 101872095,
    "wof:placetype": "postalcode",
    "wof:repo": "whosonfirst-data-postalcode-gb",
    "wof:superseded_by": [],
    "wof:supersedes": [],
    "wof:tags": []
  },
  "bbox": [
    -1.296888,
    52.955179,
    -1.296888,
    52.955179
  ],
  "geometry": {"coordinates":[-1.296888,52.955179],"type":"Point"}
}
