{
  "id": 471077839,
  "type": "Feature",
  "properties": {
    "date:inception_lower": "2020-04-01",
    "date:inception_upper": "2020-04-01",
    "edtf:cessation": "",
    "edtf:inception": "2020-04-01",
    "geom:area": 0,
    "geom:bbox": "-2.262980,54.938664,-2.262980,54.938664",
    "geom:latitude": 54.938664,
    "geom:longitude": -2.26298,
    "gp:parent_id": "25776",
    "iso:country": "GB",
    "mz:hierarchy_label": 1,
    "mz:is_current": 1,
    "os:country_code": "E92000001",
    "os:county_code": "E99999999",
    "os:district_code": "E06000057",
    "os:positional_quality_indicator": "1",
    "os:region_code": "E12000001",
    "src:geom": "os",
    "wof:belongsto": [
      85633159,
      102191581,
      136253055,
      1864209093,
      1360698769,
      404437855,
      1360753307,
      1880761987,
      404227469,
      1880772897
    ],
    "wof:breaches": [],
    "wof:concordances": {
      "gp:id": "27619807"
    },
    "wof:country": "GB",
    "wof:created": 1583701240,
    "wof:geomhash": "33e701152f0824d90bc4a8a464cb79f6",
    "wof:hierarchy": [
      {
        "continent_id": 102191581,
        "country_id": 85633159,
        "county_id": 1360698769,
        "empire_id": 136253055,
        "localadmin_id": 404437855,
        "locality_id": 1360753307,
        "macrocounty_id": 1880761987,
        "macroregion_id": 404227469,
        "postalcode_id": 471077839,
        "region_id": 1880772897
      },
      {
        "continent_id": 102191581,
        "country_id": 85633159,
        "empire_id": 136253055,
        "postalcode_id": 471077839,
        "postalregion_id": 1864209093
      }
    ],
    "wof:id": 471077839,
    "wof:lastmodified": 1763548024,
    "wof:name": "NE47 5LE",
    "wof:parent_id": 1360753307,
    "wof:placetype": "postalcode",
    "wof:repo": "whosonfirst-data-postalcode-gb",
    "wof:superseded_by": [],
    "wof:supersedes": [],
    "wof:tags": []
  },
  "bbox": [
    -2.26298,
    54.938664,
    -2.26298,
    54.938664
  ],
  "geometry": {"coordinates":[-2.26298,54.938664],"type":"Point"}
}
