{
  "id": 471168415,
  "type": "Feature",
  "properties": {
    "date:inception_lower": "2004-09-01",
    "date:inception_upper": "2004-09-01",
    "edtf:cessation": "",
    "edtf:inception": "2004-09-01",
    "geom:area": 0,
    "geom:bbox": "-1.177400,52.268958,-1.177400,52.268958",
    "geom:latitude": 52.268958,
    "geom:longitude": -1.1774,
    "iso:country": "GB",
    "mz:hierarchy_label": 1,
    "mz:is_current": 1,
    "os:country_code": "E92000001",
    "os:county_code": "E99999999",
    "os:district_code": "E06000062",
    "os:positional_quality_indicator": "1",
    "os:region_code": "E12000004",
    "src:geom": "os",
    "wof:belongsto": [
      85633159,
      102191581,
      136253055,
      1864209221,
      1880773231,
      404447869,
      101853049,
      1880762029,
      404227469,
      1880773265
    ],
    "wof:breaches": [],
    "wof:concordances": {
      "gp:id": "27653374"
    },
    "wof:country": "GB",
    "wof:created": 1583701365,
    "wof:geomhash": "3eeffa23069f27b5e9d9fce90db39b08",
    "wof:hierarchy": [
      {
        "continent_id": 102191581,
        "country_id": 85633159,
        "county_id": 1880773231,
        "empire_id": 136253055,
        "localadmin_id": 404447869,
        "locality_id": 101853049,
        "macrocounty_id": 1880762029,
        "macroregion_id": 404227469,
        "postalcode_id": 471168415,
        "region_id": 1880773265
      },
      {
        "continent_id": 102191581,
        "country_id": 85633159,
        "empire_id": 136253055,
        "postalcode_id": 471168415,
        "postalregion_id": 1864209221
      }
    ],
    "wof:id": 471168415,
    "wof:lastmodified": 1763547933,
    "wof:name": "NN11 9TD",
    "wof:parent_id": 101853049,
    "wof:placetype": "postalcode",
    "wof:repo": "whosonfirst-data-postalcode-gb",
    "wof:superseded_by": [],
    "wof:supersedes": [],
    "wof:tags": []
  },
  "bbox": [
    -1.1774,
    52.268958,
    -1.1774,
    52.268958
  ],
  "geometry": {"coordinates":[-1.1774,52.268958],"type":"Point"}
}
