{
  "id": 487913779,
  "type": "Feature",
  "properties": {
    "date:inception_lower": "1991-09-01",
    "date:inception_upper": "1991-09-01",
    "edtf:cessation": "",
    "edtf:inception": "1991-09-01",
    "geom:area": 0,
    "geom:bbox": "-5.292509,50.205500,-5.292509,50.205500",
    "geom:latitude": 50.2055,
    "geom:longitude": -5.292509,
    "gp:parent_id": "14978",
    "iso:country": "GB",
    "mz:hierarchy_label": 1,
    "mz:is_current": 1,
    "os:country_code": "E92000001",
    "os:county_code": "E99999999",
    "os:district_code": "E06000052",
    "os:positional_quality_indicator": "1",
    "os:region_code": "E12000009",
    "src:geom": "os",
    "wof:belongsto": [
      85633159,
      102191581,
      136253055,
      1864211199,
      1360699085,
      404443853,
      1125765751,
      1880762119,
      404227469,
      1880773165
    ],
    "wof:breaches": [],
    "wof:concordances": {
      "gp:id": "28076339"
    },
    "wof:country": "GB",
    "wof:created": 1583701257,
    "wof:geomhash": "76be8f8d787f2dea40dd3608798c9dd6",
    "wof:hierarchy": [
      {
        "continent_id": 102191581,
        "country_id": 85633159,
        "county_id": 1360699085,
        "empire_id": 136253055,
        "localadmin_id": 404443853,
        "locality_id": 1125765751,
        "macrocounty_id": 1880762119,
        "macroregion_id": 404227469,
        "postalcode_id": 487913779,
        "region_id": 1880773165
      },
      {
        "continent_id": 102191581,
        "country_id": 85633159,
        "empire_id": 136253055,
        "postalcode_id": 487913779,
        "postalregion_id": 1864211199
      }
    ],
    "wof:id": 487913779,
    "wof:lastmodified": 1763548697,
    "wof:name": "TR14 7RL",
    "wof:parent_id": 1125765751,
    "wof:placetype": "postalcode",
    "wof:repo": "whosonfirst-data-postalcode-gb",
    "wof:superseded_by": [],
    "wof:supersedes": [],
    "wof:tags": []
  },
  "bbox": [
    -5.292509,
    50.2055,
    -5.292509,
    50.2055
  ],
  "geometry": {"coordinates":[-5.292509,50.2055],"type":"Point"}
}
