{
  "id": 1161094600,
  "type": "Feature",
  "properties": {
    "date:cessation_lower": "1990-12-01",
    "date:cessation_upper": "1990-12-01",
    "date:inception_lower": "1980-01-01",
    "date:inception_upper": "1980-01-01",
    "edtf:cessation": "1990-12-01",
    "edtf:inception": "1980-01-01",
    "geom:area": 0,
    "geom:bbox": "-2.129854,52.592342,-2.129854,52.592342",
    "geom:latitude": 52.592342,
    "geom:longitude": -2.129854,
    "iso:country": "GB",
    "mz:hierarchy_label": 1,
    "mz:is_current": 0,
    "os:country_code": "E92000001",
    "os:county_code": "E99999999",
    "os:district_code": "E08000031",
    "os:positional_quality_indicator": "8",
    "os:region_code": "E12000005",
    "src:geom": "os",
    "wof:belongsto": [
      85633159,
      102191581,
      136253055,
      1864211673,
      1360698737,
      1126027181,
      1880762069,
      404227469,
      1880773161
    ],
    "wof:breaches": [],
    "wof:country": "GB",
    "wof:created": 1583803601,
    "wof:geomhash": "518dc9c2905824c9572d791cab44270a",
    "wof:hierarchy": [
      {
        "continent_id": 102191581,
        "country_id": 85633159,
        "county_id": 1360698737,
        "empire_id": 136253055,
        "locality_id": 1126027181,
        "macrocounty_id": 1880762069,
        "macroregion_id": 404227469,
        "postalcode_id": 1161094600,
        "region_id": 1880773161
      },
      {
        "continent_id": 102191581,
        "country_id": 85633159,
        "empire_id": 136253055,
        "postalcode_id": 1161094600,
        "postalregion_id": 1864211673
      }
    ],
    "wof:id": 1161094600,
    "wof:lastmodified": 1763548284,
    "wof:name": "WV1 1QT",
    "wof:parent_id": 1126027181,
    "wof:placetype": "postalcode",
    "wof:repo": "whosonfirst-data-postalcode-gb",
    "wof:superseded_by": [],
    "wof:supersedes": [],
    "wof:tags": []
  },
  "bbox": [
    -2.129854,
    52.592342,
    -2.129854,
    52.592342
  ],
  "geometry": {"coordinates":[-2.129854,52.592342],"type":"Point"}
}
