{
  "id": 1712653597,
  "type": "Feature",
  "properties": {
    "date:cessation_lower": "2001-12-01",
    "date:cessation_upper": "2001-12-01",
    "date:inception_lower": "1980-01-01",
    "date:inception_upper": "1980-01-01",
    "edtf:cessation": "2001-12-01",
    "edtf:inception": "1980-01-01",
    "geom:area": 0,
    "geom:bbox": "-0.773883,50.811204,-0.773883,50.811204",
    "geom:latitude": 50.811204,
    "geom:longitude": -0.773883,
    "iso:country": "GB",
    "mz:hierarchy_label": 1,
    "mz:is_current": 0,
    "os:country_code": "E92000001",
    "os:county_code": "E10000032",
    "os:district_code": "E07000225",
    "os:positional_quality_indicator": "1",
    "os:region_code": "E12000008",
    "src:geom": "os",
    "wof:belongsto": [
      85633159,
      102191581,
      136253055,
      1864209939,
      1880771685,
      404431421,
      1125909591,
      1880762061
    ],
    "wof:breaches": [],
    "wof:country": "GB",
    "wof:created": 1583797620,
    "wof:geomhash": "64feb72846afdfec97bf039aeceeaa98",
    "wof:hierarchy": [
      {
        "continent_id": -1,
        "country_id": -1,
        "county_id": 1880771685,
        "localadmin_id": 404431421,
        "locality_id": 1125909591,
        "macrocounty_id": 1880762061,
        "postalcode_id": 1712653597,
        "region_id": -1
      },
      {
        "continent_id": 102191581,
        "country_id": 85633159,
        "empire_id": 136253055,
        "postalcode_id": 1712653597,
        "postalregion_id": 1864209939
      }
    ],
    "wof:id": 1712653597,
    "wof:lastmodified": 1763548749,
    "wof:name": "PO20 6NY",
    "wof:parent_id": 1125909591,
    "wof:placetype": "postalcode",
    "wof:repo": "whosonfirst-data-postalcode-gb",
    "wof:superseded_by": [],
    "wof:supersedes": [],
    "wof:tags": []
  },
  "bbox": [
    -0.773883,
    50.811204,
    -0.773883,
    50.811204
  ],
  "geometry": {"coordinates":[-0.773883,50.811204],"type":"Point"}
}
