{
  "id": 454985093,
  "type": "Feature",
  "properties": {
    "date:inception_lower": "1980-01-01",
    "date:inception_upper": "1980-01-01",
    "edtf:cessation": "",
    "edtf:inception": "1980-01-01",
    "geom:area": 0,
    "geom:bbox": "-3.208190,54.114964,-3.208190,54.114964",
    "geom:latitude": 54.114964,
    "geom:longitude": -3.20819,
    "iso:country": "GB",
    "mz:hierarchy_label": 1,
    "mz:is_current": 1,
    "os:country_code": "E92000001",
    "os:county_code": "E99999999",
    "os:district_code": "E06000064",
    "os:positional_quality_indicator": "1",
    "os:region_code": "E12000002",
    "src:geom": "os",
    "wof:belongsto": [
      85633159,
      102191581,
      136253055,
      1864208329,
      1880773235,
      101872343,
      1880761989,
      404227469,
      1880773269
    ],
    "wof:breaches": [],
    "wof:concordances": {
      "gp:id": "27460275"
    },
    "wof:country": "GB",
    "wof:created": 1583701765,
    "wof:geomhash": "ba438ec210f3cb686a179e46c1870fd8",
    "wof:hierarchy": [
      {
        "continent_id": 102191581,
        "country_id": 85633159,
        "county_id": 1880773235,
        "empire_id": 136253055,
        "locality_id": 101872343,
        "macrocounty_id": 1880761989,
        "macroregion_id": 404227469,
        "postalcode_id": 454985093,
        "region_id": 1880773269
      },
      {
        "continent_id": 102191581,
        "country_id": 85633159,
        "empire_id": 136253055,
        "postalcode_id": 454985093,
        "postalregion_id": 1864208329
      }
    ],
    "wof:id": 454985093,
    "wof:lastmodified": 1763548417,
    "wof:name": "LA13 9SG",
    "wof:parent_id": 101872343,
    "wof:placetype": "postalcode",
    "wof:repo": "whosonfirst-data-postalcode-gb",
    "wof:superseded_by": [],
    "wof:supersedes": [],
    "wof:tags": []
  },
  "bbox": [
    -3.20819,
    54.114964,
    -3.20819,
    54.114964
  ],
  "geometry": {"coordinates":[-3.20819,54.114964],"type":"Point"}
}
