{
  "id": 504727369,
  "type": "Feature",
  "properties": {
    "date:inception_lower": "1980-01-01",
    "date:inception_upper": "1980-01-01",
    "edtf:cessation": "",
    "edtf:inception": "1980-01-01",
    "geom:area": 0,
    "geom:bbox": "-1.054523,60.498854,-1.054523,60.498854",
    "geom:latitude": 60.498854,
    "geom:longitude": -1.054523,
    "gp:parent_id": "13586",
    "iso:country": "GB",
    "mz:hierarchy_label": 1,
    "mz:is_current": 1,
    "os:country_code": "S92000003",
    "os:county_code": "S99999999",
    "os:district_code": "S12000027",
    "os:positional_quality_indicator": "1",
    "os:region_code": "S99999999",
    "src:geom": "os",
    "wof:belongsto": [
      85633159,
      102191581,
      136253055,
      1864211783,
      1360698897,
      1880762023,
      404227471,
      1880772999
    ],
    "wof:breaches": [],
    "wof:concordances": {
      "gp:id": "28203047"
    },
    "wof:country": "GB",
    "wof:created": 1583701529,
    "wof:geomhash": "5d74b0c7f2de3627837ec4eaa8509c5a",
    "wof:hierarchy": [
      {
        "continent_id": 102191581,
        "country_id": 85633159,
        "county_id": 1360698897,
        "empire_id": 136253055,
        "macrocounty_id": 1880762023,
        "macroregion_id": 404227471,
        "postalcode_id": 504727369,
        "region_id": 1880772999
      },
      {
        "continent_id": 102191581,
        "country_id": 85633159,
        "empire_id": 136253055,
        "postalcode_id": 504727369,
        "postalregion_id": 1864211783
      }
    ],
    "wof:id": 504727369,
    "wof:lastmodified": 1763548193,
    "wof:name": "ZE2 9AY",
    "wof:parent_id": 1360698897,
    "wof:placetype": "postalcode",
    "wof:repo": "whosonfirst-data-postalcode-gb",
    "wof:superseded_by": [],
    "wof:supersedes": [],
    "wof:tags": []
  },
  "bbox": [
    -1.054523,
    60.498854,
    -1.054523,
    60.498854
  ],
  "geometry": {"coordinates":[-1.054523,60.498854],"type":"Point"}
}
