{
  "id": 437584145,
  "type": "Feature",
  "properties": {
    "date:cessation_lower": "2006-08-01",
    "date:cessation_upper": "2006-08-01",
    "date:inception_lower": "1980-01-01",
    "date:inception_upper": "1980-01-01",
    "edtf:cessation": "2006-08-01",
    "edtf:inception": "1980-01-01",
    "geom:area": 0,
    "geom:bbox": "-1.598867,55.055694,-1.598867,55.055694",
    "geom:latitude": 55.055694,
    "geom:longitude": -1.598867,
    "gp:parent_id": "18580",
    "iso:country": "GB",
    "mz:hierarchy_label": 1,
    "mz:is_current": 0,
    "os:country_code": "E92000001",
    "os:county_code": "E99999999",
    "os:district_code": "E08000022",
    "os:positional_quality_indicator": "1",
    "os:region_code": "E12000001",
    "src:geom": "os",
    "wof:belongsto": [
      85633159,
      102191581,
      136253055,
      1864209035,
      1360699037,
      1360817045,
      1360832421,
      1880762063,
      404227469,
      1880773053
    ],
    "wof:breaches": [],
    "wof:concordances": {
      "gp:id": "27608119"
    },
    "wof:country": "GB",
    "wof:created": 1583701394,
    "wof:geomhash": "28926373ff9c3362e418be5fc11a2d97",
    "wof:hierarchy": [
      {
        "continent_id": 102191581,
        "country_id": 85633159,
        "county_id": 1360699037,
        "empire_id": 136253055,
        "localadmin_id": 1360817045,
        "locality_id": 1360832421,
        "macrocounty_id": 1880762063,
        "macroregion_id": 404227469,
        "postalcode_id": 437584145,
        "region_id": 1880773053
      },
      {
        "continent_id": 102191581,
        "country_id": 85633159,
        "empire_id": 136253055,
        "postalcode_id": 437584145,
        "postalregion_id": 1864209035
      }
    ],
    "wof:id": 437584145,
    "wof:lastmodified": 1763548304,
    "wof:name": "NE23 7JB",
    "wof:parent_id": 1360832421,
    "wof:placetype": "postalcode",
    "wof:repo": "whosonfirst-data-postalcode-gb",
    "wof:superseded_by": [],
    "wof:supersedes": [],
    "wof:tags": []
  },
  "bbox": [
    -1.598867,
    55.055694,
    -1.598867,
    55.055694
  ],
  "geometry": {"coordinates":[-1.598867,55.055694],"type":"Point"}
}
