{
  "id": 1712484157,
  "type": "Feature",
  "properties": {
    "date:cessation_lower": "1996-06-01",
    "date:cessation_upper": "1996-06-01",
    "date:inception_lower": "1992-02-01",
    "date:inception_upper": "1992-02-01",
    "edtf:cessation": "1996-06-01",
    "edtf:inception": "1992-02-01",
    "geom:area": 0,
    "geom:bbox": "-4.076899,57.823477,-4.076899,57.823477",
    "geom:latitude": 57.823477,
    "geom:longitude": -4.076899,
    "iso:country": "GB",
    "mz:hierarchy_label": 1,
    "mz:is_current": 0,
    "os:country_code": "S92000003",
    "os:county_code": "S99999999",
    "os:district_code": "S12000017",
    "os:positional_quality_indicator": "8",
    "os:region_code": "S99999999",
    "src:geom": "os",
    "wof:belongsto": [
      85633159,
      102191581,
      136253055,
      1864207921,
      1360699045,
      1880762005,
      404227471,
      1880773131
    ],
    "wof:breaches": [],
    "wof:country": "GB",
    "wof:created": 1583790088,
    "wof:geomhash": "3cab4bff98089f760424466f91f6ddaf",
    "wof:hierarchy": [
      {
        "continent_id": 102191581,
        "country_id": 85633159,
        "county_id": 1360699045,
        "empire_id": 136253055,
        "macrocounty_id": 1880762005,
        "macroregion_id": 404227471,
        "postalcode_id": 1712484157,
        "region_id": 1880773131
      },
      {
        "continent_id": 102191581,
        "country_id": 85633159,
        "empire_id": 136253055,
        "postalcode_id": 1712484157,
        "postalregion_id": 1864207921
      }
    ],
    "wof:id": 1712484157,
    "wof:lastmodified": 1763548716,
    "wof:name": "IV19 1RQ",
    "wof:parent_id": 1360699045,
    "wof:placetype": "postalcode",
    "wof:repo": "whosonfirst-data-postalcode-gb",
    "wof:superseded_by": [],
    "wof:supersedes": [],
    "wof:tags": []
  },
  "bbox": [
    -4.076899,
    57.823477,
    -4.076899,
    57.823477
  ],
  "geometry": {"coordinates":[-4.076899,57.823477],"type":"Point"}
}
