{
  "id": 874434683,
  "type": "Feature",
  "properties": {
    "date:cessation_lower": "2021-05-01",
    "date:cessation_upper": "2021-05-01",
    "date:inception_lower": "2014-05-01",
    "date:inception_upper": "2014-05-01",
    "edtf:cessation": "2021-05-01",
    "edtf:inception": "2014-05-01",
    "geom:area": 0,
    "geom:bbox": "0.895207,51.883860,0.895207,51.883860",
    "geom:latitude": 51.88386,
    "geom:longitude": 0.895207,
    "iso:country": "GB",
    "mz:hierarchy_label": 1,
    "mz:is_current": 0,
    "os:country_code": "E92000001",
    "os:county_code": "E10000012",
    "os:district_code": "E07000071",
    "os:positional_quality_indicator": "1",
    "os:region_code": "E12000006",
    "src:geom": "os",
    "wof:belongsto": [
      85633159,
      102191581,
      136253055,
      1864206401,
      1880771433,
      101750405,
      1880762159,
      404227469,
      1880762723
    ],
    "wof:breaches": [],
    "wof:country": "GB",
    "wof:created": 1468876611,
    "wof:geomhash": "e0a55d1544e97657827041c7e34125e3",
    "wof:hierarchy": [
      {
        "continent_id": 102191581,
        "country_id": 85633159,
        "county_id": 1880771433,
        "empire_id": 136253055,
        "locality_id": 101750405,
        "macrocounty_id": 1880762159,
        "macroregion_id": 404227469,
        "postalcode_id": 874434683,
        "region_id": 1880762723
      },
      {
        "continent_id": 102191581,
        "country_id": 85633159,
        "empire_id": 136253055,
        "postalcode_id": 874434683,
        "postalregion_id": 1864206401
      }
    ],
    "wof:id": 874434683,
    "wof:lastmodified": 1763547981,
    "wof:name": "CO2 7ND",
    "wof:parent_id": 101750405,
    "wof:placetype": "postalcode",
    "wof:repo": "whosonfirst-data-postalcode-gb",
    "wof:superseded_by": [],
    "wof:supersedes": [],
    "wof:tags": []
  },
  "bbox": [
    0.895207,
    51.88386,
    0.895207,
    51.88386
  ],
  "geometry": {"coordinates":[0.895207,51.88386],"type":"Point"}
}
