{
  "id": 488264273,
  "type": "Feature",
  "properties": {
    "date:inception_lower": "2008-09-01",
    "date:inception_upper": "2008-09-01",
    "edtf:cessation": "",
    "edtf:inception": "2008-09-01",
    "geom:area": 0,
    "geom:bbox": "-1.895885,52.478421,-1.895885,52.478421",
    "geom:latitude": 52.478421,
    "geom:longitude": -1.895885,
    "gp:parent_id": "12723",
    "iso:country": "GB",
    "mz:hierarchy_label": 1,
    "mz:is_current": 1,
    "os:country_code": "E92000001",
    "os:county_code": "E99999999",
    "os:district_code": "E08000025",
    "os:positional_quality_indicator": "1",
    "os:region_code": "E12000005",
    "src:geom": "os",
    "wof:belongsto": [
      85633159,
      102191581,
      136253055,
      1864205499,
      1360699077,
      101750467,
      1880762069,
      404227469,
      1880773161
    ],
    "wof:breaches": [],
    "wof:concordances": {
      "gp:id": "56127090"
    },
    "wof:country": "GB",
    "wof:created": 1583701252,
    "wof:geomhash": "1d62b6294f7289a7ebb0166efec41335",
    "wof:hierarchy": [
      {
        "continent_id": 102191581,
        "country_id": 85633159,
        "county_id": 1360699077,
        "empire_id": 136253055,
        "locality_id": 101750467,
        "macrocounty_id": 1880762069,
        "macroregion_id": 404227469,
        "postalcode_id": 488264273,
        "region_id": 1880773161
      },
      {
        "continent_id": 102191581,
        "country_id": 85633159,
        "empire_id": 136253055,
        "postalcode_id": 488264273,
        "postalregion_id": 1864205499
      }
    ],
    "wof:id": 488264273,
    "wof:lastmodified": 1763548588,
    "wof:name": "B2 4PE",
    "wof:parent_id": 101750467,
    "wof:placetype": "postalcode",
    "wof:repo": "whosonfirst-data-postalcode-gb",
    "wof:superseded_by": [],
    "wof:supersedes": [],
    "wof:tags": []
  },
  "bbox": [
    -1.895885,
    52.478421,
    -1.895885,
    52.478421
  ],
  "geometry": {"coordinates":[-1.895885,52.478421],"type":"Point"}
}
