{
  "id": 437868865,
  "type": "Feature",
  "properties": {
    "date:inception_lower": "2016-01-01",
    "date:inception_upper": "2016-01-01",
    "edtf:cessation": "",
    "edtf:inception": "2016-01-01",
    "geom:area": 0,
    "geom:bbox": "-1.047213,50.887362,-1.047213,50.887362",
    "geom:latitude": 50.887362,
    "geom:longitude": -1.047213,
    "gp:parent_id": "39301",
    "iso:country": "GB",
    "mz:hierarchy_label": 1,
    "mz:is_current": 1,
    "os:country_code": "E92000001",
    "os:county_code": "E10000014",
    "os:district_code": "E07000094",
    "os:positional_quality_indicator": "1",
    "os:region_code": "E12000008",
    "src:geom": "os",
    "wof:belongsto": [
      85633159,
      102191581,
      136253055,
      1864209981,
      1880771467,
      404442327,
      1125963703,
      1880762155,
      404227469,
      1880762717
    ],
    "wof:breaches": [],
    "wof:concordances": {
      "gp:id": "28920266"
    },
    "wof:country": "GB",
    "wof:created": 1583701600,
    "wof:geomhash": "d4ddd23c3af22db545fe4b20ff5630af",
    "wof:hierarchy": [
      {
        "continent_id": 102191581,
        "country_id": 85633159,
        "county_id": 1880771467,
        "empire_id": 136253055,
        "localadmin_id": 404442327,
        "locality_id": 1125963703,
        "macrocounty_id": 1880762155,
        "macroregion_id": 404227469,
        "postalcode_id": 437868865,
        "region_id": 1880762717
      },
      {
        "continent_id": 102191581,
        "country_id": 85633159,
        "empire_id": 136253055,
        "postalcode_id": 437868865,
        "postalregion_id": 1864209981
      }
    ],
    "wof:id": 437868865,
    "wof:lastmodified": 1763548041,
    "wof:name": "PO7 7FN",
    "wof:parent_id": 1125963703,
    "wof:placetype": "postalcode",
    "wof:repo": "whosonfirst-data-postalcode-gb",
    "wof:superseded_by": [],
    "wof:supersedes": [],
    "wof:tags": []
  },
  "bbox": [
    -1.047213,
    50.887362,
    -1.047213,
    50.887362
  ],
  "geometry": {"coordinates":[-1.047213,50.887362],"type":"Point"}
}
