{
  "id": 487928651,
  "type": "Feature",
  "properties": {
    "date:cessation_lower": "2010-05-01",
    "date:cessation_upper": "2010-05-01",
    "date:inception_lower": "1980-01-01",
    "date:inception_upper": "1980-01-01",
    "edtf:cessation": "2010-05-01",
    "edtf:inception": "1980-01-01",
    "geom:area": 0,
    "geom:bbox": "-5.087236,50.413681,-5.087236,50.413681",
    "geom:latitude": 50.413681,
    "geom:longitude": -5.087236,
    "gp:parent_id": "30171",
    "iso:country": "GB",
    "mz:hierarchy_label": 1,
    "mz:is_current": 0,
    "os:country_code": "E92000001",
    "os:county_code": "E99999999",
    "os:district_code": "E06000052",
    "os:positional_quality_indicator": "1",
    "os:region_code": "E12000009",
    "src:geom": "os",
    "wof:belongsto": [
      85633159,
      102191581,
      136253055,
      1864211241,
      1360699085,
      404437897,
      101852409,
      1880762119,
      404227469,
      1880773165
    ],
    "wof:breaches": [],
    "wof:concordances": {
      "gp:id": "28082330"
    },
    "wof:country": "GB",
    "wof:created": 1583701268,
    "wof:geomhash": "4657d15a3b5eadde4f0994eabc4e2f5d",
    "wof:hierarchy": [
      {
        "continent_id": 102191581,
        "country_id": 85633159,
        "county_id": 1360699085,
        "empire_id": 136253055,
        "localadmin_id": 404437897,
        "locality_id": 101852409,
        "macrocounty_id": 1880762119,
        "macroregion_id": 404227469,
        "postalcode_id": 487928651,
        "region_id": 1880773165
      },
      {
        "continent_id": 102191581,
        "country_id": 85633159,
        "empire_id": 136253055,
        "postalcode_id": 487928651,
        "postalregion_id": 1864211241
      }
    ],
    "wof:id": 487928651,
    "wof:lastmodified": 1763548765,
    "wof:name": "TR7 1NB",
    "wof:parent_id": 101852409,
    "wof:placetype": "postalcode",
    "wof:repo": "whosonfirst-data-postalcode-gb",
    "wof:superseded_by": [],
    "wof:supersedes": [],
    "wof:tags": []
  },
  "bbox": [
    -5.087236,
    50.413681,
    -5.087236,
    50.413681
  ],
  "geometry": {"coordinates":[-5.087236,50.413681],"type":"Point"}
}
