{
  "id": 454605643,
  "type": "Feature",
  "properties": {
    "date:inception_lower": "1984-10-01",
    "date:inception_upper": "1984-10-01",
    "edtf:cessation": "",
    "edtf:inception": "1984-10-01",
    "geom:area": 0,
    "geom:bbox": "-3.461794,50.593406,-3.461794,50.593406",
    "geom:latitude": 50.593406,
    "geom:longitude": -3.461794,
    "gp:parent_id": "17980",
    "iso:country": "GB",
    "mz:hierarchy_label": 1,
    "mz:is_current": 1,
    "os:country_code": "E92000001",
    "os:county_code": "E10000008",
    "os:district_code": "E07000045",
    "os:positional_quality_indicator": "1",
    "os:region_code": "E12000009",
    "src:geom": "os",
    "wof:belongsto": [
      85633159,
      102191581,
      136253055,
      1864207245,
      1880771399,
      404436419,
      1125891889,
      1880762149,
      404227469,
      1880762683
    ],
    "wof:breaches": [],
    "wof:concordances": {
      "gp:id": "27267161"
    },
    "wof:country": "GB",
    "wof:created": 1583701659,
    "wof:geomhash": "6804d18ed7f58a5616d8e6bd46993da3",
    "wof:hierarchy": [
      {
        "continent_id": 102191581,
        "country_id": 85633159,
        "county_id": 1880771399,
        "empire_id": 136253055,
        "localadmin_id": 404436419,
        "locality_id": 1125891889,
        "macrocounty_id": 1880762149,
        "macroregion_id": 404227469,
        "postalcode_id": 454605643,
        "region_id": 1880762683
      },
      {
        "continent_id": 102191581,
        "country_id": 85633159,
        "empire_id": 136253055,
        "postalcode_id": 454605643,
        "postalregion_id": 1864207245
      }
    ],
    "wof:id": 454605643,
    "wof:lastmodified": 1763548323,
    "wof:name": "EX7 0RA",
    "wof:parent_id": 1125891889,
    "wof:placetype": "postalcode",
    "wof:repo": "whosonfirst-data-postalcode-gb",
    "wof:superseded_by": [],
    "wof:supersedes": [],
    "wof:tags": []
  },
  "bbox": [
    -3.461794,
    50.593406,
    -3.461794,
    50.593406
  ],
  "geometry": {"coordinates":[-3.461794,50.593406],"type":"Point"}
}
