{
  "id": 39759993,
  "type": "Feature",
  "properties": {
    "date:cessation_lower": "1994-12-01",
    "date:cessation_upper": "1994-12-01",
    "date:inception_lower": "1983-01-01",
    "date:inception_upper": "1983-01-01",
    "edtf:cessation": "1994-12-01",
    "edtf:inception": "1983-01-01",
    "geom:area": 0,
    "geom:bbox": "-3.417115,53.184470,-3.417115,53.184470",
    "geom:latitude": 53.18447,
    "geom:longitude": -3.417115,
    "iso:country": "GB",
    "mz:hierarchy_label": 1,
    "mz:is_current": 0,
    "os:country_code": "W92000004",
    "os:county_code": "W99999999",
    "os:district_code": "W06000004",
    "os:positional_quality_indicator": "8",
    "os:region_code": "W99999999",
    "src:geom": "os",
    "wof:belongsto": [
      85633159,
      102191581,
      136253055,
      1864208459,
      1360698781,
      404445857,
      101872011,
      1880762183,
      404227475,
      1880772909
    ],
    "wof:breaches": [],
    "wof:country": "GB",
    "wof:created": 1583805027,
    "wof:geomhash": "df804dc1e495c767864bd62ec3a7096c",
    "wof:hierarchy": [
      {
        "continent_id": 102191581,
        "country_id": 85633159,
        "county_id": 1360698781,
        "empire_id": 136253055,
        "localadmin_id": 404445857,
        "locality_id": 101872011,
        "macrocounty_id": 1880762183,
        "macroregion_id": 404227475,
        "postalcode_id": 39759993,
        "region_id": 1880772909
      },
      {
        "continent_id": 102191581,
        "country_id": 85633159,
        "empire_id": 136253055,
        "postalcode_id": 39759993,
        "postalregion_id": 1864208459
      }
    ],
    "wof:id": 39759993,
    "wof:lastmodified": 1763547909,
    "wof:name": "LL16 3AJ",
    "wof:parent_id": 101872011,
    "wof:placetype": "postalcode",
    "wof:repo": "whosonfirst-data-postalcode-gb",
    "wof:superseded_by": [],
    "wof:supersedes": [],
    "wof:tags": []
  },
  "bbox": [
    -3.417115,
    53.18447,
    -3.417115,
    53.18447
  ],
  "geometry": {"coordinates":[-3.417115,53.18447],"type":"Point"}
}
