{
  "id": 437852049,
  "type": "Feature",
  "properties": {
    "date:cessation_lower": "2005-07-01",
    "date:cessation_upper": "2005-07-01",
    "date:inception_lower": "2004-05-01",
    "date:inception_upper": "2004-05-01",
    "edtf:cessation": "2005-07-01",
    "edtf:inception": "2004-05-01",
    "geom:area": 0,
    "geom:bbox": "-3.285639,51.756641,-3.285639,51.756641",
    "geom:latitude": 51.756641,
    "geom:longitude": -3.285639,
    "iso:country": "GB",
    "mz:hierarchy_label": 1,
    "mz:is_current": 0,
    "os:country_code": "W92000004",
    "os:county_code": "W99999999",
    "os:district_code": "W06000018",
    "os:positional_quality_indicator": "5",
    "os:region_code": "W99999999",
    "src:geom": "os",
    "wof:belongsto": [
      85633159,
      102191581,
      136253055,
      1864209279,
      1360698925,
      404439051,
      101852785,
      1880762173,
      404227475,
      1880773189
    ],
    "wof:breaches": [],
    "wof:concordances": {
      "gp:id": "28910265"
    },
    "wof:country": "GB",
    "wof:created": 1583701596,
    "wof:geomhash": "b0b87a72cbb98a54de70b6b0e7c163bb",
    "wof:hierarchy": [
      {
        "continent_id": 102191581,
        "country_id": 85633159,
        "county_id": 1360698925,
        "empire_id": 136253055,
        "localadmin_id": 404439051,
        "locality_id": 101852785,
        "macrocounty_id": 1880762173,
        "macroregion_id": 404227475,
        "postalcode_id": 437852049,
        "region_id": 1880773189
      },
      {
        "continent_id": 102191581,
        "country_id": 85633159,
        "empire_id": 136253055,
        "postalcode_id": 437852049,
        "postalregion_id": 1864209279
      }
    ],
    "wof:id": 437852049,
    "wof:lastmodified": 1763548260,
    "wof:name": "NP22 5YJ",
    "wof:parent_id": 101852785,
    "wof:placetype": "postalcode",
    "wof:repo": "whosonfirst-data-postalcode-gb",
    "wof:superseded_by": [],
    "wof:supersedes": [],
    "wof:tags": []
  },
  "bbox": [
    -3.285639,
    51.756641,
    -3.285639,
    51.756641
  ],
  "geometry": {"coordinates":[-3.285639,51.756641],"type":"Point"}
}
