{
  "id": 38110716,
  "type": "Feature",
  "properties": {
    "date:cessation_lower": "1998-06-01",
    "date:cessation_upper": "1998-06-01",
    "date:inception_lower": "1983-07-01",
    "date:inception_upper": "1983-07-01",
    "edtf:cessation": "1998-06-01",
    "edtf:inception": "1983-07-01",
    "geom:area": 0,
    "geom:bbox": "-0.889381,53.950970,-0.889381,53.950970",
    "geom:latitude": 53.95097,
    "geom:longitude": -0.889381,
    "iso:country": "GB",
    "mz:hierarchy_label": 1,
    "mz:is_current": 0,
    "os:country_code": "E92000001",
    "os:county_code": "E99999999",
    "os:district_code": "E06000011",
    "os:positional_quality_indicator": "1",
    "os:region_code": "E12000003",
    "src:geom": "os",
    "wof:belongsto": [
      102191581,
      85633159,
      1360699001,
      136253055,
      404436703,
      1125943751,
      1880762147,
      404227469,
      1880773091
    ],
    "wof:breaches": [],
    "wof:country": "GB",
    "wof:created": 1583786923,
    "wof:geomhash": "181f8fe758c86dd6183e529dfcf9f1e9",
    "wof:hierarchy": [
      {
        "continent_id": 102191581,
        "country_id": 85633159,
        "county_id": 1360699001,
        "empire_id": 136253055,
        "localadmin_id": 404436703,
        "locality_id": 1125943751,
        "macrocounty_id": 1880762147,
        "macroregion_id": 404227469,
        "postalcode_id": 38110716,
        "region_id": 1880773091
      }
    ],
    "wof:id": 38110716,
    "wof:lastmodified": 1763548640,
    "wof:name": "YO4 5LS",
    "wof:parent_id": 1125943751,
    "wof:placetype": "postalcode",
    "wof:repo": "whosonfirst-data-postalcode-gb",
    "wof:superseded_by": [],
    "wof:supersedes": [],
    "wof:tags": []
  },
  "bbox": [
    -0.889381,
    53.95097,
    -0.889381,
    53.95097
  ],
  "geometry": {"coordinates":[-0.889381,53.95097],"type":"Point"}
}
