{
  "id": 471521099,
  "type": "Feature",
  "properties": {
    "date:cessation_lower": "2016-02-01",
    "date:cessation_upper": "2016-02-01",
    "date:inception_lower": "1994-12-01",
    "date:inception_upper": "1994-12-01",
    "edtf:cessation": "2016-02-01",
    "edtf:inception": "1994-12-01",
    "geom:area": 0,
    "geom:bbox": "-0.985135,51.461069,-0.985135,51.461069",
    "geom:latitude": 51.461069,
    "geom:longitude": -0.985135,
    "iso:country": "GB",
    "mz:hierarchy_label": 1,
    "mz:is_current": 0,
    "os:country_code": "E92000001",
    "os:county_code": "E99999999",
    "os:district_code": "E06000038",
    "os:positional_quality_indicator": "1",
    "os:region_code": "E12000008",
    "src:geom": "os",
    "wof:belongsto": [
      85633159,
      102191581,
      136253055,
      1864210015,
      1360698983,
      1175612721,
      1880762165,
      404227469,
      1880772969
    ],
    "wof:breaches": [],
    "wof:concordances": {
      "gp:id": "27805414"
    },
    "wof:country": "GB",
    "wof:created": 1583701656,
    "wof:geomhash": "b14673dc6b5e1c0c687dbe913fd0e7a9",
    "wof:hierarchy": [
      {
        "continent_id": 102191581,
        "country_id": 85633159,
        "county_id": 1360698983,
        "empire_id": 136253055,
        "locality_id": 1175612721,
        "macrocounty_id": 1880762165,
        "macroregion_id": 404227469,
        "postalcode_id": 471521099,
        "region_id": 1880772969
      },
      {
        "continent_id": 102191581,
        "country_id": 85633159,
        "empire_id": 136253055,
        "postalcode_id": 471521099,
        "postalregion_id": 1864210015
      }
    ],
    "wof:id": 471521099,
    "wof:lastmodified": 1763548143,
    "wof:name": "RG1 8BZ",
    "wof:parent_id": 1175612721,
    "wof:placetype": "postalcode",
    "wof:repo": "whosonfirst-data-postalcode-gb",
    "wof:superseded_by": [],
    "wof:supersedes": [],
    "wof:tags": []
  },
  "bbox": [
    -0.985135,
    51.461069,
    -0.985135,
    51.461069
  ],
  "geometry": {"coordinates":[-0.985135,51.461069],"type":"Point"}
}
