{
  "id": 471594343,
  "type": "Feature",
  "properties": {
    "date:inception_lower": "1980-01-01",
    "date:inception_upper": "1980-01-01",
    "edtf:cessation": "",
    "edtf:inception": "1980-01-01",
    "geom:area": 0,
    "geom:bbox": "-0.556484,50.934074,-0.556484,50.934074",
    "geom:latitude": 50.934074,
    "geom:longitude": -0.556484,
    "gp:parent_id": "39308",
    "iso:country": "GB",
    "mz:hierarchy_label": 1,
    "mz:is_current": 1,
    "os:country_code": "E92000001",
    "os:county_code": "E10000032",
    "os:district_code": "E07000227",
    "os:positional_quality_indicator": "1",
    "os:region_code": "E12000008",
    "src:geom": "os",
    "wof:belongsto": [
      85633159,
      102191581,
      136253055,
      1864210109,
      1880771689,
      404436899,
      1125797441,
      1880762061,
      404227469,
      1880762709
    ],
    "wof:breaches": [],
    "wof:concordances": {
      "gp:id": "27832519"
    },
    "wof:country": "GB",
    "wof:created": 1583701677,
    "wof:geomhash": "105667f4047238c55d5247c0adfba59a",
    "wof:hierarchy": [
      {
        "continent_id": 102191581,
        "country_id": 85633159,
        "county_id": 1880771689,
        "empire_id": 136253055,
        "localadmin_id": 404436899,
        "locality_id": 1125797441,
        "macrocounty_id": 1880762061,
        "macroregion_id": 404227469,
        "postalcode_id": 471594343,
        "region_id": 1880762709
      },
      {
        "continent_id": 102191581,
        "country_id": 85633159,
        "empire_id": 136253055,
        "postalcode_id": 471594343,
        "postalregion_id": 1864210109
      }
    ],
    "wof:id": 471594343,
    "wof:lastmodified": 1763547928,
    "wof:name": "RH20 1NB",
    "wof:parent_id": 1125797441,
    "wof:placetype": "postalcode",
    "wof:repo": "whosonfirst-data-postalcode-gb",
    "wof:superseded_by": [],
    "wof:supersedes": [],
    "wof:tags": []
  },
  "bbox": [
    -0.556484,
    50.934074,
    -0.556484,
    50.934074
  ],
  "geometry": {"coordinates":[-0.556484,50.934074],"type":"Point"}
}
