{
  "id": 1161072718,
  "type": "Feature",
  "properties": {
    "date:cessation_lower": "1995-07-01",
    "date:cessation_upper": "1995-07-01",
    "date:inception_lower": "1980-01-01",
    "date:inception_upper": "1980-01-01",
    "edtf:cessation": "1995-07-01",
    "edtf:inception": "1980-01-01",
    "geom:area": 0,
    "geom:bbox": "-3.394512,51.536868,-3.394512,51.536868",
    "geom:latitude": 51.536868,
    "geom:longitude": -3.394512,
    "iso:country": "GB",
    "mz:hierarchy_label": 1,
    "mz:is_current": 0,
    "os:country_code": "W92000004",
    "os:county_code": "W99999999",
    "os:district_code": "W06000016",
    "os:positional_quality_indicator": "1",
    "os:region_code": "W99999999",
    "src:geom": "os",
    "wof:belongsto": [
      102191581,
      85633159,
      1360699025,
      136253055,
      404451067,
      1125981629,
      1880762185,
      404227475,
      1880773115
    ],
    "wof:breaches": [],
    "wof:country": "GB",
    "wof:created": 1583802659,
    "wof:geomhash": "ae2fa18bbd718848ea2e5e2af2be0664",
    "wof:hierarchy": [
      {
        "continent_id": 102191581,
        "country_id": 85633159,
        "county_id": 1360699025,
        "empire_id": 136253055,
        "localadmin_id": 404451067,
        "locality_id": 1125981629,
        "macrocounty_id": 1880762185,
        "macroregion_id": 404227475,
        "postalcode_id": 1161072718,
        "region_id": 1880773115
      }
    ],
    "wof:id": 1161072718,
    "wof:lastmodified": 1763548291,
    "wof:name": "CF7 8JF",
    "wof:parent_id": 1125981629,
    "wof:placetype": "postalcode",
    "wof:repo": "whosonfirst-data-postalcode-gb",
    "wof:superseded_by": [],
    "wof:supersedes": [],
    "wof:tags": []
  },
  "bbox": [
    -3.394512,
    51.536868,
    -3.394512,
    51.536868
  ],
  "geometry": {"coordinates":[-3.394512,51.536868],"type":"Point"}
}
