{
  "id": 39391794,
  "type": "Feature",
  "properties": {
    "date:cessation_lower": "1982-04-01",
    "date:cessation_upper": "1982-04-01",
    "date:inception_lower": "1973-08-01",
    "date:inception_upper": "1973-08-01",
    "edtf:cessation": "1982-04-01",
    "edtf:inception": "1973-08-01",
    "geom:area": 0,
    "geom:bbox": "-2.147177,57.173356,-2.147177,57.173356",
    "geom:latitude": 57.173356,
    "geom:longitude": -2.147177,
    "iso:country": "GB",
    "mz:hierarchy_label": 1,
    "mz:is_current": 0,
    "os:country_code": "S92000003",
    "os:county_code": "S99999999",
    "os:district_code": "S12000033",
    "os:positional_quality_indicator": "8",
    "os:region_code": "S99999999",
    "src:geom": "os",
    "wof:belongsto": [
      102191581,
      85633159,
      1360698989,
      136253055,
      101750639,
      1880762093,
      404227471,
      1880773079
    ],
    "wof:breaches": [],
    "wof:country": "GB",
    "wof:created": 1583800980,
    "wof:geomhash": "c080394917b9791463cef49554baf9b6",
    "wof:hierarchy": [
      {
        "continent_id": 102191581,
        "country_id": 85633159,
        "county_id": 1360698989,
        "empire_id": 136253055,
        "locality_id": 101750639,
        "macrocounty_id": 1880762093,
        "macroregion_id": 404227471,
        "postalcode_id": 39391794,
        "region_id": 1880773079
      }
    ],
    "wof:id": 39391794,
    "wof:lastmodified": 1763548399,
    "wof:name": "AB2 2BQ",
    "wof:parent_id": 101750639,
    "wof:placetype": "postalcode",
    "wof:repo": "whosonfirst-data-postalcode-gb",
    "wof:superseded_by": [],
    "wof:supersedes": [],
    "wof:tags": []
  },
  "bbox": [
    -2.147177,
    57.173356,
    -2.147177,
    57.173356
  ],
  "geometry": {"coordinates":[-2.147177,57.173356],"type":"Point"}
}
