{
  "id": 1712652911,
  "type": "Feature",
  "properties": {
    "date:cessation_lower": "1997-08-01",
    "date:cessation_upper": "1997-08-01",
    "date:inception_lower": "1980-01-01",
    "date:inception_upper": "1980-01-01",
    "edtf:cessation": "1997-08-01",
    "edtf:inception": "1980-01-01",
    "geom:area": 0,
    "geom:bbox": "-2.543551,51.320108,-2.543551,51.320108",
    "geom:latitude": 51.320108,
    "geom:longitude": -2.543551,
    "iso:country": "GB",
    "mz:hierarchy_label": 1,
    "mz:is_current": 0,
    "os:country_code": "E92000001",
    "os:county_code": "E99999999",
    "os:district_code": "E06000022",
    "os:positional_quality_indicator": "1",
    "os:region_code": "E12000009",
    "src:geom": "os",
    "wof:belongsto": [
      102191581,
      85633159,
      1360698775,
      136253055,
      404429945,
      1125857391,
      1880762071,
      404227469,
      1880773145
    ],
    "wof:breaches": [],
    "wof:country": "GB",
    "wof:created": 1583797595,
    "wof:geomhash": "6471b3efc659f9c864bc7ee35b6a4815",
    "wof:hierarchy": [
      {
        "continent_id": 102191581,
        "country_id": 85633159,
        "county_id": 1360698775,
        "empire_id": 136253055,
        "localadmin_id": 404429945,
        "locality_id": 1125857391,
        "macrocounty_id": 1880762071,
        "macroregion_id": 404227469,
        "postalcode_id": 1712652911,
        "region_id": 1880773145
      }
    ],
    "wof:id": 1712652911,
    "wof:lastmodified": 1763548750,
    "wof:name": "BS18 5DA",
    "wof:parent_id": 1125857391,
    "wof:placetype": "postalcode",
    "wof:repo": "whosonfirst-data-postalcode-gb",
    "wof:superseded_by": [],
    "wof:supersedes": [],
    "wof:tags": []
  },
  "bbox": [
    -2.543551,
    51.320108,
    -2.543551,
    51.320108
  ],
  "geometry": {"coordinates":[-2.543551,51.320108],"type":"Point"}
}
