{
  "id": 471130499,
  "type": "Feature",
  "properties": {
    "date:inception_lower": "1999-12-01",
    "date:inception_upper": "1999-12-01",
    "edtf:cessation": "",
    "edtf:inception": "1999-12-01",
    "geom:area": 0,
    "geom:bbox": "-1.030608,53.100697,-1.030608,53.100697",
    "geom:latitude": 53.100697,
    "geom:longitude": -1.030608,
    "gp:parent_id": "19962",
    "iso:country": "GB",
    "mz:hierarchy_label": 1,
    "mz:is_current": 1,
    "os:country_code": "E92000001",
    "os:county_code": "E10000024",
    "os:district_code": "E07000175",
    "os:positional_quality_indicator": "1",
    "os:region_code": "E12000004",
    "src:geom": "os",
    "wof:belongsto": [
      85633159,
      102191581,
      136253055,
      1864209179,
      1880771361,
      404448437,
      1126009003,
      1880762077,
      404227469,
      1880762689
    ],
    "wof:breaches": [],
    "wof:concordances": {
      "gp:id": "27639472"
    },
    "wof:country": "GB",
    "wof:created": 1583701327,
    "wof:geomhash": "bc69999806f77801ae3adcaf022a63f9",
    "wof:hierarchy": [
      {
        "continent_id": 102191581,
        "country_id": 85633159,
        "county_id": 1880771361,
        "empire_id": 136253055,
        "localadmin_id": 404448437,
        "locality_id": 1126009003,
        "macrocounty_id": 1880762077,
        "macroregion_id": 404227469,
        "postalcode_id": 471130499,
        "region_id": 1880762689
      },
      {
        "continent_id": 102191581,
        "country_id": 85633159,
        "empire_id": 136253055,
        "postalcode_id": 471130499,
        "postalregion_id": 1864209179
      }
    ],
    "wof:id": 471130499,
    "wof:lastmodified": 1763548256,
    "wof:name": "NG22 8FB",
    "wof:parent_id": 1126009003,
    "wof:placetype": "postalcode",
    "wof:repo": "whosonfirst-data-postalcode-gb",
    "wof:superseded_by": [],
    "wof:supersedes": [],
    "wof:tags": []
  },
  "bbox": [
    -1.030608,
    53.100697,
    -1.030608,
    53.100697
  ],
  "geometry": {"coordinates":[-1.030608,53.100697],"type":"Point"}
}
