{
  "id": 39230982,
  "type": "Feature",
  "properties": {
    "date:cessation_lower": "1996-06-01",
    "date:cessation_upper": "1996-06-01",
    "date:inception_lower": "1991-09-01",
    "date:inception_upper": "1991-09-01",
    "edtf:cessation": "1996-06-01",
    "edtf:inception": "1991-09-01",
    "geom:area": 0,
    "geom:bbox": "-2.822616,53.865105,-2.822616,53.865105",
    "geom:latitude": 53.865105,
    "geom:longitude": -2.822616,
    "iso:country": "GB",
    "mz:hierarchy_label": 1,
    "mz:is_current": 0,
    "os:country_code": "E92000001",
    "os:county_code": "E10000017",
    "os:district_code": "E07000128",
    "os:positional_quality_indicator": "8",
    "os:region_code": "E12000002",
    "src:geom": "os",
    "wof:belongsto": [
      85633159,
      102191581,
      136253055,
      1864209999,
      1880771545,
      404452633,
      1360758363,
      1880762053,
      404227469,
      1880762711
    ],
    "wof:breaches": [],
    "wof:country": "GB",
    "wof:created": 1583799161,
    "wof:geomhash": "d2716d001efa4a6b56aa86d1232c2493",
    "wof:hierarchy": [
      {
        "continent_id": 102191581,
        "country_id": 85633159,
        "county_id": 1880771545,
        "empire_id": 136253055,
        "localadmin_id": 404452633,
        "locality_id": 1360758363,
        "macrocounty_id": 1880762053,
        "macroregion_id": 404227469,
        "postalcode_id": 39230982,
        "region_id": 1880762711
      },
      {
        "continent_id": 102191581,
        "country_id": 85633159,
        "empire_id": 136253055,
        "postalcode_id": 39230982,
        "postalregion_id": 1864209999
      }
    ],
    "wof:id": 39230982,
    "wof:lastmodified": 1763548375,
    "wof:name": "PR3 0TW",
    "wof:parent_id": 1360758363,
    "wof:placetype": "postalcode",
    "wof:repo": "whosonfirst-data-postalcode-gb",
    "wof:superseded_by": [],
    "wof:supersedes": [],
    "wof:tags": []
  },
  "bbox": [
    -2.822616,
    53.865105,
    -2.822616,
    53.865105
  ],
  "geometry": {"coordinates":[-2.822616,53.865105],"type":"Point"}
}
