{
  "id": 1712762799,
  "type": "Feature",
  "properties": {
    "date:cessation_lower": "2001-02-01",
    "date:cessation_upper": "2001-02-01",
    "date:inception_lower": "1993-01-01",
    "date:inception_upper": "1993-01-01",
    "edtf:cessation": "2001-02-01",
    "edtf:inception": "1993-01-01",
    "geom:area": 0,
    "geom:bbox": "-1.554861,55.175863,-1.554861,55.175863",
    "geom:latitude": 55.175863,
    "geom:longitude": -1.554861,
    "iso:country": "GB",
    "mz:hierarchy_label": 1,
    "mz:is_current": 0,
    "os:country_code": "E92000001",
    "os:county_code": "E99999999",
    "os:district_code": "E06000057",
    "os:positional_quality_indicator": "1",
    "os:region_code": "E12000001",
    "src:geom": "os",
    "wof:belongsto": [
      85633159,
      102191581,
      136253055,
      1864209109,
      1360698769,
      404439495,
      101872383,
      1880761987,
      404227469,
      1880772897
    ],
    "wof:breaches": [],
    "wof:country": "GB",
    "wof:created": 1583802485,
    "wof:geomhash": "1e473c54725f3b7936ba255ca8b63d00",
    "wof:hierarchy": [
      {
        "continent_id": 102191581,
        "country_id": 85633159,
        "county_id": 1360698769,
        "empire_id": 136253055,
        "localadmin_id": 404439495,
        "locality_id": 101872383,
        "macrocounty_id": 1880761987,
        "macroregion_id": 404227469,
        "postalcode_id": 1712762799,
        "region_id": 1880772897
      },
      {
        "continent_id": 102191581,
        "country_id": 85633159,
        "empire_id": 136253055,
        "postalcode_id": 1712762799,
        "postalregion_id": 1864209109
      }
    ],
    "wof:id": 1712762799,
    "wof:lastmodified": 1763548734,
    "wof:name": "NE63 9NS",
    "wof:parent_id": 101872383,
    "wof:placetype": "postalcode",
    "wof:repo": "whosonfirst-data-postalcode-gb",
    "wof:superseded_by": [],
    "wof:supersedes": [],
    "wof:tags": []
  },
  "bbox": [
    -1.554861,
    55.175863,
    -1.554861,
    55.175863
  ],
  "geometry": {"coordinates":[-1.554861,55.175863],"type":"Point"}
}
