{
  "id": 487633009,
  "type": "Feature",
  "properties": {
    "date:inception_lower": "1980-01-01",
    "date:inception_upper": "1980-01-01",
    "edtf:cessation": "",
    "edtf:inception": "1980-01-01",
    "geom:area": 0,
    "geom:bbox": "-1.501840,51.201034,-1.501840,51.201034",
    "geom:latitude": 51.201034,
    "geom:longitude": -1.50184,
    "iso:country": "GB",
    "mz:hierarchy_label": 1,
    "mz:is_current": 1,
    "os:country_code": "E92000001",
    "os:county_code": "E10000014",
    "os:district_code": "E07000093",
    "os:positional_quality_indicator": "1",
    "os:region_code": "E12000008",
    "src:geom": "os",
    "wof:belongsto": [
      85633159,
      102191581,
      136253055,
      1864210699,
      1880771469,
      404442543,
      101750345,
      1880762155,
      404227469,
      1880762717
    ],
    "wof:breaches": [],
    "wof:concordances": {
      "gp:id": "27964182"
    },
    "wof:country": "GB",
    "wof:created": 1583701095,
    "wof:geomhash": "3ecb1750b2cdf1668f06dfbf69a62560",
    "wof:hierarchy": [
      {
        "continent_id": 102191581,
        "country_id": 85633159,
        "county_id": 1880771469,
        "empire_id": 136253055,
        "localadmin_id": 404442543,
        "locality_id": 101750345,
        "macrocounty_id": 1880762155,
        "macroregion_id": 404227469,
        "postalcode_id": 487633009,
        "region_id": 1880762717
      },
      {
        "continent_id": 102191581,
        "country_id": 85633159,
        "empire_id": 136253055,
        "postalcode_id": 487633009,
        "postalregion_id": 1864210699
      }
    ],
    "wof:id": 487633009,
    "wof:lastmodified": 1763548648,
    "wof:name": "SP10 3PR",
    "wof:parent_id": 101750345,
    "wof:placetype": "postalcode",
    "wof:repo": "whosonfirst-data-postalcode-gb",
    "wof:superseded_by": [],
    "wof:supersedes": [],
    "wof:tags": []
  },
  "bbox": [
    -1.50184,
    51.201034,
    -1.50184,
    51.201034
  ],
  "geometry": {"coordinates":[-1.50184,51.201034],"type":"Point"}
}
