{
  "id": 471746955,
  "type": "Feature",
  "properties": {
    "date:inception_lower": "2004-10-01",
    "date:inception_upper": "2004-10-01",
    "edtf:cessation": "",
    "edtf:inception": "2004-10-01",
    "geom:area": 0,
    "geom:bbox": "-0.304807,52.001647,-0.304807,52.001647",
    "geom:latitude": 52.001647,
    "geom:longitude": -0.304807,
    "gp:parent_id": "27812",
    "iso:country": "GB",
    "mz:hierarchy_label": 1,
    "mz:is_current": 1,
    "os:country_code": "E92000001",
    "os:county_code": "E99999999",
    "os:district_code": "E06000056",
    "os:positional_quality_indicator": "1",
    "os:region_code": "E12000006",
    "src:geom": "os",
    "wof:belongsto": [
      85633159,
      102191581,
      136253055,
      1864210487,
      1360698767,
      404453721,
      1209951871,
      1880762167,
      404227469,
      1880773157
    ],
    "wof:breaches": [],
    "wof:concordances": {
      "gp:id": "27908054"
    },
    "wof:country": "GB",
    "wof:created": 1583701727,
    "wof:geomhash": "e01b2832ab406cdaeddced88bc3c4460",
    "wof:hierarchy": [
      {
        "continent_id": 102191581,
        "country_id": 85633159,
        "county_id": 1360698767,
        "empire_id": 136253055,
        "localadmin_id": 404453721,
        "locality_id": 1209951871,
        "macrocounty_id": 1880762167,
        "macroregion_id": 404227469,
        "postalcode_id": 471746955,
        "region_id": 1880773157
      },
      {
        "continent_id": 102191581,
        "country_id": 85633159,
        "empire_id": 136253055,
        "postalcode_id": 471746955,
        "postalregion_id": 1864210487
      }
    ],
    "wof:id": 471746955,
    "wof:lastmodified": 1763548201,
    "wof:name": "SG16 6NJ",
    "wof:parent_id": 1209951871,
    "wof:placetype": "postalcode",
    "wof:repo": "whosonfirst-data-postalcode-gb",
    "wof:superseded_by": [],
    "wof:supersedes": [],
    "wof:tags": []
  },
  "bbox": [
    -0.304807,
    52.001647,
    -0.304807,
    52.001647
  ],
  "geometry": {"coordinates":[-0.304807,52.001647],"type":"Point"}
}
