{
  "id": 1160918378,
  "type": "Feature",
  "properties": {
    "date:cessation_lower": "2000-10-01",
    "date:cessation_upper": "2000-10-01",
    "date:inception_lower": "1997-02-01",
    "date:inception_upper": "1997-02-01",
    "edtf:cessation": "2000-10-01",
    "edtf:inception": "1997-02-01",
    "geom:area": 0,
    "geom:bbox": "-3.537809,50.485429,-3.537809,50.485429",
    "geom:latitude": 50.485429,
    "geom:longitude": -3.537809,
    "iso:country": "GB",
    "mz:hierarchy_label": 1,
    "mz:is_current": 0,
    "os:country_code": "E92000001",
    "os:county_code": "E99999999",
    "os:district_code": "E06000027",
    "os:positional_quality_indicator": "8",
    "os:region_code": "E12000009",
    "src:geom": "os",
    "wof:belongsto": [
      85633159,
      102191581,
      136253055,
      1864211169,
      1360699071,
      1360817197,
      101751577,
      1880762149,
      404227469,
      1880762683
    ],
    "wof:breaches": [],
    "wof:country": "GB",
    "wof:created": 1583795779,
    "wof:geomhash": "f518f2f793a7efa90660aeb619ed8fe4",
    "wof:hierarchy": [
      {
        "continent_id": 102191581,
        "country_id": 85633159,
        "county_id": 1360699071,
        "empire_id": 136253055,
        "localadmin_id": 1360817197,
        "locality_id": 101751577,
        "macrocounty_id": 1880762149,
        "macroregion_id": 404227469,
        "postalcode_id": 1160918378,
        "region_id": 1880762683
      },
      {
        "continent_id": 102191581,
        "country_id": 85633159,
        "empire_id": 136253055,
        "postalcode_id": 1160918378,
        "postalregion_id": 1864211169
      }
    ],
    "wof:id": 1160918378,
    "wof:lastmodified": 1763548255,
    "wof:name": "TQ2 8YN",
    "wof:parent_id": 101751577,
    "wof:placetype": "postalcode",
    "wof:repo": "whosonfirst-data-postalcode-gb",
    "wof:superseded_by": [],
    "wof:supersedes": [],
    "wof:tags": []
  },
  "bbox": [
    -3.537809,
    50.485429,
    -3.537809,
    50.485429
  ],
  "geometry": {"coordinates":[-3.537809,50.485429],"type":"Point"}
}
