{
  "id": 454890439,
  "type": "Feature",
  "properties": {
    "date:inception_lower": "1980-01-01",
    "date:inception_upper": "1980-01-01",
    "edtf:cessation": "",
    "edtf:inception": "1980-01-01",
    "geom:area": 0,
    "geom:bbox": "0.768764,52.273678,0.768764,52.273678",
    "geom:latitude": 52.273678,
    "geom:longitude": 0.768764,
    "gp:parent_id": "21562",
    "iso:country": "GB",
    "mz:hierarchy_label": 1,
    "mz:is_current": 1,
    "os:country_code": "E92000001",
    "os:county_code": "E10000029",
    "os:district_code": "E07000245",
    "os:positional_quality_indicator": "1",
    "os:region_code": "E12000006",
    "src:geom": "os",
    "wof:belongsto": [
      85633159,
      102191581,
      136253055,
      1864207875,
      1880771639,
      404443061,
      1125917549,
      1880762001
    ],
    "wof:breaches": [],
    "wof:concordances": {
      "gp:id": "26636195"
    },
    "wof:country": "GB",
    "wof:created": 1583701747,
    "wof:geomhash": "62194b174f1acfdd110d75cc54e93050",
    "wof:hierarchy": [
      {
        "continent_id": -1,
        "country_id": -1,
        "county_id": 1880771639,
        "localadmin_id": 404443061,
        "locality_id": 1125917549,
        "macrocounty_id": 1880762001,
        "postalcode_id": 454890439,
        "region_id": -1
      },
      {
        "continent_id": 102191581,
        "country_id": 85633159,
        "empire_id": 136253055,
        "postalcode_id": 454890439,
        "postalregion_id": 1864207875
      }
    ],
    "wof:id": 454890439,
    "wof:lastmodified": 1763548527,
    "wof:name": "IP31 2RL",
    "wof:parent_id": 1125917549,
    "wof:placetype": "postalcode",
    "wof:repo": "whosonfirst-data-postalcode-gb",
    "wof:superseded_by": [],
    "wof:supersedes": [],
    "wof:tags": []
  },
  "bbox": [
    0.768764,
    52.273678,
    0.768764,
    52.273678
  ],
  "geometry": {"coordinates":[0.768764,52.273678],"type":"Point"}
}
