{
  "id": 470903565,
  "type": "Feature",
  "properties": {
    "date:inception_lower": "1994-05-01",
    "date:inception_upper": "1994-05-01",
    "edtf:cessation": "",
    "edtf:inception": "1994-05-01",
    "geom:area": 0,
    "geom:bbox": "-2.106260,53.435819,-2.106260,53.435819",
    "geom:latitude": 53.435819,
    "geom:longitude": -2.10626,
    "gp:parent_id": "24257",
    "iso:country": "GB",
    "mz:hierarchy_label": 1,
    "mz:is_current": 1,
    "os:country_code": "E92000001",
    "os:county_code": "E99999999",
    "os:district_code": "E08000008",
    "os:positional_quality_indicator": "1",
    "os:region_code": "E12000002",
    "src:geom": "os",
    "wof:belongsto": [
      85633159,
      102191581,
      136253055,
      1864208773,
      1360698931,
      1360817329,
      1125978547,
      1880762163,
      404227469,
      1880773095
    ],
    "wof:breaches": [],
    "wof:concordances": {
      "gp:id": "27549014"
    },
    "wof:country": "GB",
    "wof:created": 1583701253,
    "wof:geomhash": "1e09c332870979a265c9f987c5e5533d",
    "wof:hierarchy": [
      {
        "continent_id": 102191581,
        "country_id": 85633159,
        "county_id": 1360698931,
        "empire_id": 136253055,
        "localadmin_id": 1360817329,
        "locality_id": 1125978547,
        "macrocounty_id": 1880762163,
        "macroregion_id": 404227469,
        "postalcode_id": 470903565,
        "region_id": 1880773095
      },
      {
        "continent_id": 102191581,
        "country_id": 85633159,
        "empire_id": 136253055,
        "postalcode_id": 470903565,
        "postalregion_id": 1864208773
      }
    ],
    "wof:id": 470903565,
    "wof:lastmodified": 1763548001,
    "wof:name": "M34 7JE",
    "wof:parent_id": 1125978547,
    "wof:placetype": "postalcode",
    "wof:repo": "whosonfirst-data-postalcode-gb",
    "wof:superseded_by": [],
    "wof:supersedes": [],
    "wof:tags": []
  },
  "bbox": [
    -2.10626,
    53.435819,
    -2.10626,
    53.435819
  ],
  "geometry": {"coordinates":[-2.10626,53.435819],"type":"Point"}
}
