{
  "id": 488130931,
  "type": "Feature",
  "properties": {
    "date:inception_lower": "1980-01-01",
    "date:inception_upper": "1980-01-01",
    "edtf:cessation": "",
    "edtf:inception": "1980-01-01",
    "geom:area": 0,
    "geom:bbox": "-1.650400,53.718298,-1.650400,53.718298",
    "geom:latitude": 53.718298,
    "geom:longitude": -1.6504,
    "gp:parent_id": "12070",
    "iso:country": "GB",
    "mz:hierarchy_label": 1,
    "mz:is_current": 1,
    "os:country_code": "E92000001",
    "os:county_code": "E99999999",
    "os:district_code": "E08000034",
    "os:positional_quality_indicator": "1",
    "os:region_code": "E12000003",
    "src:geom": "os",
    "wof:belongsto": [
      85633159,
      102191581,
      136253055,
      1864211563,
      1360698917,
      101750569,
      1880762059,
      404227469,
      1880773017
    ],
    "wof:breaches": [],
    "wof:concordances": {
      "gp:id": "26700295"
    },
    "wof:country": "GB",
    "wof:created": 1583701264,
    "wof:geomhash": "ccf83fefa92e10e4f578226ba3de77a5",
    "wof:hierarchy": [
      {
        "continent_id": 102191581,
        "country_id": 85633159,
        "county_id": 1360698917,
        "empire_id": 136253055,
        "locality_id": 101750569,
        "macrocounty_id": 1880762059,
        "macroregion_id": 404227469,
        "postalcode_id": 488130931,
        "region_id": 1880773017
      },
      {
        "continent_id": 102191581,
        "country_id": 85633159,
        "empire_id": 136253055,
        "postalcode_id": 488130931,
        "postalregion_id": 1864211563
      }
    ],
    "wof:id": 488130931,
    "wof:lastmodified": 1763548548,
    "wof:name": "WF17 8EQ",
    "wof:parent_id": 101750569,
    "wof:placetype": "postalcode",
    "wof:repo": "whosonfirst-data-postalcode-gb",
    "wof:superseded_by": [],
    "wof:supersedes": [],
    "wof:tags": []
  },
  "bbox": [
    -1.6504,
    53.718298,
    -1.6504,
    53.718298
  ],
  "geometry": {"coordinates":[-1.6504,53.718298],"type":"Point"}
}
