{
  "id": 454314729,
  "type": "Feature",
  "properties": {
    "date:inception_lower": "1980-01-01",
    "date:inception_upper": "1980-01-01",
    "edtf:cessation": "",
    "edtf:inception": "1980-01-01",
    "geom:area": 0,
    "geom:bbox": "0.360331,51.339255,0.360331,51.339255",
    "geom:latitude": 51.339255,
    "geom:longitude": 0.360331,
    "iso:country": "GB",
    "mz:hierarchy_label": 1,
    "mz:is_current": 1,
    "os:country_code": "E92000001",
    "os:county_code": "E10000016",
    "os:district_code": "E07000109",
    "os:positional_quality_indicator": "1",
    "os:region_code": "E12000008",
    "src:geom": "os",
    "wof:belongsto": [
      85633159,
      102191581,
      136253055,
      1864206581,
      1880771527,
      404441277,
      101854621,
      1880762057,
      404227469,
      1880762705
    ],
    "wof:breaches": [],
    "wof:concordances": {
      "gp:id": "27128858"
    },
    "wof:country": "GB",
    "wof:created": 1583701478,
    "wof:geomhash": "9e1573e7ad364b394507c3cce36718a8",
    "wof:hierarchy": [
      {
        "continent_id": 102191581,
        "country_id": 85633159,
        "county_id": 1880771527,
        "empire_id": 136253055,
        "localadmin_id": 404441277,
        "locality_id": 101854621,
        "macrocounty_id": 1880762057,
        "macroregion_id": 404227469,
        "postalcode_id": 454314729,
        "region_id": 1880762705
      },
      {
        "continent_id": 102191581,
        "country_id": 85633159,
        "empire_id": 136253055,
        "postalcode_id": 454314729,
        "postalregion_id": 1864206581
      }
    ],
    "wof:id": 454314729,
    "wof:lastmodified": 1763548426,
    "wof:name": "DA13 0DG",
    "wof:parent_id": 101854621,
    "wof:placetype": "postalcode",
    "wof:repo": "whosonfirst-data-postalcode-gb",
    "wof:superseded_by": [],
    "wof:supersedes": [],
    "wof:tags": []
  },
  "bbox": [
    0.360331,
    51.339255,
    0.360331,
    51.339255
  ],
  "geometry": {"coordinates":[0.360331,51.339255],"type":"Point"}
}
