{
  "id": 454486935,
  "type": "Feature",
  "properties": {
    "date:inception_lower": "1980-01-01",
    "date:inception_upper": "1980-01-01",
    "edtf:cessation": "",
    "edtf:inception": "1980-01-01",
    "geom:area": 0,
    "geom:bbox": "-2.071620,52.484127,-2.071620,52.484127",
    "geom:latitude": 52.484127,
    "geom:longitude": -2.07162,
    "gp:parent_id": "18581",
    "iso:country": "GB",
    "mz:hierarchy_label": 1,
    "mz:is_current": 1,
    "os:country_code": "E92000001",
    "os:county_code": "E99999999",
    "os:district_code": "E08000027",
    "os:positional_quality_indicator": "1",
    "os:region_code": "E12000005",
    "src:geom": "os",
    "wof:belongsto": [
      85633159,
      102191581,
      136253055,
      1864206901,
      1360698933,
      1360817295,
      1125917795,
      1880762069,
      404227469,
      1880773161
    ],
    "wof:breaches": [],
    "wof:concordances": {
      "gp:id": "27206522"
    },
    "wof:country": "GB",
    "wof:created": 1583701600,
    "wof:geomhash": "70fbf2c1cefdbc8d51b339ae51da4574",
    "wof:hierarchy": [
      {
        "continent_id": 102191581,
        "country_id": 85633159,
        "county_id": 1360698933,
        "empire_id": 136253055,
        "localadmin_id": 1360817295,
        "locality_id": 1125917795,
        "macrocounty_id": 1880762069,
        "macroregion_id": 404227469,
        "postalcode_id": 454486935,
        "region_id": 1880773161
      },
      {
        "continent_id": 102191581,
        "country_id": 85633159,
        "empire_id": 136253055,
        "postalcode_id": 454486935,
        "postalregion_id": 1864206901
      }
    ],
    "wof:id": 454486935,
    "wof:lastmodified": 1763548481,
    "wof:name": "DY2 9LR",
    "wof:parent_id": 1125917795,
    "wof:placetype": "postalcode",
    "wof:repo": "whosonfirst-data-postalcode-gb",
    "wof:superseded_by": [],
    "wof:supersedes": [],
    "wof:tags": []
  },
  "bbox": [
    -2.07162,
    52.484127,
    -2.07162,
    52.484127
  ],
  "geometry": {"coordinates":[-2.07162,52.484127],"type":"Point"}
}
