{
  "id": 454354141,
  "type": "Feature",
  "properties": {
    "date:cessation_lower": "2024-05-01",
    "date:cessation_upper": "2024-05-01",
    "date:inception_lower": "1992-08-01",
    "date:inception_upper": "1992-08-01",
    "edtf:cessation": "2024-05-01",
    "edtf:inception": "1992-08-01",
    "geom:area": 0,
    "geom:bbox": "-1.481976,53.023387,-1.481976,53.023387",
    "geom:latitude": 53.023387,
    "geom:longitude": -1.481976,
    "iso:country": "GB",
    "mz:hierarchy_label": 1,
    "mz:is_current": 0,
    "os:country_code": "E92000001",
    "os:county_code": "E10000007",
    "os:district_code": "E07000032",
    "os:positional_quality_indicator": "1",
    "os:region_code": "E12000004",
    "src:geom": "os",
    "wof:belongsto": [
      85633159,
      102191581,
      136253055,
      1864206671,
      1880771385,
      404444533,
      101872073,
      1880762133,
      404227469,
      1880762707
    ],
    "wof:breaches": [],
    "wof:concordances": {
      "gp:id": "26693704"
    },
    "wof:country": "GB",
    "wof:created": 1583701511,
    "wof:geomhash": "01446c63a252686765cee1b463065136",
    "wof:hierarchy": [
      {
        "continent_id": 102191581,
        "country_id": 85633159,
        "county_id": 1880771385,
        "empire_id": 136253055,
        "localadmin_id": 404444533,
        "locality_id": 101872073,
        "macrocounty_id": 1880762133,
        "macroregion_id": 404227469,
        "postalcode_id": 454354141,
        "region_id": 1880762707
      },
      {
        "continent_id": 102191581,
        "country_id": 85633159,
        "empire_id": 136253055,
        "postalcode_id": 454354141,
        "postalregion_id": 1864206671
      }
    ],
    "wof:id": 454354141,
    "wof:lastmodified": 1763548202,
    "wof:name": "DE56 1FX",
    "wof:parent_id": 101872073,
    "wof:placetype": "postalcode",
    "wof:repo": "whosonfirst-data-postalcode-gb",
    "wof:superseded_by": [],
    "wof:supersedes": [],
    "wof:tags": []
  },
  "bbox": [
    -1.481976,
    53.023387,
    -1.481976,
    53.023387
  ],
  "geometry": {"coordinates":[-1.481976,53.023387],"type":"Point"}
}
