{
  "id": 1712808211,
  "type": "Feature",
  "properties": {
    "date:cessation_lower": "2000-06-01",
    "date:cessation_upper": "2000-06-01",
    "date:inception_lower": "1980-01-01",
    "date:inception_upper": "1980-01-01",
    "edtf:cessation": "2000-06-01",
    "edtf:inception": "1980-01-01",
    "geom:area": 0,
    "geom:bbox": "-3.168666,54.933347,-3.168666,54.933347",
    "geom:latitude": 54.933347,
    "geom:longitude": -3.168666,
    "iso:country": "GB",
    "mz:hierarchy_label": 1,
    "mz:is_current": 0,
    "os:country_code": "E92000001",
    "os:county_code": "E99999999",
    "os:district_code": "E06000063",
    "os:positional_quality_indicator": "1",
    "os:region_code": "E12000002",
    "src:geom": "os",
    "wof:belongsto": [
      85633159,
      102191581,
      136253055,
      1864206105,
      1880773239,
      404440859,
      1360756527,
      1880761989,
      404227469,
      1880773269
    ],
    "wof:breaches": [],
    "wof:country": "GB",
    "wof:created": 1583804506,
    "wof:geomhash": "fe6c36262c7c2ca0685ba9f03670aea8",
    "wof:hierarchy": [
      {
        "continent_id": 102191581,
        "country_id": 85633159,
        "county_id": 1880773239,
        "empire_id": 136253055,
        "localadmin_id": 404440859,
        "locality_id": 1360756527,
        "macrocounty_id": 1880761989,
        "macroregion_id": 404227469,
        "postalcode_id": 1712808211,
        "region_id": 1880773269
      },
      {
        "continent_id": 102191581,
        "country_id": 85633159,
        "empire_id": 136253055,
        "postalcode_id": 1712808211,
        "postalregion_id": 1864206105
      }
    ],
    "wof:id": 1712808211,
    "wof:lastmodified": 1763548656,
    "wof:name": "CA5 5EB",
    "wof:parent_id": 1360756527,
    "wof:placetype": "postalcode",
    "wof:repo": "whosonfirst-data-postalcode-gb",
    "wof:superseded_by": [],
    "wof:supersedes": [],
    "wof:tags": []
  },
  "bbox": [
    -3.168666,
    54.933347,
    -3.168666,
    54.933347
  ],
  "geometry": {"coordinates":[-3.168666,54.933347],"type":"Point"}
}
