{
  "id": 437812307,
  "type": "Feature",
  "properties": {
    "date:cessation_lower": "2005-10-01",
    "date:cessation_upper": "2005-10-01",
    "date:inception_lower": "2004-03-01",
    "date:inception_upper": "2004-03-01",
    "edtf:cessation": "2005-10-01",
    "edtf:inception": "2004-03-01",
    "geom:area": 0,
    "geom:bbox": "1.324492,52.410728,1.324492,52.410728",
    "geom:latitude": 52.410728,
    "geom:longitude": 1.324492,
    "iso:country": "GB",
    "mz:hierarchy_label": 1,
    "mz:is_current": 0,
    "os:country_code": "E92000001",
    "os:county_code": "E10000020",
    "os:district_code": "E07000149",
    "os:positional_quality_indicator": "5",
    "os:region_code": "E12000006",
    "src:geom": "os",
    "wof:belongsto": [
      85633159,
      102191581,
      136253055,
      1864207849,
      1880771585,
      404449089,
      1360753043,
      1880762037,
      404227469,
      1880762699
    ],
    "wof:breaches": [],
    "wof:concordances": {
      "gp:id": "28887277"
    },
    "wof:country": "GB",
    "wof:created": 1583701565,
    "wof:geomhash": "184f7c6730ac319e453a8724794927fd",
    "wof:hierarchy": [
      {
        "continent_id": 102191581,
        "country_id": 85633159,
        "county_id": 1880771585,
        "empire_id": 136253055,
        "localadmin_id": 404449089,
        "locality_id": 1360753043,
        "macrocounty_id": 1880762037,
        "macroregion_id": 404227469,
        "postalcode_id": 437812307,
        "region_id": 1880762699
      },
      {
        "continent_id": 102191581,
        "country_id": 85633159,
        "empire_id": 136253055,
        "postalcode_id": 437812307,
        "postalregion_id": 1864207849
      }
    ],
    "wof:id": 437812307,
    "wof:lastmodified": 1763548199,
    "wof:name": "IP20 9WS",
    "wof:parent_id": 1360753043,
    "wof:placetype": "postalcode",
    "wof:repo": "whosonfirst-data-postalcode-gb",
    "wof:superseded_by": [],
    "wof:supersedes": [],
    "wof:tags": []
  },
  "bbox": [
    1.324492,
    52.410728,
    1.324492,
    52.410728
  ],
  "geometry": {"coordinates":[1.324492,52.410728],"type":"Point"}
}
