{
  "id": 437568661,
  "type": "Feature",
  "properties": {
    "date:inception_lower": "2011-06-01",
    "date:inception_upper": "2011-06-01",
    "edtf:cessation": "",
    "edtf:inception": "2011-06-01",
    "geom:area": 0,
    "geom:bbox": "-0.735476,51.647366,-0.735476,51.647366",
    "geom:latitude": 51.647366,
    "geom:longitude": -0.735476,
    "iso:country": "GB",
    "mz:hierarchy_label": 1,
    "mz:is_current": 1,
    "os:country_code": "E92000001",
    "os:county_code": "E99999999",
    "os:district_code": "E06000060",
    "os:positional_quality_indicator": "1",
    "os:region_code": "E12000008",
    "src:geom": "os",
    "wof:belongsto": [
      85633159,
      102191581,
      136253055,
      1864207651,
      1360698997,
      101750425,
      1880762141,
      404227469,
      1880773087
    ],
    "wof:breaches": [],
    "wof:concordances": {
      "gp:id": "26359601"
    },
    "wof:country": "GB",
    "wof:created": 1583701381,
    "wof:geomhash": "8ba86d2b6fe5f6b37ca3e603130e8486",
    "wof:hierarchy": [
      {
        "continent_id": 102191581,
        "country_id": 85633159,
        "county_id": 1360698997,
        "empire_id": 136253055,
        "locality_id": 101750425,
        "macrocounty_id": 1880762141,
        "macroregion_id": 404227469,
        "postalcode_id": 437568661,
        "region_id": 1880773087
      },
      {
        "continent_id": 102191581,
        "country_id": 85633159,
        "empire_id": 136253055,
        "postalcode_id": 437568661,
        "postalregion_id": 1864207651
      }
    ],
    "wof:id": 437568661,
    "wof:lastmodified": 1763547956,
    "wof:name": "HP13 5PH",
    "wof:parent_id": 101750425,
    "wof:placetype": "postalcode",
    "wof:repo": "whosonfirst-data-postalcode-gb",
    "wof:superseded_by": [],
    "wof:supersedes": [],
    "wof:tags": []
  },
  "bbox": [
    -0.735476,
    51.647366,
    -0.735476,
    51.647366
  ],
  "geometry": {"coordinates":[-0.735476,51.647366],"type":"Point"}
}
