{
  "id": 39405780,
  "type": "Feature",
  "properties": {
    "date:cessation_lower": "1999-06-01",
    "date:cessation_upper": "1999-06-01",
    "date:inception_lower": "1998-12-01",
    "date:inception_upper": "1998-12-01",
    "edtf:cessation": "1999-06-01",
    "edtf:inception": "1998-12-01",
    "geom:area": 0,
    "geom:bbox": "-2.994794,51.602820,-2.994794,51.602820",
    "geom:latitude": 51.60282,
    "geom:longitude": -2.994794,
    "iso:country": "GB",
    "mz:hierarchy_label": 1,
    "mz:is_current": 0,
    "os:country_code": "W92000004",
    "os:county_code": "W99999999",
    "os:district_code": "W06000022",
    "os:positional_quality_indicator": "8",
    "os:region_code": "W99999999",
    "src:geom": "os",
    "wof:belongsto": [
      102191581,
      85633159,
      1360698735,
      136253055,
      404451473,
      1360711877,
      1880762173,
      404227475,
      1880773189
    ],
    "wof:breaches": [],
    "wof:country": "GB",
    "wof:created": 1583801082,
    "wof:geomhash": "0092b555692aec15b2b16485dbcc4424",
    "wof:hierarchy": [
      {
        "continent_id": 102191581,
        "country_id": 85633159,
        "county_id": 1360698735,
        "empire_id": 136253055,
        "localadmin_id": 404451473,
        "locality_id": 1360711877,
        "macrocounty_id": 1880762173,
        "macroregion_id": 404227475,
        "postalcode_id": 39405780,
        "region_id": 1880773189
      }
    ],
    "wof:id": 39405780,
    "wof:lastmodified": 1763548410,
    "wof:name": "NP9 5XZ",
    "wof:parent_id": 1360711877,
    "wof:placetype": "postalcode",
    "wof:repo": "whosonfirst-data-postalcode-gb",
    "wof:superseded_by": [],
    "wof:supersedes": [],
    "wof:tags": []
  },
  "bbox": [
    -2.994794,
    51.60282,
    -2.994794,
    51.60282
  ],
  "geometry": {"coordinates":[-2.994794,51.60282],"type":"Point"}
}
