{
  "id": 1998356181,
  "type": "Feature",
  "properties": {
    "date:inception_lower": "2024-11-01",
    "date:inception_upper": "2024-11-01",
    "edtf:cessation": "",
    "edtf:inception": "2024-11-01",
    "geom:area": 0,
    "geom:bbox": "-0.765127,51.249672,-0.765127,51.249672",
    "geom:latitude": 51.249672,
    "geom:longitude": -0.765127,
    "iso:country": "GB",
    "mz:hierarchy_label": 1,
    "mz:is_current": 1,
    "os:country_code": "E92000001",
    "os:county_code": "E10000014",
    "os:district_code": "E07000092",
    "os:positional_quality_indicator": "1",
    "os:region_code": "E12000008",
    "src:geom": "os",
    "wof:belongsto": [
      102191581,
      85633159,
      1880771479,
      136253055,
      101750357,
      1880762155,
      404227469,
      1880762717,
      1864207507
    ],
    "wof:breaches": [],
    "wof:country": "GB",
    "wof:created": 1763549556,
    "wof:geomhash": "eb3e4b7fa83fba43a1d65dcd44a427b3",
    "wof:hierarchy": [
      {
        "continent_id": 102191581,
        "country_id": 85633159,
        "county_id": 1880771479,
        "empire_id": 136253055,
        "locality_id": 101750357,
        "macrocounty_id": 1880762155,
        "macroregion_id": 404227469,
        "postalcode_id": 1998356181,
        "region_id": 1880762717
      },
      {
        "continent_id": 102191581,
        "country_id": 85633159,
        "empire_id": 136253055,
        "postalcode_id": 1998356181,
        "postalregion_id": 1864207507
      }
    ],
    "wof:id": 1998356181,
    "wof:lastmodified": 1763549556,
    "wof:name": "GU11 1FW",
    "wof:parent_id": 101750357,
    "wof:placetype": "postalcode",
    "wof:repo": "whosonfirst-data-postalcode-gb",
    "wof:superseded_by": [],
    "wof:supersedes": [],
    "wof:tags": []
  },
  "bbox": [
    -0.765127,
    51.249672,
    -0.765127,
    51.249672
  ],
  "geometry": {"coordinates":[-0.765127,51.249672],"type":"Point"}
}
