{
  "id": 454435203,
  "type": "Feature",
  "properties": {
    "date:inception_lower": "1994-05-01",
    "date:inception_upper": "1994-05-01",
    "edtf:cessation": "",
    "edtf:inception": "1994-05-01",
    "geom:area": 0,
    "geom:bbox": "-0.974280,53.271580,-0.974280,53.271580",
    "geom:latitude": 53.27158,
    "geom:longitude": -0.97428,
    "gp:parent_id": "19459",
    "iso:country": "GB",
    "mz:hierarchy_label": 1,
    "mz:is_current": 1,
    "os:country_code": "E92000001",
    "os:county_code": "E10000024",
    "os:district_code": "E07000171",
    "os:positional_quality_indicator": "1",
    "os:region_code": "E12000004",
    "src:geom": "os",
    "wof:belongsto": [
      85633159,
      102191581,
      136253055,
      1864206821,
      1880771595,
      404437235,
      1259818931,
      1880762077,
      404227469,
      1880762689
    ],
    "wof:breaches": [],
    "wof:concordances": {
      "gp:id": "27187359"
    },
    "wof:country": "GB",
    "wof:created": 1583701566,
    "wof:geomhash": "2eb1c50b7111c6896c8b57539dedeba8",
    "wof:hierarchy": [
      {
        "continent_id": 102191581,
        "country_id": 85633159,
        "county_id": 1880771595,
        "empire_id": 136253055,
        "localadmin_id": 404437235,
        "locality_id": 1259818931,
        "macrocounty_id": 1880762077,
        "macroregion_id": 404227469,
        "postalcode_id": 454435203,
        "region_id": 1880762689
      },
      {
        "continent_id": 102191581,
        "country_id": 85633159,
        "empire_id": 136253055,
        "postalcode_id": 454435203,
        "postalregion_id": 1864206821
      }
    ],
    "wof:id": 454435203,
    "wof:lastmodified": 1763548524,
    "wof:name": "DN22 8EL",
    "wof:parent_id": 1259818931,
    "wof:placetype": "postalcode",
    "wof:repo": "whosonfirst-data-postalcode-gb",
    "wof:superseded_by": [],
    "wof:supersedes": [],
    "wof:tags": []
  },
  "bbox": [
    -0.97428,
    53.27158,
    -0.97428,
    53.27158
  ],
  "geometry": {"coordinates":[-0.97428,53.27158],"type":"Point"}
}
