{
  "id": 454959649,
  "type": "Feature",
  "properties": {
    "date:inception_lower": "1980-01-01",
    "date:inception_upper": "1980-01-01",
    "edtf:cessation": "",
    "edtf:inception": "1980-01-01",
    "geom:area": 0,
    "geom:bbox": "-2.876712,53.500179,-2.876712,53.500179",
    "geom:latitude": 53.500179,
    "geom:longitude": -2.876712,
    "gp:parent_id": "26734",
    "iso:country": "GB",
    "mz:hierarchy_label": 1,
    "mz:is_current": 1,
    "os:country_code": "E92000001",
    "os:county_code": "E99999999",
    "os:district_code": "E08000011",
    "os:positional_quality_indicator": "1",
    "os:region_code": "E12000002",
    "src:geom": "os",
    "wof:belongsto": [
      85633159,
      102191581,
      136253055,
      1864208271,
      1360698941,
      101872163,
      1880762035,
      404227469,
      1880773063
    ],
    "wof:breaches": [],
    "wof:concordances": {
      "gp:id": "27451220"
    },
    "wof:country": "GB",
    "wof:created": 1583701762,
    "wof:geomhash": "30473fda2e0d548b072d2d44bb5b5e44",
    "wof:hierarchy": [
      {
        "continent_id": 102191581,
        "country_id": 85633159,
        "county_id": 1360698941,
        "empire_id": 136253055,
        "locality_id": 101872163,
        "macrocounty_id": 1880762035,
        "macroregion_id": 404227469,
        "postalcode_id": 454959649,
        "region_id": 1880773063
      },
      {
        "continent_id": 102191581,
        "country_id": 85633159,
        "empire_id": 136253055,
        "postalcode_id": 454959649,
        "postalregion_id": 1864208271
      }
    ],
    "wof:id": 454959649,
    "wof:lastmodified": 1763548439,
    "wof:name": "L33 4DE",
    "wof:parent_id": 101872163,
    "wof:placetype": "postalcode",
    "wof:repo": "whosonfirst-data-postalcode-gb",
    "wof:superseded_by": [],
    "wof:supersedes": [],
    "wof:tags": []
  },
  "bbox": [
    -2.876712,
    53.500179,
    -2.876712,
    53.500179
  ],
  "geometry": {"coordinates":[-2.876712,53.500179],"type":"Point"}
}
