{
  "id": 488185681,
  "type": "Feature",
  "properties": {
    "date:inception_lower": "2003-03-01",
    "date:inception_upper": "2003-03-01",
    "edtf:cessation": "",
    "edtf:inception": "2003-03-01",
    "geom:area": 0,
    "geom:bbox": "-2.008344,52.703392,-2.008344,52.703392",
    "geom:latitude": 52.703392,
    "geom:longitude": -2.008344,
    "iso:country": "GB",
    "mz:hierarchy_label": 1,
    "mz:is_current": 1,
    "os:country_code": "E92000001",
    "os:county_code": "E10000028",
    "os:district_code": "E07000192",
    "os:positional_quality_indicator": "1",
    "os:region_code": "E12000005",
    "src:geom": "os",
    "wof:belongsto": [
      85633159,
      102191581,
      136253055,
      1864211645,
      1880771631,
      101750497,
      1880761999
    ],
    "wof:breaches": [],
    "wof:concordances": {
      "gp:id": "28173775"
    },
    "wof:country": "GB",
    "wof:created": 1583701300,
    "wof:geomhash": "394e32582a0bba4c7ff2bb23b65b03a5",
    "wof:hierarchy": [
      {
        "continent_id": -1,
        "country_id": -1,
        "county_id": 1880771631,
        "locality_id": 101750497,
        "macrocounty_id": 1880761999,
        "postalcode_id": 488185681,
        "region_id": -1
      },
      {
        "continent_id": 102191581,
        "country_id": 85633159,
        "empire_id": 136253055,
        "postalcode_id": 488185681,
        "postalregion_id": 1864211645
      }
    ],
    "wof:id": 488185681,
    "wof:lastmodified": 1763548606,
    "wof:name": "WS11 6EL",
    "wof:parent_id": 101750497,
    "wof:placetype": "postalcode",
    "wof:repo": "whosonfirst-data-postalcode-gb",
    "wof:superseded_by": [],
    "wof:supersedes": [],
    "wof:tags": []
  },
  "bbox": [
    -2.008344,
    52.703392,
    -2.008344,
    52.703392
  ],
  "geometry": {"coordinates":[-2.008344,52.703392],"type":"Point"}
}
