{
  "id": 1712450635,
  "type": "Feature",
  "properties": {
    "date:cessation_lower": "1990-08-01",
    "date:cessation_upper": "1990-08-01",
    "date:inception_lower": "1973-08-01",
    "date:inception_upper": "1973-08-01",
    "edtf:cessation": "1990-08-01",
    "edtf:inception": "1973-08-01",
    "geom:area": 0,
    "geom:bbox": "-2.614472,57.566825,-2.614472,57.566825",
    "geom:latitude": 57.566825,
    "geom:longitude": -2.614472,
    "iso:country": "GB",
    "mz:hierarchy_label": 1,
    "mz:is_current": 0,
    "os:country_code": "S92000003",
    "os:county_code": "S99999999",
    "os:district_code": "S12000034",
    "os:positional_quality_indicator": "8",
    "os:region_code": "S99999999",
    "src:geom": "os",
    "wof:belongsto": [
      102191581,
      85633159,
      1360699031,
      136253055,
      1880762109,
      404227471,
      1880773121
    ],
    "wof:breaches": [],
    "wof:country": "GB",
    "wof:created": 1583788611,
    "wof:geomhash": "5d108bb7196b93b44f2b8c56c8850942",
    "wof:hierarchy": [
      {
        "continent_id": 102191581,
        "country_id": 85633159,
        "county_id": 1360699031,
        "empire_id": 136253055,
        "macrocounty_id": 1880762109,
        "macroregion_id": 404227471,
        "postalcode_id": 1712450635,
        "region_id": 1880773121
      }
    ],
    "wof:id": 1712450635,
    "wof:lastmodified": 1763548664,
    "wof:name": "AB5 5TU",
    "wof:parent_id": 1360699031,
    "wof:placetype": "postalcode",
    "wof:repo": "whosonfirst-data-postalcode-gb",
    "wof:superseded_by": [],
    "wof:supersedes": [],
    "wof:tags": []
  },
  "bbox": [
    -2.614472,
    57.566825,
    -2.614472,
    57.566825
  ],
  "geometry": {"coordinates":[-2.614472,57.566825],"type":"Point"}
}
