{
  "id": 471750377,
  "type": "Feature",
  "properties": {
    "date:inception_lower": "1999-12-01",
    "date:inception_upper": "1999-12-01",
    "edtf:cessation": "",
    "edtf:inception": "1999-12-01",
    "geom:area": 0,
    "geom:bbox": "-0.139345,52.187889,-0.139345,52.187889",
    "geom:latitude": 52.187889,
    "geom:longitude": -0.139345,
    "gp:parent_id": "21641",
    "iso:country": "GB",
    "mz:hierarchy_label": 1,
    "mz:is_current": 1,
    "os:country_code": "E92000001",
    "os:county_code": "E10000003",
    "os:district_code": "E07000011",
    "os:positional_quality_indicator": "1",
    "os:region_code": "E12000006",
    "src:geom": "os",
    "wof:belongsto": [
      85633159,
      102191581,
      136253055,
      1864210495,
      1880771371,
      404444767,
      1125869269,
      1880762143,
      404227469,
      1880762687
    ],
    "wof:breaches": [],
    "wof:concordances": {
      "gp:id": "27909226"
    },
    "wof:country": "GB",
    "wof:created": 1583701728,
    "wof:geomhash": "c201bb53ac485f9615fae5e227ea8d1d",
    "wof:hierarchy": [
      {
        "continent_id": 102191581,
        "country_id": 85633159,
        "county_id": 1880771371,
        "empire_id": 136253055,
        "localadmin_id": 404444767,
        "locality_id": 1125869269,
        "macrocounty_id": 1880762143,
        "macroregion_id": 404227469,
        "postalcode_id": 471750377,
        "region_id": 1880762687
      },
      {
        "continent_id": 102191581,
        "country_id": 85633159,
        "empire_id": 136253055,
        "postalcode_id": 471750377,
        "postalregion_id": 1864210495
      }
    ],
    "wof:id": 471750377,
    "wof:lastmodified": 1763548250,
    "wof:name": "SG19 3RL",
    "wof:parent_id": 1125869269,
    "wof:placetype": "postalcode",
    "wof:repo": "whosonfirst-data-postalcode-gb",
    "wof:superseded_by": [],
    "wof:supersedes": [],
    "wof:tags": []
  },
  "bbox": [
    -0.139345,
    52.187889,
    -0.139345,
    52.187889
  ],
  "geometry": {"coordinates":[-0.139345,52.187889],"type":"Point"}
}
