{
  "id": 455044571,
  "type": "Feature",
  "properties": {
    "date:inception_lower": "1980-01-01",
    "date:inception_upper": "1980-01-01",
    "edtf:cessation": "",
    "edtf:inception": "1980-01-01",
    "geom:area": 0,
    "geom:bbox": "-1.184860,52.675064,-1.184860,52.675064",
    "geom:latitude": 52.675064,
    "geom:longitude": -1.18486,
    "gp:parent_id": "10849",
    "iso:country": "GB",
    "mz:hierarchy_label": 1,
    "mz:is_current": 1,
    "os:country_code": "E92000001",
    "os:county_code": "E10000018",
    "os:district_code": "E07000130",
    "os:positional_quality_indicator": "1",
    "os:region_code": "E12000004",
    "src:geom": "os",
    "wof:belongsto": [
      85633159,
      102191581,
      136253055,
      1864208435,
      1880771567,
      404452027,
      1125848501,
      1880762051,
      404227469,
      1880773085
    ],
    "wof:breaches": [],
    "wof:concordances": {
      "gp:id": "27482620"
    },
    "wof:country": "GB",
    "wof:created": 1583701127,
    "wof:geomhash": "70b2fc026b25aeccb1650d77e5bc1277",
    "wof:hierarchy": [
      {
        "continent_id": 102191581,
        "country_id": 85633159,
        "county_id": 1880771567,
        "empire_id": 136253055,
        "localadmin_id": 404452027,
        "locality_id": 1125848501,
        "macrocounty_id": 1880762051,
        "macroregion_id": 404227469,
        "postalcode_id": 455044571,
        "region_id": 1880773085
      },
      {
        "continent_id": 102191581,
        "country_id": 85633159,
        "empire_id": 136253055,
        "postalcode_id": 455044571,
        "postalregion_id": 1864208435
      }
    ],
    "wof:id": 455044571,
    "wof:lastmodified": 1763547953,
    "wof:name": "LE7 7BA",
    "wof:parent_id": 1125848501,
    "wof:placetype": "postalcode",
    "wof:repo": "whosonfirst-data-postalcode-gb",
    "wof:superseded_by": [],
    "wof:supersedes": [],
    "wof:tags": []
  },
  "bbox": [
    -1.18486,
    52.675064,
    -1.18486,
    52.675064
  ],
  "geometry": {"coordinates":[-1.18486,52.675064],"type":"Point"}
}
