{
  "id": 454429543,
  "type": "Feature",
  "properties": {
    "date:inception_lower": "1980-01-01",
    "date:inception_upper": "1980-01-01",
    "edtf:cessation": "",
    "edtf:inception": "1980-01-01",
    "geom:area": 0,
    "geom:bbox": "-0.486829,53.552365,-0.486829,53.552365",
    "geom:latitude": 53.552365,
    "geom:longitude": -0.486829,
    "iso:country": "GB",
    "mz:hierarchy_label": 1,
    "mz:is_current": 1,
    "os:country_code": "E92000001",
    "os:county_code": "E99999999",
    "os:district_code": "E06000013",
    "os:positional_quality_indicator": "1",
    "os:region_code": "E12000003",
    "src:geom": "os",
    "wof:belongsto": [
      85633159,
      102191581,
      136253055,
      1864206815,
      1360698901,
      404435359,
      101874147,
      1880762033,
      404227469,
      1880762701
    ],
    "wof:breaches": [],
    "wof:concordances": {
      "gp:id": "27185208"
    },
    "wof:country": "GB",
    "wof:created": 1583701563,
    "wof:geomhash": "170c7fbb4ef3c5af52c50cacbdcded0d",
    "wof:hierarchy": [
      {
        "continent_id": 102191581,
        "country_id": 85633159,
        "county_id": 1360698901,
        "empire_id": 136253055,
        "localadmin_id": 404435359,
        "locality_id": 101874147,
        "macrocounty_id": 1880762033,
        "macroregion_id": 404227469,
        "postalcode_id": 454429543,
        "region_id": 1880762701
      },
      {
        "continent_id": 102191581,
        "country_id": 85633159,
        "empire_id": 136253055,
        "postalcode_id": 454429543,
        "postalregion_id": 1864206815
      }
    ],
    "wof:id": 454429543,
    "wof:lastmodified": 1763548484,
    "wof:name": "DN20 8BP",
    "wof:parent_id": 101874147,
    "wof:placetype": "postalcode",
    "wof:repo": "whosonfirst-data-postalcode-gb",
    "wof:superseded_by": [],
    "wof:supersedes": [],
    "wof:tags": []
  },
  "bbox": [
    -0.486829,
    53.552365,
    -0.486829,
    53.552365
  ],
  "geometry": {"coordinates":[-0.486829,53.552365],"type":"Point"}
}
