{
  "id": 1947777607,
  "type": "Feature",
  "properties": {
    "date:inception_lower": "2024-04-01",
    "date:inception_upper": "2024-04-01",
    "edtf:cessation": "",
    "edtf:inception": "2024-04-01",
    "geom:area": 0,
    "geom:bbox": "-4.565195,53.283374,-4.565195,53.283374",
    "geom:latitude": 53.283374,
    "geom:longitude": -4.565195,
    "iso:country": "GB",
    "mz:hierarchy_label": 1,
    "mz:is_current": 1,
    "os:country_code": "W92000004",
    "os:county_code": "W99999999",
    "os:district_code": "W06000001",
    "os:positional_quality_indicator": "1",
    "os:region_code": "W99999999",
    "src:geom": "os",
    "wof:belongsto": [
      102191581,
      85633159,
      1360698787,
      136253055,
      404435747,
      1360711677,
      1880762187,
      404227475,
      1880773051,
      1864208567
    ],
    "wof:breaches": [],
    "wof:country": "GB",
    "wof:created": 1736335301,
    "wof:geomhash": "63b0e11775e6571b4f6530db17a7ca26",
    "wof:hierarchy": [
      {
        "continent_id": 102191581,
        "country_id": 85633159,
        "county_id": 1360698787,
        "empire_id": 136253055,
        "localadmin_id": 404435747,
        "locality_id": 1360711677,
        "macrocounty_id": 1880762187,
        "macroregion_id": 404227475,
        "postalcode_id": 1947777607,
        "region_id": 1880773051
      },
      {
        "continent_id": 102191581,
        "country_id": 85633159,
        "empire_id": 136253055,
        "postalcode_id": 1947777607,
        "postalregion_id": 1864208567
      }
    ],
    "wof:id": 1947777607,
    "wof:lastmodified": 1763547894,
    "wof:name": "LL65 3FP",
    "wof:parent_id": 1360711677,
    "wof:placetype": "postalcode",
    "wof:repo": "whosonfirst-data-postalcode-gb",
    "wof:superseded_by": [],
    "wof:supersedes": [],
    "wof:tags": []
  },
  "bbox": [
    -4.565195,
    53.283374,
    -4.565195,
    53.283374
  ],
  "geometry": {"coordinates":[-4.565195,53.283374],"type":"Point"}
}
