{
  "id": 454566273,
  "type": "Feature",
  "properties": {
    "date:inception_lower": "1980-01-01",
    "date:inception_upper": "1980-01-01",
    "edtf:cessation": "",
    "edtf:inception": "1980-01-01",
    "geom:area": 0,
    "geom:bbox": "-3.080695,50.706320,-3.080695,50.706320",
    "geom:latitude": 50.70632,
    "geom:longitude": -3.080695,
    "iso:country": "GB",
    "mz:hierarchy_label": 1,
    "mz:is_current": 1,
    "os:country_code": "E92000001",
    "os:county_code": "E10000008",
    "os:district_code": "E07000040",
    "os:positional_quality_indicator": "1",
    "os:region_code": "E12000009",
    "src:geom": "os",
    "wof:belongsto": [
      85633159,
      102191581,
      136253055,
      1864207185,
      1880771397,
      404453847,
      101852583,
      1880762149,
      404227469,
      1880762683
    ],
    "wof:breaches": [],
    "wof:concordances": {
      "gp:id": "27251322"
    },
    "wof:country": "GB",
    "wof:created": 1583701640,
    "wof:geomhash": "c5f704dd7eabd31cf84ba296c22c00a3",
    "wof:hierarchy": [
      {
        "continent_id": 102191581,
        "country_id": 85633159,
        "county_id": 1880771397,
        "empire_id": 136253055,
        "localadmin_id": 404453847,
        "locality_id": 101852583,
        "macrocounty_id": 1880762149,
        "macroregion_id": 404227469,
        "postalcode_id": 454566273,
        "region_id": 1880762683
      },
      {
        "continent_id": 102191581,
        "country_id": 85633159,
        "empire_id": 136253055,
        "postalcode_id": 454566273,
        "postalregion_id": 1864207185
      }
    ],
    "wof:id": 454566273,
    "wof:lastmodified": 1763548207,
    "wof:name": "EX12 2HW",
    "wof:parent_id": 101852583,
    "wof:placetype": "postalcode",
    "wof:repo": "whosonfirst-data-postalcode-gb",
    "wof:superseded_by": [],
    "wof:supersedes": [],
    "wof:tags": []
  },
  "bbox": [
    -3.080695,
    50.70632,
    -3.080695,
    50.70632
  ],
  "geometry": {"coordinates":[-3.080695,50.70632],"type":"Point"}
}
