{
  "id": 437641187,
  "type": "Feature",
  "properties": {
    "date:cessation_lower": "2006-05-01",
    "date:cessation_upper": "2006-05-01",
    "date:inception_lower": "1980-01-01",
    "date:inception_upper": "1980-01-01",
    "edtf:cessation": "2006-05-01",
    "edtf:inception": "1980-01-01",
    "geom:area": 0,
    "geom:bbox": "-3.764940,50.660862,-3.764940,50.660862",
    "geom:latitude": 50.660862,
    "geom:longitude": -3.76494,
    "gp:parent_id": "15567",
    "iso:country": "GB",
    "mz:hierarchy_label": 1,
    "mz:is_current": 0,
    "os:country_code": "E92000001",
    "os:county_code": "E10000008",
    "os:district_code": "E07000045",
    "os:positional_quality_indicator": "1",
    "os:region_code": "E12000009",
    "src:geom": "os",
    "wof:belongsto": [
      85633159,
      102191581,
      136253055,
      1864211165,
      1880771399,
      404443729,
      1125880807,
      1880762149,
      404227469,
      1880762683
    ],
    "wof:breaches": [],
    "wof:concordances": {
      "gp:id": "28068043"
    },
    "wof:country": "GB",
    "wof:created": 1583701445,
    "wof:geomhash": "6cf8bcc167c7a1444924e5319ade38a8",
    "wof:hierarchy": [
      {
        "continent_id": 102191581,
        "country_id": 85633159,
        "county_id": 1880771399,
        "empire_id": 136253055,
        "localadmin_id": 404443729,
        "locality_id": 1125880807,
        "macrocounty_id": 1880762149,
        "macroregion_id": 404227469,
        "postalcode_id": 437641187,
        "region_id": 1880762683
      },
      {
        "continent_id": 102191581,
        "country_id": 85633159,
        "empire_id": 136253055,
        "postalcode_id": 437641187,
        "postalregion_id": 1864211165
      }
    ],
    "wof:id": 437641187,
    "wof:lastmodified": 1763548214,
    "wof:name": "TQ13 8NG",
    "wof:parent_id": 1125880807,
    "wof:placetype": "postalcode",
    "wof:repo": "whosonfirst-data-postalcode-gb",
    "wof:superseded_by": [],
    "wof:supersedes": [],
    "wof:tags": []
  },
  "bbox": [
    -3.76494,
    50.660862,
    -3.76494,
    50.660862
  ],
  "geometry": {"coordinates":[-3.76494,50.660862],"type":"Point"}
}
