{
  "id": 487926163,
  "type": "Feature",
  "properties": {
    "date:inception_lower": "1980-01-01",
    "date:inception_upper": "1980-01-01",
    "edtf:cessation": "",
    "edtf:inception": "1980-01-01",
    "geom:area": 0,
    "geom:bbox": "-5.201905,50.192975,-5.201905,50.192975",
    "geom:latitude": 50.192975,
    "geom:longitude": -5.201905,
    "gp:parent_id": "36141",
    "iso:country": "GB",
    "mz:hierarchy_label": 1,
    "mz:is_current": 1,
    "os:country_code": "E92000001",
    "os:county_code": "E99999999",
    "os:district_code": "E06000052",
    "os:positional_quality_indicator": "1",
    "os:region_code": "E12000009",
    "src:geom": "os",
    "wof:belongsto": [
      85633159,
      102191581,
      136253055,
      1864211233,
      1360699085,
      404432051,
      1125863085,
      1880762119,
      404227469,
      1880773165
    ],
    "wof:breaches": [],
    "wof:concordances": {
      "gp:id": "28081332"
    },
    "wof:country": "GB",
    "wof:created": 1583701265,
    "wof:geomhash": "183d54003b731b1725eb2e1d95b847ad",
    "wof:hierarchy": [
      {
        "continent_id": 102191581,
        "country_id": 85633159,
        "county_id": 1360699085,
        "empire_id": 136253055,
        "localadmin_id": 404432051,
        "locality_id": 1125863085,
        "macrocounty_id": 1880762119,
        "macroregion_id": 404227469,
        "postalcode_id": 487926163,
        "region_id": 1880773165
      },
      {
        "continent_id": 102191581,
        "country_id": 85633159,
        "empire_id": 136253055,
        "postalcode_id": 487926163,
        "postalregion_id": 1864211233
      }
    ],
    "wof:id": 487926163,
    "wof:lastmodified": 1763548763,
    "wof:name": "TR3 7AT",
    "wof:parent_id": 1125863085,
    "wof:placetype": "postalcode",
    "wof:repo": "whosonfirst-data-postalcode-gb",
    "wof:superseded_by": [],
    "wof:supersedes": [],
    "wof:tags": []
  },
  "bbox": [
    -5.201905,
    50.192975,
    -5.201905,
    50.192975
  ],
  "geometry": {"coordinates":[-5.201905,50.192975],"type":"Point"}
}
