{
  "id": 454060751,
  "type": "Feature",
  "properties": {
    "date:inception_lower": "2002-07-01",
    "date:inception_upper": "2002-07-01",
    "edtf:cessation": "",
    "edtf:inception": "2002-07-01",
    "geom:area": 0,
    "geom:bbox": "-2.487543,54.582534,-2.487543,54.582534",
    "geom:latitude": 54.582534,
    "geom:longitude": -2.487543,
    "gp:parent_id": "10882",
    "iso:country": "GB",
    "mz:hierarchy_label": 1,
    "mz:is_current": 1,
    "os:country_code": "E92000001",
    "os:county_code": "E99999999",
    "os:district_code": "E06000064",
    "os:positional_quality_indicator": "1",
    "os:region_code": "E12000002",
    "src:geom": "os",
    "wof:belongsto": [
      85633159,
      102191581,
      136253055,
      1864206069,
      1880773235,
      404454603,
      1360753881,
      1880761989,
      404227469,
      1880773269
    ],
    "wof:breaches": [],
    "wof:concordances": {
      "gp:id": "27017180"
    },
    "wof:country": "GB",
    "wof:created": 1583701113,
    "wof:geomhash": "ce0bb1ff3b7e992b6a935bf1a4e14b90",
    "wof:hierarchy": [
      {
        "continent_id": 102191581,
        "country_id": 85633159,
        "county_id": 1880773235,
        "empire_id": 136253055,
        "localadmin_id": 404454603,
        "locality_id": 1360753881,
        "macrocounty_id": 1880761989,
        "macroregion_id": 404227469,
        "postalcode_id": 454060751,
        "region_id": 1880773269
      },
      {
        "continent_id": 102191581,
        "country_id": 85633159,
        "empire_id": 136253055,
        "postalcode_id": 454060751,
        "postalregion_id": 1864206069
      }
    ],
    "wof:id": 454060751,
    "wof:lastmodified": 1763548530,
    "wof:name": "CA16 6SE",
    "wof:parent_id": 1360753881,
    "wof:placetype": "postalcode",
    "wof:repo": "whosonfirst-data-postalcode-gb",
    "wof:superseded_by": [],
    "wof:supersedes": [],
    "wof:tags": []
  },
  "bbox": [
    -2.487543,
    54.582534,
    -2.487543,
    54.582534
  ],
  "geometry": {"coordinates":[-2.487543,54.582534],"type":"Point"}
}
