{
  "id": 38162853,
  "type": "Feature",
  "properties": {
    "date:cessation_lower": "1986-12-01",
    "date:cessation_upper": "1986-12-01",
    "date:inception_lower": "1980-01-01",
    "date:inception_upper": "1980-01-01",
    "edtf:cessation": "1986-12-01",
    "edtf:inception": "1980-01-01",
    "geom:area": 0,
    "geom:bbox": "-1.631810,53.710971,-1.631810,53.710971",
    "geom:latitude": 53.710971,
    "geom:longitude": -1.63181,
    "iso:country": "GB",
    "mz:hierarchy_label": 1,
    "mz:is_current": 0,
    "os:country_code": "E92000001",
    "os:county_code": "E99999999",
    "os:district_code": "E08000034",
    "os:positional_quality_indicator": "8",
    "os:region_code": "E12000003",
    "src:geom": "os",
    "wof:belongsto": [
      85633159,
      102191581,
      136253055,
      1864211563,
      1360698917,
      101750569,
      1880762059,
      404227469,
      1880773017
    ],
    "wof:breaches": [],
    "wof:country": "GB",
    "wof:created": 1583787256,
    "wof:geomhash": "46320b6ac0d86f223a3371f06e23a9c8",
    "wof:hierarchy": [
      {
        "continent_id": 102191581,
        "country_id": 85633159,
        "county_id": 1360698917,
        "empire_id": 136253055,
        "locality_id": 101750569,
        "macrocounty_id": 1880762059,
        "macroregion_id": 404227469,
        "postalcode_id": 38162853,
        "region_id": 1880773017
      },
      {
        "continent_id": 102191581,
        "country_id": 85633159,
        "empire_id": 136253055,
        "postalcode_id": 38162853,
        "postalregion_id": 1864211563
      }
    ],
    "wof:id": 38162853,
    "wof:lastmodified": 1763548636,
    "wof:name": "WF17 5AF",
    "wof:parent_id": 101750569,
    "wof:placetype": "postalcode",
    "wof:repo": "whosonfirst-data-postalcode-gb",
    "wof:superseded_by": [],
    "wof:supersedes": [],
    "wof:tags": []
  },
  "bbox": [
    -1.63181,
    53.710971,
    -1.63181,
    53.710971
  ],
  "geometry": {"coordinates":[-1.63181,53.710971],"type":"Point"}
}
