{
  "id": 471592019,
  "type": "Feature",
  "properties": {
    "date:inception_lower": "1985-04-01",
    "date:inception_upper": "1985-04-01",
    "edtf:cessation": "",
    "edtf:inception": "1985-04-01",
    "geom:area": 0,
    "geom:bbox": "-0.046875,51.076673,-0.046875,51.076673",
    "geom:latitude": 51.076673,
    "geom:longitude": -0.046875,
    "gp:parent_id": "34456",
    "iso:country": "GB",
    "mz:hierarchy_label": 1,
    "mz:is_current": 1,
    "os:country_code": "E92000001",
    "os:county_code": "E10000032",
    "os:district_code": "E07000228",
    "os:positional_quality_indicator": "1",
    "os:region_code": "E12000008",
    "src:geom": "os",
    "wof:belongsto": [
      85633159,
      102191581,
      136253055,
      1864210105,
      1880771687,
      404441097,
      1125930633,
      1880762061,
      404227469,
      1880762709
    ],
    "wof:breaches": [],
    "wof:concordances": {
      "gp:id": "27831726"
    },
    "wof:country": "GB",
    "wof:created": 1583701676,
    "wof:geomhash": "683dce80c0fb2ea7585cc6785f1ce632",
    "wof:hierarchy": [
      {
        "continent_id": 102191581,
        "country_id": 85633159,
        "county_id": 1880771687,
        "empire_id": 136253055,
        "localadmin_id": 404441097,
        "locality_id": 1125930633,
        "macrocounty_id": 1880762061,
        "macroregion_id": 404227469,
        "postalcode_id": 471592019,
        "region_id": 1880762709
      },
      {
        "continent_id": 102191581,
        "country_id": 85633159,
        "empire_id": 136253055,
        "postalcode_id": 471592019,
        "postalregion_id": 1864210105
      }
    ],
    "wof:id": 471592019,
    "wof:lastmodified": 1763547960,
    "wof:name": "RH19 4PZ",
    "wof:parent_id": 1125930633,
    "wof:placetype": "postalcode",
    "wof:repo": "whosonfirst-data-postalcode-gb",
    "wof:superseded_by": [],
    "wof:supersedes": [],
    "wof:tags": []
  },
  "bbox": [
    -0.046875,
    51.076673,
    -0.046875,
    51.076673
  ],
  "geometry": {"coordinates":[-0.046875,51.076673],"type":"Point"}
}
