{
  "id": 488554585,
  "type": "Feature",
  "properties": {
    "date:inception_lower": "1990-11-01",
    "date:inception_upper": "1990-11-01",
    "edtf:cessation": "",
    "edtf:inception": "1990-11-01",
    "geom:area": 0,
    "geom:bbox": "-2.739318,57.329467,-2.739318,57.329467",
    "geom:latitude": 57.329467,
    "geom:longitude": -2.739318,
    "gp:parent_id": "12696183",
    "iso:country": "GB",
    "mz:hierarchy_label": 1,
    "mz:is_current": 1,
    "os:country_code": "S92000003",
    "os:county_code": "S99999999",
    "os:district_code": "S12000034",
    "os:positional_quality_indicator": "1",
    "os:region_code": "S99999999",
    "src:geom": "os",
    "wof:belongsto": [
      85633159,
      102191581,
      136253055,
      1864205441,
      1360699031,
      1880762109,
      404227471,
      1880773121
    ],
    "wof:breaches": [],
    "wof:concordances": {
      "gp:id": "26835087"
    },
    "wof:country": "GB",
    "wof:created": 1583701577,
    "wof:geomhash": "e5df2090103349ad1e81e25b5b3fc166",
    "wof:hierarchy": [
      {
        "continent_id": 102191581,
        "country_id": 85633159,
        "county_id": 1360699031,
        "empire_id": 136253055,
        "macrocounty_id": 1880762109,
        "macroregion_id": 404227471,
        "postalcode_id": 488554585,
        "region_id": 1880773121
      },
      {
        "continent_id": 102191581,
        "country_id": 85633159,
        "empire_id": 136253055,
        "postalcode_id": 488554585,
        "postalregion_id": 1864205441
      }
    ],
    "wof:id": 488554585,
    "wof:lastmodified": 1763548547,
    "wof:name": "AB52 6YS",
    "wof:parent_id": 1360699031,
    "wof:placetype": "postalcode",
    "wof:repo": "whosonfirst-data-postalcode-gb",
    "wof:superseded_by": [],
    "wof:supersedes": [],
    "wof:tags": []
  },
  "bbox": [
    -2.739318,
    57.329467,
    -2.739318,
    57.329467
  ],
  "geometry": {"coordinates":[-2.739318,57.329467],"type":"Point"}
}
