{
  "id": 471532103,
  "type": "Feature",
  "properties": {
    "date:inception_lower": "1980-01-01",
    "date:inception_upper": "1980-01-01",
    "edtf:cessation": "",
    "edtf:inception": "1980-01-01",
    "geom:area": 0,
    "geom:bbox": "-0.954180,51.436860,-0.954180,51.436860",
    "geom:latitude": 51.43686,
    "geom:longitude": -0.95418,
    "iso:country": "GB",
    "mz:hierarchy_label": 1,
    "mz:is_current": 1,
    "os:country_code": "E92000001",
    "os:county_code": "E99999999",
    "os:district_code": "E06000038",
    "os:positional_quality_indicator": "1",
    "os:region_code": "E12000008",
    "src:geom": "os",
    "wof:belongsto": [
      85633159,
      102191581,
      136253055,
      1864210031,
      1360698983,
      1175612721,
      1880762165,
      404227469,
      1880772969
    ],
    "wof:breaches": [],
    "wof:concordances": {
      "gp:id": "26645074"
    },
    "wof:country": "GB",
    "wof:created": 1583701661,
    "wof:geomhash": "3a39bb9b1b5c607ea75ee2334f5cd8cf",
    "wof:hierarchy": [
      {
        "continent_id": 102191581,
        "country_id": 85633159,
        "county_id": 1360698983,
        "empire_id": 136253055,
        "locality_id": 1175612721,
        "macrocounty_id": 1880762165,
        "macroregion_id": 404227469,
        "postalcode_id": 471532103,
        "region_id": 1880772969
      },
      {
        "continent_id": 102191581,
        "country_id": 85633159,
        "empire_id": 136253055,
        "postalcode_id": 471532103,
        "postalregion_id": 1864210031
      }
    ],
    "wof:id": 471532103,
    "wof:lastmodified": 1763547991,
    "wof:name": "RG2 7JH",
    "wof:parent_id": 1175612721,
    "wof:placetype": "postalcode",
    "wof:repo": "whosonfirst-data-postalcode-gb",
    "wof:superseded_by": [],
    "wof:supersedes": [],
    "wof:tags": []
  },
  "bbox": [
    -0.95418,
    51.43686,
    -0.95418,
    51.43686
  ],
  "geometry": {"coordinates":[-0.95418,51.43686],"type":"Point"}
}
