{
  "id": 1712502679,
  "type": "Feature",
  "properties": {
    "date:inception_lower": "2025-04-01",
    "date:inception_upper": "2025-04-01",
    "edtf:cessation": "",
    "edtf:inception": "2025-04-01",
    "geom:area": 0,
    "geom:bbox": "-3.078145,53.217065,-3.078145,53.217065",
    "geom:latitude": 53.217065,
    "geom:longitude": -3.078145,
    "iso:country": "GB",
    "mz:hierarchy_label": 1,
    "mz:is_current": 1,
    "os:country_code": "W92000004",
    "os:county_code": "W99999999",
    "os:district_code": "W06000005",
    "os:positional_quality_indicator": "1",
    "os:region_code": "W99999999",
    "src:geom": "os",
    "wof:belongsto": [
      85633159,
      102191581,
      136253055,
      1864206291,
      1360698799,
      404448559,
      101872043,
      1880762183,
      404227475,
      1880772909
    ],
    "wof:breaches": [],
    "wof:country": "GB",
    "wof:created": 1583790919,
    "wof:geomhash": "d4e703b5df898aeb428c6cf1c1fa80c6",
    "wof:hierarchy": [
      {
        "continent_id": 102191581,
        "country_id": 85633159,
        "county_id": 1360698799,
        "empire_id": 136253055,
        "localadmin_id": 404448559,
        "locality_id": 101872043,
        "macrocounty_id": 1880762183,
        "macroregion_id": 404227475,
        "postalcode_id": 1712502679,
        "region_id": 1880772909
      },
      {
        "continent_id": 102191581,
        "country_id": 85633159,
        "empire_id": 136253055,
        "postalcode_id": 1712502679,
        "postalregion_id": 1864206291
      }
    ],
    "wof:id": 1712502679,
    "wof:lastmodified": 1763548685,
    "wof:name": "CH5 4BF",
    "wof:parent_id": 101872043,
    "wof:placetype": "postalcode",
    "wof:repo": "whosonfirst-data-postalcode-gb",
    "wof:superseded_by": [],
    "wof:supersedes": [],
    "wof:tags": []
  },
  "bbox": [
    -3.078145,
    53.217065,
    -3.078145,
    53.217065
  ],
  "geometry": {"coordinates":[-3.078145,53.217065],"type":"Point"}
}
