{
  "id": 1712713305,
  "type": "Feature",
  "properties": {
    "date:cessation_lower": "1994-12-01",
    "date:cessation_upper": "1994-12-01",
    "date:inception_lower": "1980-01-01",
    "date:inception_upper": "1980-01-01",
    "edtf:cessation": "1994-12-01",
    "edtf:inception": "1980-01-01",
    "geom:area": 0,
    "geom:bbox": "0.866764,51.133808,0.866764,51.133808",
    "geom:latitude": 51.133808,
    "geom:longitude": 0.866764,
    "iso:country": "GB",
    "mz:hierarchy_label": 1,
    "mz:is_current": 0,
    "os:country_code": "E92000001",
    "os:county_code": "E10000016",
    "os:district_code": "E07000105",
    "os:positional_quality_indicator": "1",
    "os:region_code": "E12000008",
    "src:geom": "os",
    "wof:belongsto": [
      85633159,
      102191581,
      136253055,
      1864211099,
      1880771513,
      101750339,
      1880762057,
      404227469,
      1880762705
    ],
    "wof:breaches": [],
    "wof:country": "GB",
    "wof:created": 1583800292,
    "wof:geomhash": "edf90272187edf3eb65051a16fc7b5b9",
    "wof:hierarchy": [
      {
        "continent_id": 102191581,
        "country_id": 85633159,
        "county_id": 1880771513,
        "empire_id": 136253055,
        "locality_id": 101750339,
        "macrocounty_id": 1880762057,
        "macroregion_id": 404227469,
        "postalcode_id": 1712713305,
        "region_id": 1880762705
      },
      {
        "continent_id": 102191581,
        "country_id": 85633159,
        "empire_id": 136253055,
        "postalcode_id": 1712713305,
        "postalregion_id": 1864211099
      }
    ],
    "wof:id": 1712713305,
    "wof:lastmodified": 1763548740,
    "wof:name": "TN23 2JY",
    "wof:parent_id": 101750339,
    "wof:placetype": "postalcode",
    "wof:repo": "whosonfirst-data-postalcode-gb",
    "wof:superseded_by": [],
    "wof:supersedes": [],
    "wof:tags": []
  },
  "bbox": [
    0.866764,
    51.133808,
    0.866764,
    51.133808
  ],
  "geometry": {"coordinates":[0.866764,51.133808],"type":"Point"}
}
