{
  "id": 1998346579,
  "type": "Feature",
  "properties": {
    "date:inception_lower": "2025-02-01",
    "date:inception_upper": "2025-02-01",
    "edtf:cessation": "",
    "edtf:inception": "2025-02-01",
    "geom:area": 0,
    "geom:bbox": "-1.708047,55.007263,-1.708047,55.007263",
    "geom:latitude": 55.007263,
    "geom:longitude": -1.708047,
    "iso:country": "GB",
    "mz:hierarchy_label": 1,
    "mz:is_current": 1,
    "os:country_code": "E92000001",
    "os:county_code": "E99999999",
    "os:district_code": "E08000021",
    "os:positional_quality_indicator": "1",
    "os:region_code": "E12000001",
    "src:geom": "os",
    "wof:belongsto": [
      102191581,
      85633159,
      1360698961,
      136253055,
      404445971,
      1126012427,
      1880762063,
      404227469,
      1880773053,
      1864209099
    ],
    "wof:breaches": [],
    "wof:country": "GB",
    "wof:created": 1763549130,
    "wof:geomhash": "781185740dba3b0c1790f3dcd50942ea",
    "wof:hierarchy": [
      {
        "continent_id": 102191581,
        "country_id": 85633159,
        "county_id": 1360698961,
        "empire_id": 136253055,
        "localadmin_id": 404445971,
        "locality_id": 1126012427,
        "macrocounty_id": 1880762063,
        "macroregion_id": 404227469,
        "postalcode_id": 1998346579,
        "region_id": 1880773053
      },
      {
        "continent_id": 102191581,
        "country_id": 85633159,
        "empire_id": 136253055,
        "postalcode_id": 1998346579,
        "postalregion_id": 1864209099
      }
    ],
    "wof:id": 1998346579,
    "wof:lastmodified": 1763549130,
    "wof:name": "NE5 1FD",
    "wof:parent_id": 1126012427,
    "wof:placetype": "postalcode",
    "wof:repo": "whosonfirst-data-postalcode-gb",
    "wof:superseded_by": [],
    "wof:supersedes": [],
    "wof:tags": []
  },
  "bbox": [
    -1.708047,
    55.007263,
    -1.708047,
    55.007263
  ],
  "geometry": {"coordinates":[-1.708047,55.007263],"type":"Point"}
}
