{
  "id": 1712836541,
  "type": "Feature",
  "properties": {
    "date:cessation_lower": "1999-06-01",
    "date:cessation_upper": "1999-06-01",
    "date:inception_lower": "1980-01-01",
    "date:inception_upper": "1980-01-01",
    "edtf:cessation": "1999-06-01",
    "edtf:inception": "1980-01-01",
    "geom:area": 0,
    "geom:bbox": "-3.209399,51.527971,-3.209399,51.527971",
    "geom:latitude": 51.527971,
    "geom:longitude": -3.209399,
    "iso:country": "GB",
    "mz:hierarchy_label": 1,
    "mz:is_current": 0,
    "os:country_code": "W92000004",
    "os:county_code": "W99999999",
    "os:district_code": "W06000015",
    "os:positional_quality_indicator": "8",
    "os:region_code": "W99999999",
    "src:geom": "os",
    "wof:belongsto": [
      102191581,
      85633159,
      1360699107,
      136253055,
      101750397,
      1880762115,
      404227475,
      1880773187
    ],
    "wof:breaches": [],
    "wof:country": "GB",
    "wof:created": 1583805762,
    "wof:geomhash": "fa9a8377b9f8b5e3e6fbf3a0095e4ba3",
    "wof:hierarchy": [
      {
        "continent_id": 102191581,
        "country_id": 85633159,
        "county_id": 1360699107,
        "empire_id": 136253055,
        "locality_id": 101750397,
        "macrocounty_id": 1880762115,
        "macroregion_id": 404227475,
        "postalcode_id": 1712836541,
        "region_id": 1880773187
      }
    ],
    "wof:id": 1712836541,
    "wof:lastmodified": 1763548719,
    "wof:name": "CF4 6LN",
    "wof:parent_id": 101750397,
    "wof:placetype": "postalcode",
    "wof:repo": "whosonfirst-data-postalcode-gb",
    "wof:superseded_by": [],
    "wof:supersedes": [],
    "wof:tags": []
  },
  "bbox": [
    -3.209399,
    51.527971,
    -3.209399,
    51.527971
  ],
  "geometry": {"coordinates":[-3.209399,51.527971],"type":"Point"}
}
