{
  "id": 470961085,
  "type": "Feature",
  "properties": {
    "date:inception_lower": "2003-04-01",
    "date:inception_upper": "2003-04-01",
    "edtf:cessation": "",
    "edtf:inception": "2003-04-01",
    "geom:area": 0,
    "geom:bbox": "-0.714461,52.000609,-0.714461,52.000609",
    "geom:latitude": 52.000609,
    "geom:longitude": -0.714461,
    "iso:country": "GB",
    "mz:hierarchy_label": 1,
    "mz:is_current": 1,
    "os:country_code": "E92000001",
    "os:county_code": "E99999999",
    "os:district_code": "E06000042",
    "os:positional_quality_indicator": "1",
    "os:region_code": "E12000008",
    "src:geom": "os",
    "wof:belongsto": [
      85633159,
      102191581,
      136253055,
      1864208863,
      1360698913,
      404436695,
      1360758809,
      1880762141,
      404227469,
      1880773087
    ],
    "wof:breaches": [],
    "wof:concordances": {
      "gp:id": "27570508"
    },
    "wof:country": "GB",
    "wof:created": 1583701340,
    "wof:geomhash": "230927dc02bb9cf8c7e26cb457f5325b",
    "wof:hierarchy": [
      {
        "continent_id": 102191581,
        "country_id": 85633159,
        "county_id": 1360698913,
        "empire_id": 136253055,
        "localadmin_id": 404436695,
        "locality_id": 1360758809,
        "macrocounty_id": 1880762141,
        "macroregion_id": 404227469,
        "postalcode_id": 470961085,
        "region_id": 1880773087
      },
      {
        "continent_id": 102191581,
        "country_id": 85633159,
        "empire_id": 136253055,
        "postalcode_id": 470961085,
        "postalregion_id": 1864208863
      }
    ],
    "wof:id": 470961085,
    "wof:lastmodified": 1763547996,
    "wof:name": "MK1 1BY",
    "wof:parent_id": 1360758809,
    "wof:placetype": "postalcode",
    "wof:repo": "whosonfirst-data-postalcode-gb",
    "wof:superseded_by": [],
    "wof:supersedes": [],
    "wof:tags": []
  },
  "bbox": [
    -0.714461,
    52.000609,
    -0.714461,
    52.000609
  ],
  "geometry": {"coordinates":[-0.714461,52.000609],"type":"Point"}
}
