{
  "id": 471075477,
  "type": "Feature",
  "properties": {
    "date:inception_lower": "1980-01-01",
    "date:inception_upper": "1980-01-01",
    "edtf:cessation": "",
    "edtf:inception": "1980-01-01",
    "geom:area": 0,
    "geom:bbox": "-2.011649,54.977778,-2.011649,54.977778",
    "geom:latitude": 54.977778,
    "geom:longitude": -2.011649,
    "iso:country": "GB",
    "mz:hierarchy_label": 1,
    "mz:is_current": 1,
    "os:country_code": "E92000001",
    "os:county_code": "E99999999",
    "os:district_code": "E06000057",
    "os:positional_quality_indicator": "1",
    "os:region_code": "E12000001",
    "src:geom": "os",
    "wof:belongsto": [
      85633159,
      102191581,
      136253055,
      1864209089,
      1360698769,
      404429721,
      101873449,
      1880761987,
      404227469,
      1880772897
    ],
    "wof:breaches": [],
    "wof:concordances": {
      "gp:id": "27618811"
    },
    "wof:country": "GB",
    "wof:created": 1583701234,
    "wof:geomhash": "14bdb93405ef7d88ac26f5bfb03331d4",
    "wof:hierarchy": [
      {
        "continent_id": 102191581,
        "country_id": 85633159,
        "county_id": 1360698769,
        "empire_id": 136253055,
        "localadmin_id": 404429721,
        "locality_id": 101873449,
        "macrocounty_id": 1880761987,
        "macroregion_id": 404227469,
        "postalcode_id": 471075477,
        "region_id": 1880772897
      },
      {
        "continent_id": 102191581,
        "country_id": 85633159,
        "empire_id": 136253055,
        "postalcode_id": 471075477,
        "postalregion_id": 1864209089
      }
    ],
    "wof:id": 471075477,
    "wof:lastmodified": 1763548302,
    "wof:name": "NE45 5JQ",
    "wof:parent_id": 101873449,
    "wof:placetype": "postalcode",
    "wof:repo": "whosonfirst-data-postalcode-gb",
    "wof:superseded_by": [],
    "wof:supersedes": [],
    "wof:tags": []
  },
  "bbox": [
    -2.011649,
    54.977778,
    -2.011649,
    54.977778
  ],
  "geometry": {"coordinates":[-2.011649,54.977778],"type":"Point"}
}
