{
  "id": 470931965,
  "type": "Feature",
  "properties": {
    "date:inception_lower": "1980-01-01",
    "date:inception_upper": "1980-01-01",
    "edtf:cessation": "",
    "edtf:inception": "1980-01-01",
    "geom:area": 0,
    "geom:bbox": "0.800383,51.420113,0.800383,51.420113",
    "geom:latitude": 51.420113,
    "geom:longitude": 0.800383,
    "gp:parent_id": "29106",
    "iso:country": "GB",
    "mz:hierarchy_label": 1,
    "mz:is_current": 1,
    "os:country_code": "E92000001",
    "os:county_code": "E10000016",
    "os:district_code": "E07000113",
    "os:positional_quality_indicator": "1",
    "os:region_code": "E12000008",
    "src:geom": "os",
    "wof:belongsto": [
      85633159,
      102191581,
      136253055,
      1864208825,
      1880771523,
      404436029,
      1125872683,
      1880762057,
      404227469,
      1880762705
    ],
    "wof:breaches": [],
    "wof:concordances": {
      "gp:id": "27560158"
    },
    "wof:country": "GB",
    "wof:created": 1583701311,
    "wof:geomhash": "a6bda82b112936aa180461b497aba633",
    "wof:hierarchy": [
      {
        "continent_id": 102191581,
        "country_id": 85633159,
        "county_id": 1880771523,
        "empire_id": 136253055,
        "localadmin_id": 404436029,
        "locality_id": 1125872683,
        "macrocounty_id": 1880762057,
        "macroregion_id": 404227469,
        "postalcode_id": 470931965,
        "region_id": 1880762705
      },
      {
        "continent_id": 102191581,
        "country_id": 85633159,
        "empire_id": 136253055,
        "postalcode_id": 470931965,
        "postalregion_id": 1864208825
      }
    ],
    "wof:id": 470931965,
    "wof:lastmodified": 1763547915,
    "wof:name": "ME12 3NR",
    "wof:parent_id": 1125872683,
    "wof:placetype": "postalcode",
    "wof:repo": "whosonfirst-data-postalcode-gb",
    "wof:superseded_by": [],
    "wof:supersedes": [],
    "wof:tags": []
  },
  "bbox": [
    0.800383,
    51.420113,
    0.800383,
    51.420113
  ],
  "geometry": {"coordinates":[0.800383,51.420113],"type":"Point"}
}
