{
  "id": 437757905,
  "type": "Feature",
  "properties": {
    "date:cessation_lower": "2003-03-01",
    "date:cessation_upper": "2003-03-01",
    "date:inception_lower": "2001-12-01",
    "date:inception_upper": "2001-12-01",
    "edtf:cessation": "2003-03-01",
    "edtf:inception": "2001-12-01",
    "geom:area": 0,
    "geom:bbox": "-2.891272,53.198204,-2.891272,53.198204",
    "geom:latitude": 53.198204,
    "geom:longitude": -2.891272,
    "gp:parent_id": "15829",
    "iso:country": "GB",
    "mz:hierarchy_label": 1,
    "mz:is_current": 0,
    "os:country_code": "E92000001",
    "os:county_code": "E99999999",
    "os:district_code": "E06000050",
    "os:positional_quality_indicator": "5",
    "os:region_code": "E12000002",
    "src:geom": "os",
    "wof:belongsto": [
      85633159,
      102191581,
      136253055,
      1864206239,
      1360698923,
      101750511,
      1880762135,
      404227469,
      1880773021
    ],
    "wof:breaches": [],
    "wof:concordances": {
      "gp:id": "28855867"
    },
    "wof:country": "GB",
    "wof:created": 1583701537,
    "wof:geomhash": "d035dd8ecffaa4d05f2bccdab345e2ad",
    "wof:hierarchy": [
      {
        "continent_id": 102191581,
        "country_id": 85633159,
        "county_id": 1360698923,
        "empire_id": 136253055,
        "locality_id": 101750511,
        "macrocounty_id": 1880762135,
        "macroregion_id": 404227469,
        "postalcode_id": 437757905,
        "region_id": 1880773021
      },
      {
        "continent_id": 102191581,
        "country_id": 85633159,
        "empire_id": 136253055,
        "postalcode_id": 437757905,
        "postalregion_id": 1864206239
      }
    ],
    "wof:id": 437757905,
    "wof:lastmodified": 1763548159,
    "wof:name": "CH1 4WB",
    "wof:parent_id": 101750511,
    "wof:placetype": "postalcode",
    "wof:repo": "whosonfirst-data-postalcode-gb",
    "wof:superseded_by": [],
    "wof:supersedes": [],
    "wof:tags": []
  },
  "bbox": [
    -2.891272,
    53.198204,
    -2.891272,
    53.198204
  ],
  "geometry": {"coordinates":[-2.891272,53.198204],"type":"Point"}
}
