{
  "id": 437790469,
  "type": "Feature",
  "properties": {
    "date:cessation_lower": "2003-10-01",
    "date:cessation_upper": "2003-10-01",
    "date:inception_lower": "2002-07-01",
    "date:inception_upper": "2002-07-01",
    "edtf:cessation": "2003-10-01",
    "edtf:inception": "2002-07-01",
    "geom:area": 0,
    "geom:bbox": "-3.893783,50.840591,-3.893783,50.840591",
    "geom:latitude": 50.840591,
    "geom:longitude": -3.893783,
    "gp:parent_id": "16031",
    "iso:country": "GB",
    "mz:hierarchy_label": 1,
    "mz:is_current": 0,
    "os:country_code": "E92000001",
    "os:county_code": "E10000008",
    "os:district_code": "E07000046",
    "os:positional_quality_indicator": "5",
    "os:region_code": "E12000009",
    "src:geom": "os",
    "wof:belongsto": [
      85633159,
      102191581,
      136253055,
      1864207199,
      1880771717,
      404446179,
      1125928965,
      1880762149,
      404227469,
      1880762683
    ],
    "wof:breaches": [],
    "wof:concordances": {
      "gp:id": "28874546"
    },
    "wof:country": "GB",
    "wof:created": 1583701555,
    "wof:geomhash": "3e1b10a048b7cfea99fbbc8dee44e48a",
    "wof:hierarchy": [
      {
        "continent_id": 102191581,
        "country_id": 85633159,
        "county_id": 1880771717,
        "empire_id": 136253055,
        "localadmin_id": 404446179,
        "locality_id": 1125928965,
        "macrocounty_id": 1880762149,
        "macroregion_id": 404227469,
        "postalcode_id": 437790469,
        "region_id": 1880762683
      },
      {
        "continent_id": 102191581,
        "country_id": 85633159,
        "empire_id": 136253055,
        "postalcode_id": 437790469,
        "postalregion_id": 1864207199
      }
    ],
    "wof:id": 437790469,
    "wof:lastmodified": 1763547920,
    "wof:name": "EX18 7XY",
    "wof:parent_id": 1125928965,
    "wof:placetype": "postalcode",
    "wof:repo": "whosonfirst-data-postalcode-gb",
    "wof:superseded_by": [],
    "wof:supersedes": [],
    "wof:tags": []
  },
  "bbox": [
    -3.893783,
    50.840591,
    -3.893783,
    50.840591
  ],
  "geometry": {"coordinates":[-3.893783,50.840591],"type":"Point"}
}
