{
  "id": 471408469,
  "type": "Feature",
  "properties": {
    "date:inception_lower": "1980-01-01",
    "date:inception_upper": "1980-01-01",
    "edtf:cessation": "",
    "edtf:inception": "1980-01-01",
    "geom:area": 0,
    "geom:bbox": "-4.574368,50.441539,-4.574368,50.441539",
    "geom:latitude": 50.441539,
    "geom:longitude": -4.574368,
    "gp:parent_id": "28818",
    "iso:country": "GB",
    "mz:hierarchy_label": 1,
    "mz:is_current": 1,
    "os:country_code": "E92000001",
    "os:county_code": "E99999999",
    "os:district_code": "E06000052",
    "os:positional_quality_indicator": "1",
    "os:region_code": "E12000009",
    "src:geom": "os",
    "wof:belongsto": [
      85633159,
      102191581,
      136253055,
      1864209841,
      1360699085,
      404434033,
      1360755163,
      1880762119,
      404227469,
      1880773165
    ],
    "wof:breaches": [],
    "wof:concordances": {
      "gp:id": "27766313"
    },
    "wof:country": "GB",
    "wof:created": 1583701565,
    "wof:geomhash": "f65d3931ef3d47f2fc01027c3a1e652a",
    "wof:hierarchy": [
      {
        "continent_id": 102191581,
        "country_id": 85633159,
        "county_id": 1360699085,
        "empire_id": 136253055,
        "localadmin_id": 404434033,
        "locality_id": 1360755163,
        "macrocounty_id": 1880762119,
        "macroregion_id": 404227469,
        "postalcode_id": 471408469,
        "region_id": 1880773165
      },
      {
        "continent_id": 102191581,
        "country_id": 85633159,
        "empire_id": 136253055,
        "postalcode_id": 471408469,
        "postalregion_id": 1864209841
      }
    ],
    "wof:id": 471408469,
    "wof:lastmodified": 1763548090,
    "wof:name": "PL14 4NE",
    "wof:parent_id": 1360755163,
    "wof:placetype": "postalcode",
    "wof:repo": "whosonfirst-data-postalcode-gb",
    "wof:superseded_by": [],
    "wof:supersedes": [],
    "wof:tags": []
  },
  "bbox": [
    -4.574368,
    50.441539,
    -4.574368,
    50.441539
  ],
  "geometry": {"coordinates":[-4.574368,50.441539],"type":"Point"}
}
