{
  "id": 504406713,
  "type": "Feature",
  "properties": {
    "date:inception_lower": "1998-06-01",
    "date:inception_upper": "1998-06-01",
    "edtf:cessation": "",
    "edtf:inception": "1998-06-01",
    "geom:area": 0,
    "geom:bbox": "-4.366700,55.814370,-4.366700,55.814370",
    "geom:latitude": 55.81437,
    "geom:longitude": -4.3667,
    "gp:parent_id": "21125",
    "iso:country": "GB",
    "mz:hierarchy_label": 1,
    "mz:is_current": 1,
    "os:country_code": "S92000003",
    "os:county_code": "S99999999",
    "os:district_code": "S12000049",
    "os:positional_quality_indicator": "1",
    "os:region_code": "S99999999",
    "src:geom": "os",
    "wof:belongsto": [
      85633159,
      102191581,
      136253055,
      1864207379,
      1360698797,
      1175612707,
      1880762095,
      404227471,
      1880772925
    ],
    "wof:breaches": [],
    "wof:concordances": {
      "gp:id": "27291341"
    },
    "wof:country": "GB",
    "wof:created": 1583701171,
    "wof:geomhash": "619b7fc7c16ab4ecb71c8654e080af3b",
    "wof:hierarchy": [
      {
        "continent_id": 102191581,
        "country_id": 85633159,
        "county_id": 1360698797,
        "empire_id": 136253055,
        "locality_id": 1175612707,
        "macrocounty_id": 1880762095,
        "macroregion_id": 404227471,
        "postalcode_id": 504406713,
        "region_id": 1880772925
      },
      {
        "continent_id": 102191581,
        "country_id": 85633159,
        "empire_id": 136253055,
        "postalcode_id": 504406713,
        "postalregion_id": 1864207379
      }
    ],
    "wof:id": 504406713,
    "wof:lastmodified": 1763547978,
    "wof:name": "G53 7PS",
    "wof:parent_id": 1175612707,
    "wof:placetype": "postalcode",
    "wof:repo": "whosonfirst-data-postalcode-gb",
    "wof:superseded_by": [],
    "wof:supersedes": [],
    "wof:tags": []
  },
  "bbox": [
    -4.3667,
    55.81437,
    -4.3667,
    55.81437
  ],
  "geometry": {"coordinates":[-4.3667,55.81437],"type":"Point"}
}
