{
  "id": 438132125,
  "type": "Feature",
  "properties": {
    "date:inception_lower": "2001-06-01",
    "date:inception_upper": "2001-06-01",
    "edtf:cessation": "",
    "edtf:inception": "2001-06-01",
    "geom:area": 0,
    "geom:bbox": "-2.034543,54.080659,-2.034543,54.080659",
    "geom:latitude": 54.080659,
    "geom:longitude": -2.034543,
    "gp:parent_id": "27319",
    "iso:country": "GB",
    "mz:hierarchy_label": 1,
    "mz:is_current": 1,
    "os:country_code": "E92000001",
    "os:county_code": "E99999999",
    "os:district_code": "E06000065",
    "os:positional_quality_indicator": "1",
    "os:region_code": "E12000003",
    "src:geom": "os",
    "wof:belongsto": [
      85633159,
      102191581,
      136253055,
      1864205759,
      1360698753,
      404455273,
      1125881773,
      1880762011
    ],
    "wof:breaches": [],
    "wof:concordances": {
      "gp:id": "26903616"
    },
    "wof:country": "GB",
    "wof:created": 1583701327,
    "wof:geomhash": "ba926c056ae3235eaef3271d85b68cc4",
    "wof:hierarchy": [
      {
        "continent_id": -1,
        "country_id": -1,
        "county_id": 1360698753,
        "localadmin_id": 404455273,
        "locality_id": 1125881773,
        "macrocounty_id": 1880762011,
        "postalcode_id": 438132125,
        "region_id": -1
      },
      {
        "continent_id": 102191581,
        "country_id": 85633159,
        "empire_id": 136253055,
        "postalcode_id": 438132125,
        "postalregion_id": 1864205759
      }
    ],
    "wof:id": 438132125,
    "wof:lastmodified": 1763547974,
    "wof:name": "BD23 5QS",
    "wof:parent_id": 1125881773,
    "wof:placetype": "postalcode",
    "wof:repo": "whosonfirst-data-postalcode-gb",
    "wof:superseded_by": [],
    "wof:supersedes": [],
    "wof:tags": []
  },
  "bbox": [
    -2.034543,
    54.080659,
    -2.034543,
    54.080659
  ],
  "geometry": {"coordinates":[-2.034543,54.080659],"type":"Point"}
}
