{
  "id": 38373561,
  "type": "Feature",
  "properties": {
    "date:cessation_lower": "1996-12-01",
    "date:cessation_upper": "1996-12-01",
    "date:inception_lower": "1990-02-01",
    "date:inception_upper": "1990-02-01",
    "edtf:cessation": "1996-12-01",
    "edtf:inception": "1990-02-01",
    "geom:area": 0,
    "geom:bbox": "-1.367800,53.433029,-1.367800,53.433029",
    "geom:latitude": 53.433029,
    "geom:longitude": -1.3678,
    "iso:country": "GB",
    "mz:hierarchy_label": 1,
    "mz:is_current": 0,
    "os:country_code": "E92000001",
    "os:county_code": "E99999999",
    "os:district_code": "E08000018",
    "os:positional_quality_indicator": "8",
    "os:region_code": "E12000003",
    "src:geom": "os",
    "wof:belongsto": [
      85633159,
      102191581,
      136253055,
      1864210235,
      1360698851,
      1360817063,
      101750521,
      1880761997,
      404227469,
      1880772963
    ],
    "wof:breaches": [],
    "wof:country": "GB",
    "wof:created": 1583789646,
    "wof:geomhash": "37faa88d523446b216525fc7826a525f",
    "wof:hierarchy": [
      {
        "continent_id": 102191581,
        "country_id": 85633159,
        "county_id": 1360698851,
        "empire_id": 136253055,
        "localadmin_id": 1360817063,
        "locality_id": 101750521,
        "macrocounty_id": 1880761997,
        "macroregion_id": 404227469,
        "postalcode_id": 38373561,
        "region_id": 1880772963
      },
      {
        "continent_id": 102191581,
        "country_id": 85633159,
        "empire_id": 136253055,
        "postalcode_id": 38373561,
        "postalregion_id": 1864210235
      }
    ],
    "wof:id": 38373561,
    "wof:lastmodified": 1763548167,
    "wof:name": "S60 1LN",
    "wof:parent_id": 101750521,
    "wof:placetype": "postalcode",
    "wof:repo": "whosonfirst-data-postalcode-gb",
    "wof:superseded_by": [],
    "wof:supersedes": [],
    "wof:tags": []
  },
  "bbox": [
    -1.3678,
    53.433029,
    -1.3678,
    53.433029
  ],
  "geometry": {"coordinates":[-1.3678,53.433029],"type":"Point"}
}
