{
  "id": 1712791317,
  "type": "Feature",
  "properties": {
    "date:cessation_lower": "1997-08-01",
    "date:cessation_upper": "1997-08-01",
    "date:inception_lower": "1991-09-01",
    "date:inception_upper": "1991-09-01",
    "edtf:cessation": "1997-08-01",
    "edtf:inception": "1991-09-01",
    "geom:area": 0,
    "geom:bbox": "-2.638663,51.562263,-2.638663,51.562263",
    "geom:latitude": 51.562263,
    "geom:longitude": -2.638663,
    "iso:country": "GB",
    "mz:hierarchy_label": 1,
    "mz:is_current": 0,
    "os:country_code": "E92000001",
    "os:county_code": "E99999999",
    "os:district_code": "E06000025",
    "os:positional_quality_indicator": "1",
    "os:region_code": "E12000009",
    "src:geom": "os",
    "wof:belongsto": [
      102191581,
      85633159,
      1360698895,
      136253055,
      404437487,
      1360759683,
      1880762161,
      404227469,
      1880762693
    ],
    "wof:breaches": [],
    "wof:country": "GB",
    "wof:created": 1583803751,
    "wof:geomhash": "b4030c9f8ed341b382ea7403ae83e4ca",
    "wof:hierarchy": [
      {
        "continent_id": 102191581,
        "country_id": 85633159,
        "county_id": 1360698895,
        "empire_id": 136253055,
        "localadmin_id": 404437487,
        "locality_id": 1360759683,
        "macrocounty_id": 1880762161,
        "macroregion_id": 404227469,
        "postalcode_id": 1712791317,
        "region_id": 1880762693
      }
    ],
    "wof:id": 1712791317,
    "wof:lastmodified": 1763548724,
    "wof:name": "BS12 3HZ",
    "wof:parent_id": 1360759683,
    "wof:placetype": "postalcode",
    "wof:repo": "whosonfirst-data-postalcode-gb",
    "wof:superseded_by": [],
    "wof:supersedes": [],
    "wof:tags": []
  },
  "bbox": [
    -2.638663,
    51.562263,
    -2.638663,
    51.562263
  ],
  "geometry": {"coordinates":[-2.638663,51.562263],"type":"Point"}
}
