{
  "id": 1712623453,
  "type": "Feature",
  "properties": {
    "date:cessation_lower": "1991-12-01",
    "date:cessation_upper": "1991-12-01",
    "date:inception_lower": "1990-07-01",
    "date:inception_upper": "1990-07-01",
    "edtf:cessation": "1991-12-01",
    "edtf:inception": "1990-07-01",
    "geom:area": 0,
    "geom:bbox": "-2.224343,53.455160,-2.224343,53.455160",
    "geom:latitude": 53.45516,
    "geom:longitude": -2.224343,
    "iso:country": "GB",
    "mz:hierarchy_label": 1,
    "mz:is_current": 0,
    "os:country_code": "E92000001",
    "os:county_code": "E99999999",
    "os:district_code": "E08000003",
    "os:positional_quality_indicator": "8",
    "os:region_code": "E12000002",
    "src:geom": "os",
    "wof:belongsto": [
      85633159,
      102191581,
      136253055,
      1864208723,
      1360698893,
      101750525,
      1880762163,
      404227469,
      1880773095
    ],
    "wof:breaches": [],
    "wof:country": "GB",
    "wof:created": 1583796283,
    "wof:geomhash": "8195fa25b76de6046a57c945538d1edf",
    "wof:hierarchy": [
      {
        "continent_id": 102191581,
        "country_id": 85633159,
        "county_id": 1360698893,
        "empire_id": 136253055,
        "locality_id": 101750525,
        "macrocounty_id": 1880762163,
        "macroregion_id": 404227469,
        "postalcode_id": 1712623453,
        "region_id": 1880773095
      },
      {
        "continent_id": 102191581,
        "country_id": 85633159,
        "empire_id": 136253055,
        "postalcode_id": 1712623453,
        "postalregion_id": 1864208723
      }
    ],
    "wof:id": 1712623453,
    "wof:lastmodified": 1763548751,
    "wof:name": "M14 5TY",
    "wof:parent_id": 101750525,
    "wof:placetype": "postalcode",
    "wof:repo": "whosonfirst-data-postalcode-gb",
    "wof:superseded_by": [],
    "wof:supersedes": [],
    "wof:tags": []
  },
  "bbox": [
    -2.224343,
    53.45516,
    -2.224343,
    53.45516
  ],
  "geometry": {"coordinates":[-2.224343,53.45516],"type":"Point"}
}
