{
  "id": 471457113,
  "type": "Feature",
  "properties": {
    "date:inception_lower": "2002-06-01",
    "date:inception_upper": "2002-06-01",
    "edtf:cessation": "",
    "edtf:inception": "2002-06-01",
    "geom:area": 0,
    "geom:bbox": "-0.767822,50.839271,-0.767822,50.839271",
    "geom:latitude": 50.839271,
    "geom:longitude": -0.767822,
    "iso:country": "GB",
    "mz:hierarchy_label": 1,
    "mz:is_current": 1,
    "os:country_code": "E92000001",
    "os:county_code": "E10000032",
    "os:district_code": "E07000225",
    "os:positional_quality_indicator": "1",
    "os:region_code": "E12000008",
    "src:geom": "os",
    "wof:belongsto": [
      85633159,
      102191581,
      136253055,
      1864209935,
      1880771685,
      404433377,
      101852329,
      1880762061
    ],
    "wof:breaches": [],
    "wof:concordances": {
      "gp:id": "26374211"
    },
    "wof:country": "GB",
    "wof:created": 1583701620,
    "wof:geomhash": "5fdb0ce0f7218ad9941e6f0a33cfbb94",
    "wof:hierarchy": [
      {
        "continent_id": -1,
        "country_id": -1,
        "county_id": 1880771685,
        "localadmin_id": 404433377,
        "locality_id": 101852329,
        "macrocounty_id": 1880762061,
        "postalcode_id": 471457113,
        "region_id": -1
      },
      {
        "continent_id": 102191581,
        "country_id": 85633159,
        "empire_id": 136253055,
        "postalcode_id": 471457113,
        "postalregion_id": 1864209935
      }
    ],
    "wof:id": 471457113,
    "wof:lastmodified": 1763548371,
    "wof:name": "PO19 7LS",
    "wof:parent_id": 101852329,
    "wof:placetype": "postalcode",
    "wof:repo": "whosonfirst-data-postalcode-gb",
    "wof:superseded_by": [],
    "wof:supersedes": [],
    "wof:tags": []
  },
  "bbox": [
    -0.767822,
    50.839271,
    -0.767822,
    50.839271
  ],
  "geometry": {"coordinates":[-0.767822,50.839271],"type":"Point"}
}
