{
  "id": 1998339099,
  "type": "Feature",
  "properties": {
    "date:inception_lower": "2025-01-01",
    "date:inception_upper": "2025-01-01",
    "edtf:cessation": "",
    "edtf:inception": "2025-01-01",
    "geom:area": 0,
    "geom:bbox": "1.014546,51.981386,1.014546,51.981386",
    "geom:latitude": 51.981386,
    "geom:longitude": 1.014546,
    "iso:country": "GB",
    "mz:hierarchy_label": 1,
    "mz:is_current": 1,
    "os:country_code": "E92000001",
    "os:county_code": "E10000029",
    "os:district_code": "E07000200",
    "os:positional_quality_indicator": "1",
    "os:region_code": "E12000006",
    "src:geom": "os",
    "wof:belongsto": [
      102191581,
      85633159,
      1880771637,
      136253055,
      404429291,
      1125840289,
      1880762001,
      404227469,
      1880762685,
      1864206413
    ],
    "wof:breaches": [],
    "wof:country": "GB",
    "wof:created": 1763548797,
    "wof:geomhash": "2a93d2eded04a6cabe030b0413a8cbfa",
    "wof:hierarchy": [
      {
        "continent_id": 102191581,
        "country_id": 85633159,
        "county_id": 1880771637,
        "empire_id": 136253055,
        "localadmin_id": 404429291,
        "locality_id": 1125840289,
        "macrocounty_id": 1880762001,
        "macroregion_id": 404227469,
        "postalcode_id": 1998339099,
        "region_id": 1880762685
      },
      {
        "continent_id": 102191581,
        "country_id": 85633159,
        "empire_id": 136253055,
        "postalcode_id": 1998339099,
        "postalregion_id": 1864206413
      }
    ],
    "wof:id": 1998339099,
    "wof:lastmodified": 1763548797,
    "wof:name": "CO7 6FW",
    "wof:parent_id": 1125840289,
    "wof:placetype": "postalcode",
    "wof:repo": "whosonfirst-data-postalcode-gb",
    "wof:superseded_by": [],
    "wof:supersedes": [],
    "wof:tags": []
  },
  "bbox": [
    1.014546,
    51.981386,
    1.014546,
    51.981386
  ],
  "geometry": {"coordinates":[1.014546,51.981386],"type":"Point"}
}
