{
  "id": 454673545,
  "type": "Feature",
  "properties": {
    "date:inception_lower": "1987-04-01",
    "date:inception_upper": "1987-04-01",
    "edtf:cessation": "",
    "edtf:inception": "1987-04-01",
    "geom:area": 0,
    "geom:bbox": "-0.755740,51.249213,-0.755740,51.249213",
    "geom:latitude": 51.249213,
    "geom:longitude": -0.75574,
    "iso:country": "GB",
    "mz:hierarchy_label": 1,
    "mz:is_current": 1,
    "os:country_code": "E92000001",
    "os:county_code": "E10000014",
    "os:district_code": "E07000092",
    "os:positional_quality_indicator": "1",
    "os:region_code": "E12000008",
    "src:geom": "os",
    "wof:belongsto": [
      85633159,
      102191581,
      136253055,
      1864207507,
      1880771479,
      101750357,
      1880762155,
      404227469,
      1880762717
    ],
    "wof:breaches": [],
    "wof:concordances": {
      "gp:id": "27322722"
    },
    "wof:country": "GB",
    "wof:created": 1583701685,
    "wof:geomhash": "3f5a4f4b46b926a2df49ce2e8d758d21",
    "wof:hierarchy": [
      {
        "continent_id": 102191581,
        "country_id": 85633159,
        "county_id": 1880771479,
        "empire_id": 136253055,
        "locality_id": 101750357,
        "macrocounty_id": 1880762155,
        "macroregion_id": 404227469,
        "postalcode_id": 454673545,
        "region_id": 1880762717
      },
      {
        "continent_id": 102191581,
        "country_id": 85633159,
        "empire_id": 136253055,
        "postalcode_id": 454673545,
        "postalregion_id": 1864207507
      }
    ],
    "wof:id": 454673545,
    "wof:lastmodified": 1763548293,
    "wof:name": "GU11 2AH",
    "wof:parent_id": 101750357,
    "wof:placetype": "postalcode",
    "wof:repo": "whosonfirst-data-postalcode-gb",
    "wof:superseded_by": [],
    "wof:supersedes": [],
    "wof:tags": []
  },
  "bbox": [
    -0.75574,
    51.249213,
    -0.75574,
    51.249213
  ],
  "geometry": {"coordinates":[-0.75574,51.249213],"type":"Point"}
}
