{
  "id": 470830807,
  "type": "Feature",
  "properties": {
    "date:inception_lower": "2023-02-01",
    "date:inception_upper": "2023-02-01",
    "edtf:cessation": "",
    "edtf:inception": "2023-02-01",
    "geom:area": 0,
    "geom:bbox": "-1.600702,53.751426,-1.600702,53.751426",
    "geom:latitude": 53.751426,
    "geom:longitude": -1.600702,
    "gp:parent_id": "29353",
    "iso:country": "GB",
    "mz:hierarchy_label": 1,
    "mz:is_current": 1,
    "os:country_code": "E92000001",
    "os:county_code": "E99999999",
    "os:district_code": "E08000035",
    "os:positional_quality_indicator": "1",
    "os:region_code": "E12000003",
    "src:geom": "os",
    "wof:belongsto": [
      85633159,
      102191581,
      136253055,
      1864208669,
      1360698749,
      404446597,
      1125893441,
      1880762059,
      404227469,
      1880773017
    ],
    "wof:breaches": [],
    "wof:concordances": {
      "gp:id": "27522985"
    },
    "wof:country": "GB",
    "wof:created": 1583701074,
    "wof:geomhash": "b44963c35ab65c49feff0055fb588d53",
    "wof:hierarchy": [
      {
        "continent_id": 102191581,
        "country_id": 85633159,
        "county_id": 1360698749,
        "empire_id": 136253055,
        "localadmin_id": 404446597,
        "locality_id": 1125893441,
        "macrocounty_id": 1880762059,
        "macroregion_id": 404227469,
        "postalcode_id": 470830807,
        "region_id": 1880773017
      },
      {
        "continent_id": 102191581,
        "country_id": 85633159,
        "empire_id": 136253055,
        "postalcode_id": 470830807,
        "postalregion_id": 1864208669
      }
    ],
    "wof:id": 470830807,
    "wof:lastmodified": 1763548035,
    "wof:name": "LS27 9TN",
    "wof:parent_id": 1125893441,
    "wof:placetype": "postalcode",
    "wof:repo": "whosonfirst-data-postalcode-gb",
    "wof:superseded_by": [],
    "wof:supersedes": [],
    "wof:tags": []
  },
  "bbox": [
    -1.600702,
    53.751426,
    -1.600702,
    53.751426
  ],
  "geometry": {"coordinates":[-1.600702,53.751426],"type":"Point"}
}
