{
  "id": 437869931,
  "type": "Feature",
  "properties": {
    "date:cessation_lower": "2004-08-01",
    "date:cessation_upper": "2004-08-01",
    "date:inception_lower": "2003-08-01",
    "date:inception_upper": "2003-08-01",
    "edtf:cessation": "2004-08-01",
    "edtf:inception": "2003-08-01",
    "geom:area": 0,
    "geom:bbox": "-2.830442,53.674860,-2.830442,53.674860",
    "geom:latitude": 53.67486,
    "geom:longitude": -2.830442,
    "gp:parent_id": "36981",
    "iso:country": "GB",
    "mz:hierarchy_label": 1,
    "mz:is_current": 0,
    "os:country_code": "E92000001",
    "os:county_code": "E10000017",
    "os:district_code": "E07000127",
    "os:positional_quality_indicator": "5",
    "os:region_code": "E12000002",
    "src:geom": "os",
    "wof:belongsto": [
      85633159,
      102191581,
      136253055,
      1864210001,
      1880771529,
      404437787,
      1125970313,
      1880762053,
      404227469,
      1880762711
    ],
    "wof:breaches": [],
    "wof:concordances": {
      "gp:id": "28920875"
    },
    "wof:country": "GB",
    "wof:created": 1583701601,
    "wof:geomhash": "1b4b1a50b9384a8f181c1fbe69969a24",
    "wof:hierarchy": [
      {
        "continent_id": 102191581,
        "country_id": 85633159,
        "county_id": 1880771529,
        "empire_id": 136253055,
        "localadmin_id": 404437787,
        "locality_id": 1125970313,
        "macrocounty_id": 1880762053,
        "macroregion_id": 404227469,
        "postalcode_id": 437869931,
        "region_id": 1880762711
      },
      {
        "continent_id": 102191581,
        "country_id": 85633159,
        "empire_id": 136253055,
        "postalcode_id": 437869931,
        "postalregion_id": 1864210001
      }
    ],
    "wof:id": 437869931,
    "wof:lastmodified": 1763548061,
    "wof:name": "PR4 6WH",
    "wof:parent_id": 1125970313,
    "wof:placetype": "postalcode",
    "wof:repo": "whosonfirst-data-postalcode-gb",
    "wof:superseded_by": [],
    "wof:supersedes": [],
    "wof:tags": []
  },
  "bbox": [
    -2.830442,
    53.67486,
    -2.830442,
    53.67486
  ],
  "geometry": {"coordinates":[-2.830442,53.67486],"type":"Point"}
}
