{
  "id": 1712622035,
  "type": "Feature",
  "properties": {
    "date:cessation_lower": "1978-11-01",
    "date:cessation_upper": "1978-11-01",
    "date:inception_lower": "1973-08-01",
    "date:inception_upper": "1973-08-01",
    "edtf:cessation": "1978-11-01",
    "edtf:inception": "1973-08-01",
    "geom:area": 0,
    "geom:bbox": "-4.223406,55.849795,-4.223406,55.849795",
    "geom:latitude": 55.849795,
    "geom:longitude": -4.223406,
    "iso:country": "GB",
    "mz:hierarchy_label": 1,
    "mz:is_current": 0,
    "os:country_code": "S92000003",
    "os:county_code": "S99999999",
    "os:district_code": "S12000049",
    "os:positional_quality_indicator": "8",
    "os:region_code": "S99999999",
    "src:geom": "os",
    "wof:belongsto": [
      85633159,
      102191581,
      136253055,
      1864207355,
      1360698797,
      1175612707,
      1880762095,
      404227471,
      1880772925
    ],
    "wof:breaches": [],
    "wof:country": "GB",
    "wof:created": 1583796220,
    "wof:geomhash": "25d947899203a51b7c777d9b798adf31",
    "wof:hierarchy": [
      {
        "continent_id": 102191581,
        "country_id": 85633159,
        "county_id": 1360698797,
        "empire_id": 136253055,
        "locality_id": 1175612707,
        "macrocounty_id": 1880762095,
        "macroregion_id": 404227471,
        "postalcode_id": 1712622035,
        "region_id": 1880772925
      },
      {
        "continent_id": 102191581,
        "country_id": 85633159,
        "empire_id": 136253055,
        "postalcode_id": 1712622035,
        "postalregion_id": 1864207355
      }
    ],
    "wof:id": 1712622035,
    "wof:lastmodified": 1763548748,
    "wof:name": "G40 3TG",
    "wof:parent_id": 1175612707,
    "wof:placetype": "postalcode",
    "wof:repo": "whosonfirst-data-postalcode-gb",
    "wof:superseded_by": [],
    "wof:supersedes": [],
    "wof:tags": []
  },
  "bbox": [
    -4.223406,
    55.849795,
    -4.223406,
    55.849795
  ],
  "geometry": {"coordinates":[-4.223406,55.849795],"type":"Point"}
}
