{
  "id": 487894273,
  "type": "Feature",
  "properties": {
    "date:inception_lower": "1980-01-01",
    "date:inception_upper": "1980-01-01",
    "edtf:cessation": "",
    "edtf:inception": "1980-01-01",
    "geom:area": 0,
    "geom:bbox": "-3.534113,50.467490,-3.534113,50.467490",
    "geom:latitude": 50.46749,
    "geom:longitude": -3.534113,
    "gp:parent_id": "37818",
    "iso:country": "GB",
    "mz:hierarchy_label": 1,
    "mz:is_current": 1,
    "os:country_code": "E92000001",
    "os:county_code": "E99999999",
    "os:district_code": "E06000027",
    "os:positional_quality_indicator": "1",
    "os:region_code": "E12000009",
    "src:geom": "os",
    "wof:belongsto": [
      85633159,
      102191581,
      136253055,
      1864211169,
      1360699071,
      1360817197,
      101751577,
      1880762149,
      404227469,
      1880762683
    ],
    "wof:breaches": [],
    "wof:concordances": {
      "gp:id": "26363466"
    },
    "wof:country": "GB",
    "wof:created": 1583701238,
    "wof:geomhash": "e3a84120538b335e0fc48795fd9e6610",
    "wof:hierarchy": [
      {
        "continent_id": 102191581,
        "country_id": 85633159,
        "county_id": 1360699071,
        "empire_id": 136253055,
        "localadmin_id": 1360817197,
        "locality_id": 101751577,
        "macrocounty_id": 1880762149,
        "macroregion_id": 404227469,
        "postalcode_id": 487894273,
        "region_id": 1880762683
      },
      {
        "continent_id": 102191581,
        "country_id": 85633159,
        "empire_id": 136253055,
        "postalcode_id": 487894273,
        "postalregion_id": 1864211169
      }
    ],
    "wof:id": 487894273,
    "wof:lastmodified": 1763548661,
    "wof:name": "TQ2 5NP",
    "wof:parent_id": 101751577,
    "wof:placetype": "postalcode",
    "wof:repo": "whosonfirst-data-postalcode-gb",
    "wof:superseded_by": [],
    "wof:supersedes": [],
    "wof:tags": []
  },
  "bbox": [
    -3.534113,
    50.46749,
    -3.534113,
    50.46749
  ],
  "geometry": {"coordinates":[-3.534113,50.46749],"type":"Point"}
}
