{
  "id": 438304765,
  "type": "Feature",
  "properties": {
    "date:inception_lower": "1980-01-01",
    "date:inception_upper": "1980-01-01",
    "edtf:cessation": "",
    "edtf:inception": "1980-01-01",
    "geom:area": 0,
    "geom:bbox": "-2.547649,51.437658,-2.547649,51.437658",
    "geom:latitude": 51.437658,
    "geom:longitude": -2.547649,
    "gp:parent_id": "23415627",
    "iso:country": "GB",
    "mz:hierarchy_label": 1,
    "mz:is_current": 1,
    "os:country_code": "E92000001",
    "os:county_code": "E99999999",
    "os:district_code": "E06000023",
    "os:positional_quality_indicator": "1",
    "os:region_code": "E12000009",
    "src:geom": "os",
    "wof:belongsto": [
      85633159,
      102191581,
      136253055,
      1864206029,
      1360698747,
      1175612699,
      1880762137,
      404227469,
      1880772883
    ],
    "wof:breaches": [],
    "wof:concordances": {
      "gp:id": "26964712"
    },
    "wof:country": "GB",
    "wof:created": 1583701491,
    "wof:geomhash": "710d9f2c6e588010598a42c9286d2393",
    "wof:hierarchy": [
      {
        "continent_id": 102191581,
        "country_id": 85633159,
        "county_id": 1360698747,
        "empire_id": 136253055,
        "locality_id": 1175612699,
        "macrocounty_id": 1880762137,
        "macroregion_id": 404227469,
        "postalcode_id": 438304765,
        "region_id": 1880772883
      },
      {
        "continent_id": 102191581,
        "country_id": 85633159,
        "empire_id": 136253055,
        "postalcode_id": 438304765,
        "postalregion_id": 1864206029
      }
    ],
    "wof:id": 438304765,
    "wof:lastmodified": 1763548072,
    "wof:name": "BS4 4JY",
    "wof:parent_id": 1175612699,
    "wof:placetype": "postalcode",
    "wof:repo": "whosonfirst-data-postalcode-gb",
    "wof:superseded_by": [],
    "wof:supersedes": [],
    "wof:tags": []
  },
  "bbox": [
    -2.547649,
    51.437658,
    -2.547649,
    51.437658
  ],
  "geometry": {"coordinates":[-2.547649,51.437658],"type":"Point"}
}
