{
  "id": 504775731,
  "type": "Feature",
  "properties": {
    "date:inception_lower": "2009-09-01",
    "date:inception_upper": "2009-09-01",
    "edtf:cessation": "",
    "edtf:inception": "2009-09-01",
    "geom:area": 0,
    "geom:bbox": "-2.969270,55.509489,-2.969270,55.509489",
    "geom:latitude": 55.509489,
    "geom:longitude": -2.96927,
    "gp:parent_id": "12696186",
    "iso:country": "GB",
    "mz:hierarchy_label": 1,
    "mz:is_current": 1,
    "os:country_code": "S92000003",
    "os:county_code": "S99999999",
    "os:district_code": "S12000026",
    "os:positional_quality_indicator": "1",
    "os:region_code": "S99999999",
    "src:geom": "os",
    "wof:belongsto": [
      85633159,
      102191581,
      136253055,
      1864211029,
      1360699015,
      1880761991,
      404227471,
      1880773105
    ],
    "wof:breaches": [],
    "wof:concordances": {
      "gp:id": "56182445"
    },
    "wof:country": "GB",
    "wof:created": 1583701568,
    "wof:geomhash": "8ddf62f104be7e58305263027f5e4f08",
    "wof:hierarchy": [
      {
        "continent_id": 102191581,
        "country_id": 85633159,
        "county_id": 1360699015,
        "macrocounty_id": 1880761991,
        "macroregion_id": 404227471,
        "postalcode_id": 504775731,
        "region_id": 1880773105
      },
      {
        "continent_id": 102191581,
        "country_id": 85633159,
        "empire_id": 136253055,
        "postalcode_id": 504775731,
        "postalregion_id": 1864211029
      }
    ],
    "wof:id": 504775731,
    "wof:lastmodified": 1763548163,
    "wof:name": "TD7 5JE",
    "wof:parent_id": 1360699015,
    "wof:placetype": "postalcode",
    "wof:repo": "whosonfirst-data-postalcode-gb",
    "wof:superseded_by": [],
    "wof:supersedes": [],
    "wof:tags": []
  },
  "bbox": [
    -2.96927,
    55.509489,
    -2.96927,
    55.509489
  ],
  "geometry": {"coordinates":[-2.96927,55.509489],"type":"Point"}
}
