{
  "id": 471190417,
  "type": "Feature",
  "properties": {
    "date:inception_lower": "1990-07-01",
    "date:inception_upper": "1990-07-01",
    "edtf:cessation": "",
    "edtf:inception": "1990-07-01",
    "geom:area": 0,
    "geom:bbox": "-0.808270,52.330991,-0.808270,52.330991",
    "geom:latitude": 52.330991,
    "geom:longitude": -0.80827,
    "gp:parent_id": "22364",
    "iso:country": "GB",
    "mz:hierarchy_label": 1,
    "mz:is_current": 1,
    "os:country_code": "E92000001",
    "os:county_code": "E99999999",
    "os:district_code": "E06000062",
    "os:positional_quality_indicator": "1",
    "os:region_code": "E12000004",
    "src:geom": "os",
    "wof:belongsto": [
      85633159,
      102191581,
      136253055,
      1864209251,
      1880773231,
      404452731,
      1360758459,
      1880762029,
      404227469,
      1880773265
    ],
    "wof:breaches": [],
    "wof:concordances": {
      "gp:id": "27660960"
    },
    "wof:country": "GB",
    "wof:created": 1583701385,
    "wof:geomhash": "d62ca4ea58349333ba97eaaff0765a47",
    "wof:hierarchy": [
      {
        "continent_id": 102191581,
        "country_id": 85633159,
        "county_id": 1880773231,
        "empire_id": 136253055,
        "localadmin_id": 404452731,
        "locality_id": 1360758459,
        "macrocounty_id": 1880762029,
        "macroregion_id": 404227469,
        "postalcode_id": 471190417,
        "region_id": 1880773265
      },
      {
        "continent_id": 102191581,
        "country_id": 85633159,
        "empire_id": 136253055,
        "postalcode_id": 471190417,
        "postalregion_id": 1864209251
      }
    ],
    "wof:id": 471190417,
    "wof:lastmodified": 1763548236,
    "wof:name": "NN6 9SE",
    "wof:parent_id": 1360758459,
    "wof:placetype": "postalcode",
    "wof:repo": "whosonfirst-data-postalcode-gb",
    "wof:superseded_by": [],
    "wof:supersedes": [],
    "wof:tags": []
  },
  "bbox": [
    -0.80827,
    52.330991,
    -0.80827,
    52.330991
  ],
  "geometry": {"coordinates":[-0.80827,52.330991],"type":"Point"}
}
