{
  "id": 1998355657,
  "type": "Feature",
  "properties": {
    "date:inception_lower": "2024-11-01",
    "date:inception_upper": "2024-11-01",
    "edtf:cessation": "",
    "edtf:inception": "2024-11-01",
    "geom:area": 0,
    "geom:bbox": "-0.640870,52.517425,-0.640870,52.517425",
    "geom:latitude": 52.517425,
    "geom:longitude": -0.64087,
    "iso:country": "GB",
    "mz:hierarchy_label": 1,
    "mz:is_current": 1,
    "os:country_code": "E92000001",
    "os:county_code": "E99999999",
    "os:district_code": "E06000061",
    "os:positional_quality_indicator": "1",
    "os:region_code": "E12000004",
    "src:geom": "os",
    "wof:belongsto": [
      102191581,
      85633159,
      1880773237,
      136253055,
      404435851,
      1125879227,
      1880762029,
      404227469,
      1880773265,
      1864209235
    ],
    "wof:breaches": [],
    "wof:country": "GB",
    "wof:created": 1763549532,
    "wof:geomhash": "cc115cd004d4ba918bf436c670d842f6",
    "wof:hierarchy": [
      {
        "continent_id": 102191581,
        "country_id": 85633159,
        "county_id": 1880773237,
        "empire_id": 136253055,
        "localadmin_id": 404435851,
        "locality_id": 1125879227,
        "macrocounty_id": 1880762029,
        "macroregion_id": 404227469,
        "postalcode_id": 1998355657,
        "region_id": 1880773265
      },
      {
        "continent_id": 102191581,
        "country_id": 85633159,
        "empire_id": 136253055,
        "postalcode_id": 1998355657,
        "postalregion_id": 1864209235
      }
    ],
    "wof:id": 1998355657,
    "wof:lastmodified": 1763549532,
    "wof:name": "NN17 5DS",
    "wof:parent_id": 1125879227,
    "wof:placetype": "postalcode",
    "wof:repo": "whosonfirst-data-postalcode-gb",
    "wof:superseded_by": [],
    "wof:supersedes": [],
    "wof:tags": []
  },
  "bbox": [
    -0.64087,
    52.517425,
    -0.64087,
    52.517425
  ],
  "geometry": {"coordinates":[-0.64087,52.517425],"type":"Point"}
}
