{
  "id": 488213401,
  "type": "Feature",
  "properties": {
    "date:inception_lower": "1980-01-01",
    "date:inception_upper": "1980-01-01",
    "edtf:cessation": "",
    "edtf:inception": "1980-01-01",
    "geom:area": 0,
    "geom:bbox": "-2.432254,52.538457,-2.432254,52.538457",
    "geom:latitude": 52.538457,
    "geom:longitude": -2.432254,
    "iso:country": "GB",
    "mz:hierarchy_label": 1,
    "mz:is_current": 1,
    "os:country_code": "E92000001",
    "os:county_code": "E99999999",
    "os:district_code": "E06000051",
    "os:positional_quality_indicator": "1",
    "os:region_code": "E12000005",
    "src:geom": "os",
    "wof:belongsto": [
      85633159,
      102191581,
      136253055,
      1864211689,
      1360698821,
      404439807,
      101853631,
      1880762073,
      404227469,
      1880772941
    ],
    "wof:breaches": [],
    "wof:concordances": {
      "gp:id": "26522211"
    },
    "wof:country": "GB",
    "wof:created": 1583701126,
    "wof:geomhash": "1986eced4944c7038e02dc484e9283e8",
    "wof:hierarchy": [
      {
        "continent_id": 102191581,
        "country_id": 85633159,
        "county_id": 1360698821,
        "empire_id": 136253055,
        "localadmin_id": 404439807,
        "locality_id": 101853631,
        "macrocounty_id": 1880762073,
        "macroregion_id": 404227469,
        "postalcode_id": 488213401,
        "region_id": 1880772941
      },
      {
        "continent_id": 102191581,
        "country_id": 85633159,
        "empire_id": 136253055,
        "postalcode_id": 488213401,
        "postalregion_id": 1864211689
      }
    ],
    "wof:id": 488213401,
    "wof:lastmodified": 1763548577,
    "wof:name": "WV16 4PT",
    "wof:parent_id": 101853631,
    "wof:placetype": "postalcode",
    "wof:repo": "whosonfirst-data-postalcode-gb",
    "wof:superseded_by": [],
    "wof:supersedes": [],
    "wof:tags": []
  },
  "bbox": [
    -2.432254,
    52.538457,
    -2.432254,
    52.538457
  ],
  "geometry": {"coordinates":[-2.432254,52.538457],"type":"Point"}
}
