{
  "id": 1161152620,
  "type": "Feature",
  "properties": {
    "date:cessation_lower": "2001-02-01",
    "date:cessation_upper": "2001-02-01",
    "date:inception_lower": "1999-12-01",
    "date:inception_upper": "1999-12-01",
    "edtf:cessation": "2001-02-01",
    "edtf:inception": "1999-12-01",
    "geom:area": 0,
    "geom:bbox": "-1.576804,51.204935,-1.576804,51.204935",
    "geom:latitude": 51.204935,
    "geom:longitude": -1.576804,
    "iso:country": "GB",
    "mz:hierarchy_label": 1,
    "mz:is_current": 0,
    "os:country_code": "E92000001",
    "os:county_code": "E10000014",
    "os:district_code": "E07000093",
    "os:positional_quality_indicator": "6",
    "os:region_code": "E12000008",
    "src:geom": "os",
    "wof:belongsto": [
      85633159,
      102191581,
      136253055,
      1864210701,
      1880771469,
      404436127,
      1125858727,
      1880762155,
      404227469,
      1880762717
    ],
    "wof:breaches": [],
    "wof:country": "GB",
    "wof:created": 1583806275,
    "wof:geomhash": "4822783b901ba5a43f7455ebb5451982",
    "wof:hierarchy": [
      {
        "continent_id": 102191581,
        "country_id": 85633159,
        "county_id": 1880771469,
        "empire_id": 136253055,
        "localadmin_id": 404436127,
        "locality_id": 1125858727,
        "macrocounty_id": 1880762155,
        "macroregion_id": 404227469,
        "postalcode_id": 1161152620,
        "region_id": 1880762717
      },
      {
        "continent_id": 102191581,
        "country_id": 85633159,
        "empire_id": 136253055,
        "postalcode_id": 1161152620,
        "postalregion_id": 1864210701
      }
    ],
    "wof:id": 1161152620,
    "wof:lastmodified": 1763548344,
    "wof:name": "SP11 8SL",
    "wof:parent_id": 1125858727,
    "wof:placetype": "postalcode",
    "wof:repo": "whosonfirst-data-postalcode-gb",
    "wof:superseded_by": [],
    "wof:supersedes": [],
    "wof:tags": []
  },
  "bbox": [
    -1.576804,
    51.204935,
    -1.576804,
    51.204935
  ],
  "geometry": {"coordinates":[-1.576804,51.204935],"type":"Point"}
}
