{
  "id": 454274311,
  "type": "Feature",
  "properties": {
    "date:inception_lower": "1980-01-01",
    "date:inception_upper": "1980-01-01",
    "edtf:cessation": "",
    "edtf:inception": "1980-01-01",
    "geom:area": 0,
    "geom:bbox": "-1.702593,52.199810,-1.702593,52.199810",
    "geom:latitude": 52.19981,
    "geom:longitude": -1.702593,
    "iso:country": "GB",
    "mz:hierarchy_label": 1,
    "mz:is_current": 1,
    "os:country_code": "E92000001",
    "os:county_code": "E10000031",
    "os:district_code": "E07000221",
    "os:positional_quality_indicator": "1",
    "os:region_code": "E12000005",
    "src:geom": "os",
    "wof:belongsto": [
      85633159,
      102191581,
      136253055,
      1864206525,
      1880771675,
      404442383,
      101853071,
      1880762065,
      404227469,
      1880762725
    ],
    "wof:breaches": [],
    "wof:concordances": {
      "gp:id": "26454814"
    },
    "wof:country": "GB",
    "wof:created": 1583701433,
    "wof:geomhash": "b1b7cef4553d6c9ecbcc8338a56b4cfb",
    "wof:hierarchy": [
      {
        "continent_id": 102191581,
        "country_id": 85633159,
        "county_id": 1880771675,
        "empire_id": 136253055,
        "localadmin_id": 404442383,
        "locality_id": 101853071,
        "macrocounty_id": 1880762065,
        "macroregion_id": 404227469,
        "postalcode_id": 454274311,
        "region_id": 1880762725
      },
      {
        "continent_id": 102191581,
        "country_id": 85633159,
        "empire_id": 136253055,
        "postalcode_id": 454274311,
        "postalregion_id": 1864206525
      }
    ],
    "wof:id": 454274311,
    "wof:lastmodified": 1763548261,
    "wof:name": "CV37 6UW",
    "wof:parent_id": 101853071,
    "wof:placetype": "postalcode",
    "wof:repo": "whosonfirst-data-postalcode-gb",
    "wof:superseded_by": [],
    "wof:supersedes": [],
    "wof:tags": []
  },
  "bbox": [
    -1.702593,
    52.19981,
    -1.702593,
    52.19981
  ],
  "geometry": {"coordinates":[-1.702593,52.19981],"type":"Point"}
}
