{
  "id": 504756133,
  "type": "Feature",
  "properties": {
    "date:cessation_lower": "2012-04-01",
    "date:cessation_upper": "2012-04-01",
    "date:inception_lower": "2008-03-01",
    "date:inception_upper": "2008-03-01",
    "edtf:cessation": "2012-04-01",
    "edtf:inception": "2008-03-01",
    "geom:area": 0,
    "geom:bbox": "-2.461847,57.537286,-2.461847,57.537286",
    "geom:latitude": 57.537286,
    "geom:longitude": -2.461847,
    "gp:parent_id": "20760",
    "iso:country": "GB",
    "mz:hierarchy_label": 1,
    "mz:is_current": 0,
    "os:country_code": "S92000003",
    "os:county_code": "S99999999",
    "os:district_code": "S12000034",
    "os:positional_quality_indicator": "1",
    "os:region_code": "S99999999",
    "src:geom": "os",
    "wof:belongsto": [
      85633159,
      102191581,
      136253055,
      1864205443,
      1360699031,
      1880762109,
      404227471,
      1880773121
    ],
    "wof:breaches": [],
    "wof:concordances": {
      "gp:id": "56126404"
    },
    "wof:country": "GB",
    "wof:created": 1583701551,
    "wof:geomhash": "b6e83c80500c3f5ec6e2084e7882ed87",
    "wof:hierarchy": [
      {
        "continent_id": 102191581,
        "country_id": 85633159,
        "county_id": 1360699031,
        "empire_id": 136253055,
        "macrocounty_id": 1880762109,
        "macroregion_id": 404227471,
        "postalcode_id": 504756133,
        "region_id": 1880773121
      },
      {
        "continent_id": 102191581,
        "country_id": 85633159,
        "empire_id": 136253055,
        "postalcode_id": 504756133,
        "postalregion_id": 1864205443
      }
    ],
    "wof:id": 504756133,
    "wof:lastmodified": 1763548077,
    "wof:name": "AB53 8WB",
    "wof:parent_id": 1360699031,
    "wof:placetype": "postalcode",
    "wof:repo": "whosonfirst-data-postalcode-gb",
    "wof:superseded_by": [],
    "wof:supersedes": [],
    "wof:tags": []
  },
  "bbox": [
    -2.461847,
    57.537286,
    -2.461847,
    57.537286
  ],
  "geometry": {"coordinates":[-2.461847,57.537286],"type":"Point"}
}
