{
  "id": 38795823,
  "type": "Feature",
  "properties": {
    "date:cessation_lower": "1994-05-01",
    "date:cessation_upper": "1994-05-01",
    "date:inception_lower": "1980-01-01",
    "date:inception_upper": "1980-01-01",
    "edtf:cessation": "1994-05-01",
    "edtf:inception": "1980-01-01",
    "geom:area": 0,
    "geom:bbox": "-1.284930,51.621047,-1.284930,51.621047",
    "geom:latitude": 51.621047,
    "geom:longitude": -1.28493,
    "iso:country": "GB",
    "mz:hierarchy_label": 1,
    "mz:is_current": 0,
    "os:country_code": "E92000001",
    "os:county_code": "E10000025",
    "os:district_code": "E07000180",
    "os:positional_quality_indicator": "8",
    "os:region_code": "E12000008",
    "src:geom": "os",
    "wof:belongsto": [
      85633159,
      102191581,
      136253055,
      1864209455,
      1880771609,
      404451887,
      1126009205,
      1880762079,
      404227469,
      1880762695
    ],
    "wof:breaches": [],
    "wof:country": "GB",
    "wof:created": 1583794333,
    "wof:geomhash": "676730d8fefa58b9327121d5a0d79014",
    "wof:hierarchy": [
      {
        "continent_id": 102191581,
        "country_id": 85633159,
        "county_id": 1880771609,
        "empire_id": 136253055,
        "localadmin_id": 404451887,
        "locality_id": 1126009205,
        "macrocounty_id": 1880762079,
        "macroregion_id": 404227469,
        "postalcode_id": 38795823,
        "region_id": 1880762695
      },
      {
        "continent_id": 102191581,
        "country_id": 85633159,
        "empire_id": 136253055,
        "postalcode_id": 38795823,
        "postalregion_id": 1864209455
      }
    ],
    "wof:id": 38795823,
    "wof:lastmodified": 1763548629,
    "wof:name": "OX14 4SL",
    "wof:parent_id": 1126009205,
    "wof:placetype": "postalcode",
    "wof:repo": "whosonfirst-data-postalcode-gb",
    "wof:superseded_by": [],
    "wof:supersedes": [],
    "wof:tags": []
  },
  "bbox": [
    -1.28493,
    51.621047,
    -1.28493,
    51.621047
  ],
  "geometry": {"coordinates":[-1.28493,51.621047],"type":"Point"}
}
