{
  "id": 488270081,
  "type": "Feature",
  "properties": {
    "date:inception_lower": "2007-11-01",
    "date:inception_upper": "2007-11-01",
    "edtf:cessation": "",
    "edtf:inception": "2007-11-01",
    "geom:area": 0,
    "geom:bbox": "-1.760877,53.807200,-1.760877,53.807200",
    "geom:latitude": 53.8072,
    "geom:longitude": -1.760877,
    "gp:parent_id": "13527",
    "iso:country": "GB",
    "mz:hierarchy_label": 1,
    "mz:is_current": 1,
    "os:country_code": "E92000001",
    "os:county_code": "E99999999",
    "os:district_code": "E08000032",
    "os:positional_quality_indicator": "1",
    "os:region_code": "E12000003",
    "src:geom": "os",
    "wof:belongsto": [
      85633159,
      102191581,
      136253055,
      1864205773,
      1360698963,
      101750581,
      1880762059,
      404227469,
      1880773017
    ],
    "wof:breaches": [],
    "wof:concordances": {
      "gp:id": "56129657"
    },
    "wof:country": "GB",
    "wof:created": 1583701266,
    "wof:geomhash": "9d3aeb741e7757d388d55ae0a547bde3",
    "wof:hierarchy": [
      {
        "continent_id": 102191581,
        "country_id": 85633159,
        "county_id": 1360698963,
        "empire_id": 136253055,
        "locality_id": 101750581,
        "macrocounty_id": 1880762059,
        "macroregion_id": 404227469,
        "postalcode_id": 488270081,
        "region_id": 1880773017
      },
      {
        "continent_id": 102191581,
        "country_id": 85633159,
        "empire_id": 136253055,
        "postalcode_id": 488270081,
        "postalregion_id": 1864205773
      }
    ],
    "wof:id": 488270081,
    "wof:lastmodified": 1763548549,
    "wof:name": "BD8 7DG",
    "wof:parent_id": 101750581,
    "wof:placetype": "postalcode",
    "wof:repo": "whosonfirst-data-postalcode-gb",
    "wof:superseded_by": [],
    "wof:supersedes": [],
    "wof:tags": []
  },
  "bbox": [
    -1.760877,
    53.8072,
    -1.760877,
    53.8072
  ],
  "geometry": {"coordinates":[-1.760877,53.8072],"type":"Point"}
}
