{
  "id": 1947778711,
  "type": "Feature",
  "properties": {
    "date:inception_lower": "2024-05-01",
    "date:inception_upper": "2024-05-01",
    "edtf:cessation": "",
    "edtf:inception": "2024-05-01",
    "geom:area": 0,
    "geom:bbox": "-3.830868,56.367470,-3.830868,56.367470",
    "geom:latitude": 56.36747,
    "geom:longitude": -3.830868,
    "iso:country": "GB",
    "mz:hierarchy_label": 1,
    "mz:is_current": 1,
    "os:country_code": "S92000003",
    "os:county_code": "S99999999",
    "os:district_code": "S12000048",
    "os:positional_quality_indicator": "1",
    "os:region_code": "S99999999",
    "src:geom": "os",
    "wof:belongsto": [
      102191581,
      85633159,
      1360698829,
      136253055,
      1880762043,
      404227471,
      1880772947,
      1864209823
    ],
    "wof:breaches": [],
    "wof:country": "GB",
    "wof:created": 1736335350,
    "wof:geomhash": "9219bf13f77a3d427ff5fed160ff0e31",
    "wof:hierarchy": [
      {
        "continent_id": 102191581,
        "country_id": 85633159,
        "county_id": 1360698829,
        "empire_id": 136253055,
        "macrocounty_id": 1880762043,
        "macroregion_id": 404227471,
        "postalcode_id": 1947778711,
        "region_id": 1880772947
      },
      {
        "continent_id": 102191581,
        "country_id": 85633159,
        "empire_id": 136253055,
        "postalcode_id": 1947778711,
        "postalregion_id": 1864209823
      }
    ],
    "wof:id": 1947778711,
    "wof:lastmodified": 1763547895,
    "wof:name": "PH7 3FY",
    "wof:parent_id": 1360698829,
    "wof:placetype": "postalcode",
    "wof:repo": "whosonfirst-data-postalcode-gb",
    "wof:superseded_by": [],
    "wof:supersedes": [],
    "wof:tags": []
  },
  "bbox": [
    -3.830868,
    56.36747,
    -3.830868,
    56.36747
  ],
  "geometry": {"coordinates":[-3.830868,56.36747],"type":"Point"}
}
