{
  "id": 488543325,
  "type": "Feature",
  "properties": {
    "date:inception_lower": "1990-08-01",
    "date:inception_upper": "1990-08-01",
    "edtf:cessation": "",
    "edtf:inception": "1990-08-01",
    "geom:area": 0,
    "geom:bbox": "-2.393568,57.147592,-2.393568,57.147592",
    "geom:latitude": 57.147592,
    "geom:longitude": -2.393568,
    "gp:parent_id": "12696183",
    "iso:country": "GB",
    "mz:hierarchy_label": 1,
    "mz:is_current": 1,
    "os:country_code": "S92000003",
    "os:county_code": "S99999999",
    "os:district_code": "S12000034",
    "os:positional_quality_indicator": "1",
    "os:region_code": "S99999999",
    "src:geom": "os",
    "wof:belongsto": [
      85633159,
      102191581,
      136253055,
      1864205409,
      1360699031,
      1880762109,
      404227471,
      1880773121
    ],
    "wof:breaches": [],
    "wof:concordances": {
      "gp:id": "26829696"
    },
    "wof:country": "GB",
    "wof:created": 1583701560,
    "wof:geomhash": "e38e43ff279d1e677f3459893b554de2",
    "wof:hierarchy": [
      {
        "continent_id": 102191581,
        "country_id": 85633159,
        "county_id": 1360699031,
        "empire_id": 136253055,
        "macrocounty_id": 1880762109,
        "macroregion_id": 404227471,
        "postalcode_id": 488543325,
        "region_id": 1880773121
      },
      {
        "continent_id": 102191581,
        "country_id": 85633159,
        "empire_id": 136253055,
        "postalcode_id": 488543325,
        "postalregion_id": 1864205409
      }
    ],
    "wof:id": 488543325,
    "wof:lastmodified": 1763548506,
    "wof:name": "AB32 6UP",
    "wof:parent_id": 1360699031,
    "wof:placetype": "postalcode",
    "wof:repo": "whosonfirst-data-postalcode-gb",
    "wof:superseded_by": [],
    "wof:supersedes": [],
    "wof:tags": []
  },
  "bbox": [
    -2.393568,
    57.147592,
    -2.393568,
    57.147592
  ],
  "geometry": {"coordinates":[-2.393568,57.147592],"type":"Point"}
}
