{
  "id": 39172734,
  "type": "Feature",
  "properties": {
    "date:cessation_lower": "1995-01-01",
    "date:cessation_upper": "1995-01-01",
    "date:inception_lower": "1990-07-01",
    "date:inception_upper": "1990-07-01",
    "edtf:cessation": "1995-01-01",
    "edtf:inception": "1990-07-01",
    "geom:area": 0,
    "geom:bbox": "0.612184,51.248799,0.612184,51.248799",
    "geom:latitude": 51.248799,
    "geom:longitude": 0.612184,
    "iso:country": "GB",
    "mz:hierarchy_label": 1,
    "mz:is_current": 0,
    "os:country_code": "E92000001",
    "os:county_code": "E10000016",
    "os:district_code": "E07000110",
    "os:positional_quality_indicator": "8",
    "os:region_code": "E12000008",
    "src:geom": "os",
    "wof:belongsto": [
      85633159,
      102191581,
      136253055,
      1864208837,
      1880771521,
      404437313,
      1360759493,
      1880762057,
      404227469,
      1880762705
    ],
    "wof:breaches": [],
    "wof:country": "GB",
    "wof:created": 1583798539,
    "wof:geomhash": "447ed6ccc936c6e9d255843306475228",
    "wof:hierarchy": [
      {
        "continent_id": 102191581,
        "country_id": 85633159,
        "county_id": 1880771521,
        "empire_id": 136253055,
        "localadmin_id": 404437313,
        "locality_id": 1360759493,
        "macrocounty_id": 1880762057,
        "macroregion_id": 404227469,
        "postalcode_id": 39172734,
        "region_id": 1880762705
      },
      {
        "continent_id": 102191581,
        "country_id": 85633159,
        "empire_id": 136253055,
        "postalcode_id": 39172734,
        "postalregion_id": 1864208837
      }
    ],
    "wof:id": 39172734,
    "wof:lastmodified": 1763547911,
    "wof:name": "ME17 1RW",
    "wof:parent_id": 1360759493,
    "wof:placetype": "postalcode",
    "wof:repo": "whosonfirst-data-postalcode-gb",
    "wof:superseded_by": [],
    "wof:supersedes": [],
    "wof:tags": []
  },
  "bbox": [
    0.612184,
    51.248799,
    0.612184,
    51.248799
  ],
  "geometry": {"coordinates":[0.612184,51.248799],"type":"Point"}
}
