{
  "id": 438043799,
  "type": "Feature",
  "properties": {
    "date:inception_lower": "1999-12-01",
    "date:inception_upper": "1999-12-01",
    "edtf:cessation": "",
    "edtf:inception": "1999-12-01",
    "geom:area": 0,
    "geom:bbox": "-1.966783,52.312523,-1.966783,52.312523",
    "geom:latitude": 52.312523,
    "geom:longitude": -1.966783,
    "iso:country": "GB",
    "mz:hierarchy_label": 1,
    "mz:is_current": 1,
    "os:country_code": "E92000001",
    "os:county_code": "E10000034",
    "os:district_code": "E07000236",
    "os:positional_quality_indicator": "1",
    "os:region_code": "E12000005",
    "src:geom": "os",
    "wof:belongsto": [
      85633159,
      102191581,
      136253055,
      1864205643,
      1880771707,
      101750455,
      1880762019,
      404227469,
      1880762691
    ],
    "wof:breaches": [],
    "wof:concordances": {
      "gp:id": "26872246"
    },
    "wof:country": "GB",
    "wof:created": 1583701133,
    "wof:geomhash": "b93de731f078f966bde22eb0e37fd096",
    "wof:hierarchy": [
      {
        "continent_id": 102191581,
        "country_id": 85633159,
        "county_id": 1880771707,
        "empire_id": 136253055,
        "locality_id": 101750455,
        "macrocounty_id": 1880762019,
        "macroregion_id": 404227469,
        "postalcode_id": 438043799,
        "region_id": 1880762691
      },
      {
        "continent_id": 102191581,
        "country_id": 85633159,
        "empire_id": 136253055,
        "postalcode_id": 438043799,
        "postalregion_id": 1864205643
      }
    ],
    "wof:id": 438043799,
    "wof:lastmodified": 1763548102,
    "wof:name": "B97 6TS",
    "wof:parent_id": 101750455,
    "wof:placetype": "postalcode",
    "wof:repo": "whosonfirst-data-postalcode-gb",
    "wof:superseded_by": [],
    "wof:supersedes": [],
    "wof:tags": []
  },
  "bbox": [
    -1.966783,
    52.312523,
    -1.966783,
    52.312523
  ],
  "geometry": {"coordinates":[-1.966783,52.312523],"type":"Point"}
}
