{
  "id": 1880446669,
  "type": "Feature",
  "properties": {
    "date:inception_lower": "2023-07-01",
    "date:inception_upper": "2023-07-01",
    "edtf:cessation": "",
    "edtf:inception": "2023-07-01",
    "geom:area": 0,
    "geom:bbox": "-0.405313,54.246168,-0.405313,54.246168",
    "geom:latitude": 54.246168,
    "geom:longitude": -0.405313,
    "iso:country": "GB",
    "mz:hierarchy_label": 1,
    "mz:is_current": 1,
    "os:country_code": "E92000001",
    "os:county_code": "E99999999",
    "os:district_code": "E06000065",
    "os:positional_quality_indicator": "1",
    "os:region_code": "E12000003",
    "src:geom": "os",
    "wof:belongsto": [
      102191581,
      85633159,
      136253055,
      1864211719,
      1360698753,
      404435777,
      1125863565,
      1880762011
    ],
    "wof:breaches": [],
    "wof:country": "GB",
    "wof:created": 1695222495,
    "wof:geomhash": "bfbedbbcb2690f275b84dc966c173028",
    "wof:hierarchy": [
      {
        "continent_id": -1,
        "country_id": -1,
        "county_id": 1360698753,
        "localadmin_id": 404435777,
        "locality_id": 1125863565,
        "macrocounty_id": 1880762011,
        "postalcode_id": 1880446669,
        "region_id": -1
      },
      {
        "continent_id": 102191581,
        "country_id": 85633159,
        "empire_id": 136253055,
        "postalcode_id": 1880446669,
        "postalregion_id": 1864211719
      }
    ],
    "wof:id": 1880446669,
    "wof:lastmodified": 1763548361,
    "wof:name": "YO11 3XL",
    "wof:parent_id": 1125863565,
    "wof:placetype": "postalcode",
    "wof:repo": "whosonfirst-data-postalcode-gb",
    "wof:superseded_by": [],
    "wof:supersedes": [],
    "wof:tags": []
  },
  "bbox": [
    -0.405313,
    54.246168,
    -0.405313,
    54.246168
  ],
  "geometry": {"coordinates":[-0.405313,54.246168],"type":"Point"}
}
