{
  "id": 454131795,
  "type": "Feature",
  "properties": {
    "date:inception_lower": "1980-01-01",
    "date:inception_upper": "1980-01-01",
    "edtf:cessation": "",
    "edtf:inception": "1980-01-01",
    "geom:area": 0,
    "geom:bbox": "0.443234,51.751108,0.443234,51.751108",
    "geom:latitude": 51.751108,
    "geom:longitude": 0.443234,
    "gp:parent_id": "15782",
    "iso:country": "GB",
    "mz:hierarchy_label": 1,
    "mz:is_current": 1,
    "os:country_code": "E92000001",
    "os:county_code": "E10000012",
    "os:district_code": "E07000070",
    "os:positional_quality_indicator": "1",
    "os:region_code": "E12000006",
    "src:geom": "os",
    "wof:belongsto": [
      85633159,
      102191581,
      136253055,
      1864206325,
      1880771431,
      101750411,
      1880762159,
      404227469,
      1880762723
    ],
    "wof:breaches": [],
    "wof:concordances": {
      "gp:id": "27066046"
    },
    "wof:country": "GB",
    "wof:created": 1583701286,
    "wof:geomhash": "9e229c90b3ebb5a6b287a3f3f6402e91",
    "wof:hierarchy": [
      {
        "continent_id": 102191581,
        "country_id": 85633159,
        "county_id": 1880771431,
        "empire_id": 136253055,
        "locality_id": 101750411,
        "macrocounty_id": 1880762159,
        "macroregion_id": 404227469,
        "postalcode_id": 454131795,
        "region_id": 1880762723
      },
      {
        "continent_id": 102191581,
        "country_id": 85633159,
        "empire_id": 136253055,
        "postalcode_id": 454131795,
        "postalregion_id": 1864206325
      }
    ],
    "wof:id": 454131795,
    "wof:lastmodified": 1763548441,
    "wof:name": "CM1 2HH",
    "wof:parent_id": 101750411,
    "wof:placetype": "postalcode",
    "wof:repo": "whosonfirst-data-postalcode-gb",
    "wof:superseded_by": [],
    "wof:supersedes": [],
    "wof:tags": []
  },
  "bbox": [
    0.443234,
    51.751108,
    0.443234,
    51.751108
  ],
  "geometry": {"coordinates":[0.443234,51.751108],"type":"Point"}
}
