{
  "id": 1712434857,
  "type": "Feature",
  "properties": {
    "date:cessation_lower": "1997-08-01",
    "date:cessation_upper": "1997-08-01",
    "date:inception_lower": "1980-01-01",
    "date:inception_upper": "1980-01-01",
    "edtf:cessation": "1997-08-01",
    "edtf:inception": "1980-01-01",
    "geom:area": 0,
    "geom:bbox": "-2.444693,51.497987,-2.444693,51.497987",
    "geom:latitude": 51.497987,
    "geom:longitude": -2.444693,
    "iso:country": "GB",
    "mz:hierarchy_label": 1,
    "mz:is_current": 0,
    "os:country_code": "E92000001",
    "os:county_code": "E99999999",
    "os:district_code": "E06000025",
    "os:positional_quality_indicator": "1",
    "os:region_code": "E12000009",
    "src:geom": "os",
    "wof:belongsto": [
      102191581,
      85633159,
      1360698895,
      136253055,
      404435515,
      101852753,
      1880762161,
      404227469,
      1880762693
    ],
    "wof:breaches": [],
    "wof:country": "GB",
    "wof:created": 1583787896,
    "wof:geomhash": "e5897f698c4ecaa7b554df60047d49c4",
    "wof:hierarchy": [
      {
        "continent_id": 102191581,
        "country_id": 85633159,
        "county_id": 1360698895,
        "empire_id": 136253055,
        "localadmin_id": 404435515,
        "locality_id": 101852753,
        "macrocounty_id": 1880762161,
        "macroregion_id": 404227469,
        "postalcode_id": 1712434857,
        "region_id": 1880762693
      }
    ],
    "wof:id": 1712434857,
    "wof:lastmodified": 1763548668,
    "wof:name": "BS17 3NS",
    "wof:parent_id": 101852753,
    "wof:placetype": "postalcode",
    "wof:repo": "whosonfirst-data-postalcode-gb",
    "wof:superseded_by": [],
    "wof:supersedes": [],
    "wof:tags": []
  },
  "bbox": [
    -2.444693,
    51.497987,
    -2.444693,
    51.497987
  ],
  "geometry": {"coordinates":[-2.444693,51.497987],"type":"Point"}
}
