{
  "id": 454663495,
  "type": "Feature",
  "properties": {
    "date:inception_lower": "1980-01-01",
    "date:inception_upper": "1980-01-01",
    "edtf:cessation": "",
    "edtf:inception": "1980-01-01",
    "geom:area": 0,
    "geom:bbox": "-2.161764,51.737454,-2.161764,51.737454",
    "geom:latitude": 51.737454,
    "geom:longitude": -2.161764,
    "gp:parent_id": "19142",
    "iso:country": "GB",
    "mz:hierarchy_label": 1,
    "mz:is_current": 1,
    "os:country_code": "E92000001",
    "os:county_code": "E10000013",
    "os:district_code": "E07000082",
    "os:positional_quality_indicator": "1",
    "os:region_code": "E12000009",
    "src:geom": "os",
    "wof:belongsto": [
      85633159,
      102191581,
      136253055,
      1864207493,
      1880771451,
      404437281,
      1360759467,
      1880762161,
      404227469,
      1880762693
    ],
    "wof:breaches": [],
    "wof:concordances": {
      "gp:id": "27318960"
    },
    "wof:country": "GB",
    "wof:created": 1583701691,
    "wof:geomhash": "f3e1a1ee33f45f4ba547b93ef4fc8e0e",
    "wof:hierarchy": [
      {
        "continent_id": 102191581,
        "country_id": 85633159,
        "county_id": 1880771451,
        "empire_id": 136253055,
        "localadmin_id": 404437281,
        "locality_id": 1360759467,
        "macrocounty_id": 1880762161,
        "macroregion_id": 404227469,
        "postalcode_id": 454663495,
        "region_id": 1880762693
      },
      {
        "continent_id": 102191581,
        "country_id": 85633159,
        "empire_id": 136253055,
        "postalcode_id": 454663495,
        "postalregion_id": 1864207493
      }
    ],
    "wof:id": 454663495,
    "wof:lastmodified": 1763548505,
    "wof:name": "GL6 7ED",
    "wof:parent_id": 1360759467,
    "wof:placetype": "postalcode",
    "wof:repo": "whosonfirst-data-postalcode-gb",
    "wof:superseded_by": [],
    "wof:supersedes": [],
    "wof:tags": []
  },
  "bbox": [
    -2.161764,
    51.737454,
    -2.161764,
    51.737454
  ],
  "geometry": {"coordinates":[-2.161764,51.737454],"type":"Point"}
}
