{
  "id": 454701337,
  "type": "Feature",
  "properties": {
    "date:inception_lower": "1980-01-01",
    "date:inception_upper": "1980-01-01",
    "edtf:cessation": "",
    "edtf:inception": "1980-01-01",
    "geom:area": 0,
    "geom:bbox": "-0.958079,51.154377,-0.958079,51.154377",
    "geom:latitude": 51.154377,
    "geom:longitude": -0.958079,
    "gp:parent_id": "10718",
    "iso:country": "GB",
    "mz:hierarchy_label": 1,
    "mz:is_current": 1,
    "os:country_code": "E92000001",
    "os:county_code": "E10000014",
    "os:district_code": "E07000085",
    "os:positional_quality_indicator": "1",
    "os:region_code": "E12000008",
    "src:geom": "os",
    "wof:belongsto": [
      85633159,
      102191581,
      136253055,
      1864207561,
      1880771465,
      1880762155,
      404227469,
      1880762717,
      404439833,
      1126047977
    ],
    "wof:breaches": [],
    "wof:concordances": {
      "gp:id": "27332831"
    },
    "wof:country": "GB",
    "wof:created": 1583701700,
    "wof:geomhash": "68fd937c0461bb515b3c342d8a650597",
    "wof:hierarchy": [
      {
        "continent_id": 102191581,
        "country_id": 85633159,
        "county_id": 1880771465,
        "empire_id": 136253055,
        "localadmin_id": 404439833,
        "locality_id": 1126047977,
        "macrocounty_id": 1880762155,
        "macroregion_id": 404227469,
        "postalcode_id": 454701337,
        "region_id": 1880762717
      },
      {
        "continent_id": 102191581,
        "country_id": 85633159,
        "empire_id": 136253055,
        "postalcode_id": 454701337,
        "postalregion_id": 1864207561
      }
    ],
    "wof:id": 454701337,
    "wof:lastmodified": 1763548188,
    "wof:name": "GU34 2PH",
    "wof:parent_id": 1126047977,
    "wof:placetype": "postalcode",
    "wof:repo": "whosonfirst-data-postalcode-gb",
    "wof:superseded_by": [],
    "wof:supersedes": [],
    "wof:tags": []
  },
  "bbox": [
    -0.958079,
    51.154377,
    -0.958079,
    51.154377
  ],
  "geometry": {"coordinates":[-0.958079,51.154377],"type":"Point"}
}
