{
  "id": 1998345289,
  "type": "Feature",
  "properties": {
    "date:inception_lower": "2024-12-01",
    "date:inception_upper": "2024-12-01",
    "edtf:cessation": "",
    "edtf:inception": "2024-12-01",
    "geom:area": 0,
    "geom:bbox": "-1.285904,51.618805,-1.285904,51.618805",
    "geom:latitude": 51.618805,
    "geom:longitude": -1.285904,
    "iso:country": "GB",
    "mz:hierarchy_label": 1,
    "mz:is_current": 1,
    "os:country_code": "E92000001",
    "os:county_code": "E10000025",
    "os:district_code": "E07000180",
    "os:positional_quality_indicator": "1",
    "os:region_code": "E12000008",
    "src:geom": "os",
    "wof:belongsto": [
      102191581,
      85633159,
      1880771609,
      136253055,
      404435749,
      101852909,
      1880762079,
      404227469,
      1880762695,
      1864209449
    ],
    "wof:breaches": [],
    "wof:country": "GB",
    "wof:created": 1763549073,
    "wof:geomhash": "9960bd0bed6cd84e56e171c3a3d1c2ad",
    "wof:hierarchy": [
      {
        "continent_id": 102191581,
        "country_id": 85633159,
        "county_id": 1880771609,
        "empire_id": 136253055,
        "localadmin_id": 404435749,
        "locality_id": 101852909,
        "macrocounty_id": 1880762079,
        "macroregion_id": 404227469,
        "postalcode_id": 1998345289,
        "region_id": 1880762695
      },
      {
        "continent_id": 102191581,
        "country_id": 85633159,
        "empire_id": 136253055,
        "postalcode_id": 1998345289,
        "postalregion_id": 1864209449
      }
    ],
    "wof:id": 1998345289,
    "wof:lastmodified": 1763549073,
    "wof:name": "OX11 6LL",
    "wof:parent_id": 101852909,
    "wof:placetype": "postalcode",
    "wof:repo": "whosonfirst-data-postalcode-gb",
    "wof:superseded_by": [],
    "wof:supersedes": [],
    "wof:tags": []
  },
  "bbox": [
    -1.285904,
    51.618805,
    -1.285904,
    51.618805
  ],
  "geometry": {"coordinates":[-1.285904,51.618805],"type":"Point"}
}
