{
  "id": 504498223,
  "type": "Feature",
  "properties": {
    "date:inception_lower": "1993-08-01",
    "date:inception_upper": "1993-08-01",
    "edtf:cessation": "",
    "edtf:inception": "1993-08-01",
    "geom:area": 0,
    "geom:bbox": "-3.664331,53.277384,-3.664331,53.277384",
    "geom:latitude": 53.277384,
    "geom:longitude": -3.664331,
    "iso:country": "GB",
    "mz:hierarchy_label": 1,
    "mz:is_current": 1,
    "os:country_code": "W92000004",
    "os:county_code": "W99999999",
    "os:district_code": "W06000003",
    "os:positional_quality_indicator": "1",
    "os:region_code": "W99999999",
    "src:geom": "os",
    "wof:belongsto": [
      85633159,
      102191581,
      136253055,
      1864208487,
      1360698739,
      404429423,
      1125862887,
      1880762183,
      404227475,
      1880772909
    ],
    "wof:breaches": [],
    "wof:concordances": {
      "gp:id": "27493922"
    },
    "wof:country": "GB",
    "wof:created": 1583701377,
    "wof:geomhash": "a95415c8017e5467dd698cb2846b31a7",
    "wof:hierarchy": [
      {
        "continent_id": 102191581,
        "country_id": 85633159,
        "county_id": 1360698739,
        "empire_id": 136253055,
        "localadmin_id": 404429423,
        "locality_id": 1125862887,
        "macrocounty_id": 1880762183,
        "macroregion_id": 404227475,
        "postalcode_id": 504498223,
        "region_id": 1880772909
      },
      {
        "continent_id": 102191581,
        "country_id": 85633159,
        "empire_id": 136253055,
        "postalcode_id": 504498223,
        "postalregion_id": 1864208487
      }
    ],
    "wof:id": 504498223,
    "wof:lastmodified": 1763548021,
    "wof:name": "LL29 8BX",
    "wof:parent_id": 1125862887,
    "wof:placetype": "postalcode",
    "wof:repo": "whosonfirst-data-postalcode-gb",
    "wof:superseded_by": [],
    "wof:supersedes": [],
    "wof:tags": []
  },
  "bbox": [
    -3.664331,
    53.277384,
    -3.664331,
    53.277384
  ],
  "geometry": {"coordinates":[-3.664331,53.277384],"type":"Point"}
}
