{
  "id": 504614981,
  "type": "Feature",
  "properties": {
    "date:inception_lower": "1985-10-01",
    "date:inception_upper": "1985-10-01",
    "edtf:cessation": "",
    "edtf:inception": "1985-10-01",
    "geom:area": 0,
    "geom:bbox": "-3.306780,52.522672,-3.306780,52.522672",
    "geom:latitude": 52.522672,
    "geom:longitude": -3.30678,
    "iso:country": "GB",
    "mz:hierarchy_label": 1,
    "mz:is_current": 1,
    "os:country_code": "W92000004",
    "os:county_code": "W99999999",
    "os:district_code": "W06000023",
    "os:positional_quality_indicator": "1",
    "os:region_code": "W99999999",
    "src:geom": "os",
    "wof:belongsto": [
      85633159,
      102191581,
      136253055,
      1864210909,
      1360698985,
      404439593,
      101853629,
      1880762123,
      404227475,
      1880773075
    ],
    "wof:breaches": [],
    "wof:concordances": {
      "gp:id": "28017906"
    },
    "wof:country": "GB",
    "wof:created": 1583701488,
    "wof:geomhash": "1582c2c3fae8cb743d7b7885a9a6ef7e",
    "wof:hierarchy": [
      {
        "continent_id": 102191581,
        "country_id": 85633159,
        "county_id": 1360698985,
        "empire_id": 136253055,
        "localadmin_id": 404439593,
        "locality_id": 101853629,
        "macrocounty_id": 1880762123,
        "macroregion_id": 404227475,
        "postalcode_id": 504614981,
        "region_id": 1880773075
      },
      {
        "continent_id": 102191581,
        "country_id": 85633159,
        "empire_id": 136253055,
        "postalcode_id": 504614981,
        "postalregion_id": 1864210909
      }
    ],
    "wof:id": 504614981,
    "wof:lastmodified": 1763548095,
    "wof:name": "SY16 2QQ",
    "wof:parent_id": 101853629,
    "wof:placetype": "postalcode",
    "wof:repo": "whosonfirst-data-postalcode-gb",
    "wof:superseded_by": [],
    "wof:supersedes": [],
    "wof:tags": []
  },
  "bbox": [
    -3.30678,
    52.522672,
    -3.30678,
    52.522672
  ],
  "geometry": {"coordinates":[-3.30678,52.522672],"type":"Point"}
}
