{
  "id": 1998348817,
  "type": "Feature",
  "properties": {
    "date:cessation_lower": "2025-07-01",
    "date:cessation_upper": "2025-07-01",
    "date:inception_lower": "2025-05-01",
    "date:inception_upper": "2025-05-01",
    "edtf:cessation": "2025-07-01",
    "edtf:inception": "2025-05-01",
    "geom:area": 0,
    "geom:bbox": "-2.808537,53.401667,-2.808537,53.401667",
    "geom:latitude": 53.401667,
    "geom:longitude": -2.808537,
    "iso:country": "GB",
    "mz:hierarchy_label": 1,
    "mz:is_current": 0,
    "os:country_code": "E92000001",
    "os:county_code": "E99999999",
    "os:district_code": "E08000011",
    "os:positional_quality_indicator": "1",
    "os:region_code": "E12000002",
    "src:geom": "os",
    "wof:belongsto": [
      102191581,
      85633159,
      1360698941,
      136253055,
      404451065,
      1125889783,
      1880762035,
      404227469,
      1880773063,
      1864208275
    ],
    "wof:breaches": [],
    "wof:country": "GB",
    "wof:created": 1763549228,
    "wof:geomhash": "4b27f55de94c331c00eac9f4b4f53857",
    "wof:hierarchy": [
      {
        "continent_id": 102191581,
        "country_id": 85633159,
        "county_id": 1360698941,
        "empire_id": 136253055,
        "localadmin_id": 404451065,
        "locality_id": 1125889783,
        "macrocounty_id": 1880762035,
        "macroregion_id": 404227469,
        "postalcode_id": 1998348817,
        "region_id": 1880773063
      },
      {
        "continent_id": 102191581,
        "country_id": 85633159,
        "empire_id": 136253055,
        "postalcode_id": 1998348817,
        "postalregion_id": 1864208275
      }
    ],
    "wof:id": 1998348817,
    "wof:lastmodified": 1763549228,
    "wof:name": "L35 1AQ",
    "wof:parent_id": 1125889783,
    "wof:placetype": "postalcode",
    "wof:repo": "whosonfirst-data-postalcode-gb",
    "wof:superseded_by": [],
    "wof:supersedes": [],
    "wof:tags": []
  },
  "bbox": [
    -2.808537,
    53.401667,
    -2.808537,
    53.401667
  ],
  "geometry": {"coordinates":[-2.808537,53.401667],"type":"Point"}
}
