{
  "id": 470818853,
  "type": "Feature",
  "properties": {
    "date:inception_lower": "2002-05-01",
    "date:inception_upper": "2002-05-01",
    "edtf:cessation": "",
    "edtf:inception": "2002-05-01",
    "geom:area": 0,
    "geom:bbox": "-1.683014,53.866942,-1.683014,53.866942",
    "geom:latitude": 53.866942,
    "geom:longitude": -1.683014,
    "gp:parent_id": "41355",
    "iso:country": "GB",
    "mz:hierarchy_label": 1,
    "mz:is_current": 1,
    "os:country_code": "E92000001",
    "os:county_code": "E99999999",
    "os:district_code": "E08000035",
    "os:positional_quality_indicator": "1",
    "os:region_code": "E12000003",
    "src:geom": "os",
    "wof:belongsto": [
      85633159,
      102191581,
      136253055,
      1864208649,
      1360698749,
      101750579,
      1880762059,
      404227469,
      1880773017
    ],
    "wof:breaches": [],
    "wof:concordances": {
      "gp:id": "27518471"
    },
    "wof:country": "GB",
    "wof:created": 1583701093,
    "wof:geomhash": "8749ae107ae54ee94eb1bde02b0ac91c",
    "wof:hierarchy": [
      {
        "continent_id": 102191581,
        "country_id": 85633159,
        "county_id": 1360698749,
        "empire_id": 136253055,
        "locality_id": 101750579,
        "macrocounty_id": 1880762059,
        "macroregion_id": 404227469,
        "postalcode_id": 470818853,
        "region_id": 1880773017
      },
      {
        "continent_id": 102191581,
        "country_id": 85633159,
        "empire_id": 136253055,
        "postalcode_id": 470818853,
        "postalregion_id": 1864208649
      }
    ],
    "wof:id": 470818853,
    "wof:lastmodified": 1763547936,
    "wof:name": "LS19 7ZB",
    "wof:parent_id": 101750579,
    "wof:placetype": "postalcode",
    "wof:repo": "whosonfirst-data-postalcode-gb",
    "wof:superseded_by": [],
    "wof:supersedes": [],
    "wof:tags": []
  },
  "bbox": [
    -1.683014,
    53.866942,
    -1.683014,
    53.866942
  ],
  "geometry": {"coordinates":[-1.683014,53.866942],"type":"Point"}
}
