{
  "id": 1161011672,
  "type": "Feature",
  "properties": {
    "date:cessation_lower": "1991-12-01",
    "date:cessation_upper": "1991-12-01",
    "date:inception_lower": "1981-06-01",
    "date:inception_upper": "1981-06-01",
    "edtf:cessation": "1991-12-01",
    "edtf:inception": "1981-06-01",
    "geom:area": 0,
    "geom:bbox": "-2.025108,52.697592,-2.025108,52.697592",
    "geom:latitude": 52.697592,
    "geom:longitude": -2.025108,
    "iso:country": "GB",
    "mz:hierarchy_label": 1,
    "mz:is_current": 0,
    "os:country_code": "E92000001",
    "os:county_code": "E10000028",
    "os:district_code": "E07000192",
    "os:positional_quality_indicator": "8",
    "os:region_code": "E12000005",
    "src:geom": "os",
    "wof:belongsto": [
      85633159,
      102191581,
      136253055,
      1864211645,
      1880771631,
      101750497,
      1880761999
    ],
    "wof:breaches": [],
    "wof:country": "GB",
    "wof:created": 1583799966,
    "wof:geomhash": "efe2311e0940559452abde1e06f8d65a",
    "wof:hierarchy": [
      {
        "continent_id": -1,
        "country_id": -1,
        "county_id": 1880771631,
        "locality_id": 101750497,
        "macrocounty_id": 1880761999,
        "postalcode_id": 1161011672,
        "region_id": -1
      },
      {
        "continent_id": 102191581,
        "country_id": 85633159,
        "empire_id": 136253055,
        "postalcode_id": 1161011672,
        "postalregion_id": 1864211645
      }
    ],
    "wof:id": 1161011672,
    "wof:lastmodified": 1763548293,
    "wof:name": "WS11 2QT",
    "wof:parent_id": 101750497,
    "wof:placetype": "postalcode",
    "wof:repo": "whosonfirst-data-postalcode-gb",
    "wof:superseded_by": [],
    "wof:supersedes": [],
    "wof:tags": []
  },
  "bbox": [
    -2.025108,
    52.697592,
    -2.025108,
    52.697592
  ],
  "geometry": {"coordinates":[-2.025108,52.697592],"type":"Point"}
}
