{
  "id": 1712540431,
  "type": "Feature",
  "properties": {
    "date:cessation_lower": "1995-12-01",
    "date:cessation_upper": "1995-12-01",
    "date:inception_lower": "1980-01-01",
    "date:inception_upper": "1980-01-01",
    "edtf:cessation": "1995-12-01",
    "edtf:inception": "1980-01-01",
    "geom:area": 0,
    "geom:bbox": "-7.307295,57.085335,-7.307295,57.085335",
    "geom:latitude": 57.085335,
    "geom:longitude": -7.307295,
    "iso:country": "GB",
    "mz:hierarchy_label": 1,
    "mz:is_current": 0,
    "os:country_code": "S92000003",
    "os:county_code": "S99999999",
    "os:district_code": "S12000013",
    "os:positional_quality_indicator": "1",
    "os:region_code": "S99999999",
    "src:geom": "os",
    "wof:belongsto": [
      102191581,
      85633159,
      1360699007,
      136253055,
      1880762027,
      404227471,
      1880773097
    ],
    "wof:breaches": [],
    "wof:country": "GB",
    "wof:created": 1583792601,
    "wof:geomhash": "d1c7e2e886ae15a1b67e768f0f0372f7",
    "wof:hierarchy": [
      {
        "continent_id": 102191581,
        "country_id": 85633159,
        "county_id": 1360699007,
        "empire_id": 136253055,
        "macrocounty_id": 1880762027,
        "macroregion_id": 404227471,
        "postalcode_id": 1712540431,
        "region_id": 1880773097
      }
    ],
    "wof:id": 1712540431,
    "wof:lastmodified": 1763548746,
    "wof:name": "PA81 5JJ",
    "wof:parent_id": 1360699007,
    "wof:placetype": "postalcode",
    "wof:repo": "whosonfirst-data-postalcode-gb",
    "wof:superseded_by": [],
    "wof:supersedes": [],
    "wof:tags": []
  },
  "bbox": [
    -7.307295,
    57.085335,
    -7.307295,
    57.085335
  ],
  "geometry": {"coordinates":[-7.307295,57.085335],"type":"Point"}
}
