{
  "id": 1160830636,
  "type": "Feature",
  "properties": {
    "date:cessation_lower": "1996-12-01",
    "date:cessation_upper": "1996-12-01",
    "date:inception_lower": "1994-05-01",
    "date:inception_upper": "1994-05-01",
    "edtf:cessation": "1996-12-01",
    "edtf:inception": "1994-05-01",
    "geom:area": 0,
    "geom:bbox": "-2.260770,53.501826,-2.260770,53.501826",
    "geom:latitude": 53.501826,
    "geom:longitude": -2.26077,
    "iso:country": "GB",
    "mz:hierarchy_label": 1,
    "mz:is_current": 0,
    "os:country_code": "E92000001",
    "os:county_code": "E99999999",
    "os:district_code": "E08000006",
    "os:positional_quality_indicator": "8",
    "os:region_code": "E12000002",
    "src:geom": "os",
    "wof:belongsto": [
      85633159,
      102191581,
      136253055,
      1864208809,
      1360699005,
      1175612693,
      1880762163,
      404227469,
      1880773095
    ],
    "wof:breaches": [],
    "wof:country": "GB",
    "wof:created": 1583791934,
    "wof:geomhash": "f3dee408c2c962f51c6b3403a374409a",
    "wof:hierarchy": [
      {
        "continent_id": 102191581,
        "country_id": 85633159,
        "county_id": 1360699005,
        "empire_id": 136253055,
        "locality_id": 1175612693,
        "macrocounty_id": 1880762163,
        "macroregion_id": 404227469,
        "postalcode_id": 1160830636,
        "region_id": 1880773095
      },
      {
        "continent_id": 102191581,
        "country_id": 85633159,
        "empire_id": 136253055,
        "postalcode_id": 1160830636,
        "postalregion_id": 1864208809
      }
    ],
    "wof:id": 1160830636,
    "wof:lastmodified": 1763548209,
    "wof:name": "M8 9DL",
    "wof:parent_id": 1175612693,
    "wof:placetype": "postalcode",
    "wof:repo": "whosonfirst-data-postalcode-gb",
    "wof:superseded_by": [],
    "wof:supersedes": [],
    "wof:tags": []
  },
  "bbox": [
    -2.26077,
    53.501826,
    -2.26077,
    53.501826
  ],
  "geometry": {"coordinates":[-2.26077,53.501826],"type":"Point"}
}
