{
  "id": 470976475,
  "type": "Feature",
  "properties": {
    "date:inception_lower": "1980-01-01",
    "date:inception_upper": "1980-01-01",
    "edtf:cessation": "",
    "edtf:inception": "1980-01-01",
    "geom:area": 0,
    "geom:bbox": "-0.421992,52.148328,-0.421992,52.148328",
    "geom:latitude": 52.148328,
    "geom:longitude": -0.421992,
    "gp:parent_id": "33117",
    "iso:country": "GB",
    "mz:hierarchy_label": 1,
    "mz:is_current": 1,
    "os:country_code": "E92000001",
    "os:county_code": "E99999999",
    "os:district_code": "E06000055",
    "os:positional_quality_indicator": "1",
    "os:region_code": "E12000006",
    "src:geom": "os",
    "wof:belongsto": [
      85633159,
      102191581,
      136253055,
      1864208897,
      1360699073,
      101750441,
      1880762167,
      404227469,
      1880773157
    ],
    "wof:breaches": [],
    "wof:concordances": {
      "gp:id": "27575871"
    },
    "wof:country": "GB",
    "wof:created": 1583701357,
    "wof:geomhash": "a8de7991eece5618d7b08b4026f4ad5f",
    "wof:hierarchy": [
      {
        "continent_id": 102191581,
        "country_id": 85633159,
        "county_id": 1360699073,
        "empire_id": 136253055,
        "locality_id": 101750441,
        "macrocounty_id": 1880762167,
        "macroregion_id": 404227469,
        "postalcode_id": 470976475,
        "region_id": 1880773157
      },
      {
        "continent_id": 102191581,
        "country_id": 85633159,
        "empire_id": 136253055,
        "postalcode_id": 470976475,
        "postalregion_id": 1864208897
      }
    ],
    "wof:id": 470976475,
    "wof:lastmodified": 1763547988,
    "wof:name": "MK41 0AE",
    "wof:parent_id": 101750441,
    "wof:placetype": "postalcode",
    "wof:repo": "whosonfirst-data-postalcode-gb",
    "wof:superseded_by": [],
    "wof:supersedes": [],
    "wof:tags": []
  },
  "bbox": [
    -0.421992,
    52.148328,
    -0.421992,
    52.148328
  ],
  "geometry": {"coordinates":[-0.421992,52.148328],"type":"Point"}
}
