{
  "id": 890270015,
  "type": "Feature",
  "properties": {
    "date:inception_lower": "2014-01-01",
    "date:inception_upper": "2014-01-01",
    "edtf:cessation": "",
    "edtf:inception": "2014-01-01",
    "geom:area": 0,
    "geom:bbox": "-3.464646,51.197863,-3.464646,51.197863",
    "geom:latitude": 51.197863,
    "geom:longitude": -3.464646,
    "iso:country": "GB",
    "mz:hierarchy_label": 1,
    "mz:is_current": 1,
    "os:country_code": "E92000001",
    "os:county_code": "E99999999",
    "os:district_code": "E06000066",
    "os:positional_quality_indicator": "1",
    "os:region_code": "E12000009",
    "src:geom": "os",
    "wof:belongsto": [
      85633159,
      102191581,
      136253055,
      1864210985,
      1360699059,
      404429505,
      101852501,
      1880762071,
      404227469,
      1880773145
    ],
    "wof:breaches": [],
    "wof:country": "GB",
    "wof:created": 1468902120,
    "wof:geomhash": "72ed45dbd44ef8857ef3a171e8e790a1",
    "wof:hierarchy": [
      {
        "continent_id": 102191581,
        "country_id": 85633159,
        "county_id": 1360699059,
        "empire_id": 136253055,
        "localadmin_id": 404429505,
        "locality_id": 101852501,
        "macrocounty_id": 1880762071,
        "macroregion_id": 404227469,
        "postalcode_id": 890270015,
        "region_id": 1880773145
      },
      {
        "continent_id": 102191581,
        "country_id": 85633159,
        "empire_id": 136253055,
        "postalcode_id": 890270015,
        "postalregion_id": 1864210985
      }
    ],
    "wof:id": 890270015,
    "wof:lastmodified": 1763548615,
    "wof:name": "TA24 6DD",
    "wof:parent_id": 101852501,
    "wof:placetype": "postalcode",
    "wof:repo": "whosonfirst-data-postalcode-gb",
    "wof:superseded_by": [],
    "wof:supersedes": [],
    "wof:tags": []
  },
  "bbox": [
    -3.464646,
    51.197863,
    -3.464646,
    51.197863
  ],
  "geometry": {"coordinates":[-3.464646,51.197863],"type":"Point"}
}
