{
  "id": 488550117,
  "type": "Feature",
  "properties": {
    "date:inception_lower": "1996-06-01",
    "date:inception_upper": "1996-06-01",
    "edtf:cessation": "",
    "edtf:inception": "1996-06-01",
    "geom:area": 0,
    "geom:bbox": "-2.060234,57.696476,-2.060234,57.696476",
    "geom:latitude": 57.696476,
    "geom:longitude": -2.060234,
    "gp:parent_id": "33986",
    "iso:country": "GB",
    "mz:hierarchy_label": 1,
    "mz:is_current": 1,
    "os:country_code": "S92000003",
    "os:county_code": "S99999999",
    "os:district_code": "S12000034",
    "os:positional_quality_indicator": "1",
    "os:region_code": "S99999999",
    "src:geom": "os",
    "wof:belongsto": [
      85633159,
      102191581,
      136253055,
      1864205431,
      1360699031,
      1880762109,
      404227471,
      1880773121
    ],
    "wof:breaches": [],
    "wof:concordances": {
      "gp:id": "26832946"
    },
    "wof:country": "GB",
    "wof:created": 1583701568,
    "wof:geomhash": "7f52b88b7901b17dab1e0740826f9d15",
    "wof:hierarchy": [
      {
        "continent_id": 102191581,
        "country_id": 85633159,
        "county_id": 1360699031,
        "empire_id": 136253055,
        "macrocounty_id": 1880762109,
        "macroregion_id": 404227471,
        "postalcode_id": 488550117,
        "region_id": 1880773121
      },
      {
        "continent_id": 102191581,
        "country_id": 85633159,
        "empire_id": 136253055,
        "postalcode_id": 488550117,
        "postalregion_id": 1864205431
      }
    ],
    "wof:id": 488550117,
    "wof:lastmodified": 1763548427,
    "wof:name": "AB43 7HF",
    "wof:parent_id": 1360699031,
    "wof:placetype": "postalcode",
    "wof:repo": "whosonfirst-data-postalcode-gb",
    "wof:superseded_by": [],
    "wof:supersedes": [],
    "wof:tags": []
  },
  "bbox": [
    -2.060234,
    57.696476,
    -2.060234,
    57.696476
  ],
  "geometry": {"coordinates":[-2.060234,57.696476],"type":"Point"}
}
