{
  "id": 1712463007,
  "type": "Feature",
  "properties": {
    "date:cessation_lower": "1992-12-01",
    "date:cessation_upper": "1992-12-01",
    "date:inception_lower": "1980-01-01",
    "date:inception_upper": "1980-01-01",
    "edtf:cessation": "1992-12-01",
    "edtf:inception": "1980-01-01",
    "geom:area": 0,
    "geom:bbox": "-3.286003,51.402461,-3.286003,51.402461",
    "geom:latitude": 51.402461,
    "geom:longitude": -3.286003,
    "iso:country": "GB",
    "mz:hierarchy_label": 1,
    "mz:is_current": 0,
    "os:country_code": "W92000004",
    "os:county_code": "W99999999",
    "os:district_code": "W06000014",
    "os:positional_quality_indicator": "1",
    "os:region_code": "W99999999",
    "src:geom": "os",
    "wof:belongsto": [
      102191581,
      85633159,
      1360698899,
      136253055,
      404433843,
      101750395,
      1880762115,
      404227475,
      1880773187
    ],
    "wof:breaches": [],
    "wof:country": "GB",
    "wof:created": 1583789147,
    "wof:geomhash": "8accc8a6bd94a6406d32148d60249507",
    "wof:hierarchy": [
      {
        "continent_id": 102191581,
        "country_id": 85633159,
        "county_id": 1360698899,
        "empire_id": 136253055,
        "localadmin_id": 404433843,
        "locality_id": 101750395,
        "macrocounty_id": 1880762115,
        "macroregion_id": 404227475,
        "postalcode_id": 1712463007,
        "region_id": 1880773187
      }
    ],
    "wof:id": 1712463007,
    "wof:lastmodified": 1763548720,
    "wof:name": "CF6 8HS",
    "wof:parent_id": 101750395,
    "wof:placetype": "postalcode",
    "wof:repo": "whosonfirst-data-postalcode-gb",
    "wof:superseded_by": [],
    "wof:supersedes": [],
    "wof:tags": []
  },
  "bbox": [
    -3.286003,
    51.402461,
    -3.286003,
    51.402461
  ],
  "geometry": {"coordinates":[-3.286003,51.402461],"type":"Point"}
}
