{
  "id": 488121629,
  "type": "Feature",
  "properties": {
    "date:inception_lower": "1980-01-01",
    "date:inception_upper": "1980-01-01",
    "edtf:cessation": "",
    "edtf:inception": "1980-01-01",
    "geom:area": 0,
    "geom:bbox": "-1.247107,53.703180,-1.247107,53.703180",
    "geom:latitude": 53.70318,
    "geom:longitude": -1.247107,
    "gp:parent_id": "25571",
    "iso:country": "GB",
    "mz:hierarchy_label": 1,
    "mz:is_current": 1,
    "os:country_code": "E92000001",
    "os:county_code": "E99999999",
    "os:district_code": "E08000036",
    "os:positional_quality_indicator": "1",
    "os:region_code": "E12000003",
    "src:geom": "os",
    "wof:belongsto": [
      85633159,
      102191581,
      136253055,
      1864211549,
      1360698945,
      1360817483,
      1125868155,
      1880762059
    ],
    "wof:breaches": [],
    "wof:concordances": {
      "gp:id": "28150675"
    },
    "wof:country": "GB",
    "wof:created": 1583701258,
    "wof:geomhash": "8f128da410c7d4f8de480c51bdf2fc79",
    "wof:hierarchy": [
      {
        "continent_id": -1,
        "country_id": -1,
        "county_id": 1360698945,
        "localadmin_id": 1360817483,
        "locality_id": 1125868155,
        "macrocounty_id": 1880762059,
        "postalcode_id": 488121629,
        "region_id": -1
      },
      {
        "continent_id": 102191581,
        "country_id": 85633159,
        "empire_id": 136253055,
        "postalcode_id": 488121629,
        "postalregion_id": 1864211549
      }
    ],
    "wof:id": 488121629,
    "wof:lastmodified": 1763548519,
    "wof:name": "WF11 0JR",
    "wof:parent_id": 1125868155,
    "wof:placetype": "postalcode",
    "wof:repo": "whosonfirst-data-postalcode-gb",
    "wof:superseded_by": [],
    "wof:supersedes": [],
    "wof:tags": []
  },
  "bbox": [
    -1.247107,
    53.70318,
    -1.247107,
    53.70318
  ],
  "geometry": {"coordinates":[-1.247107,53.70318],"type":"Point"}
}
