{
  "id": 454226871,
  "type": "Feature",
  "properties": {
    "date:inception_lower": "1980-01-01",
    "date:inception_upper": "1980-01-01",
    "edtf:cessation": "",
    "edtf:inception": "1980-01-01",
    "geom:area": 0,
    "geom:bbox": "1.298625,51.135385,1.298625,51.135385",
    "geom:latitude": 51.135385,
    "geom:longitude": 1.298625,
    "iso:country": "GB",
    "mz:hierarchy_label": 1,
    "mz:is_current": 1,
    "os:country_code": "E92000001",
    "os:county_code": "E10000016",
    "os:district_code": "E07000108",
    "os:positional_quality_indicator": "1",
    "os:region_code": "E12000008",
    "src:geom": "os",
    "wof:belongsto": [
      85633159,
      102191581,
      136253055,
      1864206461,
      1880771519,
      404452329,
      101854657,
      1880762057,
      404227469,
      1880762705
    ],
    "wof:breaches": [],
    "wof:concordances": {
      "gp:id": "26447005"
    },
    "wof:country": "GB",
    "wof:created": 1583701395,
    "wof:geomhash": "f39294d19aba4d7fbf45c8c7a636bf02",
    "wof:hierarchy": [
      {
        "continent_id": 102191581,
        "country_id": 85633159,
        "county_id": 1880771519,
        "empire_id": 136253055,
        "localadmin_id": 404452329,
        "locality_id": 101854657,
        "macrocounty_id": 1880762057,
        "macroregion_id": 404227469,
        "postalcode_id": 454226871,
        "region_id": 1880762705
      },
      {
        "continent_id": 102191581,
        "country_id": 85633159,
        "empire_id": 136253055,
        "postalcode_id": 454226871,
        "postalregion_id": 1864206461
      }
    ],
    "wof:id": 454226871,
    "wof:lastmodified": 1763548286,
    "wof:name": "CT17 0TQ",
    "wof:parent_id": 101854657,
    "wof:placetype": "postalcode",
    "wof:repo": "whosonfirst-data-postalcode-gb",
    "wof:superseded_by": [],
    "wof:supersedes": [],
    "wof:tags": []
  },
  "bbox": [
    1.298625,
    51.135385,
    1.298625,
    51.135385
  ],
  "geometry": {"coordinates":[1.298625,51.135385],"type":"Point"}
}
