{
  "id": 454446397,
  "type": "Feature",
  "properties": {
    "date:inception_lower": "1980-01-01",
    "date:inception_upper": "1980-01-01",
    "edtf:cessation": "",
    "edtf:inception": "1980-01-01",
    "geom:area": 0,
    "geom:bbox": "-0.123980,53.578204,-0.123980,53.578204",
    "geom:latitude": 53.578204,
    "geom:longitude": -0.12398,
    "gp:parent_id": "21896",
    "iso:country": "GB",
    "mz:hierarchy_label": 1,
    "mz:is_current": 1,
    "os:country_code": "E92000001",
    "os:county_code": "E99999999",
    "os:district_code": "E06000012",
    "os:positional_quality_indicator": "1",
    "os:region_code": "E12000003",
    "src:geom": "os",
    "wof:belongsto": [
      85633159,
      102191581,
      136253055,
      1864206839,
      1360698837,
      404443711,
      1125882533,
      1880762033,
      404227469,
      1880762701
    ],
    "wof:breaches": [],
    "wof:concordances": {
      "gp:id": "27191554"
    },
    "wof:country": "GB",
    "wof:created": 1583701569,
    "wof:geomhash": "beac2b1ec66b98aac71d419df5a875b3",
    "wof:hierarchy": [
      {
        "continent_id": 102191581,
        "country_id": 85633159,
        "county_id": 1360698837,
        "empire_id": 136253055,
        "localadmin_id": 404443711,
        "locality_id": 1125882533,
        "macrocounty_id": 1880762033,
        "macroregion_id": 404227469,
        "postalcode_id": 454446397,
        "region_id": 1880762701
      },
      {
        "continent_id": 102191581,
        "country_id": 85633159,
        "empire_id": 136253055,
        "postalcode_id": 454446397,
        "postalregion_id": 1864206839
      }
    ],
    "wof:id": 454446397,
    "wof:lastmodified": 1763548290,
    "wof:name": "DN37 9ND",
    "wof:parent_id": 1125882533,
    "wof:placetype": "postalcode",
    "wof:repo": "whosonfirst-data-postalcode-gb",
    "wof:superseded_by": [],
    "wof:supersedes": [],
    "wof:tags": []
  },
  "bbox": [
    -0.12398,
    53.578204,
    -0.12398,
    53.578204
  ],
  "geometry": {"coordinates":[-0.12398,53.578204],"type":"Point"}
}
