{
  "id": 488111395,
  "type": "Feature",
  "properties": {
    "date:inception_lower": "2000-10-01",
    "date:inception_upper": "2000-10-01",
    "edtf:cessation": "",
    "edtf:inception": "2000-10-01",
    "geom:area": 0,
    "geom:bbox": "-0.487200,51.635249,-0.487200,51.635249",
    "geom:latitude": 51.635249,
    "geom:longitude": -0.4872,
    "gp:parent_id": "28976",
    "iso:country": "GB",
    "mz:hierarchy_label": 1,
    "mz:is_current": 1,
    "os:country_code": "E92000001",
    "os:county_code": "E10000015",
    "os:district_code": "E07000102",
    "os:positional_quality_indicator": "1",
    "os:region_code": "E12000006",
    "src:geom": "os",
    "wof:belongsto": [
      85633159,
      102191581,
      136253055,
      1864211533,
      1880771491,
      404431565,
      1125834847,
      1880762153,
      404227469,
      1880762721
    ],
    "wof:breaches": [],
    "wof:concordances": {
      "gp:id": "26701735"
    },
    "wof:country": "GB",
    "wof:created": 1583701252,
    "wof:geomhash": "e8854336d6d90ea69ebc02c8e229894c",
    "wof:hierarchy": [
      {
        "continent_id": 102191581,
        "country_id": 85633159,
        "county_id": 1880771491,
        "empire_id": 136253055,
        "localadmin_id": 404431565,
        "locality_id": 1125834847,
        "macrocounty_id": 1880762153,
        "macroregion_id": 404227469,
        "postalcode_id": 488111395,
        "region_id": 1880762721
      },
      {
        "continent_id": 102191581,
        "country_id": 85633159,
        "empire_id": 136253055,
        "postalcode_id": 488111395,
        "postalregion_id": 1864211533
      }
    ],
    "wof:id": 488111395,
    "wof:lastmodified": 1763548502,
    "wof:name": "WD3 8BW",
    "wof:parent_id": 1125834847,
    "wof:placetype": "postalcode",
    "wof:repo": "whosonfirst-data-postalcode-gb",
    "wof:superseded_by": [],
    "wof:supersedes": [],
    "wof:tags": []
  },
  "bbox": [
    -0.4872,
    51.635249,
    -0.4872,
    51.635249
  ],
  "geometry": {"coordinates":[-0.4872,51.635249],"type":"Point"}
}
