{
  "id": 471033975,
  "type": "Feature",
  "properties": {
    "date:inception_lower": "2000-12-01",
    "date:inception_upper": "2000-12-01",
    "edtf:cessation": "",
    "edtf:inception": "2000-12-01",
    "geom:area": 0,
    "geom:bbox": "-1.566628,55.011435,-1.566628,55.011435",
    "geom:latitude": 55.011435,
    "geom:longitude": -1.566628,
    "iso:country": "GB",
    "mz:hierarchy_label": 1,
    "mz:is_current": 1,
    "os:country_code": "E92000001",
    "os:county_code": "E99999999",
    "os:district_code": "E08000022",
    "os:positional_quality_indicator": "1",
    "os:region_code": "E12000001",
    "src:geom": "os",
    "wof:belongsto": [
      85633159,
      102191581,
      136253055,
      1864209009,
      1360699037,
      1360817045,
      1360832421,
      1880762063,
      404227469,
      1880773053
    ],
    "wof:breaches": [],
    "wof:concordances": {
      "gp:id": "27603546"
    },
    "wof:country": "GB",
    "wof:created": 1583701137,
    "wof:geomhash": "0bdccb9aaeb955f9237754646513f2da",
    "wof:hierarchy": [
      {
        "continent_id": 102191581,
        "country_id": 85633159,
        "county_id": 1360699037,
        "empire_id": 136253055,
        "localadmin_id": 1360817045,
        "locality_id": 1360832421,
        "macrocounty_id": 1880762063,
        "macroregion_id": 404227469,
        "postalcode_id": 471033975,
        "region_id": 1880773053
      },
      {
        "continent_id": 102191581,
        "country_id": 85633159,
        "empire_id": 136253055,
        "postalcode_id": 471033975,
        "postalregion_id": 1864209009
      }
    ],
    "wof:id": 471033975,
    "wof:lastmodified": 1763548370,
    "wof:name": "NE12 8AZ",
    "wof:parent_id": 1360832421,
    "wof:placetype": "postalcode",
    "wof:repo": "whosonfirst-data-postalcode-gb",
    "wof:superseded_by": [],
    "wof:supersedes": [],
    "wof:tags": []
  },
  "bbox": [
    -1.566628,
    55.011435,
    -1.566628,
    55.011435
  ],
  "geometry": {"coordinates":[-1.566628,55.011435],"type":"Point"}
}
