{
  "id": 38845422,
  "type": "Feature",
  "properties": {
    "date:cessation_lower": "1998-06-01",
    "date:cessation_upper": "1998-06-01",
    "date:inception_lower": "1980-01-01",
    "date:inception_upper": "1980-01-01",
    "edtf:cessation": "1998-06-01",
    "edtf:inception": "1980-01-01",
    "geom:area": 0,
    "geom:bbox": "-1.340526,54.068830,-1.340526,54.068830",
    "geom:latitude": 54.06883,
    "geom:longitude": -1.340526,
    "iso:country": "GB",
    "mz:hierarchy_label": 1,
    "mz:is_current": 0,
    "os:country_code": "E92000001",
    "os:county_code": "E99999999",
    "os:district_code": "E06000065",
    "os:positional_quality_indicator": "1",
    "os:region_code": "E12000003",
    "src:geom": "os",
    "wof:belongsto": [
      1360698753,
      404435033,
      1360756721,
      1880762011
    ],
    "wof:breaches": [],
    "wof:country": "GB",
    "wof:created": 1583794931,
    "wof:geomhash": "85a0ab6df1053dee5714edc91327ace0",
    "wof:hierarchy": [
      {
        "continent_id": -1,
        "country_id": -1,
        "county_id": 1360698753,
        "localadmin_id": 404435033,
        "locality_id": 1360756721,
        "macrocounty_id": 1880762011,
        "postalcode_id": 38845422,
        "region_id": -1
      }
    ],
    "wof:id": 38845422,
    "wof:lastmodified": 1763548765,
    "wof:name": "YO5 9SB",
    "wof:parent_id": 1360756721,
    "wof:placetype": "postalcode",
    "wof:repo": "whosonfirst-data-postalcode-gb",
    "wof:superseded_by": [],
    "wof:supersedes": [],
    "wof:tags": []
  },
  "bbox": [
    -1.340526,
    54.06883,
    -1.340526,
    54.06883
  ],
  "geometry": {"coordinates":[-1.340526,54.06883],"type":"Point"}
}
