{
  "id": 38884599,
  "type": "Feature",
  "properties": {
    "date:cessation_lower": "2000-09-01",
    "date:cessation_upper": "2000-09-01",
    "date:inception_lower": "2000-05-01",
    "date:inception_upper": "2000-05-01",
    "edtf:cessation": "2000-09-01",
    "edtf:inception": "2000-05-01",
    "geom:area": 0,
    "geom:bbox": "-1.088946,50.799592,-1.088946,50.799592",
    "geom:latitude": 50.799592,
    "geom:longitude": -1.088946,
    "iso:country": "GB",
    "mz:hierarchy_label": 1,
    "mz:is_current": 0,
    "os:country_code": "E92000001",
    "os:county_code": "E99999999",
    "os:district_code": "E06000044",
    "os:positional_quality_indicator": "8",
    "os:region_code": "E12000008",
    "src:geom": "os",
    "wof:belongsto": [
      85633159,
      102191581,
      136253055,
      1864209911,
      1360699069,
      101750307,
      1880762155,
      404227469,
      1880762717
    ],
    "wof:breaches": [],
    "wof:country": "GB",
    "wof:created": 1583795358,
    "wof:geomhash": "221c5eb3142ae08643ec615124df6018",
    "wof:hierarchy": [
      {
        "continent_id": 102191581,
        "country_id": 85633159,
        "county_id": 1360699069,
        "empire_id": 136253055,
        "locality_id": 101750307,
        "macrocounty_id": 1880762155,
        "macroregion_id": 404227469,
        "postalcode_id": 38884599,
        "region_id": 1880762717
      },
      {
        "continent_id": 102191581,
        "country_id": 85633159,
        "empire_id": 136253055,
        "postalcode_id": 38884599,
        "postalregion_id": 1864209911
      }
    ],
    "wof:id": 38884599,
    "wof:lastmodified": 1763548763,
    "wof:name": "PO1 1ZU",
    "wof:parent_id": 101750307,
    "wof:placetype": "postalcode",
    "wof:repo": "whosonfirst-data-postalcode-gb",
    "wof:superseded_by": [],
    "wof:supersedes": [],
    "wof:tags": []
  },
  "bbox": [
    -1.088946,
    50.799592,
    -1.088946,
    50.799592
  ],
  "geometry": {"coordinates":[-1.088946,50.799592],"type":"Point"}
}
