{
  "id": 504594731,
  "type": "Feature",
  "properties": {
    "date:inception_lower": "1980-01-01",
    "date:inception_upper": "1980-01-01",
    "edtf:cessation": "",
    "edtf:inception": "1980-01-01",
    "geom:area": 0,
    "geom:bbox": "-4.492319,51.825853,-4.492319,51.825853",
    "geom:latitude": 51.825853,
    "geom:longitude": -4.492319,
    "gp:parent_id": "12696118",
    "iso:country": "GB",
    "mz:hierarchy_label": 1,
    "mz:is_current": 1,
    "os:country_code": "W92000004",
    "os:county_code": "W99999999",
    "os:district_code": "W06000010",
    "os:positional_quality_indicator": "1",
    "os:region_code": "W99999999",
    "src:geom": "os",
    "wof:belongsto": [
      85633159,
      102191581,
      136253055,
      1864210323,
      1360698785,
      404434293,
      1125977277,
      1880762181,
      404227475,
      1880772913
    ],
    "wof:breaches": [],
    "wof:concordances": {
      "gp:id": "27878376"
    },
    "wof:country": "GB",
    "wof:created": 1583701464,
    "wof:geomhash": "16d684ed944dd434dd52198132804147",
    "wof:hierarchy": [
      {
        "continent_id": 102191581,
        "country_id": 85633159,
        "county_id": 1360698785,
        "empire_id": 136253055,
        "localadmin_id": 404434293,
        "locality_id": 1125977277,
        "macrocounty_id": 1880762181,
        "macroregion_id": 404227475,
        "postalcode_id": 504594731,
        "region_id": 1880772913
      },
      {
        "continent_id": 102191581,
        "country_id": 85633159,
        "empire_id": 136253055,
        "postalcode_id": 504594731,
        "postalregion_id": 1864210323
      }
    ],
    "wof:id": 504594731,
    "wof:lastmodified": 1763547899,
    "wof:name": "SA33 4BY",
    "wof:parent_id": 1125977277,
    "wof:placetype": "postalcode",
    "wof:repo": "whosonfirst-data-postalcode-gb",
    "wof:superseded_by": [],
    "wof:supersedes": [],
    "wof:tags": []
  },
  "bbox": [
    -4.492319,
    51.825853,
    -4.492319,
    51.825853
  ],
  "geometry": {"coordinates":[-4.492319,51.825853],"type":"Point"}
}
