{
  "id": 488164695,
  "type": "Feature",
  "properties": {
    "date:inception_lower": "1990-02-01",
    "date:inception_upper": "1990-02-01",
    "edtf:cessation": "",
    "edtf:inception": "1990-02-01",
    "geom:area": 0,
    "geom:bbox": "-2.022982,52.069789,-2.022982,52.069789",
    "geom:latitude": 52.069789,
    "geom:longitude": -2.022982,
    "gp:parent_id": "19519",
    "iso:country": "GB",
    "mz:hierarchy_label": 1,
    "mz:is_current": 1,
    "os:country_code": "E92000001",
    "os:county_code": "E10000034",
    "os:district_code": "E07000238",
    "os:positional_quality_indicator": "1",
    "os:region_code": "E12000005",
    "src:geom": "os",
    "wof:belongsto": [
      85633159,
      102191581,
      136253055,
      1864211605,
      1880771701,
      404450819,
      1125991803,
      1880762019,
      404227469,
      1880762691
    ],
    "wof:breaches": [],
    "wof:concordances": {
      "gp:id": "28165345"
    },
    "wof:country": "GB",
    "wof:created": 1583701287,
    "wof:geomhash": "5deb2b7654f0f7f5b0defdfd6efcdbaf",
    "wof:hierarchy": [
      {
        "continent_id": 102191581,
        "country_id": 85633159,
        "county_id": 1880771701,
        "empire_id": 136253055,
        "localadmin_id": 404450819,
        "locality_id": 1125991803,
        "macrocounty_id": 1880762019,
        "macroregion_id": 404227469,
        "postalcode_id": 488164695,
        "region_id": 1880762691
      },
      {
        "continent_id": 102191581,
        "country_id": 85633159,
        "empire_id": 136253055,
        "postalcode_id": 488164695,
        "postalregion_id": 1864211605
      }
    ],
    "wof:id": 488164695,
    "wof:lastmodified": 1763548537,
    "wof:name": "WR10 3JJ",
    "wof:parent_id": 1125991803,
    "wof:placetype": "postalcode",
    "wof:repo": "whosonfirst-data-postalcode-gb",
    "wof:superseded_by": [],
    "wof:supersedes": [],
    "wof:tags": []
  },
  "bbox": [
    -2.022982,
    52.069789,
    -2.022982,
    52.069789
  ],
  "geometry": {"coordinates":[-2.022982,52.069789],"type":"Point"}
}
