{
  "id": 471480571,
  "type": "Feature",
  "properties": {
    "date:inception_lower": "1998-12-01",
    "date:inception_upper": "1998-12-01",
    "edtf:cessation": "",
    "edtf:inception": "1998-12-01",
    "geom:area": 0,
    "geom:bbox": "-1.519661,50.706487,-1.519661,50.706487",
    "geom:latitude": 50.706487,
    "geom:longitude": -1.519661,
    "gp:parent_id": "30671",
    "iso:country": "GB",
    "mz:hierarchy_label": 1,
    "mz:is_current": 1,
    "os:country_code": "E92000001",
    "os:county_code": "E99999999",
    "os:district_code": "E06000046",
    "os:positional_quality_indicator": "1",
    "os:region_code": "E12000008",
    "src:geom": "os",
    "wof:belongsto": [
      85633159,
      102191581,
      136253055,
      1864209975,
      1360699089,
      404431233,
      1125873697,
      1880762055,
      404227469,
      1880773169
    ],
    "wof:breaches": [],
    "wof:concordances": {
      "gp:id": "27791938"
    },
    "wof:country": "GB",
    "wof:created": 1583701638,
    "wof:geomhash": "e60d36be489b9f13c2c92a757a64b708",
    "wof:hierarchy": [
      {
        "continent_id": 102191581,
        "country_id": 85633159,
        "county_id": 1360699089,
        "empire_id": 136253055,
        "localadmin_id": 404431233,
        "locality_id": 1125873697,
        "macrocounty_id": 1880762055,
        "macroregion_id": 404227469,
        "postalcode_id": 471480571,
        "region_id": 1880773169
      },
      {
        "continent_id": 102191581,
        "country_id": 85633159,
        "empire_id": 136253055,
        "postalcode_id": 471480571,
        "postalregion_id": 1864209975
      }
    ],
    "wof:id": 471480571,
    "wof:lastmodified": 1763548323,
    "wof:name": "PO41 0NB",
    "wof:parent_id": 1125873697,
    "wof:placetype": "postalcode",
    "wof:repo": "whosonfirst-data-postalcode-gb",
    "wof:superseded_by": [],
    "wof:supersedes": [],
    "wof:tags": []
  },
  "bbox": [
    -1.519661,
    50.706487,
    -1.519661,
    50.706487
  ],
  "geometry": {"coordinates":[-1.519661,50.706487],"type":"Point"}
}
