{
  "id": 454254671,
  "type": "Feature",
  "properties": {
    "date:inception_lower": "1980-01-01",
    "date:inception_upper": "1980-01-01",
    "edtf:cessation": "",
    "edtf:inception": "1980-01-01",
    "geom:area": 0,
    "geom:bbox": "-1.447522,52.431035,-1.447522,52.431035",
    "geom:latitude": 52.431035,
    "geom:longitude": -1.447522,
    "gp:parent_id": "28276230",
    "iso:country": "GB",
    "mz:hierarchy_label": 1,
    "mz:is_current": 1,
    "os:country_code": "E92000001",
    "os:county_code": "E99999999",
    "os:district_code": "E08000026",
    "os:positional_quality_indicator": "1",
    "os:region_code": "E12000005",
    "src:geom": "os",
    "wof:belongsto": [
      85633159,
      102191581,
      136253055,
      1864206501,
      1360699115,
      101750449,
      1880762069,
      404227469,
      1880773161
    ],
    "wof:breaches": [],
    "wof:concordances": {
      "gp:id": "26652727"
    },
    "wof:country": "GB",
    "wof:created": 1583701420,
    "wof:geomhash": "0faa55d0ac912e8ac44066f4d073fb6c",
    "wof:hierarchy": [
      {
        "continent_id": 102191581,
        "country_id": 85633159,
        "county_id": 1360699115,
        "empire_id": 136253055,
        "locality_id": 101750449,
        "macrocounty_id": 1880762069,
        "macroregion_id": 404227469,
        "postalcode_id": 454254671,
        "region_id": 1880773161
      },
      {
        "continent_id": 102191581,
        "country_id": 85633159,
        "empire_id": 136253055,
        "postalcode_id": 454254671,
        "postalregion_id": 1864206501
      }
    ],
    "wof:id": 454254671,
    "wof:lastmodified": 1763548507,
    "wof:name": "CV2 2HQ",
    "wof:parent_id": 101750449,
    "wof:placetype": "postalcode",
    "wof:repo": "whosonfirst-data-postalcode-gb",
    "wof:superseded_by": [],
    "wof:supersedes": [],
    "wof:tags": []
  },
  "bbox": [
    -1.447522,
    52.431035,
    -1.447522,
    52.431035
  ],
  "geometry": {"coordinates":[-1.447522,52.431035],"type":"Point"}
}
