{
  "id": 1947773309,
  "type": "Feature",
  "properties": {
    "date:inception_lower": "2025-05-01",
    "date:inception_upper": "2025-05-01",
    "edtf:cessation": "",
    "edtf:inception": "2025-05-01",
    "geom:area": 0,
    "geom:bbox": "-5.100450,50.152098,-5.100450,50.152098",
    "geom:latitude": 50.152098,
    "geom:longitude": -5.10045,
    "iso:country": "GB",
    "mz:hierarchy_label": 1,
    "mz:is_current": 1,
    "os:country_code": "E92000001",
    "os:county_code": "E99999999",
    "os:district_code": "E06000052",
    "os:positional_quality_indicator": "1",
    "os:region_code": "E12000009",
    "src:geom": "os",
    "wof:belongsto": [
      102191581,
      85633159,
      1360699085,
      136253055,
      404435675,
      1360757771,
      1880762119,
      404227469,
      1880773165,
      1864211191
    ],
    "wof:breaches": [],
    "wof:country": "GB",
    "wof:created": 1736335110,
    "wof:geomhash": "3583e07af1c0411fb24c31aa13c551de",
    "wof:hierarchy": [
      {
        "continent_id": 102191581,
        "country_id": 85633159,
        "county_id": 1360699085,
        "empire_id": 136253055,
        "localadmin_id": 404435675,
        "locality_id": 1360757771,
        "macrocounty_id": 1880762119,
        "macroregion_id": 404227469,
        "postalcode_id": 1947773309,
        "region_id": 1880773165
      },
      {
        "continent_id": 102191581,
        "country_id": 85633159,
        "empire_id": 136253055,
        "postalcode_id": 1947773309,
        "postalregion_id": 1864211191
      }
    ],
    "wof:id": 1947773309,
    "wof:lastmodified": 1763547890,
    "wof:name": "TR11 9FN",
    "wof:parent_id": 1360757771,
    "wof:placetype": "postalcode",
    "wof:repo": "whosonfirst-data-postalcode-gb",
    "wof:superseded_by": [],
    "wof:supersedes": [],
    "wof:tags": []
  },
  "bbox": [
    -5.10045,
    50.152098,
    -5.10045,
    50.152098
  ],
  "geometry": {"coordinates":[-5.10045,50.152098],"type":"Point"}
}
