{
  "id": 471500477,
  "type": "Feature",
  "properties": {
    "date:inception_lower": "2001-06-01",
    "date:inception_upper": "2001-06-01",
    "edtf:cessation": "",
    "edtf:inception": "2001-06-01",
    "geom:area": 0,
    "geom:bbox": "-2.747736,53.695072,-2.747736,53.695072",
    "geom:latitude": 53.695072,
    "geom:longitude": -2.747736,
    "iso:country": "GB",
    "mz:hierarchy_label": 1,
    "mz:is_current": 1,
    "os:country_code": "E92000001",
    "os:county_code": "E10000017",
    "os:district_code": "E07000126",
    "os:positional_quality_indicator": "1",
    "os:region_code": "E12000002",
    "src:geom": "os",
    "wof:belongsto": [
      85633159,
      102191581,
      136253055,
      1864209997,
      1880771537,
      101872283,
      1880762053,
      404227469,
      1880762711
    ],
    "wof:breaches": [],
    "wof:concordances": {
      "gp:id": "26637916"
    },
    "wof:country": "GB",
    "wof:created": 1583701648,
    "wof:geomhash": "5b10ac5f9a08cb7ccb858c3e2f133911",
    "wof:hierarchy": [
      {
        "continent_id": 102191581,
        "country_id": 85633159,
        "county_id": 1880771537,
        "empire_id": 136253055,
        "locality_id": 101872283,
        "macrocounty_id": 1880762053,
        "macroregion_id": 404227469,
        "postalcode_id": 471500477,
        "region_id": 1880762711
      },
      {
        "continent_id": 102191581,
        "country_id": 85633159,
        "empire_id": 136253055,
        "postalcode_id": 471500477,
        "postalregion_id": 1864209997
      }
    ],
    "wof:id": 471500477,
    "wof:lastmodified": 1763548235,
    "wof:name": "PR26 7SY",
    "wof:parent_id": 101872283,
    "wof:placetype": "postalcode",
    "wof:repo": "whosonfirst-data-postalcode-gb",
    "wof:superseded_by": [],
    "wof:supersedes": [],
    "wof:tags": []
  },
  "bbox": [
    -2.747736,
    53.695072,
    -2.747736,
    53.695072
  ],
  "geometry": {"coordinates":[-2.747736,53.695072],"type":"Point"}
}
