{
  "id": 488537657,
  "type": "Feature",
  "properties": {
    "date:inception_lower": "1996-06-01",
    "date:inception_upper": "1996-06-01",
    "edtf:cessation": "",
    "edtf:inception": "1996-06-01",
    "geom:area": 0,
    "geom:bbox": "-2.162526,57.170049,-2.162526,57.170049",
    "geom:latitude": 57.170049,
    "geom:longitude": -2.162526,
    "gp:parent_id": "12696182",
    "iso:country": "GB",
    "mz:hierarchy_label": 1,
    "mz:is_current": 1,
    "os:country_code": "S92000003",
    "os:county_code": "S99999999",
    "os:district_code": "S12000033",
    "os:positional_quality_indicator": "1",
    "os:region_code": "S99999999",
    "src:geom": "os",
    "wof:belongsto": [
      85633159,
      102191581,
      136253055,
      1864205391,
      1360698989,
      101750639,
      1880762093,
      404227471,
      1880773079
    ],
    "wof:breaches": [],
    "wof:concordances": {
      "gp:id": "26826577"
    },
    "wof:country": "GB",
    "wof:created": 1583701550,
    "wof:geomhash": "f7a319cafe47e93c49a748fcd3f89911",
    "wof:hierarchy": [
      {
        "continent_id": 102191581,
        "country_id": 85633159,
        "county_id": 1360698989,
        "empire_id": 136253055,
        "locality_id": 101750639,
        "macrocounty_id": 1880762093,
        "macroregion_id": 404227471,
        "postalcode_id": 488537657,
        "region_id": 1880773079
      },
      {
        "continent_id": 102191581,
        "country_id": 85633159,
        "empire_id": 136253055,
        "postalcode_id": 488537657,
        "postalregion_id": 1864205391
      }
    ],
    "wof:id": 488537657,
    "wof:lastmodified": 1763548525,
    "wof:name": "AB16 7DE",
    "wof:parent_id": 101750639,
    "wof:placetype": "postalcode",
    "wof:repo": "whosonfirst-data-postalcode-gb",
    "wof:superseded_by": [],
    "wof:supersedes": [],
    "wof:tags": []
  },
  "bbox": [
    -2.162526,
    57.170049,
    -2.162526,
    57.170049
  ],
  "geometry": {"coordinates":[-2.162526,57.170049],"type":"Point"}
}
