{
  "id": 504516433,
  "type": "Feature",
  "properties": {
    "date:inception_lower": "1980-01-01",
    "date:inception_upper": "1980-01-01",
    "edtf:cessation": "",
    "edtf:inception": "1980-01-01",
    "geom:area": 0,
    "geom:bbox": "-4.234932,53.353787,-4.234932,53.353787",
    "geom:latitude": 53.353787,
    "geom:longitude": -4.234932,
    "gp:parent_id": "12696117",
    "iso:country": "GB",
    "mz:hierarchy_label": 1,
    "mz:is_current": 1,
    "os:country_code": "W92000004",
    "os:county_code": "W99999999",
    "os:district_code": "W06000001",
    "os:positional_quality_indicator": "1",
    "os:region_code": "W99999999",
    "src:geom": "os",
    "wof:belongsto": [
      85633159,
      102191581,
      136253055,
      1864208581,
      1125897655
    ],
    "wof:breaches": [],
    "wof:concordances": {
      "gp:id": "27503190"
    },
    "wof:country": "GB",
    "wof:created": 1583701398,
    "wof:geomhash": "23ecd7dc6670b8eca5c8bae99af5b928",
    "wof:hierarchy": [
      {
        "continent_id": -1,
        "country_id": -1,
        "locality_id": 1125897655,
        "postalcode_id": 504516433,
        "region_id": -1
      },
      {
        "continent_id": 102191581,
        "country_id": 85633159,
        "empire_id": 136253055,
        "postalcode_id": 504516433,
        "postalregion_id": 1864208581
      }
    ],
    "wof:id": 504516433,
    "wof:lastmodified": 1763548057,
    "wof:name": "LL72 8HY",
    "wof:parent_id": 1125897655,
    "wof:placetype": "postalcode",
    "wof:repo": "whosonfirst-data-postalcode-gb",
    "wof:superseded_by": [],
    "wof:supersedes": [],
    "wof:tags": []
  },
  "bbox": [
    -4.234932,
    53.353787,
    -4.234932,
    53.353787
  ],
  "geometry": {"coordinates":[-4.234932,53.353787],"type":"Point"}
}
