{
  "id": 1160823730,
  "type": "Feature",
  "properties": {
    "date:cessation_lower": "2000-06-01",
    "date:cessation_upper": "2000-06-01",
    "date:inception_lower": "1998-12-01",
    "date:inception_upper": "1998-12-01",
    "edtf:cessation": "2000-06-01",
    "edtf:inception": "1998-12-01",
    "geom:area": 0,
    "geom:bbox": "0.627637,50.972657,0.627637,50.972657",
    "geom:latitude": 50.972657,
    "geom:longitude": 0.627637,
    "iso:country": "GB",
    "mz:hierarchy_label": 1,
    "mz:is_current": 0,
    "os:country_code": "E92000001",
    "os:county_code": "E10000011",
    "os:district_code": "E07000064",
    "os:positional_quality_indicator": "6",
    "os:region_code": "E12000008",
    "src:geom": "os",
    "wof:belongsto": [
      85633159,
      102191581,
      136253055,
      1864211119,
      1880771411,
      404446981,
      1125866687,
      1880762145,
      404227469,
      1880762703
    ],
    "wof:breaches": [],
    "wof:country": "GB",
    "wof:created": 1583791573,
    "wof:geomhash": "01019a4d28f12a616364cf8b9424d3ed",
    "wof:hierarchy": [
      {
        "continent_id": 102191581,
        "country_id": 85633159,
        "county_id": 1880771411,
        "empire_id": 136253055,
        "localadmin_id": 404446981,
        "locality_id": 1125866687,
        "macrocounty_id": 1880762145,
        "macroregion_id": 404227469,
        "postalcode_id": 1160823730,
        "region_id": 1880762703
      },
      {
        "continent_id": 102191581,
        "country_id": 85633159,
        "empire_id": 136253055,
        "postalcode_id": 1160823730,
        "postalregion_id": 1864211119
      }
    ],
    "wof:id": 1160823730,
    "wof:lastmodified": 1763548237,
    "wof:name": "TN31 6ZL",
    "wof:parent_id": 1125866687,
    "wof:placetype": "postalcode",
    "wof:repo": "whosonfirst-data-postalcode-gb",
    "wof:superseded_by": [],
    "wof:supersedes": [],
    "wof:tags": []
  },
  "bbox": [
    0.627637,
    50.972657,
    0.627637,
    50.972657
  ],
  "geometry": {"coordinates":[0.627637,50.972657],"type":"Point"}
}
