{
  "id": 471751637,
  "type": "Feature",
  "properties": {
    "date:cessation_lower": "2021-08-01",
    "date:cessation_upper": "2021-08-01",
    "date:inception_lower": "1981-06-01",
    "date:inception_upper": "1981-06-01",
    "edtf:cessation": "2021-08-01",
    "edtf:inception": "1981-06-01",
    "geom:area": 0,
    "geom:bbox": "-0.165216,51.874701,-0.165216,51.874701",
    "geom:latitude": 51.874701,
    "geom:longitude": -0.165216,
    "iso:country": "GB",
    "mz:hierarchy_label": 1,
    "mz:is_current": 0,
    "os:country_code": "E92000001",
    "os:county_code": "E10000015",
    "os:district_code": "E07000243",
    "os:positional_quality_indicator": "1",
    "os:region_code": "E12000006",
    "src:geom": "os",
    "wof:belongsto": [
      85633159,
      102191581,
      136253055,
      1864210497,
      1880771501,
      101750417,
      1880762153,
      404227469,
      1880762721
    ],
    "wof:breaches": [],
    "wof:concordances": {
      "gp:id": "27909601"
    },
    "wof:country": "GB",
    "wof:created": 1583701728,
    "wof:geomhash": "8136968e6b788d07bb517780c1445278",
    "wof:hierarchy": [
      {
        "continent_id": 102191581,
        "country_id": 85633159,
        "county_id": 1880771501,
        "empire_id": 136253055,
        "locality_id": 101750417,
        "macrocounty_id": 1880762153,
        "macroregion_id": 404227469,
        "postalcode_id": 471751637,
        "region_id": 1880762721
      },
      {
        "continent_id": 102191581,
        "country_id": 85633159,
        "empire_id": 136253055,
        "postalcode_id": 471751637,
        "postalregion_id": 1864210497
      }
    ],
    "wof:id": 471751637,
    "wof:lastmodified": 1763548234,
    "wof:name": "SG2 8UJ",
    "wof:parent_id": 101750417,
    "wof:placetype": "postalcode",
    "wof:repo": "whosonfirst-data-postalcode-gb",
    "wof:superseded_by": [],
    "wof:supersedes": [],
    "wof:tags": []
  },
  "bbox": [
    -0.165216,
    51.874701,
    -0.165216,
    51.874701
  ],
  "geometry": {"coordinates":[-0.165216,51.874701],"type":"Point"}
}
