{
  "id": 504563723,
  "type": "Feature",
  "properties": {
    "date:cessation_lower": "2017-05-01",
    "date:cessation_upper": "2017-05-01",
    "date:inception_lower": "1980-01-01",
    "date:inception_upper": "1980-01-01",
    "edtf:cessation": "2017-05-01",
    "edtf:inception": "1980-01-01",
    "geom:area": 0,
    "geom:bbox": "-5.072575,56.230724,-5.072575,56.230724",
    "geom:latitude": 56.230724,
    "geom:longitude": -5.072575,
    "gp:parent_id": "12696185",
    "iso:country": "GB",
    "mz:hierarchy_label": 1,
    "mz:is_current": 0,
    "os:country_code": "S92000003",
    "os:county_code": "S99999999",
    "os:district_code": "S12000035",
    "os:positional_quality_indicator": "1",
    "os:region_code": "S99999999",
    "src:geom": "os",
    "wof:belongsto": [
      85633159,
      102191581,
      136253055,
      1864209559,
      1360698863,
      1880762047,
      404227471,
      1880772977
    ],
    "wof:breaches": [],
    "wof:concordances": {
      "gp:id": "27735576"
    },
    "wof:country": "GB",
    "wof:created": 1583701433,
    "wof:geomhash": "b19b0f2a6636c67bef9f47703acd08ed",
    "wof:hierarchy": [
      {
        "continent_id": 102191581,
        "country_id": 85633159,
        "county_id": 1360698863,
        "empire_id": 136253055,
        "macrocounty_id": 1880762047,
        "macroregion_id": 404227471,
        "postalcode_id": 504563723,
        "region_id": 1880772977
      },
      {
        "continent_id": 102191581,
        "country_id": 85633159,
        "empire_id": 136253055,
        "postalcode_id": 504563723,
        "postalregion_id": 1864209559
      }
    ],
    "wof:id": 504563723,
    "wof:lastmodified": 1763548078,
    "wof:name": "PA32 8TS",
    "wof:parent_id": 1360698863,
    "wof:placetype": "postalcode",
    "wof:repo": "whosonfirst-data-postalcode-gb",
    "wof:superseded_by": [],
    "wof:supersedes": [],
    "wof:tags": []
  },
  "bbox": [
    -5.072575,
    56.230724,
    -5.072575,
    56.230724
  ],
  "geometry": {"coordinates":[-5.072575,56.230724],"type":"Point"}
}
