{
  "id": 471402533,
  "type": "Feature",
  "properties": {
    "date:inception_lower": "1980-01-01",
    "date:inception_upper": "1980-01-01",
    "edtf:cessation": "",
    "edtf:inception": "1980-01-01",
    "geom:area": 0,
    "geom:bbox": "-4.143075,50.367662,-4.143075,50.367662",
    "geom:latitude": 50.367662,
    "geom:longitude": -4.143075,
    "gp:parent_id": "32185",
    "iso:country": "GB",
    "mz:hierarchy_label": 1,
    "mz:is_current": 1,
    "os:country_code": "E92000001",
    "os:county_code": "E99999999",
    "os:district_code": "E06000026",
    "os:positional_quality_indicator": "1",
    "os:region_code": "E12000009",
    "src:geom": "os",
    "wof:belongsto": [
      85633159,
      102191581,
      136253055,
      1864209831,
      1360698841,
      101750297,
      1880762149,
      404227469,
      1880762683
    ],
    "wof:breaches": [],
    "wof:concordances": {
      "gp:id": "27764002"
    },
    "wof:country": "GB",
    "wof:created": 1583701557,
    "wof:geomhash": "9efbe1a8b85fcf8c9ae98cc0e112f215",
    "wof:hierarchy": [
      {
        "continent_id": 102191581,
        "country_id": 85633159,
        "county_id": 1360698841,
        "empire_id": 136253055,
        "locality_id": 101750297,
        "macrocounty_id": 1880762149,
        "macroregion_id": 404227469,
        "postalcode_id": 471402533,
        "region_id": 1880762683
      },
      {
        "continent_id": 102191581,
        "country_id": 85633159,
        "empire_id": 136253055,
        "postalcode_id": 471402533,
        "postalregion_id": 1864209831
      }
    ],
    "wof:id": 471402533,
    "wof:lastmodified": 1763548357,
    "wof:name": "PL1 2HN",
    "wof:parent_id": 101750297,
    "wof:placetype": "postalcode",
    "wof:repo": "whosonfirst-data-postalcode-gb",
    "wof:superseded_by": [],
    "wof:supersedes": [],
    "wof:tags": []
  },
  "bbox": [
    -4.143075,
    50.367662,
    -4.143075,
    50.367662
  ],
  "geometry": {"coordinates":[-4.143075,50.367662],"type":"Point"}
}
