{
  "id": 454770269,
  "type": "Feature",
  "properties": {
    "date:inception_lower": "2001-12-01",
    "date:inception_upper": "2001-12-01",
    "edtf:cessation": "",
    "edtf:inception": "2001-12-01",
    "geom:area": 0,
    "geom:bbox": "-0.774477,51.647672,-0.774477,51.647672",
    "geom:latitude": 51.647672,
    "geom:longitude": -0.774477,
    "gp:parent_id": "18418",
    "iso:country": "GB",
    "mz:hierarchy_label": 1,
    "mz:is_current": 1,
    "os:country_code": "E92000001",
    "os:county_code": "E99999999",
    "os:district_code": "E06000060",
    "os:positional_quality_indicator": "1",
    "os:region_code": "E12000008",
    "src:geom": "os",
    "wof:belongsto": [
      85633159,
      102191581,
      136253055,
      1864207651,
      1360698997,
      404436773,
      1360758901,
      1880762141,
      404227469,
      1880773087
    ],
    "wof:breaches": [],
    "wof:concordances": {
      "gp:id": "27355693"
    },
    "wof:country": "GB",
    "wof:created": 1583701712,
    "wof:geomhash": "82063696b3dce02f024695b291099670",
    "wof:hierarchy": [
      {
        "continent_id": 102191581,
        "country_id": 85633159,
        "county_id": 1360698997,
        "empire_id": 136253055,
        "localadmin_id": 404436773,
        "locality_id": 1360758901,
        "macrocounty_id": 1880762141,
        "macroregion_id": 404227469,
        "postalcode_id": 454770269,
        "region_id": 1880773087
      },
      {
        "continent_id": 102191581,
        "country_id": 85633159,
        "empire_id": 136253055,
        "postalcode_id": 454770269,
        "postalregion_id": 1864207651
      }
    ],
    "wof:id": 454770269,
    "wof:lastmodified": 1763548424,
    "wof:name": "HP13 5TQ",
    "wof:parent_id": 1360758901,
    "wof:placetype": "postalcode",
    "wof:repo": "whosonfirst-data-postalcode-gb",
    "wof:superseded_by": [],
    "wof:supersedes": [],
    "wof:tags": []
  },
  "bbox": [
    -0.774477,
    51.647672,
    -0.774477,
    51.647672
  ],
  "geometry": {"coordinates":[-0.774477,51.647672],"type":"Point"}
}
