{
  "id": 471221211,
  "type": "Feature",
  "properties": {
    "date:inception_lower": "1986-07-01",
    "date:inception_upper": "1986-07-01",
    "edtf:cessation": "",
    "edtf:inception": "1986-07-01",
    "geom:area": 0,
    "geom:bbox": "1.333093,52.899975,1.333093,52.899975",
    "geom:latitude": 52.899975,
    "geom:longitude": 1.333093,
    "gp:parent_id": "30638",
    "iso:country": "GB",
    "mz:hierarchy_label": 1,
    "mz:is_current": 1,
    "os:country_code": "E92000001",
    "os:county_code": "E10000020",
    "os:district_code": "E07000147",
    "os:positional_quality_indicator": "1",
    "os:region_code": "E12000006",
    "src:geom": "os",
    "wof:belongsto": [
      85633159,
      102191581,
      136253055,
      1864209343,
      1880771711,
      404432305,
      1125791323,
      1880762037,
      404227469,
      1880762699
    ],
    "wof:breaches": [],
    "wof:concordances": {
      "gp:id": "27685204"
    },
    "wof:country": "GB",
    "wof:created": 1583701409,
    "wof:geomhash": "bfab80cdc48cad2b8c0a76330d1829d4",
    "wof:hierarchy": [
      {
        "continent_id": 102191581,
        "country_id": 85633159,
        "county_id": 1880771711,
        "empire_id": 136253055,
        "localadmin_id": 404432305,
        "locality_id": 1125791323,
        "macrocounty_id": 1880762037,
        "macroregion_id": 404227469,
        "postalcode_id": 471221211,
        "region_id": 1880762699
      },
      {
        "continent_id": 102191581,
        "country_id": 85633159,
        "empire_id": 136253055,
        "postalcode_id": 471221211,
        "postalregion_id": 1864209343
      }
    ],
    "wof:id": 471221211,
    "wof:lastmodified": 1763548031,
    "wof:name": "NR27 0LZ",
    "wof:parent_id": 1125791323,
    "wof:placetype": "postalcode",
    "wof:repo": "whosonfirst-data-postalcode-gb",
    "wof:superseded_by": [],
    "wof:supersedes": [],
    "wof:tags": []
  },
  "bbox": [
    1.333093,
    52.899975,
    1.333093,
    52.899975
  ],
  "geometry": {"coordinates":[1.333093,52.899975],"type":"Point"}
}
