{
  "id": 39017394,
  "type": "Feature",
  "properties": {
    "date:cessation_lower": "1996-06-01",
    "date:cessation_upper": "1996-06-01",
    "date:inception_lower": "1994-12-01",
    "date:inception_upper": "1994-12-01",
    "edtf:cessation": "1996-06-01",
    "edtf:inception": "1994-12-01",
    "geom:area": 0,
    "geom:bbox": "-0.569450,51.589333,-0.569450,51.589333",
    "geom:latitude": 51.589333,
    "geom:longitude": -0.56945,
    "iso:country": "GB",
    "mz:hierarchy_label": 1,
    "mz:is_current": 0,
    "os:country_code": "E92000001",
    "os:county_code": "E99999999",
    "os:district_code": "E06000060",
    "os:positional_quality_indicator": "8",
    "os:region_code": "E12000008",
    "src:geom": "os",
    "wof:belongsto": [
      85633159,
      102191581,
      136253055,
      1864210579,
      1360698997,
      404450799,
      1125999965,
      1880762141,
      404227469,
      1880773087
    ],
    "wof:breaches": [],
    "wof:country": "GB",
    "wof:created": 1583796760,
    "wof:geomhash": "90281ae2d07a63809930a37dc2d68eed",
    "wof:hierarchy": [
      {
        "continent_id": 102191581,
        "country_id": 85633159,
        "county_id": 1360698997,
        "empire_id": 136253055,
        "localadmin_id": 404450799,
        "locality_id": 1125999965,
        "macrocounty_id": 1880762141,
        "macroregion_id": 404227469,
        "postalcode_id": 39017394,
        "region_id": 1880773087
      },
      {
        "continent_id": 102191581,
        "country_id": 85633159,
        "empire_id": 136253055,
        "postalcode_id": 39017394,
        "postalregion_id": 1864210579
      }
    ],
    "wof:id": 39017394,
    "wof:lastmodified": 1763547923,
    "wof:name": "SL9 7PT",
    "wof:parent_id": 1125999965,
    "wof:placetype": "postalcode",
    "wof:repo": "whosonfirst-data-postalcode-gb",
    "wof:superseded_by": [],
    "wof:supersedes": [],
    "wof:tags": []
  },
  "bbox": [
    -0.56945,
    51.589333,
    -0.56945,
    51.589333
  ],
  "geometry": {"coordinates":[-0.56945,51.589333],"type":"Point"}
}
