{
  "id": 454105635,
  "type": "Feature",
  "properties": {
    "date:inception_lower": "1993-08-01",
    "date:inception_upper": "1993-08-01",
    "edtf:cessation": "",
    "edtf:inception": "1993-08-01",
    "geom:area": 0,
    "geom:bbox": "-2.900117,53.161686,-2.900117,53.161686",
    "geom:latitude": 53.161686,
    "geom:longitude": -2.900117,
    "gp:parent_id": "28383",
    "iso:country": "GB",
    "mz:hierarchy_label": 1,
    "mz:is_current": 1,
    "os:country_code": "E92000001",
    "os:county_code": "E99999999",
    "os:district_code": "E06000050",
    "os:positional_quality_indicator": "1",
    "os:region_code": "E12000002",
    "src:geom": "os",
    "wof:belongsto": [
      85633159,
      102191581,
      136253055,
      1864206269,
      1360698923,
      404435911,
      1125865615,
      1880762135,
      404227469,
      1880773021
    ],
    "wof:breaches": [],
    "wof:concordances": {
      "gp:id": "27053825"
    },
    "wof:country": "GB",
    "wof:created": 1583701225,
    "wof:geomhash": "7a378b58e213db58617fe3b0dfa886a2",
    "wof:hierarchy": [
      {
        "continent_id": 102191581,
        "country_id": 85633159,
        "county_id": 1360698923,
        "empire_id": 136253055,
        "localadmin_id": 404435911,
        "locality_id": 1125865615,
        "macrocounty_id": 1880762135,
        "macroregion_id": 404227469,
        "postalcode_id": 454105635,
        "region_id": 1880773021
      },
      {
        "continent_id": 102191581,
        "country_id": 85633159,
        "empire_id": 136253055,
        "postalcode_id": 454105635,
        "postalregion_id": 1864206269
      }
    ],
    "wof:id": 454105635,
    "wof:lastmodified": 1763548215,
    "wof:name": "CH4 9QN",
    "wof:parent_id": 1125865615,
    "wof:placetype": "postalcode",
    "wof:repo": "whosonfirst-data-postalcode-gb",
    "wof:superseded_by": [],
    "wof:supersedes": [],
    "wof:tags": []
  },
  "bbox": [
    -2.900117,
    53.161686,
    -2.900117,
    53.161686
  ],
  "geometry": {"coordinates":[-2.900117,53.161686],"type":"Point"}
}
