{
  "id": 437810797,
  "type": "Feature",
  "properties": {
    "date:cessation_lower": "2003-04-01",
    "date:cessation_upper": "2003-04-01",
    "date:inception_lower": "1994-05-01",
    "date:inception_upper": "1994-05-01",
    "edtf:cessation": "2003-04-01",
    "edtf:inception": "1994-05-01",
    "geom:area": 0,
    "geom:bbox": "0.052036,51.644714,0.052036,51.644714",
    "geom:latitude": 51.644714,
    "geom:longitude": 0.052036,
    "gp:parent_id": "27508",
    "iso:country": "GB",
    "mz:hierarchy_label": 1,
    "mz:is_current": 0,
    "os:country_code": "E92000001",
    "os:county_code": "E10000012",
    "os:district_code": "E07000072",
    "os:positional_quality_indicator": "1",
    "os:region_code": "E12000006",
    "src:geom": "os",
    "wof:belongsto": [
      85633159,
      102191581,
      136253055,
      1864207799,
      1880771423,
      404449997,
      1126058653,
      1880762159,
      404227469,
      1880762723
    ],
    "wof:breaches": [],
    "wof:concordances": {
      "gp:id": "28886351"
    },
    "wof:country": "GB",
    "wof:created": 1583701566,
    "wof:geomhash": "a6b4e85800ed206ca1c99b3fedd6927a",
    "wof:hierarchy": [
      {
        "continent_id": 102191581,
        "country_id": 85633159,
        "county_id": 1880771423,
        "empire_id": 136253055,
        "localadmin_id": 404449997,
        "locality_id": 1126058653,
        "macrocounty_id": 1880762159,
        "macroregion_id": 404227469,
        "postalcode_id": 437810797,
        "region_id": 1880762723
      },
      {
        "continent_id": 102191581,
        "country_id": 85633159,
        "empire_id": 136253055,
        "postalcode_id": 437810797,
        "postalregion_id": 1864207799
      }
    ],
    "wof:id": 437810797,
    "wof:lastmodified": 1763548007,
    "wof:name": "IG10 4HP",
    "wof:parent_id": 1126058653,
    "wof:placetype": "postalcode",
    "wof:repo": "whosonfirst-data-postalcode-gb",
    "wof:superseded_by": [],
    "wof:supersedes": [],
    "wof:tags": []
  },
  "bbox": [
    0.052036,
    51.644714,
    0.052036,
    51.644714
  ],
  "geometry": {"coordinates":[0.052036,51.644714],"type":"Point"}
}
