{
  "id": 437639713,
  "type": "Feature",
  "properties": {
    "date:inception_lower": "2025-06-01",
    "date:inception_upper": "2025-06-01",
    "edtf:cessation": "",
    "edtf:inception": "2025-06-01",
    "geom:area": 0,
    "geom:bbox": "-2.405211,52.691613,-2.405211,52.691613",
    "geom:latitude": 52.691613,
    "geom:longitude": -2.405211,
    "gp:parent_id": "35644",
    "iso:country": "GB",
    "mz:hierarchy_label": 1,
    "mz:is_current": 1,
    "os:country_code": "E92000001",
    "os:county_code": "E99999999",
    "os:district_code": "E06000020",
    "os:positional_quality_indicator": "1",
    "os:region_code": "E12000005",
    "src:geom": "os",
    "wof:belongsto": [
      85633159,
      102191581,
      136253055,
      1864211047,
      1360698911,
      1880762073,
      404449087,
      1360753041,
      404227469,
      1880772941
    ],
    "wof:breaches": [],
    "wof:concordances": {
      "gp:id": "28043364"
    },
    "wof:country": "GB",
    "wof:created": 1583701442,
    "wof:geomhash": "5c17cabc4727ddef760b98d50b71f4d4",
    "wof:hierarchy": [
      {
        "continent_id": 102191581,
        "country_id": 85633159,
        "county_id": 1360698911,
        "empire_id": 136253055,
        "localadmin_id": 404449087,
        "locality_id": 1360753041,
        "macrocounty_id": 1880762073,
        "macroregion_id": 404227469,
        "postalcode_id": 437639713,
        "region_id": 1880772941
      },
      {
        "continent_id": 102191581,
        "country_id": 85633159,
        "empire_id": 136253055,
        "postalcode_id": 437639713,
        "postalregion_id": 1864211047
      }
    ],
    "wof:id": 437639713,
    "wof:lastmodified": 1763548242,
    "wof:name": "TF2 9XY",
    "wof:parent_id": 1360753041,
    "wof:placetype": "postalcode",
    "wof:repo": "whosonfirst-data-postalcode-gb",
    "wof:superseded_by": [],
    "wof:supersedes": [],
    "wof:tags": []
  },
  "bbox": [
    -2.405211,
    52.691613,
    -2.405211,
    52.691613
  ],
  "geometry": {"coordinates":[-2.405211,52.691613],"type":"Point"}
}
