{
  "id": 471031055,
  "type": "Feature",
  "properties": {
    "date:inception_lower": "1980-01-01",
    "date:inception_upper": "1980-01-01",
    "edtf:cessation": "",
    "edtf:inception": "1980-01-01",
    "geom:area": 0,
    "geom:bbox": "-1.547677,54.947330,-1.547677,54.947330",
    "geom:latitude": 54.94733,
    "geom:longitude": -1.547677,
    "gp:parent_id": "20928",
    "iso:country": "GB",
    "mz:hierarchy_label": 1,
    "mz:is_current": 1,
    "os:country_code": "E92000001",
    "os:county_code": "E99999999",
    "os:district_code": "E08000037",
    "os:positional_quality_indicator": "1",
    "os:region_code": "E12000001",
    "src:geom": "os",
    "wof:belongsto": [
      85633159,
      102191581,
      136253055,
      1864209005,
      1360698881,
      1360817105,
      101750615,
      1880762063,
      404227469,
      1880773053
    ],
    "wof:breaches": [],
    "wof:concordances": {
      "gp:id": "27602356"
    },
    "wof:country": "GB",
    "wof:created": 1583701130,
    "wof:geomhash": "efa58c1ab06baa06867aa8bfef344c97",
    "wof:hierarchy": [
      {
        "continent_id": 102191581,
        "country_id": 85633159,
        "county_id": 1360698881,
        "empire_id": 136253055,
        "localadmin_id": 1360817105,
        "locality_id": 101750615,
        "macrocounty_id": 1880762063,
        "macroregion_id": 404227469,
        "postalcode_id": 471031055,
        "region_id": 1880773053
      },
      {
        "continent_id": 102191581,
        "country_id": 85633159,
        "empire_id": 136253055,
        "postalcode_id": 471031055,
        "postalregion_id": 1864209005
      }
    ],
    "wof:id": 471031055,
    "wof:lastmodified": 1763548104,
    "wof:name": "NE10 8HH",
    "wof:parent_id": 101750615,
    "wof:placetype": "postalcode",
    "wof:repo": "whosonfirst-data-postalcode-gb",
    "wof:superseded_by": [],
    "wof:supersedes": [],
    "wof:tags": []
  },
  "bbox": [
    -1.547677,
    54.94733,
    -1.547677,
    54.94733
  ],
  "geometry": {"coordinates":[-1.547677,54.94733],"type":"Point"}
}
