{
  "id": 454185485,
  "type": "Feature",
  "properties": {
    "date:inception_lower": "1980-01-01",
    "date:inception_upper": "1980-01-01",
    "edtf:cessation": "",
    "edtf:inception": "1980-01-01",
    "geom:area": 0,
    "geom:bbox": "0.926315,51.889781,0.926315,51.889781",
    "geom:latitude": 51.889781,
    "geom:longitude": 0.926315,
    "iso:country": "GB",
    "mz:hierarchy_label": 1,
    "mz:is_current": 1,
    "os:country_code": "E92000001",
    "os:county_code": "E10000012",
    "os:district_code": "E07000071",
    "os:positional_quality_indicator": "1",
    "os:region_code": "E12000006",
    "src:geom": "os",
    "wof:belongsto": [
      85633159,
      102191581,
      136253055,
      1864206407,
      1880771433,
      101750405,
      1880762159,
      404227469,
      1880762723
    ],
    "wof:breaches": [],
    "wof:concordances": {
      "gp:id": "26726784"
    },
    "wof:country": "GB",
    "wof:created": 1583701348,
    "wof:geomhash": "1813eed7e6ecd1ca10e7d36e1597a351",
    "wof:hierarchy": [
      {
        "continent_id": 102191581,
        "country_id": 85633159,
        "county_id": 1880771433,
        "empire_id": 136253055,
        "locality_id": 101750405,
        "macrocounty_id": 1880762159,
        "macroregion_id": 404227469,
        "postalcode_id": 454185485,
        "region_id": 1880762723
      },
      {
        "continent_id": 102191581,
        "country_id": 85633159,
        "empire_id": 136253055,
        "postalcode_id": 454185485,
        "postalregion_id": 1864206407
      }
    ],
    "wof:id": 454185485,
    "wof:lastmodified": 1763548575,
    "wof:name": "CO4 3AL",
    "wof:parent_id": 101750405,
    "wof:placetype": "postalcode",
    "wof:repo": "whosonfirst-data-postalcode-gb",
    "wof:superseded_by": [],
    "wof:supersedes": [],
    "wof:tags": []
  },
  "bbox": [
    0.926315,
    51.889781,
    0.926315,
    51.889781
  ],
  "geometry": {"coordinates":[0.926315,51.889781],"type":"Point"}
}
