{
  "id": 471215983,
  "type": "Feature",
  "properties": {
    "date:inception_lower": "1980-01-01",
    "date:inception_upper": "1980-01-01",
    "edtf:cessation": "",
    "edtf:inception": "1980-01-01",
    "geom:area": 0,
    "geom:bbox": "1.021390,52.811554,1.021390,52.811554",
    "geom:latitude": 52.811554,
    "geom:longitude": 1.02139,
    "gp:parent_id": "23528",
    "iso:country": "GB",
    "mz:hierarchy_label": 1,
    "mz:is_current": 1,
    "os:country_code": "E92000001",
    "os:county_code": "E10000020",
    "os:district_code": "E07000147",
    "os:positional_quality_indicator": "1",
    "os:region_code": "E12000006",
    "src:geom": "os",
    "wof:belongsto": [
      85633159,
      102191581,
      136253055,
      1864209327,
      1880771711,
      404440373,
      1326859079,
      1880762037,
      404227469,
      1880762699
    ],
    "wof:breaches": [],
    "wof:concordances": {
      "gp:id": "27683131"
    },
    "wof:country": "GB",
    "wof:created": 1583701405,
    "wof:geomhash": "d06e2031c6a918b0bb817aa455a5d8ad",
    "wof:hierarchy": [
      {
        "continent_id": 102191581,
        "country_id": 85633159,
        "county_id": 1880771711,
        "empire_id": 136253055,
        "localadmin_id": 404440373,
        "locality_id": 1326859079,
        "macrocounty_id": 1880762037,
        "macroregion_id": 404227469,
        "postalcode_id": 471215983,
        "region_id": 1880762699
      },
      {
        "continent_id": 102191581,
        "country_id": 85633159,
        "empire_id": 136253055,
        "postalcode_id": 471215983,
        "postalregion_id": 1864209327
      }
    ],
    "wof:id": 471215983,
    "wof:lastmodified": 1763548281,
    "wof:name": "NR20 5BZ",
    "wof:parent_id": 1326859079,
    "wof:placetype": "postalcode",
    "wof:repo": "whosonfirst-data-postalcode-gb",
    "wof:superseded_by": [],
    "wof:supersedes": [],
    "wof:tags": []
  },
  "bbox": [
    1.02139,
    52.811554,
    1.02139,
    52.811554
  ],
  "geometry": {"coordinates":[1.02139,52.811554],"type":"Point"}
}
