{
  "id": 437584507,
  "type": "Feature",
  "properties": {
    "date:cessation_lower": "2006-09-01",
    "date:cessation_upper": "2006-09-01",
    "date:inception_lower": "1980-01-01",
    "date:inception_upper": "1980-01-01",
    "edtf:cessation": "2006-09-01",
    "edtf:inception": "1980-01-01",
    "geom:area": 0,
    "geom:bbox": "0.171106,52.129719,0.171106,52.129719",
    "geom:latitude": 52.129719,
    "geom:longitude": 0.171106,
    "gp:parent_id": "34113",
    "iso:country": "GB",
    "mz:hierarchy_label": 1,
    "mz:is_current": 0,
    "os:country_code": "E92000001",
    "os:county_code": "E10000003",
    "os:district_code": "E07000012",
    "os:positional_quality_indicator": "1",
    "os:region_code": "E12000006",
    "src:geom": "os",
    "wof:belongsto": [
      85633159,
      102191581,
      136253055,
      1864206125,
      1880771367,
      404450063,
      1125883057,
      1880762143,
      404227469,
      1880762687
    ],
    "wof:breaches": [],
    "wof:concordances": {
      "gp:id": "26712320"
    },
    "wof:country": "GB",
    "wof:created": 1583701391,
    "wof:geomhash": "a797ad9cc8ffa11c4d5aac7ef6bbf24e",
    "wof:hierarchy": [
      {
        "continent_id": 102191581,
        "country_id": 85633159,
        "county_id": 1880771367,
        "empire_id": 136253055,
        "localadmin_id": 404450063,
        "locality_id": 1125883057,
        "macrocounty_id": 1880762143,
        "macroregion_id": 404227469,
        "postalcode_id": 437584507,
        "region_id": 1880762687
      },
      {
        "continent_id": 102191581,
        "country_id": 85633159,
        "empire_id": 136253055,
        "postalcode_id": 437584507,
        "postalregion_id": 1864206125
      }
    ],
    "wof:id": 437584507,
    "wof:lastmodified": 1763548304,
    "wof:name": "CB2 4DT",
    "wof:parent_id": 1125883057,
    "wof:placetype": "postalcode",
    "wof:repo": "whosonfirst-data-postalcode-gb",
    "wof:superseded_by": [],
    "wof:supersedes": [],
    "wof:tags": []
  },
  "bbox": [
    0.171106,
    52.129719,
    0.171106,
    52.129719
  ],
  "geometry": {"coordinates":[0.171106,52.129719],"type":"Point"}
}
