{
  "id": 454904959,
  "type": "Feature",
  "properties": {
    "date:inception_lower": "1980-01-01",
    "date:inception_upper": "1980-01-01",
    "edtf:cessation": "",
    "edtf:inception": "1980-01-01",
    "geom:area": 0,
    "geom:bbox": "-0.404620,51.333010,-0.404620,51.333010",
    "geom:latitude": 51.33301,
    "geom:longitude": -0.40462,
    "gp:parent_id": "16461",
    "iso:country": "GB",
    "mz:hierarchy_label": 1,
    "mz:is_current": 1,
    "os:country_code": "E92000001",
    "os:county_code": "E10000030",
    "os:district_code": "E07000207",
    "os:positional_quality_indicator": "1",
    "os:region_code": "E12000008",
    "src:geom": "os",
    "wof:belongsto": [
      85633159,
      102191581,
      136253055,
      1864208089,
      1880771665,
      1360817207,
      1126029813,
      1880761993,
      404227469,
      1880762727
    ],
    "wof:breaches": [],
    "wof:concordances": {
      "gp:id": "26502920"
    },
    "wof:country": "GB",
    "wof:created": 1583701749,
    "wof:geomhash": "d25b1f56d9b914d4dded18a9a6b6e4f3",
    "wof:hierarchy": [
      {
        "continent_id": 102191581,
        "country_id": 85633159,
        "county_id": 1880771665,
        "empire_id": 136253055,
        "localadmin_id": 1360817207,
        "locality_id": 1126029813,
        "macrocounty_id": 1880761993,
        "macroregion_id": 404227469,
        "postalcode_id": 454904959,
        "region_id": 1880762727
      },
      {
        "continent_id": 102191581,
        "country_id": 85633159,
        "empire_id": 136253055,
        "postalcode_id": 454904959,
        "postalregion_id": 1864208089
      }
    ],
    "wof:id": 454904959,
    "wof:lastmodified": 1763548449,
    "wof:name": "KT11 2BA",
    "wof:parent_id": 1126029813,
    "wof:placetype": "postalcode",
    "wof:repo": "whosonfirst-data-postalcode-gb",
    "wof:superseded_by": [],
    "wof:supersedes": [],
    "wof:tags": []
  },
  "bbox": [
    -0.40462,
    51.33301,
    -0.40462,
    51.33301
  ],
  "geometry": {"coordinates":[-0.40462,51.33301],"type":"Point"}
}
