{
  "id": 1160741334,
  "type": "Feature",
  "properties": {
    "date:cessation_lower": "1988-12-01",
    "date:cessation_upper": "1988-12-01",
    "date:inception_lower": "1980-01-01",
    "date:inception_upper": "1980-01-01",
    "edtf:cessation": "1988-12-01",
    "edtf:inception": "1980-01-01",
    "geom:area": 0,
    "geom:bbox": "-2.425541,52.638395,-2.425541,52.638395",
    "geom:latitude": 52.638395,
    "geom:longitude": -2.425541,
    "iso:country": "GB",
    "mz:hierarchy_label": 1,
    "mz:is_current": 0,
    "os:country_code": "E92000001",
    "os:county_code": "E99999999",
    "os:district_code": "E06000020",
    "os:positional_quality_indicator": "8",
    "os:region_code": "E12000005",
    "src:geom": "os",
    "wof:belongsto": [
      85633159,
      102191581,
      136253055,
      1864211059,
      1360698911,
      404435147,
      1125991393,
      1880762073,
      404227469,
      1880772941
    ],
    "wof:breaches": [],
    "wof:country": "GB",
    "wof:created": 1583787897,
    "wof:geomhash": "b7761604edf97f9e1e6a547aaa8755a1",
    "wof:hierarchy": [
      {
        "continent_id": 102191581,
        "country_id": 85633159,
        "county_id": 1360698911,
        "empire_id": 136253055,
        "localadmin_id": 404435147,
        "locality_id": 1125991393,
        "macrocounty_id": 1880762073,
        "macroregion_id": 404227469,
        "postalcode_id": 1160741334,
        "region_id": 1880772941
      },
      {
        "continent_id": 102191581,
        "country_id": 85633159,
        "empire_id": 136253055,
        "postalcode_id": 1160741334,
        "postalregion_id": 1864211059
      }
    ],
    "wof:id": 1160741334,
    "wof:lastmodified": 1763548313,
    "wof:name": "TF7 4QG",
    "wof:parent_id": 1125991393,
    "wof:placetype": "postalcode",
    "wof:repo": "whosonfirst-data-postalcode-gb",
    "wof:superseded_by": [],
    "wof:supersedes": [],
    "wof:tags": []
  },
  "bbox": [
    -2.425541,
    52.638395,
    -2.425541,
    52.638395
  ],
  "geometry": {"coordinates":[-2.425541,52.638395],"type":"Point"}
}
