{
  "id": 437791085,
  "type": "Feature",
  "properties": {
    "date:cessation_lower": "2005-08-01",
    "date:cessation_upper": "2005-08-01",
    "date:inception_lower": "2005-06-01",
    "date:inception_upper": "2005-06-01",
    "edtf:cessation": "2005-08-01",
    "edtf:inception": "2005-06-01",
    "geom:area": 0,
    "geom:bbox": "-4.202701,51.025890,-4.202701,51.025890",
    "geom:latitude": 51.02589,
    "geom:longitude": -4.202701,
    "iso:country": "GB",
    "mz:hierarchy_label": 1,
    "mz:is_current": 0,
    "os:country_code": "E92000001",
    "os:county_code": "E10000008",
    "os:district_code": "E07000046",
    "os:positional_quality_indicator": "6",
    "os:region_code": "E12000009",
    "src:geom": "os",
    "wof:belongsto": [
      85633159,
      102191581,
      136253055,
      1864207237,
      1880771717,
      404429557,
      101852615,
      1880762149,
      404227469,
      1880762683
    ],
    "wof:breaches": [],
    "wof:concordances": {
      "gp:id": "28874884"
    },
    "wof:country": "GB",
    "wof:created": 1583701557,
    "wof:geomhash": "0e5dbb6e753e4b1031216cf352fea299",
    "wof:hierarchy": [
      {
        "continent_id": 102191581,
        "country_id": 85633159,
        "county_id": 1880771717,
        "empire_id": 136253055,
        "localadmin_id": 404429557,
        "locality_id": 101852615,
        "macrocounty_id": 1880762149,
        "macroregion_id": 404227469,
        "postalcode_id": 437791085,
        "region_id": 1880762683
      },
      {
        "continent_id": 102191581,
        "country_id": 85633159,
        "empire_id": 136253055,
        "postalcode_id": 437791085,
        "postalregion_id": 1864207237
      }
    ],
    "wof:id": 437791085,
    "wof:lastmodified": 1763547953,
    "wof:name": "EX39 9AA",
    "wof:parent_id": 101852615,
    "wof:placetype": "postalcode",
    "wof:repo": "whosonfirst-data-postalcode-gb",
    "wof:superseded_by": [],
    "wof:supersedes": [],
    "wof:tags": []
  },
  "bbox": [
    -4.202701,
    51.02589,
    -4.202701,
    51.02589
  ],
  "geometry": {"coordinates":[-4.202701,51.02589],"type":"Point"}
}
