{
  "id": 874499237,
  "type": "Feature",
  "properties": {
    "date:inception_lower": "2016-03-01",
    "date:inception_upper": "2016-03-01",
    "edtf:cessation": "",
    "edtf:inception": "2016-03-01",
    "geom:area": 0,
    "geom:bbox": "-3.195656,51.664185,-3.195656,51.664185",
    "geom:latitude": 51.664185,
    "geom:longitude": -3.195656,
    "iso:country": "GB",
    "mz:hierarchy_label": 1,
    "mz:is_current": 1,
    "os:country_code": "W92000004",
    "os:county_code": "W99999999",
    "os:district_code": "W06000018",
    "os:positional_quality_indicator": "1",
    "os:region_code": "W99999999",
    "src:geom": "os",
    "wof:belongsto": [
      85633159,
      102191581,
      136253055,
      1864209263,
      1360698925,
      404448927,
      101852781,
      1880762173,
      404227475,
      1880773189
    ],
    "wof:breaches": [],
    "wof:country": "GB",
    "wof:created": 1468890806,
    "wof:geomhash": "6f84ce980807803ab3753bb6cd645648",
    "wof:hierarchy": [
      {
        "continent_id": 102191581,
        "country_id": 85633159,
        "county_id": 1360698925,
        "empire_id": 136253055,
        "localadmin_id": 404448927,
        "locality_id": 101852781,
        "macrocounty_id": 1880762173,
        "macroregion_id": 404227475,
        "postalcode_id": 874499237,
        "region_id": 1880773189
      },
      {
        "continent_id": 102191581,
        "country_id": 85633159,
        "empire_id": 136253055,
        "postalcode_id": 874499237,
        "postalregion_id": 1864209263
      }
    ],
    "wof:id": 874499237,
    "wof:lastmodified": 1763547947,
    "wof:name": "NP12 1FU",
    "wof:parent_id": 101852781,
    "wof:placetype": "postalcode",
    "wof:repo": "whosonfirst-data-postalcode-gb",
    "wof:superseded_by": [],
    "wof:supersedes": [],
    "wof:tags": []
  },
  "bbox": [
    -3.195656,
    51.664185,
    -3.195656,
    51.664185
  ],
  "geometry": {"coordinates":[-3.195656,51.664185],"type":"Point"}
}
