{
  "id": 470859703,
  "type": "Feature",
  "properties": {
    "date:cessation_lower": "2016-09-01",
    "date:cessation_upper": "2016-09-01",
    "date:inception_lower": "1994-12-01",
    "date:inception_upper": "1994-12-01",
    "edtf:cessation": "2016-09-01",
    "edtf:inception": "1994-12-01",
    "geom:area": 0,
    "geom:bbox": "-2.193753,53.480804,-2.193753,53.480804",
    "geom:latitude": 53.480804,
    "geom:longitude": -2.193753,
    "iso:country": "GB",
    "mz:hierarchy_label": 1,
    "mz:is_current": 0,
    "os:country_code": "E92000001",
    "os:county_code": "E99999999",
    "os:district_code": "E08000003",
    "os:positional_quality_indicator": "1",
    "os:region_code": "E12000002",
    "src:geom": "os",
    "wof:belongsto": [
      85633159,
      102191581,
      136253055,
      1864208717,
      1360698893,
      101750525,
      1880762163,
      404227469,
      1880773095
    ],
    "wof:breaches": [],
    "wof:concordances": {
      "gp:id": "26457586"
    },
    "wof:country": "GB",
    "wof:created": 1583701149,
    "wof:geomhash": "e927ded4a7efb7142d63be4bee8109fc",
    "wof:hierarchy": [
      {
        "continent_id": 102191581,
        "country_id": 85633159,
        "county_id": 1360698893,
        "empire_id": 136253055,
        "locality_id": 101750525,
        "macrocounty_id": 1880762163,
        "macroregion_id": 404227469,
        "postalcode_id": 470859703,
        "region_id": 1880773095
      },
      {
        "continent_id": 102191581,
        "country_id": 85633159,
        "empire_id": 136253055,
        "postalcode_id": 470859703,
        "postalregion_id": 1864208717
      }
    ],
    "wof:id": 470859703,
    "wof:lastmodified": 1763547958,
    "wof:name": "M11 4AE",
    "wof:parent_id": 101750525,
    "wof:placetype": "postalcode",
    "wof:repo": "whosonfirst-data-postalcode-gb",
    "wof:superseded_by": [],
    "wof:supersedes": [],
    "wof:tags": []
  },
  "bbox": [
    -2.193753,
    53.480804,
    -2.193753,
    53.480804
  ],
  "geometry": {"coordinates":[-2.193753,53.480804],"type":"Point"}
}
