{
  "id": 488489009,
  "type": "Feature",
  "properties": {
    "date:inception_lower": "1980-01-01",
    "date:inception_upper": "1980-01-01",
    "edtf:cessation": "",
    "edtf:inception": "1980-01-01",
    "geom:area": 0,
    "geom:bbox": "-4.007976,51.583124,-4.007976,51.583124",
    "geom:latitude": 51.583124,
    "geom:longitude": -4.007976,
    "iso:country": "GB",
    "mz:hierarchy_label": 1,
    "mz:is_current": 1,
    "os:country_code": "W92000004",
    "os:county_code": "W99999999",
    "os:district_code": "W06000011",
    "os:positional_quality_indicator": "1",
    "os:region_code": "W99999999",
    "src:geom": "os",
    "wof:belongsto": [
      85633159,
      102191581,
      136253055,
      1864210317,
      1360699095,
      404439035,
      1360711631,
      1880762113,
      404227475,
      1880773177
    ],
    "wof:breaches": [],
    "wof:concordances": {
      "gp:id": "26586146"
    },
    "wof:country": "GB",
    "wof:created": 1583701501,
    "wof:geomhash": "252c9e4a987502cf89e70dd40002799d",
    "wof:hierarchy": [
      {
        "continent_id": 102191581,
        "country_id": 85633159,
        "county_id": 1360699095,
        "empire_id": 136253055,
        "localadmin_id": 404439035,
        "locality_id": 1360711631,
        "macrocounty_id": 1880762113,
        "macroregion_id": 404227475,
        "postalcode_id": 488489009,
        "region_id": 1880773177
      },
      {
        "continent_id": 102191581,
        "country_id": 85633159,
        "empire_id": 136253055,
        "postalcode_id": 488489009,
        "postalregion_id": 1864210317
      }
    ],
    "wof:id": 488489009,
    "wof:lastmodified": 1763548577,
    "wof:name": "SA3 5PX",
    "wof:parent_id": 1360711631,
    "wof:placetype": "postalcode",
    "wof:repo": "whosonfirst-data-postalcode-gb",
    "wof:superseded_by": [],
    "wof:supersedes": [],
    "wof:tags": []
  },
  "bbox": [
    -4.007976,
    51.583124,
    -4.007976,
    51.583124
  ],
  "geometry": {"coordinates":[-4.007976,51.583124],"type":"Point"}
}
