{
  "id": 488330375,
  "type": "Feature",
  "properties": {
    "date:inception_lower": "2009-12-01",
    "date:inception_upper": "2009-12-01",
    "edtf:cessation": "",
    "edtf:inception": "2009-12-01",
    "geom:area": 0,
    "geom:bbox": "-1.209430,53.132600,-1.209430,53.132600",
    "geom:latitude": 53.1326,
    "geom:longitude": -1.20943,
    "iso:country": "GB",
    "mz:hierarchy_label": 1,
    "mz:is_current": 1,
    "os:country_code": "E92000001",
    "os:county_code": "E10000024",
    "os:district_code": "E07000174",
    "os:positional_quality_indicator": "1",
    "os:region_code": "E12000004",
    "src:geom": "os",
    "wof:belongsto": [
      85633159,
      102191581,
      136253055,
      1864209167,
      1880771605,
      101750507,
      1880762077,
      404227469,
      1880762689
    ],
    "wof:breaches": [],
    "wof:concordances": {
      "gp:id": "56163508"
    },
    "wof:country": "GB",
    "wof:created": 1583701346,
    "wof:geomhash": "6a2b10ff117f483e8d2d239203409e47",
    "wof:hierarchy": [
      {
        "continent_id": 102191581,
        "country_id": 85633159,
        "county_id": 1880771605,
        "empire_id": 136253055,
        "locality_id": 101750507,
        "macrocounty_id": 1880762077,
        "macroregion_id": 404227469,
        "postalcode_id": 488330375,
        "region_id": 1880762689
      },
      {
        "continent_id": 102191581,
        "country_id": 85633159,
        "empire_id": 136253055,
        "postalcode_id": 488330375,
        "postalregion_id": 1864209167
      }
    ],
    "wof:id": 488330375,
    "wof:lastmodified": 1763548420,
    "wof:name": "NG18 5FB",
    "wof:parent_id": 101750507,
    "wof:placetype": "postalcode",
    "wof:repo": "whosonfirst-data-postalcode-gb",
    "wof:superseded_by": [],
    "wof:supersedes": [],
    "wof:tags": []
  },
  "bbox": [
    -1.20943,
    53.1326,
    -1.20943,
    53.1326
  ],
  "geometry": {"coordinates":[-1.20943,53.1326],"type":"Point"}
}
