{
  "id": 470845109,
  "type": "Feature",
  "properties": {
    "date:inception_lower": "1980-01-01",
    "date:inception_upper": "1980-01-01",
    "edtf:cessation": "",
    "edtf:inception": "1980-01-01",
    "geom:area": 0,
    "geom:bbox": "-0.411323,51.879982,-0.411323,51.879982",
    "geom:latitude": 51.879982,
    "geom:longitude": -0.411323,
    "gp:parent_id": "27997",
    "iso:country": "GB",
    "mz:hierarchy_label": 1,
    "mz:is_current": 1,
    "os:country_code": "E92000001",
    "os:county_code": "E99999999",
    "os:district_code": "E06000032",
    "os:positional_quality_indicator": "1",
    "os:region_code": "E12000006",
    "src:geom": "os",
    "wof:belongsto": [
      85633159,
      102191581,
      136253055,
      1864208699,
      1360698783,
      101750401,
      1880762167,
      404227469,
      1880773157
    ],
    "wof:breaches": [],
    "wof:concordances": {
      "gp:id": "26599468"
    },
    "wof:country": "GB",
    "wof:created": 1583701114,
    "wof:geomhash": "1ed0529c14dac13857c4a2c1f0b3ca8c",
    "wof:hierarchy": [
      {
        "continent_id": 102191581,
        "country_id": 85633159,
        "county_id": 1360698783,
        "empire_id": 136253055,
        "locality_id": 101750401,
        "macrocounty_id": 1880762167,
        "macroregion_id": 404227469,
        "postalcode_id": 470845109,
        "region_id": 1880773157
      },
      {
        "continent_id": 102191581,
        "country_id": 85633159,
        "empire_id": 136253055,
        "postalcode_id": 470845109,
        "postalregion_id": 1864208699
      }
    ],
    "wof:id": 470845109,
    "wof:lastmodified": 1763547941,
    "wof:name": "LU1 3JG",
    "wof:parent_id": 101750401,
    "wof:placetype": "postalcode",
    "wof:repo": "whosonfirst-data-postalcode-gb",
    "wof:superseded_by": [],
    "wof:supersedes": [],
    "wof:tags": []
  },
  "bbox": [
    -0.411323,
    51.879982,
    -0.411323,
    51.879982
  ],
  "geometry": {"coordinates":[-0.411323,51.879982],"type":"Point"}
}
