{
  "id": 1712655109,
  "type": "Feature",
  "properties": {
    "date:cessation_lower": "1995-12-01",
    "date:cessation_upper": "1995-12-01",
    "date:inception_lower": "1990-02-01",
    "date:inception_upper": "1990-02-01",
    "edtf:cessation": "1995-12-01",
    "edtf:inception": "1990-02-01",
    "geom:area": 0,
    "geom:bbox": "-2.583691,53.413495,-2.583691,53.413495",
    "geom:latitude": 53.413495,
    "geom:longitude": -2.583691,
    "iso:country": "GB",
    "mz:hierarchy_label": 1,
    "mz:is_current": 0,
    "os:country_code": "E92000001",
    "os:county_code": "E99999999",
    "os:district_code": "E06000007",
    "os:positional_quality_indicator": "8",
    "os:region_code": "E12000002",
    "src:geom": "os",
    "wof:belongsto": [
      85633159,
      102191581,
      136253055,
      1864211469,
      1360698965,
      101751627,
      1880762135,
      404227469,
      1880773021
    ],
    "wof:breaches": [],
    "wof:country": "GB",
    "wof:created": 1583797697,
    "wof:geomhash": "b085ac1399e7e037c0f26d4a5429332f",
    "wof:hierarchy": [
      {
        "continent_id": 102191581,
        "country_id": 85633159,
        "county_id": 1360698965,
        "empire_id": 136253055,
        "locality_id": 101751627,
        "macrocounty_id": 1880762135,
        "macroregion_id": 404227469,
        "postalcode_id": 1712655109,
        "region_id": 1880773021
      },
      {
        "continent_id": 102191581,
        "country_id": 85633159,
        "empire_id": 136253055,
        "postalcode_id": 1712655109,
        "postalregion_id": 1864211469
      }
    ],
    "wof:id": 1712655109,
    "wof:lastmodified": 1763548748,
    "wof:name": "WA2 9LF",
    "wof:parent_id": 101751627,
    "wof:placetype": "postalcode",
    "wof:repo": "whosonfirst-data-postalcode-gb",
    "wof:superseded_by": [],
    "wof:supersedes": [],
    "wof:tags": []
  },
  "bbox": [
    -2.583691,
    53.413495,
    -2.583691,
    53.413495
  ],
  "geometry": {"coordinates":[-2.583691,53.413495],"type":"Point"}
}
