{
  "id": 39510333,
  "type": "Feature",
  "properties": {
    "date:cessation_lower": "2019-06-01",
    "date:cessation_upper": "2019-06-01",
    "date:inception_lower": "2019-02-01",
    "date:inception_upper": "2019-02-01",
    "edtf:cessation": "2019-06-01",
    "edtf:inception": "2019-02-01",
    "geom:area": 0,
    "geom:bbox": "-4.333662,55.872782,-4.333662,55.872782",
    "geom:latitude": 55.872782,
    "geom:longitude": -4.333662,
    "iso:country": "GB",
    "mz:hierarchy_label": 1,
    "mz:is_current": 0,
    "os:country_code": "S92000003",
    "os:county_code": "S99999999",
    "os:district_code": "S12000049",
    "os:positional_quality_indicator": "5",
    "os:region_code": "S99999999",
    "src:geom": "os",
    "wof:belongsto": [
      85633159,
      102191581,
      136253055,
      1864207327,
      1360698797,
      1175612707,
      1880762095,
      404227471,
      1880772925
    ],
    "wof:breaches": [],
    "wof:country": "GB",
    "wof:created": 1583802254,
    "wof:geomhash": "56dbb84a08536ad77a7fe580a6800b91",
    "wof:hierarchy": [
      {
        "continent_id": 102191581,
        "country_id": 85633159,
        "county_id": 1360698797,
        "empire_id": 136253055,
        "locality_id": 1175612707,
        "macrocounty_id": 1880762095,
        "macroregion_id": 404227471,
        "postalcode_id": 39510333,
        "region_id": 1880772925
      },
      {
        "continent_id": 102191581,
        "country_id": 85633159,
        "empire_id": 136253055,
        "postalcode_id": 39510333,
        "postalregion_id": 1864207327
      }
    ],
    "wof:id": 39510333,
    "wof:lastmodified": 1763548375,
    "wof:name": "G14 0RA",
    "wof:parent_id": 1175612707,
    "wof:placetype": "postalcode",
    "wof:repo": "whosonfirst-data-postalcode-gb",
    "wof:superseded_by": [],
    "wof:supersedes": [],
    "wof:tags": []
  },
  "bbox": [
    -4.333662,
    55.872782,
    -4.333662,
    55.872782
  ],
  "geometry": {"coordinates":[-4.333662,55.872782],"type":"Point"}
}
