{
  "id": 454281647,
  "type": "Feature",
  "properties": {
    "date:inception_lower": "1980-01-01",
    "date:inception_upper": "1980-01-01",
    "edtf:cessation": "",
    "edtf:inception": "1980-01-01",
    "geom:area": 0,
    "geom:bbox": "-1.529770,52.432207,-1.529770,52.432207",
    "geom:latitude": 52.432207,
    "geom:longitude": -1.52977,
    "gp:parent_id": "17044",
    "iso:country": "GB",
    "mz:hierarchy_label": 1,
    "mz:is_current": 1,
    "os:country_code": "E92000001",
    "os:county_code": "E99999999",
    "os:district_code": "E08000026",
    "os:positional_quality_indicator": "1",
    "os:region_code": "E12000005",
    "src:geom": "os",
    "wof:belongsto": [
      85633159,
      102191581,
      136253055,
      1864206535,
      1360699115,
      101750449,
      1880762069,
      404227469,
      1880773161
    ],
    "wof:breaches": [],
    "wof:concordances": {
      "gp:id": "27117610"
    },
    "wof:country": "GB",
    "wof:created": 1583701441,
    "wof:geomhash": "8d7ef94119067cf42feb8a54c3c4b32c",
    "wof:hierarchy": [
      {
        "continent_id": 102191581,
        "country_id": 85633159,
        "county_id": 1360699115,
        "empire_id": 136253055,
        "locality_id": 101750449,
        "macrocounty_id": 1880762069,
        "macroregion_id": 404227469,
        "postalcode_id": 454281647,
        "region_id": 1880773161
      },
      {
        "continent_id": 102191581,
        "country_id": 85633159,
        "empire_id": 136253055,
        "postalcode_id": 454281647,
        "postalregion_id": 1864206535
      }
    ],
    "wof:id": 454281647,
    "wof:lastmodified": 1763548311,
    "wof:name": "CV6 2JL",
    "wof:parent_id": 101750449,
    "wof:placetype": "postalcode",
    "wof:repo": "whosonfirst-data-postalcode-gb",
    "wof:superseded_by": [],
    "wof:supersedes": [],
    "wof:tags": []
  },
  "bbox": [
    -1.52977,
    52.432207,
    -1.52977,
    52.432207
  ],
  "geometry": {"coordinates":[-1.52977,52.432207],"type":"Point"}
}
