{
  "id": 454798605,
  "type": "Feature",
  "properties": {
    "date:inception_lower": "2000-12-01",
    "date:inception_upper": "2000-12-01",
    "edtf:cessation": "",
    "edtf:inception": "2000-12-01",
    "geom:area": 0,
    "geom:bbox": "-2.741521,52.044044,-2.741521,52.044044",
    "geom:latitude": 52.044044,
    "geom:longitude": -2.741521,
    "gp:parent_id": "12324",
    "iso:country": "GB",
    "mz:hierarchy_label": 1,
    "mz:is_current": 1,
    "os:country_code": "E92000001",
    "os:county_code": "E99999999",
    "os:district_code": "E06000019",
    "os:positional_quality_indicator": "1",
    "os:region_code": "E12000005",
    "src:geom": "os",
    "wof:belongsto": [
      85633159,
      102191581,
      136253055,
      1864207697,
      1360699053,
      404445005,
      1360759139,
      1880762015
    ],
    "wof:breaches": [],
    "wof:concordances": {
      "gp:id": "27365851"
    },
    "wof:country": "GB",
    "wof:created": 1583701718,
    "wof:geomhash": "6110166b0908c8555947472f906cb448",
    "wof:hierarchy": [
      {
        "continent_id": -1,
        "country_id": -1,
        "county_id": 1360699053,
        "localadmin_id": 404445005,
        "locality_id": 1360759139,
        "macrocounty_id": 1880762015,
        "postalcode_id": 454798605,
        "region_id": -1
      },
      {
        "continent_id": 102191581,
        "country_id": 85633159,
        "empire_id": 136253055,
        "postalcode_id": 454798605,
        "postalregion_id": 1864207697
      }
    ],
    "wof:id": 454798605,
    "wof:lastmodified": 1763548218,
    "wof:name": "HR2 7SR",
    "wof:parent_id": 1360759139,
    "wof:placetype": "postalcode",
    "wof:repo": "whosonfirst-data-postalcode-gb",
    "wof:superseded_by": [],
    "wof:supersedes": [],
    "wof:tags": []
  },
  "bbox": [
    -2.741521,
    52.044044,
    -2.741521,
    52.044044
  ],
  "geometry": {"coordinates":[-2.741521,52.044044],"type":"Point"}
}
