{
  "id": 471748045,
  "type": "Feature",
  "properties": {
    "date:inception_lower": "2002-08-01",
    "date:inception_upper": "2002-08-01",
    "edtf:cessation": "",
    "edtf:inception": "2002-08-01",
    "geom:area": 0,
    "geom:bbox": "-0.262945,52.079384,-0.262945,52.079384",
    "geom:latitude": 52.079384,
    "geom:longitude": -0.262945,
    "iso:country": "GB",
    "mz:hierarchy_label": 1,
    "mz:is_current": 1,
    "os:country_code": "E92000001",
    "os:county_code": "E99999999",
    "os:district_code": "E06000056",
    "os:positional_quality_indicator": "1",
    "os:region_code": "E12000006",
    "src:geom": "os",
    "wof:belongsto": [
      85633159,
      102191581,
      136253055,
      1864210493,
      1360698767,
      404433467,
      101853559,
      1880762167,
      404227469,
      1880773157
    ],
    "wof:breaches": [],
    "wof:concordances": {
      "gp:id": "27908411"
    },
    "wof:country": "GB",
    "wof:created": 1583701726,
    "wof:geomhash": "6927e71405ea28d22de0af8e0eac4682",
    "wof:hierarchy": [
      {
        "continent_id": 102191581,
        "country_id": 85633159,
        "county_id": 1360698767,
        "empire_id": 136253055,
        "localadmin_id": 404433467,
        "locality_id": 101853559,
        "macrocounty_id": 1880762167,
        "macroregion_id": 404227469,
        "postalcode_id": 471748045,
        "region_id": 1880773157
      },
      {
        "continent_id": 102191581,
        "country_id": 85633159,
        "empire_id": 136253055,
        "postalcode_id": 471748045,
        "postalregion_id": 1864210493
      }
    ],
    "wof:id": 471748045,
    "wof:lastmodified": 1763548190,
    "wof:name": "SG18 8BJ",
    "wof:parent_id": 101853559,
    "wof:placetype": "postalcode",
    "wof:repo": "whosonfirst-data-postalcode-gb",
    "wof:superseded_by": [],
    "wof:supersedes": [],
    "wof:tags": []
  },
  "bbox": [
    -0.262945,
    52.079384,
    -0.262945,
    52.079384
  ],
  "geometry": {"coordinates":[-0.262945,52.079384],"type":"Point"}
}
