{
  "id": 1160962530,
  "type": "Feature",
  "properties": {
    "date:cessation_lower": "2000-06-01",
    "date:cessation_upper": "2000-06-01",
    "date:inception_lower": "1991-09-01",
    "date:inception_upper": "1991-09-01",
    "edtf:cessation": "2000-06-01",
    "edtf:inception": "1991-09-01",
    "geom:area": 0,
    "geom:bbox": "-0.199429,52.337352,-0.199429,52.337352",
    "geom:latitude": 52.337352,
    "geom:longitude": -0.199429,
    "iso:country": "GB",
    "mz:hierarchy_label": 1,
    "mz:is_current": 0,
    "os:country_code": "E92000001",
    "os:county_code": "E10000003",
    "os:district_code": "E07000011",
    "os:positional_quality_indicator": "1",
    "os:region_code": "E12000006",
    "src:geom": "os",
    "wof:belongsto": [
      102191581,
      85633159,
      1880771371,
      136253055,
      404434281,
      101875497,
      1880762143,
      404227469,
      1880762687
    ],
    "wof:breaches": [],
    "wof:country": "GB",
    "wof:created": 1583797742,
    "wof:geomhash": "f63e9f04dd7297242c9b8a11f6cf4640",
    "wof:hierarchy": [
      {
        "continent_id": 102191581,
        "country_id": 85633159,
        "county_id": 1880771371,
        "empire_id": 136253055,
        "localadmin_id": 404434281,
        "locality_id": 101875497,
        "macrocounty_id": 1880762143,
        "macroregion_id": 404227469,
        "postalcode_id": 1160962530,
        "region_id": 1880762687
      }
    ],
    "wof:id": 1160962530,
    "wof:lastmodified": 1763548261,
    "wof:name": "PE18 6UU",
    "wof:parent_id": 101875497,
    "wof:placetype": "postalcode",
    "wof:repo": "whosonfirst-data-postalcode-gb",
    "wof:superseded_by": [],
    "wof:supersedes": [],
    "wof:tags": []
  },
  "bbox": [
    -0.199429,
    52.337352,
    -0.199429,
    52.337352
  ],
  "geometry": {"coordinates":[-0.199429,52.337352],"type":"Point"}
}
