{
  "id": 454901605,
  "type": "Feature",
  "properties": {
    "date:cessation_lower": "2012-11-01",
    "date:cessation_upper": "2012-11-01",
    "date:inception_lower": "2005-10-01",
    "date:inception_upper": "2005-10-01",
    "edtf:cessation": "2012-11-01",
    "edtf:inception": "2005-10-01",
    "geom:area": 0,
    "geom:bbox": "1.048796,52.002925,1.048796,52.002925",
    "geom:latitude": 52.002925,
    "geom:longitude": 1.048796,
    "gp:parent_id": "15086",
    "iso:country": "GB",
    "mz:hierarchy_label": 1,
    "mz:is_current": 0,
    "os:country_code": "E92000001",
    "os:county_code": "E10000029",
    "os:district_code": "E07000200",
    "os:positional_quality_indicator": "1",
    "os:region_code": "E12000006",
    "src:geom": "os",
    "wof:belongsto": [
      85633159,
      102191581,
      136253055,
      1864207893,
      1880771637,
      404432443,
      1125889627,
      1880762001,
      404227469,
      1880762685
    ],
    "wof:breaches": [],
    "wof:concordances": {
      "gp:id": "28887819"
    },
    "wof:country": "GB",
    "wof:created": 1583701748,
    "wof:geomhash": "9b2d10c8da579e2f678f7f06575dad25",
    "wof:hierarchy": [
      {
        "continent_id": 102191581,
        "country_id": 85633159,
        "county_id": 1880771637,
        "empire_id": 136253055,
        "localadmin_id": 404432443,
        "locality_id": 1125889627,
        "macrocounty_id": 1880762001,
        "macroregion_id": 404227469,
        "postalcode_id": 454901605,
        "region_id": 1880762685
      },
      {
        "continent_id": 102191581,
        "country_id": 85633159,
        "empire_id": 136253055,
        "postalcode_id": 454901605,
        "postalregion_id": 1864207893
      }
    ],
    "wof:id": 454901605,
    "wof:lastmodified": 1763548212,
    "wof:name": "IP9 2WT",
    "wof:parent_id": 1125889627,
    "wof:placetype": "postalcode",
    "wof:repo": "whosonfirst-data-postalcode-gb",
    "wof:superseded_by": [],
    "wof:supersedes": [],
    "wof:tags": []
  },
  "bbox": [
    1.048796,
    52.002925,
    1.048796,
    52.002925
  ],
  "geometry": {"coordinates":[1.048796,52.002925],"type":"Point"}
}
