{
  "id": 874489649,
  "type": "Feature",
  "properties": {
    "date:inception_lower": "2012-11-01",
    "date:inception_upper": "2012-11-01",
    "edtf:cessation": "",
    "edtf:inception": "2012-11-01",
    "geom:area": 0,
    "geom:bbox": "-3.979286,55.778674,-3.979286,55.778674",
    "geom:latitude": 55.778674,
    "geom:longitude": -3.979286,
    "iso:country": "GB",
    "mz:hierarchy_label": 1,
    "mz:is_current": 1,
    "os:country_code": "S92000003",
    "os:county_code": "S99999999",
    "os:district_code": "S12000050",
    "os:positional_quality_indicator": "1",
    "os:region_code": "S99999999",
    "src:geom": "os",
    "wof:belongsto": [
      85633159,
      102191581,
      136253055,
      1864208923,
      1360698949,
      1880762099,
      404227471,
      1880773061
    ],
    "wof:breaches": [],
    "wof:country": "GB",
    "wof:created": 1468888993,
    "wof:geomhash": "688eb6958515f204f5f2518758b7a0f6",
    "wof:hierarchy": [
      {
        "continent_id": 102191581,
        "country_id": 85633159,
        "county_id": 1360698949,
        "empire_id": 136253055,
        "macrocounty_id": 1880762099,
        "macroregion_id": 404227471,
        "postalcode_id": 874489649,
        "region_id": 1880773061
      },
      {
        "continent_id": 102191581,
        "country_id": 85633159,
        "empire_id": 136253055,
        "postalcode_id": 874489649,
        "postalregion_id": 1864208923
      }
    ],
    "wof:id": 874489649,
    "wof:lastmodified": 1763547973,
    "wof:name": "ML1 2FS",
    "wof:parent_id": 1360698949,
    "wof:placetype": "postalcode",
    "wof:repo": "whosonfirst-data-postalcode-gb",
    "wof:superseded_by": [],
    "wof:supersedes": [],
    "wof:tags": []
  },
  "bbox": [
    -3.979286,
    55.778674,
    -3.979286,
    55.778674
  ],
  "geometry": {"coordinates":[-3.979286,55.778674],"type":"Point"}
}
