{
  "id": 454256767,
  "type": "Feature",
  "properties": {
    "date:inception_lower": "1983-03-01",
    "date:inception_upper": "1983-03-01",
    "edtf:cessation": "",
    "edtf:inception": "1983-03-01",
    "geom:area": 0,
    "geom:bbox": "-1.240180,52.392377,-1.240180,52.392377",
    "geom:latitude": 52.392377,
    "geom:longitude": -1.24018,
    "iso:country": "GB",
    "mz:hierarchy_label": 1,
    "mz:is_current": 1,
    "os:country_code": "E92000001",
    "os:county_code": "E10000031",
    "os:district_code": "E07000220",
    "os:positional_quality_indicator": "1",
    "os:region_code": "E12000005",
    "src:geom": "os",
    "wof:belongsto": [
      85633159,
      102191581,
      136253055,
      1864206503,
      1880771671,
      101750475,
      1880762065,
      404227469,
      1880762725
    ],
    "wof:breaches": [],
    "wof:concordances": {
      "gp:id": "27109094"
    },
    "wof:country": "GB",
    "wof:created": 1583701420,
    "wof:geomhash": "38b58ed38d24c750546947af4a47a969",
    "wof:hierarchy": [
      {
        "continent_id": 102191581,
        "country_id": 85633159,
        "county_id": 1880771671,
        "empire_id": 136253055,
        "locality_id": 101750475,
        "macrocounty_id": 1880762065,
        "macroregion_id": 404227469,
        "postalcode_id": 454256767,
        "region_id": 1880762725
      },
      {
        "continent_id": 102191581,
        "country_id": 85633159,
        "empire_id": 136253055,
        "postalcode_id": 454256767,
        "postalregion_id": 1864206503
      }
    ],
    "wof:id": 454256767,
    "wof:lastmodified": 1763548361,
    "wof:name": "CV21 1QB",
    "wof:parent_id": 101750475,
    "wof:placetype": "postalcode",
    "wof:repo": "whosonfirst-data-postalcode-gb",
    "wof:superseded_by": [],
    "wof:supersedes": [],
    "wof:tags": []
  },
  "bbox": [
    -1.24018,
    52.392377,
    -1.24018,
    52.392377
  ],
  "geometry": {"coordinates":[-1.24018,52.392377],"type":"Point"}
}
