{
  "id": 504767783,
  "type": "Feature",
  "properties": {
    "date:inception_lower": "2007-09-01",
    "date:inception_upper": "2007-09-01",
    "edtf:cessation": "",
    "edtf:inception": "2007-09-01",
    "geom:area": 0,
    "geom:bbox": "-4.078740,55.893881,-4.078740,55.893881",
    "geom:latitude": 55.893881,
    "geom:longitude": -4.07874,
    "gp:parent_id": "20875",
    "iso:country": "GB",
    "mz:hierarchy_label": 1,
    "mz:is_current": 1,
    "os:country_code": "S92000003",
    "os:county_code": "S99999999",
    "os:district_code": "S12000050",
    "os:positional_quality_indicator": "1",
    "os:region_code": "S99999999",
    "src:geom": "os",
    "wof:belongsto": [
      85633159,
      102191581,
      136253055,
      1864207403,
      1360698949,
      1880762099,
      404227471,
      1880773061
    ],
    "wof:breaches": [],
    "wof:concordances": {
      "gp:id": "56147483"
    },
    "wof:country": "GB",
    "wof:created": 1583701560,
    "wof:geomhash": "773448e982e5e80eba510f80bb3600a6",
    "wof:hierarchy": [
      {
        "continent_id": 102191581,
        "country_id": 85633159,
        "county_id": 1360698949,
        "empire_id": 136253055,
        "macrocounty_id": 1880762099,
        "macroregion_id": 404227471,
        "postalcode_id": 504767783,
        "region_id": 1880773061
      },
      {
        "continent_id": 102191581,
        "country_id": 85633159,
        "empire_id": 136253055,
        "postalcode_id": 504767783,
        "postalregion_id": 1864207403
      }
    ],
    "wof:id": 504767783,
    "wof:lastmodified": 1763548075,
    "wof:name": "G69 8BF",
    "wof:parent_id": 1360698949,
    "wof:placetype": "postalcode",
    "wof:repo": "whosonfirst-data-postalcode-gb",
    "wof:superseded_by": [],
    "wof:supersedes": [],
    "wof:tags": []
  },
  "bbox": [
    -4.07874,
    55.893881,
    -4.07874,
    55.893881
  ],
  "geometry": {"coordinates":[-4.07874,55.893881],"type":"Point"}
}
