{
  "id": 488222707,
  "type": "Feature",
  "properties": {
    "date:inception_lower": "1980-01-01",
    "date:inception_upper": "1980-01-01",
    "edtf:cessation": "",
    "edtf:inception": "1980-01-01",
    "geom:area": 0,
    "geom:bbox": "-2.159892,52.619653,-2.159892,52.619653",
    "geom:latitude": 52.619653,
    "geom:longitude": -2.159892,
    "gp:parent_id": "31647",
    "iso:country": "GB",
    "mz:hierarchy_label": 1,
    "mz:is_current": 1,
    "os:country_code": "E92000001",
    "os:county_code": "E99999999",
    "os:district_code": "E08000031",
    "os:positional_quality_indicator": "1",
    "os:region_code": "E12000005",
    "src:geom": "os",
    "wof:belongsto": [
      85633159,
      102191581,
      136253055,
      1864211705,
      1360698737,
      1126027181,
      1880762069,
      404227469,
      1880773161
    ],
    "wof:breaches": [],
    "wof:concordances": {
      "gp:id": "28187347"
    },
    "wof:country": "GB",
    "wof:created": 1583701150,
    "wof:geomhash": "25bb039e22768f5ea7c7298bdda9d927",
    "wof:hierarchy": [
      {
        "continent_id": 102191581,
        "country_id": 85633159,
        "county_id": 1360698737,
        "empire_id": 136253055,
        "locality_id": 1126027181,
        "macrocounty_id": 1880762069,
        "macroregion_id": 404227469,
        "postalcode_id": 488222707,
        "region_id": 1880773161
      },
      {
        "continent_id": 102191581,
        "country_id": 85633159,
        "empire_id": 136253055,
        "postalcode_id": 488222707,
        "postalregion_id": 1864211705
      }
    ],
    "wof:id": 488222707,
    "wof:lastmodified": 1763548575,
    "wof:name": "WV8 1UG",
    "wof:parent_id": 1126027181,
    "wof:placetype": "postalcode",
    "wof:repo": "whosonfirst-data-postalcode-gb",
    "wof:superseded_by": [],
    "wof:supersedes": [],
    "wof:tags": []
  },
  "bbox": [
    -2.159892,
    52.619653,
    -2.159892,
    52.619653
  ],
  "geometry": {"coordinates":[-2.159892,52.619653],"type":"Point"}
}
