{
  "id": 488179869,
  "type": "Feature",
  "properties": {
    "date:inception_lower": "2004-05-01",
    "date:inception_upper": "2004-05-01",
    "edtf:cessation": "",
    "edtf:inception": "2004-05-01",
    "geom:area": 0,
    "geom:bbox": "-2.141510,52.219032,-2.141510,52.219032",
    "geom:latitude": 52.219032,
    "geom:longitude": -2.14151,
    "gp:parent_id": "37545",
    "iso:country": "GB",
    "mz:hierarchy_label": 1,
    "mz:is_current": 1,
    "os:country_code": "E92000001",
    "os:county_code": "E10000034",
    "os:district_code": "E07000238",
    "os:positional_quality_indicator": "1",
    "os:region_code": "E12000005",
    "src:geom": "os",
    "wof:belongsto": [
      85633159,
      102191581,
      136253055,
      1864211635,
      1880771701,
      404433129,
      1360753779,
      1880762019
    ],
    "wof:breaches": [],
    "wof:concordances": {
      "gp:id": "28171488"
    },
    "wof:country": "GB",
    "wof:created": 1583701296,
    "wof:geomhash": "c9cfadadb0c850694a2ba971814197c6",
    "wof:hierarchy": [
      {
        "continent_id": -1,
        "country_id": -1,
        "county_id": 1880771701,
        "localadmin_id": 404433129,
        "locality_id": 1360753779,
        "macrocounty_id": 1880762019,
        "postalcode_id": 488179869,
        "region_id": -1
      },
      {
        "continent_id": 102191581,
        "country_id": 85633159,
        "empire_id": 136253055,
        "postalcode_id": 488179869,
        "postalregion_id": 1864211635
      }
    ],
    "wof:id": 488179869,
    "wof:lastmodified": 1763548600,
    "wof:name": "WR9 7NU",
    "wof:parent_id": 1360753779,
    "wof:placetype": "postalcode",
    "wof:repo": "whosonfirst-data-postalcode-gb",
    "wof:superseded_by": [],
    "wof:supersedes": [],
    "wof:tags": []
  },
  "bbox": [
    -2.14151,
    52.219032,
    -2.14151,
    52.219032
  ],
  "geometry": {"coordinates":[-2.14151,52.219032],"type":"Point"}
}
