{
  "id": 1160926252,
  "type": "Feature",
  "properties": {
    "date:cessation_lower": "1997-12-01",
    "date:cessation_upper": "1997-12-01",
    "date:inception_lower": "1995-07-01",
    "date:inception_upper": "1995-07-01",
    "edtf:cessation": "1997-12-01",
    "edtf:inception": "1995-07-01",
    "geom:area": 0,
    "geom:bbox": "-2.807080,53.337370,-2.807080,53.337370",
    "geom:latitude": 53.33737,
    "geom:longitude": -2.80708,
    "iso:country": "GB",
    "mz:hierarchy_label": 1,
    "mz:is_current": 0,
    "os:country_code": "E92000001",
    "os:county_code": "E99999999",
    "os:district_code": "E06000006",
    "os:positional_quality_indicator": "6",
    "os:region_code": "E12000002",
    "src:geom": "os",
    "wof:belongsto": [
      85633159,
      102191581,
      136253055,
      1864208249,
      1360698991,
      404447987,
      1326665397,
      1880762135,
      404227469,
      1880773021
    ],
    "wof:breaches": [],
    "wof:country": "GB",
    "wof:created": 1583796170,
    "wof:geomhash": "f4aabdb9191e1e2ca2249010bf22d13e",
    "wof:hierarchy": [
      {
        "continent_id": 102191581,
        "country_id": 85633159,
        "county_id": 1360698991,
        "empire_id": 136253055,
        "localadmin_id": 404447987,
        "locality_id": 1326665397,
        "macrocounty_id": 1880762135,
        "macroregion_id": 404227469,
        "postalcode_id": 1160926252,
        "region_id": 1880773021
      },
      {
        "continent_id": 102191581,
        "country_id": 85633159,
        "empire_id": 136253055,
        "postalcode_id": 1160926252,
        "postalregion_id": 1864208249
      }
    ],
    "wof:id": 1160926252,
    "wof:lastmodified": 1763548340,
    "wof:name": "L24 5SN",
    "wof:parent_id": 1326665397,
    "wof:placetype": "postalcode",
    "wof:repo": "whosonfirst-data-postalcode-gb",
    "wof:superseded_by": [],
    "wof:supersedes": [],
    "wof:tags": []
  },
  "bbox": [
    -2.80708,
    53.33737,
    -2.80708,
    53.33737
  ],
  "geometry": {"coordinates":[-2.80708,53.33737],"type":"Point"}
}
