{
  "id": 488557651,
  "type": "Feature",
  "properties": {
    "date:inception_lower": "1996-06-01",
    "date:inception_upper": "1996-06-01",
    "edtf:cessation": "",
    "edtf:inception": "1996-06-01",
    "geom:area": 0,
    "geom:bbox": "-2.949254,57.546256,-2.949254,57.546256",
    "geom:latitude": 57.546256,
    "geom:longitude": -2.949254,
    "gp:parent_id": "12696202",
    "iso:country": "GB",
    "mz:hierarchy_label": 1,
    "mz:is_current": 1,
    "os:country_code": "S92000003",
    "os:county_code": "S99999999",
    "os:district_code": "S12000020",
    "os:positional_quality_indicator": "1",
    "os:region_code": "S99999999",
    "src:geom": "os",
    "wof:belongsto": [
      85633159,
      102191581,
      136253055,
      1864205447,
      1360698869,
      1880762111,
      404227471,
      1880772981
    ],
    "wof:breaches": [],
    "wof:concordances": {
      "gp:id": "26836476"
    },
    "wof:country": "GB",
    "wof:created": 1583701578,
    "wof:geomhash": "03d91381da8a68f644aa846508db7d99",
    "wof:hierarchy": [
      {
        "continent_id": 102191581,
        "country_id": 85633159,
        "county_id": 1360698869,
        "empire_id": 136253055,
        "macrocounty_id": 1880762111,
        "macroregion_id": 404227471,
        "postalcode_id": 488557651,
        "region_id": 1880772981
      },
      {
        "continent_id": 102191581,
        "country_id": 85633159,
        "empire_id": 136253055,
        "postalcode_id": 488557651,
        "postalregion_id": 1864205447
      }
    ],
    "wof:id": 488557651,
    "wof:lastmodified": 1763548424,
    "wof:name": "AB55 5EX",
    "wof:parent_id": 1360698869,
    "wof:placetype": "postalcode",
    "wof:repo": "whosonfirst-data-postalcode-gb",
    "wof:superseded_by": [],
    "wof:supersedes": [],
    "wof:tags": []
  },
  "bbox": [
    -2.949254,
    57.546256,
    -2.949254,
    57.546256
  ],
  "geometry": {"coordinates":[-2.949254,57.546256],"type":"Point"}
}
