{
  "id": 487828175,
  "type": "Feature",
  "properties": {
    "date:inception_lower": "1980-01-01",
    "date:inception_upper": "1980-01-01",
    "edtf:cessation": "",
    "edtf:inception": "1980-01-01",
    "geom:area": 0,
    "geom:bbox": "-2.430364,52.658497,-2.430364,52.658497",
    "geom:latitude": 52.658497,
    "geom:longitude": -2.430364,
    "gp:parent_id": "36132",
    "iso:country": "GB",
    "mz:hierarchy_label": 1,
    "mz:is_current": 1,
    "os:country_code": "E92000001",
    "os:county_code": "E99999999",
    "os:district_code": "E06000020",
    "os:positional_quality_indicator": "1",
    "os:region_code": "E12000005",
    "src:geom": "os",
    "wof:belongsto": [
      85633159,
      102191581,
      136253055,
      1864211051,
      1360698911,
      404449219,
      1360753289,
      1880762073,
      404227469,
      1880772941
    ],
    "wof:breaches": [],
    "wof:concordances": {
      "gp:id": "28043582"
    },
    "wof:country": "GB",
    "wof:created": 1583701193,
    "wof:geomhash": "469fb79488bc2a5d571fe8afefde0643",
    "wof:hierarchy": [
      {
        "continent_id": 102191581,
        "country_id": 85633159,
        "county_id": 1360698911,
        "empire_id": 136253055,
        "localadmin_id": 404449219,
        "locality_id": 1360753289,
        "macrocounty_id": 1880762073,
        "macroregion_id": 404227469,
        "postalcode_id": 487828175,
        "region_id": 1880772941
      },
      {
        "continent_id": 102191581,
        "country_id": 85633159,
        "empire_id": 136253055,
        "postalcode_id": 487828175,
        "postalregion_id": 1864211051
      }
    ],
    "wof:id": 487828175,
    "wof:lastmodified": 1763548640,
    "wof:name": "TF3 1YW",
    "wof:parent_id": 1360753289,
    "wof:placetype": "postalcode",
    "wof:repo": "whosonfirst-data-postalcode-gb",
    "wof:superseded_by": [],
    "wof:supersedes": [],
    "wof:tags": []
  },
  "bbox": [
    -2.430364,
    52.658497,
    -2.430364,
    52.658497
  ],
  "geometry": {"coordinates":[-2.430364,52.658497],"type":"Point"}
}
