{
  "id": 454398785,
  "type": "Feature",
  "properties": {
    "date:inception_lower": "1980-01-01",
    "date:inception_upper": "1980-01-01",
    "edtf:cessation": "",
    "edtf:inception": "1980-01-01",
    "geom:area": 0,
    "geom:bbox": "-1.521890,54.700275,-1.521890,54.700275",
    "geom:latitude": 54.700275,
    "geom:longitude": -1.52189,
    "gp:parent_id": "39607",
    "iso:country": "GB",
    "mz:hierarchy_label": 1,
    "mz:is_current": 1,
    "os:country_code": "E92000001",
    "os:county_code": "E99999999",
    "os:district_code": "E06000047",
    "os:positional_quality_indicator": "1",
    "os:region_code": "E12000001",
    "src:geom": "os",
    "wof:belongsto": [
      85633159,
      102191581,
      136253055,
      1864206771,
      1360699055,
      404440255,
      1360756085,
      1880762117,
      404227469,
      1880773141
    ],
    "wof:breaches": [],
    "wof:concordances": {
      "gp:id": "27173096"
    },
    "wof:country": "GB",
    "wof:created": 1583701540,
    "wof:geomhash": "8f25564c745bd7f85cbf9e0f90730b92",
    "wof:hierarchy": [
      {
        "continent_id": 102191581,
        "country_id": 85633159,
        "county_id": 1360699055,
        "empire_id": 136253055,
        "localadmin_id": 404440255,
        "locality_id": 1360756085,
        "macrocounty_id": 1880762117,
        "macroregion_id": 404227469,
        "postalcode_id": 454398785,
        "region_id": 1880773141
      },
      {
        "continent_id": 102191581,
        "country_id": 85633159,
        "empire_id": 136253055,
        "postalcode_id": 454398785,
        "postalregion_id": 1864206771
      }
    ],
    "wof:id": 454398785,
    "wof:lastmodified": 1763548203,
    "wof:name": "DL17 9ET",
    "wof:parent_id": 1360756085,
    "wof:placetype": "postalcode",
    "wof:repo": "whosonfirst-data-postalcode-gb",
    "wof:superseded_by": [],
    "wof:supersedes": [],
    "wof:tags": []
  },
  "bbox": [
    -1.52189,
    54.700275,
    -1.52189,
    54.700275
  ],
  "geometry": {"coordinates":[-1.52189,54.700275],"type":"Point"}
}
