{
  "id": 1161127020,
  "type": "Feature",
  "properties": {
    "date:cessation_lower": "1999-06-01",
    "date:cessation_upper": "1999-06-01",
    "date:inception_lower": "1980-01-01",
    "date:inception_upper": "1980-01-01",
    "edtf:cessation": "1999-06-01",
    "edtf:inception": "1980-01-01",
    "geom:area": 0,
    "geom:bbox": "-0.329040,51.754680,-0.329040,51.754680",
    "geom:latitude": 51.75468,
    "geom:longitude": -0.32904,
    "iso:country": "GB",
    "mz:hierarchy_label": 1,
    "mz:is_current": 0,
    "os:country_code": "E92000001",
    "os:county_code": "E10000015",
    "os:district_code": "E07000240",
    "os:positional_quality_indicator": "1",
    "os:region_code": "E12000006",
    "src:geom": "os",
    "wof:belongsto": [
      85633159,
      102191581,
      136253055,
      1864205453,
      1880771493,
      101750419,
      1880762153,
      404227469,
      1880762721
    ],
    "wof:breaches": [],
    "wof:country": "GB",
    "wof:created": 1583805081,
    "wof:geomhash": "b946844a3d402e286ea308983a9a51e6",
    "wof:hierarchy": [
      {
        "continent_id": 102191581,
        "country_id": 85633159,
        "county_id": 1880771493,
        "empire_id": 136253055,
        "locality_id": 101750419,
        "macrocounty_id": 1880762153,
        "macroregion_id": 404227469,
        "postalcode_id": 1161127020,
        "region_id": 1880762721
      },
      {
        "continent_id": 102191581,
        "country_id": 85633159,
        "empire_id": 136253055,
        "postalcode_id": 1161127020,
        "postalregion_id": 1864205453
      }
    ],
    "wof:id": 1161127020,
    "wof:lastmodified": 1763548338,
    "wof:name": "AL1 3SU",
    "wof:parent_id": 101750419,
    "wof:placetype": "postalcode",
    "wof:repo": "whosonfirst-data-postalcode-gb",
    "wof:superseded_by": [],
    "wof:supersedes": [],
    "wof:tags": []
  },
  "bbox": [
    -0.32904,
    51.75468,
    -0.32904,
    51.75468
  ],
  "geometry": {"coordinates":[-0.32904,51.75468],"type":"Point"}
}
