{
  "id": 454593441,
  "type": "Feature",
  "properties": {
    "date:inception_lower": "1980-01-01",
    "date:inception_upper": "1980-01-01",
    "edtf:cessation": "",
    "edtf:inception": "1980-01-01",
    "geom:area": 0,
    "geom:bbox": "-3.842931,51.228425,-3.842931,51.228425",
    "geom:latitude": 51.228425,
    "geom:longitude": -3.842931,
    "gp:parent_id": "28067",
    "iso:country": "GB",
    "mz:hierarchy_label": 1,
    "mz:is_current": 1,
    "os:country_code": "E92000001",
    "os:county_code": "E10000008",
    "os:district_code": "E07000043",
    "os:positional_quality_indicator": "1",
    "os:region_code": "E12000009",
    "src:geom": "os",
    "wof:belongsto": [
      85633159,
      102191581,
      136253055,
      1864207227,
      1880771395,
      404444953,
      1360759117,
      1880762149,
      404227469,
      1880762683
    ],
    "wof:breaches": [],
    "wof:concordances": {
      "gp:id": "27262338"
    },
    "wof:country": "GB",
    "wof:created": 1583701655,
    "wof:geomhash": "11d29307c3e15f18c55570f1dfdde1af",
    "wof:hierarchy": [
      {
        "continent_id": 102191581,
        "country_id": 85633159,
        "county_id": 1880771395,
        "empire_id": 136253055,
        "localadmin_id": 404444953,
        "locality_id": 1360759117,
        "macrocounty_id": 1880762149,
        "macroregion_id": 404227469,
        "postalcode_id": 454593441,
        "region_id": 1880762683
      },
      {
        "continent_id": 102191581,
        "country_id": 85633159,
        "empire_id": 136253055,
        "postalcode_id": 454593441,
        "postalregion_id": 1864207227
      }
    ],
    "wof:id": 454593441,
    "wof:lastmodified": 1763548176,
    "wof:name": "EX35 6DJ",
    "wof:parent_id": 1360759117,
    "wof:placetype": "postalcode",
    "wof:repo": "whosonfirst-data-postalcode-gb",
    "wof:superseded_by": [],
    "wof:supersedes": [],
    "wof:tags": []
  },
  "bbox": [
    -3.842931,
    51.228425,
    -3.842931,
    51.228425
  ],
  "geometry": {"coordinates":[-3.842931,51.228425],"type":"Point"}
}
