{
  "id": 1712452615,
  "type": "Feature",
  "properties": {
    "date:cessation_lower": "1998-12-01",
    "date:cessation_upper": "1998-12-01",
    "date:inception_lower": "1997-12-01",
    "date:inception_upper": "1997-12-01",
    "edtf:cessation": "1998-12-01",
    "edtf:inception": "1997-12-01",
    "geom:area": 0,
    "geom:bbox": "-4.432210,55.913574,-4.432210,55.913574",
    "geom:latitude": 55.913574,
    "geom:longitude": -4.43221,
    "iso:country": "GB",
    "mz:hierarchy_label": 1,
    "mz:is_current": 0,
    "os:country_code": "S92000003",
    "os:county_code": "S99999999",
    "os:district_code": "S12000039",
    "os:positional_quality_indicator": "6",
    "os:region_code": "S99999999",
    "src:geom": "os",
    "wof:belongsto": [
      85633159,
      102191581,
      136253055,
      1864207427,
      1360698819,
      1880762097,
      404227471,
      1880772937
    ],
    "wof:breaches": [],
    "wof:country": "GB",
    "wof:created": 1583788688,
    "wof:geomhash": "dcb3b7eddb5d8d802a46473851e4d69e",
    "wof:hierarchy": [
      {
        "continent_id": 102191581,
        "country_id": 85633159,
        "county_id": 1360698819,
        "empire_id": 136253055,
        "macrocounty_id": 1880762097,
        "macroregion_id": 404227471,
        "postalcode_id": 1712452615,
        "region_id": 1880772937
      },
      {
        "continent_id": 102191581,
        "country_id": 85633159,
        "empire_id": 136253055,
        "postalcode_id": 1712452615,
        "postalregion_id": 1864207427
      }
    ],
    "wof:id": 1712452615,
    "wof:lastmodified": 1763548664,
    "wof:name": "G81 4YF",
    "wof:parent_id": 1360698819,
    "wof:placetype": "postalcode",
    "wof:repo": "whosonfirst-data-postalcode-gb",
    "wof:superseded_by": [],
    "wof:supersedes": [],
    "wof:tags": []
  },
  "bbox": [
    -4.43221,
    55.913574,
    -4.43221,
    55.913574
  ],
  "geometry": {"coordinates":[-4.43221,55.913574],"type":"Point"}
}
