{
  "id": 1998340607,
  "type": "Feature",
  "properties": {
    "date:inception_lower": "2025-05-01",
    "date:inception_upper": "2025-05-01",
    "edtf:cessation": "",
    "edtf:inception": "2025-05-01",
    "geom:area": 0,
    "geom:bbox": "-2.297798,53.618075,-2.297798,53.618075",
    "geom:latitude": 53.618075,
    "geom:longitude": -2.297798,
    "iso:country": "GB",
    "mz:hierarchy_label": 1,
    "mz:is_current": 1,
    "os:country_code": "E92000001",
    "os:county_code": "E99999999",
    "os:district_code": "E08000002",
    "os:positional_quality_indicator": "1",
    "os:region_code": "E12000002",
    "src:geom": "os",
    "wof:belongsto": [
      102191581,
      85633159,
      1360698847,
      136253055,
      101750567,
      1880762163,
      404227469,
      1880773095,
      1864205867
    ],
    "wof:breaches": [],
    "wof:country": "GB",
    "wof:created": 1763548864,
    "wof:geomhash": "1bda7eb369089238774161935a3d892c",
    "wof:hierarchy": [
      {
        "continent_id": 102191581,
        "country_id": 85633159,
        "county_id": 1360698847,
        "empire_id": 136253055,
        "locality_id": 101750567,
        "macrocounty_id": 1880762163,
        "macroregion_id": 404227469,
        "postalcode_id": 1998340607,
        "region_id": 1880773095
      },
      {
        "continent_id": 102191581,
        "country_id": 85633159,
        "empire_id": 136253055,
        "postalcode_id": 1998340607,
        "postalregion_id": 1864205867
      }
    ],
    "wof:id": 1998340607,
    "wof:lastmodified": 1763548864,
    "wof:name": "BL9 5FU",
    "wof:parent_id": 101750567,
    "wof:placetype": "postalcode",
    "wof:repo": "whosonfirst-data-postalcode-gb",
    "wof:superseded_by": [],
    "wof:supersedes": [],
    "wof:tags": []
  },
  "bbox": [
    -2.297798,
    53.618075,
    -2.297798,
    53.618075
  ],
  "geometry": {"coordinates":[-2.297798,53.618075],"type":"Point"}
}
