{
  "id": 1998341221,
  "type": "Feature",
  "properties": {
    "date:inception_lower": "2025-02-01",
    "date:inception_upper": "2025-02-01",
    "edtf:cessation": "",
    "edtf:inception": "2025-02-01",
    "geom:area": 0,
    "geom:bbox": "-2.580169,53.012271,-2.580169,53.012271",
    "geom:latitude": 53.012271,
    "geom:longitude": -2.580169,
    "iso:country": "GB",
    "mz:hierarchy_label": 1,
    "mz:is_current": 1,
    "os:country_code": "E92000001",
    "os:county_code": "E99999999",
    "os:district_code": "E06000049",
    "os:positional_quality_indicator": "5",
    "os:region_code": "E12000002",
    "src:geom": "os",
    "wof:belongsto": [
      102191581,
      85633159,
      1360698929,
      136253055,
      404433109,
      1360753755,
      1880762135,
      404227469,
      1880773021,
      1864206559
    ],
    "wof:breaches": [],
    "wof:country": "GB",
    "wof:created": 1763548891,
    "wof:geomhash": "ca9dd7324c97eca0e8a690915f7f5f84",
    "wof:hierarchy": [
      {
        "continent_id": 102191581,
        "country_id": 85633159,
        "county_id": 1360698929,
        "empire_id": 136253055,
        "localadmin_id": 404433109,
        "locality_id": 1360753755,
        "macrocounty_id": 1880762135,
        "macroregion_id": 404227469,
        "postalcode_id": 1998341221,
        "region_id": 1880773021
      },
      {
        "continent_id": 102191581,
        "country_id": 85633159,
        "empire_id": 136253055,
        "postalcode_id": 1998341221,
        "postalregion_id": 1864206559
      }
    ],
    "wof:id": 1998341221,
    "wof:lastmodified": 1763548891,
    "wof:name": "CW5 8GF",
    "wof:parent_id": 1360753755,
    "wof:placetype": "postalcode",
    "wof:repo": "whosonfirst-data-postalcode-gb",
    "wof:superseded_by": [],
    "wof:supersedes": [],
    "wof:tags": []
  },
  "bbox": [
    -2.580169,
    53.012271,
    -2.580169,
    53.012271
  ],
  "geometry": {"coordinates":[-2.580169,53.012271],"type":"Point"}
}
