{
  "id": 1947769789,
  "type": "Feature",
  "properties": {
    "date:inception_lower": "2024-04-01",
    "date:inception_upper": "2024-04-01",
    "edtf:cessation": "",
    "edtf:inception": "2024-04-01",
    "geom:area": 0,
    "geom:bbox": "-0.098381,52.332847,-0.098381,52.332847",
    "geom:latitude": 52.332847,
    "geom:longitude": -0.098381,
    "iso:country": "GB",
    "mz:hierarchy_label": 1,
    "mz:is_current": 1,
    "os:country_code": "E92000001",
    "os:county_code": "E10000003",
    "os:district_code": "E07000011",
    "os:positional_quality_indicator": "1",
    "os:region_code": "E12000006",
    "src:geom": "os",
    "wof:belongsto": [
      102191581,
      85633159,
      1880771371,
      136253055,
      404429691,
      1360753253,
      1880762143,
      404227469,
      1880762687,
      1864209693
    ],
    "wof:breaches": [],
    "wof:country": "GB",
    "wof:created": 1736334954,
    "wof:geomhash": "52d16e18b3b6f47777c522f87f81936b",
    "wof:hierarchy": [
      {
        "continent_id": 102191581,
        "country_id": 85633159,
        "county_id": 1880771371,
        "empire_id": 136253055,
        "localadmin_id": 404429691,
        "locality_id": 1360753253,
        "macrocounty_id": 1880762143,
        "macroregion_id": 404227469,
        "postalcode_id": 1947769789,
        "region_id": 1880762687
      },
      {
        "continent_id": 102191581,
        "country_id": 85633159,
        "empire_id": 136253055,
        "postalcode_id": 1947769789,
        "postalregion_id": 1864209693
      }
    ],
    "wof:id": 1947769789,
    "wof:lastmodified": 1763547894,
    "wof:name": "PE28 2FX",
    "wof:parent_id": 1360753253,
    "wof:placetype": "postalcode",
    "wof:repo": "whosonfirst-data-postalcode-gb",
    "wof:superseded_by": [],
    "wof:supersedes": [],
    "wof:tags": []
  },
  "bbox": [
    -0.098381,
    52.332847,
    -0.098381,
    52.332847
  ],
  "geometry": {"coordinates":[-0.098381,52.332847],"type":"Point"}
}
