{
  "id": 471461353,
  "type": "Feature",
  "properties": {
    "date:inception_lower": "1980-01-01",
    "date:inception_upper": "1980-01-01",
    "edtf:cessation": "",
    "edtf:inception": "1980-01-01",
    "geom:area": 0,
    "geom:bbox": "-0.789274,50.812704,-0.789274,50.812704",
    "geom:latitude": 50.812704,
    "geom:longitude": -0.789274,
    "gp:parent_id": "18319",
    "iso:country": "GB",
    "mz:hierarchy_label": 1,
    "mz:is_current": 1,
    "os:country_code": "E92000001",
    "os:county_code": "E10000032",
    "os:district_code": "E07000225",
    "os:positional_quality_indicator": "1",
    "os:region_code": "E12000008",
    "src:geom": "os",
    "wof:belongsto": [
      85633159,
      102191581,
      136253055,
      1864209939,
      1880771685,
      404449795,
      1125800979,
      1880762061
    ],
    "wof:breaches": [],
    "wof:concordances": {
      "gp:id": "27785337"
    },
    "wof:country": "GB",
    "wof:created": 1583701625,
    "wof:geomhash": "357b5957fff14756f6b4ab40ffd7c48c",
    "wof:hierarchy": [
      {
        "continent_id": -1,
        "country_id": -1,
        "county_id": 1880771685,
        "localadmin_id": 404449795,
        "locality_id": 1125800979,
        "macrocounty_id": 1880762061,
        "postalcode_id": 471461353,
        "region_id": -1
      },
      {
        "continent_id": 102191581,
        "country_id": 85633159,
        "empire_id": 136253055,
        "postalcode_id": 471461353,
        "postalregion_id": 1864209939
      }
    ],
    "wof:id": 471461353,
    "wof:lastmodified": 1763548373,
    "wof:name": "PO20 7PN",
    "wof:parent_id": 1125800979,
    "wof:placetype": "postalcode",
    "wof:repo": "whosonfirst-data-postalcode-gb",
    "wof:superseded_by": [],
    "wof:supersedes": [],
    "wof:tags": []
  },
  "bbox": [
    -0.789274,
    50.812704,
    -0.789274,
    50.812704
  ],
  "geometry": {"coordinates":[-0.789274,50.812704],"type":"Point"}
}
