{
  "id": 487610401,
  "type": "Feature",
  "properties": {
    "date:inception_lower": "1980-01-01",
    "date:inception_upper": "1980-01-01",
    "edtf:cessation": "",
    "edtf:inception": "1980-01-01",
    "geom:area": 0,
    "geom:bbox": "-1.173949,51.086093,-1.173949,51.086093",
    "geom:latitude": 51.086093,
    "geom:longitude": -1.173949,
    "gp:parent_id": "30882",
    "iso:country": "GB",
    "mz:hierarchy_label": 1,
    "mz:is_current": 1,
    "os:country_code": "E92000001",
    "os:county_code": "E10000014",
    "os:district_code": "E07000094",
    "os:positional_quality_indicator": "1",
    "os:region_code": "E12000008",
    "src:geom": "os",
    "wof:belongsto": [
      85633159,
      102191581,
      136253055,
      1864210665,
      1880771467,
      404430235,
      1125802497,
      1880762155,
      404227469,
      1880762717
    ],
    "wof:breaches": [],
    "wof:concordances": {
      "gp:id": "27956024"
    },
    "wof:country": "GB",
    "wof:created": 1583701085,
    "wof:geomhash": "c235de69e521d36c3907d28a3225b40b",
    "wof:hierarchy": [
      {
        "continent_id": 102191581,
        "country_id": 85633159,
        "county_id": 1880771467,
        "empire_id": 136253055,
        "localadmin_id": 404430235,
        "locality_id": 1125802497,
        "macrocounty_id": 1880762155,
        "macroregion_id": 404227469,
        "postalcode_id": 487610401,
        "region_id": 1880762717
      },
      {
        "continent_id": 102191581,
        "country_id": 85633159,
        "empire_id": 136253055,
        "postalcode_id": 487610401,
        "postalregion_id": 1864210665
      }
    ],
    "wof:id": 487610401,
    "wof:lastmodified": 1763548636,
    "wof:name": "SO24 9HP",
    "wof:parent_id": 1125802497,
    "wof:placetype": "postalcode",
    "wof:repo": "whosonfirst-data-postalcode-gb",
    "wof:superseded_by": [],
    "wof:supersedes": [],
    "wof:tags": []
  },
  "bbox": [
    -1.173949,
    51.086093,
    -1.173949,
    51.086093
  ],
  "geometry": {"coordinates":[-1.173949,51.086093],"type":"Point"}
}
