{
  "id": 488393347,
  "type": "Feature",
  "properties": {
    "date:inception_lower": "1980-01-01",
    "date:inception_upper": "1980-01-01",
    "edtf:cessation": "",
    "edtf:inception": "1980-01-01",
    "geom:area": 0,
    "geom:bbox": "-3.787307,55.994783,-3.787307,55.994783",
    "geom:latitude": 55.994783,
    "geom:longitude": -3.787307,
    "gp:parent_id": "12696196",
    "iso:country": "GB",
    "mz:hierarchy_label": 1,
    "mz:is_current": 1,
    "os:country_code": "S92000003",
    "os:county_code": "S99999999",
    "os:district_code": "S12000014",
    "os:positional_quality_indicator": "1",
    "os:region_code": "S99999999",
    "src:geom": "os",
    "wof:belongsto": [
      85633159,
      102191581,
      136253055,
      1864207253,
      1360698865,
      1880762131,
      404227471,
      1880773093
    ],
    "wof:breaches": [],
    "wof:concordances": {
      "gp:id": "26743859"
    },
    "wof:country": "GB",
    "wof:created": 1583701404,
    "wof:geomhash": "5eaad11cf7db17dfda688dc80024cc23",
    "wof:hierarchy": [
      {
        "continent_id": 102191581,
        "country_id": 85633159,
        "county_id": 1360698865,
        "empire_id": 136253055,
        "macrocounty_id": 1880762131,
        "macroregion_id": 404227471,
        "postalcode_id": 488393347,
        "region_id": 1880773093
      },
      {
        "continent_id": 102191581,
        "country_id": 85633159,
        "empire_id": 136253055,
        "postalcode_id": 488393347,
        "postalregion_id": 1864207253
      }
    ],
    "wof:id": 488393347,
    "wof:lastmodified": 1763548540,
    "wof:name": "FK1 5QY",
    "wof:parent_id": 1360698865,
    "wof:placetype": "postalcode",
    "wof:repo": "whosonfirst-data-postalcode-gb",
    "wof:superseded_by": [],
    "wof:supersedes": [],
    "wof:tags": []
  },
  "bbox": [
    -3.787307,
    55.994783,
    -3.787307,
    55.994783
  ],
  "geometry": {"coordinates":[-3.787307,55.994783],"type":"Point"}
}
