{
  "id": 488209663,
  "type": "Feature",
  "properties": {
    "date:inception_lower": "1980-01-01",
    "date:inception_upper": "1980-01-01",
    "edtf:cessation": "",
    "edtf:inception": "1980-01-01",
    "geom:area": 0,
    "geom:bbox": "-2.045543,52.585052,-2.045543,52.585052",
    "geom:latitude": 52.585052,
    "geom:longitude": -2.045543,
    "gp:parent_id": "40511",
    "iso:country": "GB",
    "mz:hierarchy_label": 1,
    "mz:is_current": 1,
    "os:country_code": "E92000001",
    "os:county_code": "E99999999",
    "os:district_code": "E08000030",
    "os:positional_quality_indicator": "1",
    "os:region_code": "E12000005",
    "src:geom": "os",
    "wof:belongsto": [
      85633159,
      102191581,
      136253055,
      1864211683,
      1360698875,
      1125853123,
      1880762069,
      404227469,
      1880773161
    ],
    "wof:breaches": [],
    "wof:concordances": {
      "gp:id": "28182566"
    },
    "wof:country": "GB",
    "wof:created": 1583701117,
    "wof:geomhash": "b851b1fe6f9ddc6c5cbeeee9c8ea89e1",
    "wof:hierarchy": [
      {
        "continent_id": 102191581,
        "country_id": 85633159,
        "county_id": 1360698875,
        "empire_id": 136253055,
        "locality_id": 1125853123,
        "macrocounty_id": 1880762069,
        "macroregion_id": 404227469,
        "postalcode_id": 488209663,
        "region_id": 1880773161
      },
      {
        "continent_id": 102191581,
        "country_id": 85633159,
        "empire_id": 136253055,
        "postalcode_id": 488209663,
        "postalregion_id": 1864211683
      }
    ],
    "wof:id": 488209663,
    "wof:lastmodified": 1763548579,
    "wof:name": "WV13 2HZ",
    "wof:parent_id": 1125853123,
    "wof:placetype": "postalcode",
    "wof:repo": "whosonfirst-data-postalcode-gb",
    "wof:superseded_by": [],
    "wof:supersedes": [],
    "wof:tags": []
  },
  "bbox": [
    -2.045543,
    52.585052,
    -2.045543,
    52.585052
  ],
  "geometry": {"coordinates":[-2.045543,52.585052],"type":"Point"}
}
