{
  "id": 471377603,
  "type": "Feature",
  "properties": {
    "date:inception_lower": "2024-05-01",
    "date:inception_upper": "2024-05-01",
    "edtf:cessation": "",
    "edtf:inception": "2024-05-01",
    "geom:area": 0,
    "geom:bbox": "-0.151347,52.341789,-0.151347,52.341789",
    "geom:latitude": 52.341789,
    "geom:longitude": -0.151347,
    "gp:parent_id": "22534",
    "iso:country": "GB",
    "mz:hierarchy_label": 1,
    "mz:is_current": 1,
    "os:country_code": "E92000001",
    "os:county_code": "E10000003",
    "os:district_code": "E07000011",
    "os:positional_quality_indicator": "1",
    "os:region_code": "E12000006",
    "src:geom": "os",
    "wof:belongsto": [
      85633159,
      102191581,
      136253055,
      1864209693,
      1880771371,
      1880762143,
      404227469,
      1880762687,
      404434281,
      101875497
    ],
    "wof:breaches": [],
    "wof:concordances": {
      "gp:id": "27749537"
    },
    "wof:country": "GB",
    "wof:created": 1583701540,
    "wof:geomhash": "5923e76c55972ed446f9d4dd4cd2dbcb",
    "wof:hierarchy": [
      {
        "continent_id": 102191581,
        "country_id": 85633159,
        "county_id": 1880771371,
        "empire_id": 136253055,
        "localadmin_id": 404434281,
        "locality_id": 101875497,
        "macrocounty_id": 1880762143,
        "macroregion_id": 404227469,
        "postalcode_id": 471377603,
        "region_id": 1880762687
      },
      {
        "continent_id": 102191581,
        "country_id": 85633159,
        "empire_id": 136253055,
        "postalcode_id": 471377603,
        "postalregion_id": 1864209693
      }
    ],
    "wof:id": 471377603,
    "wof:lastmodified": 1763548141,
    "wof:name": "PE28 2DN",
    "wof:parent_id": 101875497,
    "wof:placetype": "postalcode",
    "wof:repo": "whosonfirst-data-postalcode-gb",
    "wof:superseded_by": [],
    "wof:supersedes": [],
    "wof:tags": []
  },
  "bbox": [
    -0.151347,
    52.341789,
    -0.151347,
    52.341789
  ],
  "geometry": {"coordinates":[-0.151347,52.341789],"type":"Point"}
}
