{
  "id": 437593081,
  "type": "Feature",
  "properties": {
    "date:inception_lower": "2025-07-01",
    "date:inception_upper": "2025-07-01",
    "edtf:cessation": "",
    "edtf:inception": "2025-07-01",
    "geom:area": 0,
    "geom:bbox": "-2.498800,53.548916,-2.498800,53.548916",
    "geom:latitude": 53.548916,
    "geom:longitude": -2.4988,
    "gp:parent_id": "39946",
    "iso:country": "GB",
    "mz:hierarchy_label": 1,
    "mz:is_current": 1,
    "os:country_code": "E92000001",
    "os:county_code": "E99999999",
    "os:district_code": "E08000001",
    "os:positional_quality_indicator": "1",
    "os:region_code": "E12000002",
    "src:geom": "os",
    "wof:belongsto": [
      85633159,
      102191581,
      136253055,
      1864205855,
      1360699099,
      404446189,
      1125994427,
      1880762163,
      404227469,
      1880773095
    ],
    "wof:breaches": [],
    "wof:concordances": {
      "gp:id": "26922859"
    },
    "wof:country": "GB",
    "wof:created": 1583701400,
    "wof:geomhash": "3c678688d50f8c79c9e28dc58f802ade",
    "wof:hierarchy": [
      {
        "continent_id": 102191581,
        "country_id": 85633159,
        "county_id": 1360699099,
        "empire_id": 136253055,
        "localadmin_id": 404446189,
        "locality_id": 1125994427,
        "macrocounty_id": 1880762163,
        "macroregion_id": 404227469,
        "postalcode_id": 437593081,
        "region_id": 1880773095
      },
      {
        "continent_id": 102191581,
        "country_id": 85633159,
        "empire_id": 136253055,
        "postalcode_id": 437593081,
        "postalregion_id": 1864205855
      }
    ],
    "wof:id": 437593081,
    "wof:lastmodified": 1763547927,
    "wof:name": "BL5 3JL",
    "wof:parent_id": 1125994427,
    "wof:placetype": "postalcode",
    "wof:repo": "whosonfirst-data-postalcode-gb",
    "wof:superseded_by": [],
    "wof:supersedes": [],
    "wof:tags": []
  },
  "bbox": [
    -2.4988,
    53.548916,
    -2.4988,
    53.548916
  ],
  "geometry": {"coordinates":[-2.4988,53.548916],"type":"Point"}
}
