{
  "id": 438062727,
  "type": "Feature",
  "properties": {
    "date:inception_lower": "1980-01-01",
    "date:inception_upper": "1980-01-01",
    "edtf:cessation": "",
    "edtf:inception": "1980-01-01",
    "geom:area": 0,
    "geom:bbox": "-2.366158,51.358303,-2.366158,51.358303",
    "geom:latitude": 51.358303,
    "geom:longitude": -2.366158,
    "gp:parent_id": "12056",
    "iso:country": "GB",
    "mz:hierarchy_label": 1,
    "mz:is_current": 1,
    "os:country_code": "E92000001",
    "os:county_code": "E99999999",
    "os:district_code": "E06000022",
    "os:positional_quality_indicator": "1",
    "os:region_code": "E12000009",
    "src:geom": "os",
    "wof:belongsto": [
      85633159,
      102191581,
      136253055,
      1864205669,
      1360698775,
      101750387,
      1880762071,
      404227469,
      1880773145
    ],
    "wof:breaches": [],
    "wof:concordances": {
      "gp:id": "26879099"
    },
    "wof:country": "GB",
    "wof:created": 1583701179,
    "wof:geomhash": "eb3f2c6780da322745963bab3ebe0fa9",
    "wof:hierarchy": [
      {
        "continent_id": 102191581,
        "country_id": 85633159,
        "county_id": 1360698775,
        "empire_id": 136253055,
        "locality_id": 101750387,
        "macrocounty_id": 1880762071,
        "macroregion_id": 404227469,
        "postalcode_id": 438062727,
        "region_id": 1880773145
      },
      {
        "continent_id": 102191581,
        "country_id": 85633159,
        "empire_id": 136253055,
        "postalcode_id": 438062727,
        "postalregion_id": 1864205669
      }
    ],
    "wof:id": 438062727,
    "wof:lastmodified": 1763548028,
    "wof:name": "BA2 5DB",
    "wof:parent_id": 101750387,
    "wof:placetype": "postalcode",
    "wof:repo": "whosonfirst-data-postalcode-gb",
    "wof:superseded_by": [],
    "wof:supersedes": [],
    "wof:tags": []
  },
  "bbox": [
    -2.366158,
    51.358303,
    -2.366158,
    51.358303
  ],
  "geometry": {"coordinates":[-2.366158,51.358303],"type":"Point"}
}
