{
  "id": 38316501,
  "type": "Feature",
  "properties": {
    "date:cessation_lower": "1985-12-01",
    "date:cessation_upper": "1985-12-01",
    "date:inception_lower": "1980-01-01",
    "date:inception_upper": "1980-01-01",
    "edtf:cessation": "1985-12-01",
    "edtf:inception": "1980-01-01",
    "geom:area": 0,
    "geom:bbox": "-4.635948,53.314783,-4.635948,53.314783",
    "geom:latitude": 53.314783,
    "geom:longitude": -4.635948,
    "iso:country": "GB",
    "mz:hierarchy_label": 1,
    "mz:is_current": 0,
    "os:country_code": "W92000004",
    "os:county_code": "W99999999",
    "os:district_code": "W06000001",
    "os:positional_quality_indicator": "8",
    "os:region_code": "W99999999",
    "src:geom": "os",
    "wof:belongsto": [
      85633159,
      102191581,
      136253055,
      1864208567,
      1360698787,
      404435891,
      101872743,
      1880762187,
      404227475,
      1880773051
    ],
    "wof:breaches": [],
    "wof:country": "GB",
    "wof:created": 1583789036,
    "wof:geomhash": "0189fbfd226f64de27a1c509c75a3b83",
    "wof:hierarchy": [
      {
        "continent_id": 102191581,
        "country_id": 85633159,
        "county_id": 1360698787,
        "empire_id": 136253055,
        "localadmin_id": 404435891,
        "locality_id": 101872743,
        "macrocounty_id": 1880762187,
        "macroregion_id": 404227475,
        "postalcode_id": 38316501,
        "region_id": 1880773051
      },
      {
        "continent_id": 102191581,
        "country_id": 85633159,
        "empire_id": 136253055,
        "postalcode_id": 38316501,
        "postalregion_id": 1864208567
      }
    ],
    "wof:id": 38316501,
    "wof:lastmodified": 1763548166,
    "wof:name": "LL65 1RY",
    "wof:parent_id": 101872743,
    "wof:placetype": "postalcode",
    "wof:repo": "whosonfirst-data-postalcode-gb",
    "wof:superseded_by": [],
    "wof:supersedes": [],
    "wof:tags": []
  },
  "bbox": [
    -4.635948,
    53.314783,
    -4.635948,
    53.314783
  ],
  "geometry": {"coordinates":[-4.635948,53.314783],"type":"Point"}
}
