{
  "id": 488626435,
  "type": "Feature",
  "properties": {
    "date:inception_lower": "1980-01-01",
    "date:inception_upper": "1980-01-01",
    "edtf:cessation": "",
    "edtf:inception": "1980-01-01",
    "geom:area": 0,
    "geom:bbox": "-3.088594,55.948069,-3.088594,55.948069",
    "geom:latitude": 55.948069,
    "geom:longitude": -3.088594,
    "gp:parent_id": "12696195",
    "iso:country": "GB",
    "mz:hierarchy_label": 1,
    "mz:is_current": 1,
    "os:country_code": "S92000003",
    "os:county_code": "S99999999",
    "os:district_code": "S12000036",
    "os:positional_quality_indicator": "1",
    "os:region_code": "S99999999",
    "src:geom": "os",
    "wof:belongsto": [
      85633159,
      102191581,
      136253055,
      1864207041,
      1360698761,
      101750629,
      1880762089,
      404227471,
      1880772893
    ],
    "wof:breaches": [],
    "wof:concordances": {
      "gp:id": "27229599"
    },
    "wof:country": "GB",
    "wof:created": 1583701627,
    "wof:geomhash": "c45b9dddcd885c81ab4035493f567715",
    "wof:hierarchy": [
      {
        "continent_id": 102191581,
        "country_id": 85633159,
        "county_id": 1360698761,
        "empire_id": 136253055,
        "locality_id": 101750629,
        "macrocounty_id": 1880762089,
        "macroregion_id": 404227471,
        "postalcode_id": 488626435,
        "region_id": 1880772893
      },
      {
        "continent_id": 102191581,
        "country_id": 85633159,
        "empire_id": 136253055,
        "postalcode_id": 488626435,
        "postalregion_id": 1864207041
      }
    ],
    "wof:id": 488626435,
    "wof:lastmodified": 1763548451,
    "wof:name": "EH15 2LS",
    "wof:parent_id": 101750629,
    "wof:placetype": "postalcode",
    "wof:repo": "whosonfirst-data-postalcode-gb",
    "wof:superseded_by": [],
    "wof:supersedes": [],
    "wof:tags": []
  },
  "bbox": [
    -3.088594,
    55.948069,
    -3.088594,
    55.948069
  ],
  "geometry": {"coordinates":[-3.088594,55.948069],"type":"Point"}
}
