{
  "id": 437829511,
  "type": "Feature",
  "properties": {
    "date:cessation_lower": "2003-09-01",
    "date:cessation_upper": "2003-09-01",
    "date:inception_lower": "2003-02-01",
    "date:inception_upper": "2003-02-01",
    "edtf:cessation": "2003-09-01",
    "edtf:inception": "2003-02-01",
    "geom:area": 0,
    "geom:bbox": "-0.763392,51.924391,-0.763392,51.924391",
    "geom:latitude": 51.924391,
    "geom:longitude": -0.763392,
    "gp:parent_id": "40643",
    "iso:country": "GB",
    "mz:hierarchy_label": 1,
    "mz:is_current": 0,
    "os:country_code": "E92000001",
    "os:county_code": "E99999999",
    "os:district_code": "E06000060",
    "os:positional_quality_indicator": "5",
    "os:region_code": "E12000008",
    "src:geom": "os",
    "wof:belongsto": [
      85633159,
      102191581,
      136253055,
      1864208713,
      1360698997,
      404435881,
      101852791,
      1880762141,
      404227469,
      1880773087
    ],
    "wof:breaches": [],
    "wof:concordances": {
      "gp:id": "28897246"
    },
    "wof:country": "GB",
    "wof:created": 1583701577,
    "wof:geomhash": "ddff4c2cc4af18859741b8860e3c01aa",
    "wof:hierarchy": [
      {
        "continent_id": 102191581,
        "country_id": 85633159,
        "county_id": 1360698997,
        "empire_id": 136253055,
        "localadmin_id": 404435881,
        "locality_id": 101852791,
        "macrocounty_id": 1880762141,
        "macroregion_id": 404227469,
        "postalcode_id": 437829511,
        "region_id": 1880773087
      },
      {
        "continent_id": 102191581,
        "country_id": 85633159,
        "empire_id": 136253055,
        "postalcode_id": 437829511,
        "postalregion_id": 1864208713
      }
    ],
    "wof:id": 437829511,
    "wof:lastmodified": 1763547985,
    "wof:name": "LU7 0XG",
    "wof:parent_id": 101852791,
    "wof:placetype": "postalcode",
    "wof:repo": "whosonfirst-data-postalcode-gb",
    "wof:superseded_by": [],
    "wof:supersedes": [],
    "wof:tags": []
  },
  "bbox": [
    -0.763392,
    51.924391,
    -0.763392,
    51.924391
  ],
  "geometry": {"coordinates":[-0.763392,51.924391],"type":"Point"}
}
