{
  "id": 454794151,
  "type": "Feature",
  "properties": {
    "date:inception_lower": "2005-02-01",
    "date:inception_upper": "2005-02-01",
    "edtf:cessation": "",
    "edtf:inception": "2005-02-01",
    "geom:area": 0,
    "geom:bbox": "-0.639339,51.611798,-0.639339,51.611798",
    "geom:latitude": 51.611798,
    "geom:longitude": -0.639339,
    "iso:country": "GB",
    "mz:hierarchy_label": 1,
    "mz:is_current": 1,
    "os:country_code": "E92000001",
    "os:county_code": "E99999999",
    "os:district_code": "E06000060",
    "os:positional_quality_indicator": "1",
    "os:region_code": "E12000008",
    "src:geom": "os",
    "wof:belongsto": [
      85633159,
      102191581,
      136253055,
      1864207693,
      1360698997,
      404434561,
      101854797,
      1880762141,
      404227469,
      1880773087
    ],
    "wof:breaches": [],
    "wof:concordances": {
      "gp:id": "28209615"
    },
    "wof:country": "GB",
    "wof:created": 1583701716,
    "wof:geomhash": "899f937382318cafb81e76f30b00ffd9",
    "wof:hierarchy": [
      {
        "continent_id": 102191581,
        "country_id": 85633159,
        "county_id": 1360698997,
        "empire_id": 136253055,
        "localadmin_id": 404434561,
        "locality_id": 101854797,
        "macrocounty_id": 1880762141,
        "macroregion_id": 404227469,
        "postalcode_id": 454794151,
        "region_id": 1880773087
      },
      {
        "continent_id": 102191581,
        "country_id": 85633159,
        "empire_id": 136253055,
        "postalcode_id": 454794151,
        "postalregion_id": 1864207693
      }
    ],
    "wof:id": 454794151,
    "wof:lastmodified": 1763548443,
    "wof:name": "HP9 2BT",
    "wof:parent_id": 101854797,
    "wof:placetype": "postalcode",
    "wof:repo": "whosonfirst-data-postalcode-gb",
    "wof:superseded_by": [],
    "wof:supersedes": [],
    "wof:tags": []
  },
  "bbox": [
    -0.639339,
    51.611798,
    -0.639339,
    51.611798
  ],
  "geometry": {"coordinates":[-0.639339,51.611798],"type":"Point"}
}
