{
  "id": 1161098254,
  "type": "Feature",
  "properties": {
    "date:cessation_lower": "1994-12-01",
    "date:cessation_upper": "1994-12-01",
    "date:inception_lower": "1993-01-01",
    "date:inception_upper": "1993-01-01",
    "edtf:cessation": "1994-12-01",
    "edtf:inception": "1993-01-01",
    "geom:area": 0,
    "geom:bbox": "-2.659267,54.976026,-2.659267,54.976026",
    "geom:latitude": 54.976026,
    "geom:longitude": -2.659267,
    "iso:country": "GB",
    "mz:hierarchy_label": 1,
    "mz:is_current": 0,
    "os:country_code": "E92000001",
    "os:county_code": "E99999999",
    "os:district_code": "E06000063",
    "os:positional_quality_indicator": "8",
    "os:region_code": "E12000002",
    "src:geom": "os",
    "wof:belongsto": [
      85633159,
      102191581,
      136253055,
      1864206111,
      1880773235,
      404445247,
      1125991497,
      1880761989,
      404227469,
      1880773269
    ],
    "wof:breaches": [],
    "wof:country": "GB",
    "wof:created": 1583803766,
    "wof:geomhash": "8878e2f59dadd10fa6c0d34058ac9b6a",
    "wof:hierarchy": [
      {
        "continent_id": 102191581,
        "country_id": 85633159,
        "county_id": 1880773235,
        "empire_id": 136253055,
        "localadmin_id": 404445247,
        "locality_id": 1125991497,
        "macrocounty_id": 1880761989,
        "macroregion_id": 404227469,
        "postalcode_id": 1161098254,
        "region_id": 1880773269
      },
      {
        "continent_id": 102191581,
        "country_id": 85633159,
        "empire_id": 136253055,
        "postalcode_id": 1161098254,
        "postalregion_id": 1864206111
      }
    ],
    "wof:id": 1161098254,
    "wof:lastmodified": 1763548284,
    "wof:name": "CA8 2BY",
    "wof:parent_id": 1125991497,
    "wof:placetype": "postalcode",
    "wof:repo": "whosonfirst-data-postalcode-gb",
    "wof:superseded_by": [],
    "wof:supersedes": [],
    "wof:tags": []
  },
  "bbox": [
    -2.659267,
    54.976026,
    -2.659267,
    54.976026
  ],
  "geometry": {"coordinates":[-2.659267,54.976026],"type":"Point"}
}
