{
  "id": 1998352471,
  "type": "Feature",
  "properties": {
    "date:inception_lower": "2025-01-01",
    "date:inception_upper": "2025-01-01",
    "edtf:cessation": "",
    "edtf:inception": "2025-01-01",
    "geom:area": 0,
    "geom:bbox": "-4.370613,53.422815,-4.370613,53.422815",
    "geom:latitude": 53.422815,
    "geom:longitude": -4.370613,
    "iso:country": "GB",
    "mz:hierarchy_label": 1,
    "mz:is_current": 1,
    "os:country_code": "W92000004",
    "os:county_code": "W99999999",
    "os:district_code": "W06000001",
    "os:positional_quality_indicator": "1",
    "os:region_code": "W99999999",
    "src:geom": "os",
    "wof:belongsto": [
      102191581,
      85633159,
      1360698787,
      136253055,
      404431201,
      101872205,
      1880762187,
      404227475,
      1880773051,
      1864208573
    ],
    "wof:breaches": [],
    "wof:country": "GB",
    "wof:created": 1763549391,
    "wof:geomhash": "61f145ba169abbb6d571ce94813fe534",
    "wof:hierarchy": [
      {
        "continent_id": 102191581,
        "country_id": 85633159,
        "county_id": 1360698787,
        "empire_id": 136253055,
        "localadmin_id": 404431201,
        "locality_id": 101872205,
        "macrocounty_id": 1880762187,
        "macroregion_id": 404227475,
        "postalcode_id": 1998352471,
        "region_id": 1880773051
      },
      {
        "continent_id": 102191581,
        "country_id": 85633159,
        "empire_id": 136253055,
        "postalcode_id": 1998352471,
        "postalregion_id": 1864208573
      }
    ],
    "wof:id": 1998352471,
    "wof:lastmodified": 1763549391,
    "wof:name": "LL68 9DJ",
    "wof:parent_id": 101872205,
    "wof:placetype": "postalcode",
    "wof:repo": "whosonfirst-data-postalcode-gb",
    "wof:superseded_by": [],
    "wof:supersedes": [],
    "wof:tags": []
  },
  "bbox": [
    -4.370613,
    53.422815,
    -4.370613,
    53.422815
  ],
  "geometry": {"coordinates":[-4.370613,53.422815],"type":"Point"}
}
