{
  "id": 471625663,
  "type": "Feature",
  "properties": {
    "date:cessation_lower": "2025-01-01",
    "date:cessation_upper": "2025-01-01",
    "date:inception_lower": "1980-01-01",
    "date:inception_upper": "1980-01-01",
    "edtf:cessation": "2025-01-01",
    "edtf:inception": "1980-01-01",
    "geom:area": 0,
    "geom:bbox": "-1.502080,53.377034,-1.502080,53.377034",
    "geom:latitude": 53.377034,
    "geom:longitude": -1.50208,
    "gp:parent_id": "34503",
    "iso:country": "GB",
    "mz:hierarchy_label": 1,
    "mz:is_current": 0,
    "os:country_code": "E92000001",
    "os:county_code": "E99999999",
    "os:district_code": "E08000039",
    "os:positional_quality_indicator": "1",
    "os:region_code": "E12000003",
    "src:geom": "os",
    "wof:belongsto": [
      85633159,
      102191581,
      136253055,
      1864210175,
      1360699075,
      101750529,
      1880761997,
      404227469,
      1880772963
    ],
    "wof:breaches": [],
    "wof:concordances": {
      "gp:id": "27844202"
    },
    "wof:country": "GB",
    "wof:created": 1583701692,
    "wof:geomhash": "1e84905039df4ceb97f817df9eccc2b6",
    "wof:hierarchy": [
      {
        "continent_id": 102191581,
        "country_id": 85633159,
        "county_id": 1360699075,
        "empire_id": 136253055,
        "locality_id": 101750529,
        "macrocounty_id": 1880761997,
        "macroregion_id": 404227469,
        "postalcode_id": 471625663,
        "region_id": 1880772963
      },
      {
        "continent_id": 102191581,
        "country_id": 85633159,
        "empire_id": 136253055,
        "postalcode_id": 471625663,
        "postalregion_id": 1864210175
      }
    ],
    "wof:id": 471625663,
    "wof:lastmodified": 1763548270,
    "wof:name": "S10 3BE",
    "wof:parent_id": 101750529,
    "wof:placetype": "postalcode",
    "wof:repo": "whosonfirst-data-postalcode-gb",
    "wof:superseded_by": [],
    "wof:supersedes": [],
    "wof:tags": []
  },
  "bbox": [
    -1.50208,
    53.377034,
    -1.50208,
    53.377034
  ],
  "geometry": {"coordinates":[-1.50208,53.377034],"type":"Point"}
}
