{
  "id": 1998353613,
  "type": "Feature",
  "properties": {
    "date:inception_lower": "2025-07-01",
    "date:inception_upper": "2025-07-01",
    "edtf:cessation": "",
    "edtf:inception": "2025-07-01",
    "geom:area": 0,
    "geom:bbox": "-3.614346,50.599693,-3.614346,50.599693",
    "geom:latitude": 50.599693,
    "geom:longitude": -3.614346,
    "iso:country": "GB",
    "mz:hierarchy_label": 1,
    "mz:is_current": 1,
    "os:country_code": "E92000001",
    "os:county_code": "E10000008",
    "os:district_code": "E07000045",
    "os:positional_quality_indicator": "1",
    "os:region_code": "E12000009",
    "src:geom": "os",
    "wof:belongsto": [
      102191581,
      85633159,
      1880771399,
      136253055,
      404438655,
      101852575,
      1880762149,
      404227469,
      1880762683,
      1864211165
    ],
    "wof:breaches": [],
    "wof:country": "GB",
    "wof:created": 1763549442,
    "wof:geomhash": "0308ef4ddf9ae1556e85c020b4004d0a",
    "wof:hierarchy": [
      {
        "continent_id": 102191581,
        "country_id": 85633159,
        "county_id": 1880771399,
        "empire_id": 136253055,
        "localadmin_id": 404438655,
        "locality_id": 101852575,
        "macrocounty_id": 1880762149,
        "macroregion_id": 404227469,
        "postalcode_id": 1998353613,
        "region_id": 1880762683
      },
      {
        "continent_id": 102191581,
        "country_id": 85633159,
        "empire_id": 136253055,
        "postalcode_id": 1998353613,
        "postalregion_id": 1864211165
      }
    ],
    "wof:id": 1998353613,
    "wof:lastmodified": 1763549442,
    "wof:name": "TQ13 0GF",
    "wof:parent_id": 101852575,
    "wof:placetype": "postalcode",
    "wof:repo": "whosonfirst-data-postalcode-gb",
    "wof:superseded_by": [],
    "wof:supersedes": [],
    "wof:tags": []
  },
  "bbox": [
    -3.614346,
    50.599693,
    -3.614346,
    50.599693
  ],
  "geometry": {"coordinates":[-3.614346,50.599693],"type":"Point"}
}
