{
  "id": 454068823,
  "type": "Feature",
  "properties": {
    "date:inception_lower": "1980-01-01",
    "date:inception_upper": "1980-01-01",
    "edtf:cessation": "",
    "edtf:inception": "1980-01-01",
    "geom:area": 0,
    "geom:bbox": "-2.948872,54.910234,-2.948872,54.910234",
    "geom:latitude": 54.910234,
    "geom:longitude": -2.948872,
    "iso:country": "GB",
    "mz:hierarchy_label": 1,
    "mz:is_current": 1,
    "os:country_code": "E92000001",
    "os:county_code": "E99999999",
    "os:district_code": "E06000063",
    "os:positional_quality_indicator": "1",
    "os:region_code": "E12000002",
    "src:geom": "os",
    "wof:belongsto": [
      85633159,
      102191581,
      136253055,
      1864206101,
      1880773239,
      101750619,
      1880761989,
      404227469,
      1880773269
    ],
    "wof:breaches": [],
    "wof:concordances": {
      "gp:id": "27020147"
    },
    "wof:country": "GB",
    "wof:created": 1583701135,
    "wof:geomhash": "2ec11dd6941282ba5a12ab5f07140c82",
    "wof:hierarchy": [
      {
        "continent_id": 102191581,
        "country_id": 85633159,
        "county_id": 1880773239,
        "empire_id": 136253055,
        "locality_id": 101750619,
        "macrocounty_id": 1880761989,
        "macroregion_id": 404227469,
        "postalcode_id": 454068823,
        "region_id": 1880773269
      },
      {
        "continent_id": 102191581,
        "country_id": 85633159,
        "empire_id": 136253055,
        "postalcode_id": 454068823,
        "postalregion_id": 1864206101
      }
    ],
    "wof:id": 454068823,
    "wof:lastmodified": 1763548513,
    "wof:name": "CA3 9SG",
    "wof:parent_id": 101750619,
    "wof:placetype": "postalcode",
    "wof:repo": "whosonfirst-data-postalcode-gb",
    "wof:superseded_by": [],
    "wof:supersedes": [],
    "wof:tags": []
  },
  "bbox": [
    -2.948872,
    54.910234,
    -2.948872,
    54.910234
  ],
  "geometry": {"coordinates":[-2.948872,54.910234],"type":"Point"}
}
