{
  "id": 454084089,
  "type": "Feature",
  "properties": {
    "date:inception_lower": "2006-09-01",
    "date:inception_upper": "2006-09-01",
    "edtf:cessation": "",
    "edtf:inception": "2006-09-01",
    "geom:area": 0,
    "geom:bbox": "-0.121163,52.248915,-0.121163,52.248915",
    "geom:latitude": 52.248915,
    "geom:longitude": -0.121163,
    "gp:parent_id": "31416",
    "iso:country": "GB",
    "mz:hierarchy_label": 1,
    "mz:is_current": 1,
    "os:country_code": "E92000001",
    "os:county_code": "E10000003",
    "os:district_code": "E07000012",
    "os:positional_quality_indicator": "1",
    "os:region_code": "E12000006",
    "src:geom": "os",
    "wof:belongsto": [
      85633159,
      102191581,
      136253055,
      1864206131,
      1880771367,
      404437573,
      1125839789,
      1880762143,
      404227469,
      1880762687
    ],
    "wof:breaches": [],
    "wof:concordances": {
      "gp:id": "28964627"
    },
    "wof:country": "GB",
    "wof:created": 1583701176,
    "wof:geomhash": "5b60e5868babc503ef315b8a11621e2c",
    "wof:hierarchy": [
      {
        "continent_id": 102191581,
        "country_id": 85633159,
        "county_id": 1880771367,
        "empire_id": 136253055,
        "localadmin_id": 404437573,
        "locality_id": 1125839789,
        "macrocounty_id": 1880762143,
        "macroregion_id": 404227469,
        "postalcode_id": 454084089,
        "region_id": 1880762687
      },
      {
        "continent_id": 102191581,
        "country_id": 85633159,
        "empire_id": 136253055,
        "postalcode_id": 454084089,
        "postalregion_id": 1864206131
      }
    ],
    "wof:id": 454084089,
    "wof:lastmodified": 1763548275,
    "wof:name": "CB23 3FA",
    "wof:parent_id": 1125839789,
    "wof:placetype": "postalcode",
    "wof:repo": "whosonfirst-data-postalcode-gb",
    "wof:superseded_by": [],
    "wof:supersedes": [],
    "wof:tags": []
  },
  "bbox": [
    -0.121163,
    52.248915,
    -0.121163,
    52.248915
  ],
  "geometry": {"coordinates":[-0.121163,52.248915],"type":"Point"}
}
