{
  "id": 454239965,
  "type": "Feature",
  "properties": {
    "date:inception_lower": "1985-04-01",
    "date:inception_upper": "1985-04-01",
    "edtf:cessation": "",
    "edtf:inception": "1985-04-01",
    "geom:area": 0,
    "geom:bbox": "1.012448,51.347457,1.012448,51.347457",
    "geom:latitude": 51.347457,
    "geom:longitude": 1.012448,
    "iso:country": "GB",
    "mz:hierarchy_label": 1,
    "mz:is_current": 1,
    "os:country_code": "E92000001",
    "os:county_code": "E10000016",
    "os:district_code": "E07000106",
    "os:positional_quality_indicator": "1",
    "os:region_code": "E12000008",
    "src:geom": "os",
    "wof:belongsto": [
      85633159,
      102191581,
      136253055,
      1864206479,
      1360698811,
      1360755123,
      404227469,
      1360698565
    ],
    "wof:breaches": [],
    "wof:concordances": {
      "gp:id": "27103589"
    },
    "wof:country": "GB",
    "wof:created": 1583701404,
    "wof:geomhash": "817e03397c7de1cab0819cf1a4542046",
    "wof:hierarchy": [
      {
        "continent_id": 102191581,
        "country_id": 85633159,
        "county_id": 1360698811,
        "locality_id": 1360755123,
        "macroregion_id": 404227469,
        "postalcode_id": 454239965,
        "region_id": 1360698565
      },
      {
        "continent_id": 102191581,
        "country_id": 85633159,
        "empire_id": 136253055,
        "postalcode_id": 454239965,
        "postalregion_id": 1864206479
      }
    ],
    "wof:id": 454239965,
    "wof:lastmodified": 1763548515,
    "wof:name": "CT5 4TA",
    "wof:parent_id": 1360755123,
    "wof:placetype": "postalcode",
    "wof:repo": "whosonfirst-data-postalcode-gb",
    "wof:superseded_by": [],
    "wof:supersedes": [],
    "wof:tags": []
  },
  "bbox": [
    1.012448,
    51.347457,
    1.012448,
    51.347457
  ],
  "geometry": {"coordinates":[1.012448,51.347457],"type":"Point"}
}
