{
  "id": 454970411,
  "type": "Feature",
  "properties": {
    "date:inception_lower": "1980-01-01",
    "date:inception_upper": "1980-01-01",
    "edtf:cessation": "",
    "edtf:inception": "1980-01-01",
    "geom:area": 0,
    "geom:bbox": "-2.825492,53.582700,-2.825492,53.582700",
    "geom:latitude": 53.5827,
    "geom:longitude": -2.825492,
    "gp:parent_id": "25874",
    "iso:country": "GB",
    "mz:hierarchy_label": 1,
    "mz:is_current": 1,
    "os:country_code": "E92000001",
    "os:county_code": "E10000017",
    "os:district_code": "E07000127",
    "os:positional_quality_indicator": "1",
    "os:region_code": "E12000002",
    "src:geom": "os",
    "wof:belongsto": [
      85633159,
      102191581,
      136253055,
      1864208289,
      1880771529,
      404431055,
      1125787985,
      1880762053,
      404227469,
      1880762711
    ],
    "wof:breaches": [],
    "wof:concordances": {
      "gp:id": "27454847"
    },
    "wof:country": "GB",
    "wof:created": 1583701763,
    "wof:geomhash": "ce54dfa3b1f6bc1575e350599b85661a",
    "wof:hierarchy": [
      {
        "continent_id": 102191581,
        "country_id": 85633159,
        "county_id": 1880771529,
        "empire_id": 136253055,
        "localadmin_id": 404431055,
        "locality_id": 1125787985,
        "macrocounty_id": 1880762053,
        "macroregion_id": 404227469,
        "postalcode_id": 454970411,
        "region_id": 1880762711
      },
      {
        "continent_id": 102191581,
        "country_id": 85633159,
        "empire_id": 136253055,
        "postalcode_id": 454970411,
        "postalregion_id": 1864208289
      }
    ],
    "wof:id": 454970411,
    "wof:lastmodified": 1763548383,
    "wof:name": "L40 5UG",
    "wof:parent_id": 1125787985,
    "wof:placetype": "postalcode",
    "wof:repo": "whosonfirst-data-postalcode-gb",
    "wof:superseded_by": [],
    "wof:supersedes": [],
    "wof:tags": []
  },
  "bbox": [
    -2.825492,
    53.5827,
    -2.825492,
    53.5827
  ],
  "geometry": {"coordinates":[-2.825492,53.5827],"type":"Point"}
}
