{
  "id": 454624763,
  "type": "Feature",
  "properties": {
    "date:inception_lower": "1980-01-01",
    "date:inception_upper": "1980-01-01",
    "edtf:cessation": "",
    "edtf:inception": "1980-01-01",
    "geom:area": 0,
    "geom:bbox": "-2.946378,53.740127,-2.946378,53.740127",
    "geom:latitude": 53.740127,
    "geom:longitude": -2.946378,
    "iso:country": "GB",
    "mz:hierarchy_label": 1,
    "mz:is_current": 1,
    "os:country_code": "E92000001",
    "os:county_code": "E10000017",
    "os:district_code": "E07000119",
    "os:positional_quality_indicator": "1",
    "os:region_code": "E12000002",
    "src:geom": "os",
    "wof:belongsto": [
      85633159,
      102191581,
      136253055,
      1864207315,
      1880771541,
      101872281,
      1880762053,
      404227469,
      1880762711
    ],
    "wof:breaches": [],
    "wof:concordances": {
      "gp:id": "27278905"
    },
    "wof:country": "GB",
    "wof:created": 1583701664,
    "wof:geomhash": "20d023c41738788a4c9363cbbbda54bf",
    "wof:hierarchy": [
      {
        "continent_id": 102191581,
        "country_id": 85633159,
        "county_id": 1880771541,
        "empire_id": 136253055,
        "locality_id": 101872281,
        "macrocounty_id": 1880762053,
        "macroregion_id": 404227469,
        "postalcode_id": 454624763,
        "region_id": 1880762711
      },
      {
        "continent_id": 102191581,
        "country_id": 85633159,
        "empire_id": 136253055,
        "postalcode_id": 454624763,
        "postalregion_id": 1864207315
      }
    ],
    "wof:id": 454624763,
    "wof:lastmodified": 1763548485,
    "wof:name": "FY8 5DA",
    "wof:parent_id": 101872281,
    "wof:placetype": "postalcode",
    "wof:repo": "whosonfirst-data-postalcode-gb",
    "wof:superseded_by": [],
    "wof:supersedes": [],
    "wof:tags": []
  },
  "bbox": [
    -2.946378,
    53.740127,
    -2.946378,
    53.740127
  ],
  "geometry": {"coordinates":[-2.946378,53.740127],"type":"Point"}
}
