{
  "id": 874504589,
  "type": "Feature",
  "properties": {
    "date:inception_lower": "2013-10-01",
    "date:inception_upper": "2013-10-01",
    "edtf:cessation": "",
    "edtf:inception": "2013-10-01",
    "geom:area": 0,
    "geom:bbox": "-2.073717,53.540604,-2.073717,53.540604",
    "geom:latitude": 53.540604,
    "geom:longitude": -2.073717,
    "iso:country": "GB",
    "mz:hierarchy_label": 1,
    "mz:is_current": 1,
    "os:country_code": "E92000001",
    "os:county_code": "E99999999",
    "os:district_code": "E08000004",
    "os:positional_quality_indicator": "1",
    "os:region_code": "E12000002",
    "src:geom": "os",
    "wof:belongsto": [
      85633159,
      102191581,
      136253055,
      1864209431,
      1360698953,
      1126030435,
      1880762163,
      404227469,
      1880773095
    ],
    "wof:breaches": [],
    "wof:country": "GB",
    "wof:created": 1468891883,
    "wof:geomhash": "ab3c1ab744732f6b4badaa9dd0258d16",
    "wof:hierarchy": [
      {
        "continent_id": 102191581,
        "country_id": 85633159,
        "county_id": 1360698953,
        "empire_id": 136253055,
        "locality_id": 1126030435,
        "macrocounty_id": 1880762163,
        "macroregion_id": 404227469,
        "postalcode_id": 874504589,
        "region_id": 1880773095
      },
      {
        "continent_id": 102191581,
        "country_id": 85633159,
        "empire_id": 136253055,
        "postalcode_id": 874504589,
        "postalregion_id": 1864209431
      }
    ],
    "wof:id": 874504589,
    "wof:lastmodified": 1763547917,
    "wof:name": "OL4 3LY",
    "wof:parent_id": 1126030435,
    "wof:placetype": "postalcode",
    "wof:repo": "whosonfirst-data-postalcode-gb",
    "wof:superseded_by": [],
    "wof:supersedes": [],
    "wof:tags": []
  },
  "bbox": [
    -2.073717,
    53.540604,
    -2.073717,
    53.540604
  ],
  "geometry": {"coordinates":[-2.073717,53.540604],"type":"Point"}
}
