{
  "id": 39451527,
  "type": "Feature",
  "properties": {
    "date:cessation_lower": "1997-07-01",
    "date:cessation_upper": "1997-07-01",
    "date:inception_lower": "1996-06-01",
    "date:inception_upper": "1996-06-01",
    "edtf:cessation": "1997-07-01",
    "edtf:inception": "1996-06-01",
    "geom:area": 0,
    "geom:bbox": "-1.407049,54.108029,-1.407049,54.108029",
    "geom:latitude": 54.108029,
    "geom:longitude": -1.407049,
    "iso:country": "GB",
    "mz:hierarchy_label": 1,
    "mz:is_current": 0,
    "os:country_code": "E92000001",
    "os:county_code": "E99999999",
    "os:district_code": "E06000065",
    "os:positional_quality_indicator": "8",
    "os:region_code": "E12000003",
    "src:geom": "os",
    "wof:belongsto": [
      1360698753,
      404451425,
      1126053003,
      1880762011
    ],
    "wof:breaches": [],
    "wof:country": "GB",
    "wof:created": 1583801640,
    "wof:geomhash": "613375784fb712f110482cbc1b21baf5",
    "wof:hierarchy": [
      {
        "continent_id": -1,
        "country_id": -1,
        "county_id": 1360698753,
        "localadmin_id": 404451425,
        "locality_id": 1126053003,
        "macrocounty_id": 1880762011,
        "postalcode_id": 39451527,
        "region_id": -1
      }
    ],
    "wof:id": 39451527,
    "wof:lastmodified": 1763548413,
    "wof:name": "YO5 9YP",
    "wof:parent_id": 1126053003,
    "wof:placetype": "postalcode",
    "wof:repo": "whosonfirst-data-postalcode-gb",
    "wof:superseded_by": [],
    "wof:supersedes": [],
    "wof:tags": []
  },
  "bbox": [
    -1.407049,
    54.108029,
    -1.407049,
    54.108029
  ],
  "geometry": {"coordinates":[-1.407049,54.108029],"type":"Point"}
}
