{
  "id": 487645395,
  "type": "Feature",
  "properties": {
    "date:inception_lower": "1980-01-01",
    "date:inception_upper": "1980-01-01",
    "edtf:cessation": "",
    "edtf:inception": "1980-01-01",
    "geom:area": 0,
    "geom:bbox": "-2.081215,50.999768,-2.081215,50.999768",
    "geom:latitude": 50.999768,
    "geom:longitude": -2.081215,
    "gp:parent_id": "12442",
    "iso:country": "GB",
    "mz:hierarchy_label": 1,
    "mz:is_current": 1,
    "os:country_code": "E92000001",
    "os:county_code": "E99999999",
    "os:district_code": "E06000054",
    "os:positional_quality_indicator": "1",
    "os:region_code": "E12000009",
    "src:geom": "os",
    "wof:belongsto": [
      85633159,
      102191581,
      136253055,
      1864210715,
      1360698937,
      404439617,
      1125954311,
      1880762017,
      404227469,
      1880773035
    ],
    "wof:breaches": [],
    "wof:concordances": {
      "gp:id": "27969245"
    },
    "wof:country": "GB",
    "wof:created": 1583701102,
    "wof:geomhash": "372fa275955893635b50e59f3e4dbb13",
    "wof:hierarchy": [
      {
        "continent_id": 102191581,
        "country_id": 85633159,
        "county_id": 1360698937,
        "empire_id": 136253055,
        "localadmin_id": 404439617,
        "locality_id": 1125954311,
        "macrocounty_id": 1880762017,
        "macroregion_id": 404227469,
        "postalcode_id": 487645395,
        "region_id": 1880773035
      },
      {
        "continent_id": 102191581,
        "country_id": 85633159,
        "empire_id": 136253055,
        "postalcode_id": 487645395,
        "postalregion_id": 1864210715
      }
    ],
    "wof:id": 487645395,
    "wof:lastmodified": 1763548640,
    "wof:name": "SP7 0HH",
    "wof:parent_id": 1125954311,
    "wof:placetype": "postalcode",
    "wof:repo": "whosonfirst-data-postalcode-gb",
    "wof:superseded_by": [],
    "wof:supersedes": [],
    "wof:tags": []
  },
  "bbox": [
    -2.081215,
    50.999768,
    -2.081215,
    50.999768
  ],
  "geometry": {"coordinates":[-2.081215,50.999768],"type":"Point"}
}
