{
  "id": 471429535,
  "type": "Feature",
  "properties": {
    "date:inception_lower": "1980-01-01",
    "date:inception_upper": "1980-01-01",
    "edtf:cessation": "",
    "edtf:inception": "1980-01-01",
    "geom:area": 0,
    "geom:bbox": "-4.140469,50.377874,-4.140469,50.377874",
    "geom:latitude": 50.377874,
    "geom:longitude": -4.140469,
    "gp:parent_id": "32185",
    "iso:country": "GB",
    "mz:hierarchy_label": 1,
    "mz:is_current": 1,
    "os:country_code": "E92000001",
    "os:county_code": "E99999999",
    "os:district_code": "E06000026",
    "os:positional_quality_indicator": "1",
    "os:region_code": "E12000009",
    "src:geom": "os",
    "wof:belongsto": [
      85633159,
      102191581,
      136253055,
      1864209895,
      1360698841,
      101750297,
      1880762149,
      404227469,
      1880762683
    ],
    "wof:breaches": [],
    "wof:concordances": {
      "gp:id": "26623272"
    },
    "wof:country": "GB",
    "wof:created": 1583701598,
    "wof:geomhash": "ad38a032f7b380e00301cd8f7f614d74",
    "wof:hierarchy": [
      {
        "continent_id": 102191581,
        "country_id": 85633159,
        "county_id": 1360698841,
        "empire_id": 136253055,
        "locality_id": 101750297,
        "macrocounty_id": 1880762149,
        "macroregion_id": 404227469,
        "postalcode_id": 471429535,
        "region_id": 1880762683
      },
      {
        "continent_id": 102191581,
        "country_id": 85633159,
        "empire_id": 136253055,
        "postalcode_id": 471429535,
        "postalregion_id": 1864209895
      }
    ],
    "wof:id": 471429535,
    "wof:lastmodified": 1763548304,
    "wof:name": "PL4 6BG",
    "wof:parent_id": 101750297,
    "wof:placetype": "postalcode",
    "wof:repo": "whosonfirst-data-postalcode-gb",
    "wof:superseded_by": [],
    "wof:supersedes": [],
    "wof:tags": []
  },
  "bbox": [
    -4.140469,
    50.377874,
    -4.140469,
    50.377874
  ],
  "geometry": {"coordinates":[-4.140469,50.377874],"type":"Point"}
}
