{
  "id": 438095057,
  "type": "Feature",
  "properties": {
    "date:inception_lower": "1980-01-01",
    "date:inception_upper": "1980-01-01",
    "edtf:cessation": "",
    "edtf:inception": "1980-01-01",
    "geom:area": 0,
    "geom:bbox": "-2.303070,53.710083,-2.303070,53.710083",
    "geom:latitude": 53.710083,
    "geom:longitude": -2.30307,
    "iso:country": "GB",
    "mz:hierarchy_label": 1,
    "mz:is_current": 1,
    "os:country_code": "E92000001",
    "os:county_code": "E10000017",
    "os:district_code": "E07000125",
    "os:positional_quality_indicator": "1",
    "os:region_code": "E12000002",
    "src:geom": "os",
    "wof:belongsto": [
      85633159,
      102191581,
      136253055,
      1864205709,
      1880771539,
      1360817193,
      1125898295,
      1880762053,
      404227469,
      1880762711
    ],
    "wof:breaches": [],
    "wof:concordances": {
      "gp:id": "26890951"
    },
    "wof:country": "GB",
    "wof:created": 1583701261,
    "wof:geomhash": "d4e8e147df5bbc053ca4d9c614d288b9",
    "wof:hierarchy": [
      {
        "continent_id": 102191581,
        "country_id": 85633159,
        "county_id": 1880771539,
        "empire_id": 136253055,
        "localadmin_id": 1360817193,
        "locality_id": 1125898295,
        "macrocounty_id": 1880762053,
        "macroregion_id": 404227469,
        "postalcode_id": 438095057,
        "region_id": 1880762711
      },
      {
        "continent_id": 102191581,
        "country_id": 85633159,
        "empire_id": 136253055,
        "postalcode_id": 438095057,
        "postalregion_id": 1864205709
      }
    ],
    "wof:id": 438095057,
    "wof:lastmodified": 1763548117,
    "wof:name": "BB4 8UD",
    "wof:parent_id": 1125898295,
    "wof:placetype": "postalcode",
    "wof:repo": "whosonfirst-data-postalcode-gb",
    "wof:superseded_by": [],
    "wof:supersedes": [],
    "wof:tags": []
  },
  "bbox": [
    -2.30307,
    53.710083,
    -2.30307,
    53.710083
  ],
  "geometry": {"coordinates":[-2.30307,53.710083],"type":"Point"}
}
