{
  "id": 488421417,
  "type": "Feature",
  "properties": {
    "date:inception_lower": "1980-10-01",
    "date:inception_upper": "1980-10-01",
    "edtf:cessation": "",
    "edtf:inception": "1980-10-01",
    "geom:area": 0,
    "geom:bbox": "-4.337765,55.781426,-4.337765,55.781426",
    "geom:latitude": 55.781426,
    "geom:longitude": -4.337765,
    "gp:parent_id": "12696194",
    "iso:country": "GB",
    "mz:hierarchy_label": 1,
    "mz:is_current": 1,
    "os:country_code": "S92000003",
    "os:county_code": "S99999999",
    "os:district_code": "S12000011",
    "os:positional_quality_indicator": "1",
    "os:region_code": "S99999999",
    "src:geom": "os",
    "wof:belongsto": [
      85633159,
      102191581,
      136253055,
      1864207421,
      1360699117,
      1880762039,
      404227471,
      1880773179
    ],
    "wof:breaches": [],
    "wof:concordances": {
      "gp:id": "27301329"
    },
    "wof:country": "GB",
    "wof:created": 1583701433,
    "wof:geomhash": "1a747edfee9e215493bf1900b64c0ff8",
    "wof:hierarchy": [
      {
        "continent_id": 102191581,
        "country_id": 85633159,
        "county_id": 1360699117,
        "empire_id": 136253055,
        "macrocounty_id": 1880762039,
        "macroregion_id": 404227471,
        "postalcode_id": 488421417,
        "region_id": 1880773179
      },
      {
        "continent_id": 102191581,
        "country_id": 85633159,
        "empire_id": 136253055,
        "postalcode_id": 488421417,
        "postalregion_id": 1864207421
      }
    ],
    "wof:id": 488421417,
    "wof:lastmodified": 1763548554,
    "wof:name": "G77 6UT",
    "wof:parent_id": 1360699117,
    "wof:placetype": "postalcode",
    "wof:repo": "whosonfirst-data-postalcode-gb",
    "wof:superseded_by": [],
    "wof:supersedes": [],
    "wof:tags": []
  },
  "bbox": [
    -4.337765,
    55.781426,
    -4.337765,
    55.781426
  ],
  "geometry": {"coordinates":[-4.337765,55.781426],"type":"Point"}
}
