{
  "id": 1998339809,
  "type": "Feature",
  "properties": {
    "date:inception_lower": "2024-11-01",
    "date:inception_upper": "2024-11-01",
    "edtf:cessation": "",
    "edtf:inception": "2024-11-01",
    "geom:area": 0,
    "geom:bbox": "1.327642,52.580851,1.327642,52.580851",
    "geom:latitude": 52.580851,
    "geom:longitude": 1.327642,
    "iso:country": "GB",
    "mz:hierarchy_label": 1,
    "mz:is_current": 1,
    "os:country_code": "E92000001",
    "os:county_code": "E10000020",
    "os:district_code": "E07000149",
    "os:positional_quality_indicator": "1",
    "os:region_code": "E12000006",
    "src:geom": "os",
    "wof:belongsto": [
      102191581,
      85633159,
      1880771585,
      136253055,
      404436287,
      1125857325,
      1880762037,
      404227469,
      1880762699,
      1864209311
    ],
    "wof:breaches": [],
    "wof:country": "GB",
    "wof:created": 1763548828,
    "wof:geomhash": "183728ca0473fc76cf38df98293bf8f5",
    "wof:hierarchy": [
      {
        "continent_id": 102191581,
        "country_id": 85633159,
        "county_id": 1880771585,
        "empire_id": 136253055,
        "localadmin_id": 404436287,
        "locality_id": 1125857325,
        "macrocounty_id": 1880762037,
        "macroregion_id": 404227469,
        "postalcode_id": 1998339809,
        "region_id": 1880762699
      },
      {
        "continent_id": 102191581,
        "country_id": 85633159,
        "empire_id": 136253055,
        "postalcode_id": 1998339809,
        "postalregion_id": 1864209311
      }
    ],
    "wof:id": 1998339809,
    "wof:lastmodified": 1763548828,
    "wof:name": "NR14 8YL",
    "wof:parent_id": 1125857325,
    "wof:placetype": "postalcode",
    "wof:repo": "whosonfirst-data-postalcode-gb",
    "wof:superseded_by": [],
    "wof:supersedes": [],
    "wof:tags": []
  },
  "bbox": [
    1.327642,
    52.580851,
    1.327642,
    52.580851
  ],
  "geometry": {"coordinates":[1.327642,52.580851],"type":"Point"}
}
