{
  "id": 39304467,
  "type": "Feature",
  "properties": {
    "date:cessation_lower": "1998-06-01",
    "date:cessation_upper": "1998-06-01",
    "date:inception_lower": "1980-01-01",
    "date:inception_upper": "1980-01-01",
    "edtf:cessation": "1998-06-01",
    "edtf:inception": "1980-01-01",
    "geom:area": 0,
    "geom:bbox": "-1.241023,54.084520,-1.241023,54.084520",
    "geom:latitude": 54.08452,
    "geom:longitude": -1.241023,
    "iso:country": "GB",
    "mz:hierarchy_label": 1,
    "mz:is_current": 0,
    "os:country_code": "E92000001",
    "os:county_code": "E99999999",
    "os:district_code": "E06000065",
    "os:positional_quality_indicator": "1",
    "os:region_code": "E12000003",
    "src:geom": "os",
    "wof:belongsto": [
      102191581,
      85633159,
      1360698753,
      136253055,
      404433235,
      1126047377,
      1880762011,
      404227469,
      1880772891
    ],
    "wof:breaches": [],
    "wof:country": "GB",
    "wof:created": 1583799998,
    "wof:geomhash": "06f4a747163bb24333f6efc09c0c0a56",
    "wof:hierarchy": [
      {
        "continent_id": 102191581,
        "country_id": 85633159,
        "county_id": 1360698753,
        "empire_id": 136253055,
        "localadmin_id": 404433235,
        "locality_id": 1126047377,
        "macrocounty_id": 1880762011,
        "macroregion_id": 404227469,
        "postalcode_id": 39304467,
        "region_id": 1880772891
      }
    ],
    "wof:id": 39304467,
    "wof:lastmodified": 1763548397,
    "wof:name": "YO6 2LH",
    "wof:parent_id": 1126047377,
    "wof:placetype": "postalcode",
    "wof:repo": "whosonfirst-data-postalcode-gb",
    "wof:superseded_by": [],
    "wof:supersedes": [],
    "wof:tags": []
  },
  "bbox": [
    -1.241023,
    54.08452,
    -1.241023,
    54.08452
  ],
  "geometry": {"coordinates":[-1.241023,54.08452],"type":"Point"}
}
