{
  "id": 1160792932,
  "type": "Feature",
  "properties": {
    "date:cessation_lower": "2000-06-01",
    "date:cessation_upper": "2000-06-01",
    "date:inception_lower": "1985-10-01",
    "date:inception_upper": "1985-10-01",
    "edtf:cessation": "2000-06-01",
    "edtf:inception": "1985-10-01",
    "geom:area": 0,
    "geom:bbox": "-2.488788,52.699461,-2.488788,52.699461",
    "geom:latitude": 52.699461,
    "geom:longitude": -2.488788,
    "iso:country": "GB",
    "mz:hierarchy_label": 1,
    "mz:is_current": 0,
    "os:country_code": "E92000001",
    "os:county_code": "E99999999",
    "os:district_code": "E06000020",
    "os:positional_quality_indicator": "1",
    "os:region_code": "E12000005",
    "src:geom": "os",
    "wof:belongsto": [
      85633159,
      102191581,
      136253055,
      1864211037,
      1360698911,
      404451091,
      1125868465,
      1880762073,
      404227469,
      1880772941
    ],
    "wof:breaches": [],
    "wof:country": "GB",
    "wof:created": 1583790218,
    "wof:geomhash": "5fa394df38b55cc9a5c74771fb7ff93d",
    "wof:hierarchy": [
      {
        "continent_id": 102191581,
        "country_id": 85633159,
        "county_id": 1360698911,
        "empire_id": 136253055,
        "localadmin_id": 404451091,
        "locality_id": 1125868465,
        "macrocounty_id": 1880762073,
        "macroregion_id": 404227469,
        "postalcode_id": 1160792932,
        "region_id": 1880772941
      },
      {
        "continent_id": 102191581,
        "country_id": 85633159,
        "empire_id": 136253055,
        "postalcode_id": 1160792932,
        "postalregion_id": 1864211037
      }
    ],
    "wof:id": 1160792932,
    "wof:lastmodified": 1763548209,
    "wof:name": "TF1 4BL",
    "wof:parent_id": 1125868465,
    "wof:placetype": "postalcode",
    "wof:repo": "whosonfirst-data-postalcode-gb",
    "wof:superseded_by": [],
    "wof:supersedes": [],
    "wof:tags": []
  },
  "bbox": [
    -2.488788,
    52.699461,
    -2.488788,
    52.699461
  ],
  "geometry": {"coordinates":[-2.488788,52.699461],"type":"Point"}
}
