{
  "id": 454430197,
  "type": "Feature",
  "properties": {
    "date:inception_lower": "2003-11-01",
    "date:inception_upper": "2003-11-01",
    "edtf:cessation": "",
    "edtf:inception": "2003-11-01",
    "geom:area": 0,
    "geom:bbox": "-0.504595,53.553667,-0.504595,53.553667",
    "geom:latitude": 53.553667,
    "geom:longitude": -0.504595,
    "gp:parent_id": "34175",
    "iso:country": "GB",
    "mz:hierarchy_label": 1,
    "mz:is_current": 1,
    "os:country_code": "E92000001",
    "os:county_code": "E99999999",
    "os:district_code": "E06000013",
    "os:positional_quality_indicator": "1",
    "os:region_code": "E12000003",
    "src:geom": "os",
    "wof:belongsto": [
      85633159,
      102191581,
      136253055,
      1864206815,
      1360698901,
      404430571,
      1360754621,
      1880762033,
      404227469,
      1880762701
    ],
    "wof:breaches": [],
    "wof:concordances": {
      "gp:id": "27185460"
    },
    "wof:country": "GB",
    "wof:created": 1583701563,
    "wof:geomhash": "495097b6606e7a97882fc9222b52eace",
    "wof:hierarchy": [
      {
        "continent_id": 102191581,
        "country_id": 85633159,
        "county_id": 1360698901,
        "empire_id": 136253055,
        "localadmin_id": 404430571,
        "locality_id": 1360754621,
        "macrocounty_id": 1880762033,
        "macroregion_id": 404227469,
        "postalcode_id": 454430197,
        "region_id": 1880762701
      },
      {
        "continent_id": 102191581,
        "country_id": 85633159,
        "empire_id": 136253055,
        "postalcode_id": 454430197,
        "postalregion_id": 1864206815
      }
    ],
    "wof:id": 454430197,
    "wof:lastmodified": 1763548322,
    "wof:name": "DN20 9FL",
    "wof:parent_id": 1360754621,
    "wof:placetype": "postalcode",
    "wof:repo": "whosonfirst-data-postalcode-gb",
    "wof:superseded_by": [],
    "wof:supersedes": [],
    "wof:tags": []
  },
  "bbox": [
    -0.504595,
    53.553667,
    -0.504595,
    53.553667
  ],
  "geometry": {"coordinates":[-0.504595,53.553667],"type":"Point"}
}
