{
  "id": 454606349,
  "type": "Feature",
  "properties": {
    "date:inception_lower": "1980-01-01",
    "date:inception_upper": "1980-01-01",
    "edtf:cessation": "",
    "edtf:inception": "1980-01-01",
    "geom:area": 0,
    "geom:bbox": "-3.422083,50.618855,-3.422083,50.618855",
    "geom:latitude": 50.618855,
    "geom:longitude": -3.422083,
    "iso:country": "GB",
    "mz:hierarchy_label": 1,
    "mz:is_current": 1,
    "os:country_code": "E92000001",
    "os:county_code": "E10000008",
    "os:district_code": "E07000040",
    "os:positional_quality_indicator": "1",
    "os:region_code": "E12000009",
    "src:geom": "os",
    "wof:belongsto": [
      102191581,
      85633159,
      136253055,
      1864207247,
      1880771397,
      404451427,
      101852593,
      1880762149,
      404227469,
      1880762683
    ],
    "wof:breaches": [],
    "wof:concordances": {
      "gp:id": "26613666"
    },
    "wof:country": "GB",
    "wof:created": 1583701661,
    "wof:geomhash": "8ca9a84b7ea312fb51b883f7f9b7e198",
    "wof:hierarchy": [
      {
        "continent_id": 102191581,
        "country_id": 85633159,
        "county_id": 1880771397,
        "empire_id": 136253055,
        "localadmin_id": 404451427,
        "locality_id": 101852593,
        "macrocounty_id": 1880762149,
        "macroregion_id": 404227469,
        "postalcode_id": 454606349,
        "region_id": 1880762683
      },
      {
        "continent_id": 102191581,
        "country_id": 85633159,
        "empire_id": 136253055,
        "postalcode_id": 454606349,
        "postalregion_id": 1864207247
      }
    ],
    "wof:id": 454606349,
    "wof:lastmodified": 1763548510,
    "wof:name": "EX8 1EE",
    "wof:parent_id": 101852593,
    "wof:placetype": "postalcode",
    "wof:repo": "whosonfirst-data-postalcode-gb",
    "wof:superseded_by": [],
    "wof:supersedes": [],
    "wof:tags": []
  },
  "bbox": [
    -3.422083,
    50.618855,
    -3.422083,
    50.618855
  ],
  "geometry": {"coordinates":[-3.422083,50.618855],"type":"Point"}
}
