{
  "id": 1712776261,
  "type": "Feature",
  "properties": {
    "date:cessation_lower": "1994-05-01",
    "date:cessation_upper": "1994-05-01",
    "date:inception_lower": "1987-04-01",
    "date:inception_upper": "1987-04-01",
    "edtf:cessation": "1994-05-01",
    "edtf:inception": "1987-04-01",
    "geom:area": 0,
    "geom:bbox": "0.715449,51.541451,0.715449,51.541451",
    "geom:latitude": 51.541451,
    "geom:longitude": 0.715449,
    "iso:country": "GB",
    "mz:hierarchy_label": 1,
    "mz:is_current": 0,
    "os:country_code": "E92000001",
    "os:county_code": "E99999999",
    "os:district_code": "E06000033",
    "os:positional_quality_indicator": "8",
    "os:region_code": "E12000006",
    "src:geom": "os",
    "wof:belongsto": [
      85633159,
      102191581,
      136253055,
      1864210759,
      1360698751,
      101750371,
      1880762159,
      404227469,
      1880762723
    ],
    "wof:breaches": [],
    "wof:country": "GB",
    "wof:created": 1583803076,
    "wof:geomhash": "c6cb65239d0241fba96b6528a039dfca",
    "wof:hierarchy": [
      {
        "continent_id": 102191581,
        "country_id": 85633159,
        "county_id": 1360698751,
        "empire_id": 136253055,
        "locality_id": 101750371,
        "macrocounty_id": 1880762159,
        "macroregion_id": 404227469,
        "postalcode_id": 1712776261,
        "region_id": 1880762723
      },
      {
        "continent_id": 102191581,
        "country_id": 85633159,
        "empire_id": 136253055,
        "postalcode_id": 1712776261,
        "postalregion_id": 1864210759
      }
    ],
    "wof:id": 1712776261,
    "wof:lastmodified": 1763548721,
    "wof:name": "SS2 5BA",
    "wof:parent_id": 101750371,
    "wof:placetype": "postalcode",
    "wof:repo": "whosonfirst-data-postalcode-gb",
    "wof:superseded_by": [],
    "wof:supersedes": [],
    "wof:tags": []
  },
  "bbox": [
    0.715449,
    51.541451,
    0.715449,
    51.541451
  ],
  "geometry": {"coordinates":[0.715449,51.541451],"type":"Point"}
}
