{
  "id": 455052913,
  "type": "Feature",
  "properties": {
    "date:inception_lower": "1980-01-01",
    "date:inception_upper": "1980-01-01",
    "edtf:cessation": "",
    "edtf:inception": "1980-01-01",
    "geom:area": 0,
    "geom:bbox": "0.006794,53.414191,0.006794,53.414191",
    "geom:latitude": 53.414191,
    "geom:longitude": 0.006794,
    "gp:parent_id": "26490",
    "iso:country": "GB",
    "mz:hierarchy_label": 1,
    "mz:is_current": 1,
    "os:country_code": "E92000001",
    "os:county_code": "E10000019",
    "os:district_code": "E07000137",
    "os:positional_quality_indicator": "1",
    "os:region_code": "E12000004",
    "src:geom": "os",
    "wof:belongsto": [
      85633159,
      102191581,
      136253055,
      1864208603,
      1880771581,
      404446075,
      1360753213,
      1880762033,
      404227469,
      1880762701
    ],
    "wof:breaches": [],
    "wof:concordances": {
      "gp:id": "27504663"
    },
    "wof:country": "GB",
    "wof:created": 1583701147,
    "wof:geomhash": "219a32f562d51119c187ea4671689195",
    "wof:hierarchy": [
      {
        "continent_id": 102191581,
        "country_id": 85633159,
        "county_id": 1880771581,
        "empire_id": 136253055,
        "localadmin_id": 404446075,
        "locality_id": 1360753213,
        "macrocounty_id": 1880762033,
        "macroregion_id": 404227469,
        "postalcode_id": 455052913,
        "region_id": 1880762701
      },
      {
        "continent_id": 102191581,
        "country_id": 85633159,
        "empire_id": 136253055,
        "postalcode_id": 455052913,
        "postalregion_id": 1864208603
      }
    ],
    "wof:id": 455052913,
    "wof:lastmodified": 1763547937,
    "wof:name": "LN11 0TZ",
    "wof:parent_id": 1360753213,
    "wof:placetype": "postalcode",
    "wof:repo": "whosonfirst-data-postalcode-gb",
    "wof:superseded_by": [],
    "wof:supersedes": [],
    "wof:tags": []
  },
  "bbox": [
    0.006794,
    53.414191,
    0.006794,
    53.414191
  ],
  "geometry": {"coordinates":[0.006794,53.414191],"type":"Point"}
}
