{
  "id": 437952563,
  "type": "Feature",
  "properties": {
    "date:inception_lower": "1996-12-01",
    "date:inception_upper": "1996-12-01",
    "edtf:cessation": "",
    "edtf:inception": "1996-12-01",
    "geom:area": 0,
    "geom:bbox": "-0.194144,51.798779,-0.194144,51.798779",
    "geom:latitude": 51.798779,
    "geom:longitude": -0.194144,
    "iso:country": "GB",
    "mz:hierarchy_label": 1,
    "mz:is_current": 1,
    "os:country_code": "E92000001",
    "os:county_code": "E10000015",
    "os:district_code": "E07000241",
    "os:positional_quality_indicator": "1",
    "os:region_code": "E12000006",
    "src:geom": "os",
    "wof:belongsto": [
      85633159,
      102191581,
      136253055,
      1864205467,
      1880771495,
      101853555,
      1880762153,
      404227469,
      1880762721
    ],
    "wof:breaches": [],
    "wof:concordances": {
      "gp:id": "26841720"
    },
    "wof:country": "GB",
    "wof:created": 1583701646,
    "wof:geomhash": "8f31674053d1e83bb470cd83f89e93d6",
    "wof:hierarchy": [
      {
        "continent_id": 102191581,
        "country_id": 85633159,
        "county_id": 1880771495,
        "empire_id": 136253055,
        "locality_id": 101853555,
        "macrocounty_id": 1880762153,
        "macroregion_id": 404227469,
        "postalcode_id": 437952563,
        "region_id": 1880762721
      },
      {
        "continent_id": 102191581,
        "country_id": 85633159,
        "empire_id": 136253055,
        "postalcode_id": 437952563,
        "postalregion_id": 1864205467
      }
    ],
    "wof:id": 437952563,
    "wof:lastmodified": 1763547969,
    "wof:name": "AL7 3PA",
    "wof:parent_id": 101853555,
    "wof:placetype": "postalcode",
    "wof:repo": "whosonfirst-data-postalcode-gb",
    "wof:superseded_by": [],
    "wof:supersedes": [],
    "wof:tags": []
  },
  "bbox": [
    -0.194144,
    51.798779,
    -0.194144,
    51.798779
  ],
  "geometry": {"coordinates":[-0.194144,51.798779],"type":"Point"}
}
