{
  "id": 471594619,
  "type": "Feature",
  "properties": {
    "date:inception_lower": "1980-01-01",
    "date:inception_upper": "1980-01-01",
    "edtf:cessation": "",
    "edtf:inception": "1980-01-01",
    "geom:area": 0,
    "geom:bbox": "-0.516849,50.929584,-0.516849,50.929584",
    "geom:latitude": 50.929584,
    "geom:longitude": -0.516849,
    "gp:parent_id": "21768",
    "iso:country": "GB",
    "mz:hierarchy_label": 1,
    "mz:is_current": 1,
    "os:country_code": "E92000001",
    "os:county_code": "E10000032",
    "os:district_code": "E07000227",
    "os:positional_quality_indicator": "1",
    "os:region_code": "E12000008",
    "src:geom": "os",
    "wof:belongsto": [
      85633159,
      102191581,
      136253055,
      1864210109,
      1880771681,
      404449953,
      1125805097,
      1880762061,
      404227469,
      1880762709
    ],
    "wof:breaches": [],
    "wof:concordances": {
      "gp:id": "27832652"
    },
    "wof:country": "GB",
    "wof:created": 1583701677,
    "wof:geomhash": "7101cf77100da31f0be880ddd8f46e28",
    "wof:hierarchy": [
      {
        "continent_id": 102191581,
        "country_id": 85633159,
        "county_id": 1880771681,
        "empire_id": 136253055,
        "localadmin_id": 404449953,
        "locality_id": 1125805097,
        "macrocounty_id": 1880762061,
        "macroregion_id": 404227469,
        "postalcode_id": 471594619,
        "region_id": 1880762709
      },
      {
        "continent_id": 102191581,
        "country_id": 85633159,
        "empire_id": 136253055,
        "postalcode_id": 471594619,
        "postalregion_id": 1864210109
      }
    ],
    "wof:id": 471594619,
    "wof:lastmodified": 1763547927,
    "wof:name": "RH20 2ET",
    "wof:parent_id": 1125805097,
    "wof:placetype": "postalcode",
    "wof:repo": "whosonfirst-data-postalcode-gb",
    "wof:superseded_by": [],
    "wof:supersedes": [],
    "wof:tags": []
  },
  "bbox": [
    -0.516849,
    50.929584,
    -0.516849,
    50.929584
  ],
  "geometry": {"coordinates":[-0.516849,50.929584],"type":"Point"}
}
