{
  "id": 874481725,
  "type": "Feature",
  "properties": {
    "date:inception_lower": "2011-06-01",
    "date:inception_upper": "2011-06-01",
    "edtf:cessation": "",
    "edtf:inception": "2011-06-01",
    "geom:area": 0,
    "geom:bbox": "-1.236433,53.794972,-1.236433,53.794972",
    "geom:latitude": 53.794972,
    "geom:longitude": -1.236433,
    "iso:country": "GB",
    "mz:hierarchy_label": 1,
    "mz:is_current": 1,
    "os:country_code": "E92000001",
    "os:county_code": "E99999999",
    "os:district_code": "E06000065",
    "os:positional_quality_indicator": "1",
    "os:region_code": "E12000003",
    "src:geom": "os",
    "wof:belongsto": [
      85633159,
      102191581,
      136253055,
      1864208665,
      1360698753,
      404443597,
      101872317,
      1880762011,
      404227469,
      1880772891
    ],
    "wof:breaches": [],
    "wof:country": "GB",
    "wof:created": 1468888033,
    "wof:geomhash": "0748178b90b66d174f1625062b3773da",
    "wof:hierarchy": [
      {
        "continent_id": 102191581,
        "country_id": 85633159,
        "county_id": 1360698753,
        "empire_id": 136253055,
        "localadmin_id": 404443597,
        "locality_id": 101872317,
        "macrocounty_id": 1880762011,
        "macroregion_id": 404227469,
        "postalcode_id": 874481725,
        "region_id": 1880772891
      },
      {
        "continent_id": 102191581,
        "country_id": 85633159,
        "empire_id": 136253055,
        "postalcode_id": 874481725,
        "postalregion_id": 1864208665
      }
    ],
    "wof:id": 874481725,
    "wof:lastmodified": 1763547964,
    "wof:name": "LS25 6PS",
    "wof:parent_id": 101872317,
    "wof:placetype": "postalcode",
    "wof:repo": "whosonfirst-data-postalcode-gb",
    "wof:superseded_by": [],
    "wof:supersedes": [],
    "wof:tags": []
  },
  "bbox": [
    -1.236433,
    53.794972,
    -1.236433,
    53.794972
  ],
  "geometry": {"coordinates":[-1.236433,53.794972],"type":"Point"}
}
