{
  "id": 438069893,
  "type": "Feature",
  "properties": {
    "date:inception_lower": "1991-09-01",
    "date:inception_upper": "1991-09-01",
    "edtf:cessation": "",
    "edtf:inception": "1991-09-01",
    "geom:area": 0,
    "geom:bbox": "-2.457479,51.298500,-2.457479,51.298500",
    "geom:latitude": 51.2985,
    "geom:longitude": -2.457479,
    "gp:parent_id": "16147",
    "iso:country": "GB",
    "mz:hierarchy_label": 1,
    "mz:is_current": 1,
    "os:country_code": "E92000001",
    "os:county_code": "E99999999",
    "os:district_code": "E06000022",
    "os:positional_quality_indicator": "1",
    "os:region_code": "E12000009",
    "src:geom": "os",
    "wof:belongsto": [
      85633159,
      102191581,
      136253055,
      1864205677,
      1360698775,
      404430119,
      1125772931,
      1880762071,
      404227469,
      1880773145
    ],
    "wof:breaches": [],
    "wof:concordances": {
      "gp:id": "26881891"
    },
    "wof:country": "GB",
    "wof:created": 1583701197,
    "wof:geomhash": "30b9bc63032b42f8c12a4f58df7d6731",
    "wof:hierarchy": [
      {
        "continent_id": 102191581,
        "country_id": 85633159,
        "county_id": 1360698775,
        "empire_id": 136253055,
        "localadmin_id": 404430119,
        "locality_id": 1125772931,
        "macrocounty_id": 1880762071,
        "macroregion_id": 404227469,
        "postalcode_id": 438069893,
        "region_id": 1880773145
      },
      {
        "continent_id": 102191581,
        "country_id": 85633159,
        "empire_id": 136253055,
        "postalcode_id": 438069893,
        "postalregion_id": 1864205677
      }
    ],
    "wof:id": 438069893,
    "wof:lastmodified": 1763548133,
    "wof:name": "BA3 3BQ",
    "wof:parent_id": 1125772931,
    "wof:placetype": "postalcode",
    "wof:repo": "whosonfirst-data-postalcode-gb",
    "wof:superseded_by": [],
    "wof:supersedes": [],
    "wof:tags": []
  },
  "bbox": [
    -2.457479,
    51.2985,
    -2.457479,
    51.2985
  ],
  "geometry": {"coordinates":[-2.457479,51.2985],"type":"Point"}
}
