{
  "id": 38331828,
  "type": "Feature",
  "properties": {
    "date:cessation_lower": "1998-06-01",
    "date:cessation_upper": "1998-06-01",
    "date:inception_lower": "1980-01-01",
    "date:inception_upper": "1980-01-01",
    "edtf:cessation": "1998-06-01",
    "edtf:inception": "1980-01-01",
    "geom:area": 0,
    "geom:bbox": "-0.196013,54.099992,-0.196013,54.099992",
    "geom:latitude": 54.099992,
    "geom:longitude": -0.196013,
    "iso:country": "GB",
    "mz:hierarchy_label": 1,
    "mz:is_current": 0,
    "os:country_code": "E92000001",
    "os:county_code": "E99999999",
    "os:district_code": "E06000011",
    "os:positional_quality_indicator": "1",
    "os:region_code": "E12000003",
    "src:geom": "os",
    "wof:belongsto": [
      85633159,
      102191581,
      136253055,
      1864211729,
      1360699001,
      404439969,
      101874169,
      1880762147,
      404227469,
      1880773091
    ],
    "wof:breaches": [],
    "wof:country": "GB",
    "wof:created": 1583789179,
    "wof:geomhash": "9ca81eda692979d67b26853fa3afff4e",
    "wof:hierarchy": [
      {
        "continent_id": 102191581,
        "country_id": 85633159,
        "county_id": 1360699001,
        "empire_id": 136253055,
        "localadmin_id": 404439969,
        "locality_id": 101874169,
        "macrocounty_id": 1880762147,
        "macroregion_id": 404227469,
        "postalcode_id": 38331828,
        "region_id": 1880773091
      },
      {
        "continent_id": 102191581,
        "country_id": 85633159,
        "empire_id": 136253055,
        "postalcode_id": 38331828,
        "postalregion_id": 1864211729
      }
    ],
    "wof:id": 38331828,
    "wof:lastmodified": 1763548173,
    "wof:name": "YO16 5EJ",
    "wof:parent_id": 101874169,
    "wof:placetype": "postalcode",
    "wof:repo": "whosonfirst-data-postalcode-gb",
    "wof:superseded_by": [],
    "wof:supersedes": [],
    "wof:tags": []
  },
  "bbox": [
    -0.196013,
    54.099992,
    -0.196013,
    54.099992
  ],
  "geometry": {"coordinates":[-0.196013,54.099992],"type":"Point"}
}
