{
  "id": 1947767667,
  "type": "Feature",
  "properties": {
    "date:inception_lower": "2024-09-01",
    "date:inception_upper": "2024-09-01",
    "edtf:cessation": "",
    "edtf:inception": "2024-09-01",
    "geom:area": 0,
    "geom:bbox": "-2.043644,51.340317,-2.043644,51.340317",
    "geom:latitude": 51.340317,
    "geom:longitude": -2.043644,
    "iso:country": "GB",
    "mz:hierarchy_label": 1,
    "mz:is_current": 1,
    "os:country_code": "E92000001",
    "os:county_code": "E99999999",
    "os:district_code": "E06000054",
    "os:positional_quality_indicator": "1",
    "os:region_code": "E12000009",
    "src:geom": "os",
    "wof:belongsto": [
      102191581,
      85633159,
      1360698937,
      136253055,
      404437625,
      1226271855,
      1880762017,
      404227469,
      1880773035,
      1864210603
    ],
    "wof:breaches": [],
    "wof:country": "GB",
    "wof:created": 1736334859,
    "wof:geomhash": "e3b9efe06fe0a27c5b63612dd58fe0a6",
    "wof:hierarchy": [
      {
        "continent_id": 102191581,
        "country_id": 85633159,
        "county_id": 1360698937,
        "empire_id": 136253055,
        "localadmin_id": 404437625,
        "locality_id": 1226271855,
        "macrocounty_id": 1880762017,
        "macroregion_id": 404227469,
        "postalcode_id": 1947767667,
        "region_id": 1880773035
      },
      {
        "continent_id": 102191581,
        "country_id": 85633159,
        "empire_id": 136253055,
        "postalcode_id": 1947767667,
        "postalregion_id": 1864210603
      }
    ],
    "wof:id": 1947767667,
    "wof:lastmodified": 1763547895,
    "wof:name": "SN10 1FJ",
    "wof:parent_id": 1226271855,
    "wof:placetype": "postalcode",
    "wof:repo": "whosonfirst-data-postalcode-gb",
    "wof:superseded_by": [],
    "wof:supersedes": [],
    "wof:tags": []
  },
  "bbox": [
    -2.043644,
    51.340317,
    -2.043644,
    51.340317
  ],
  "geometry": {"coordinates":[-2.043644,51.340317],"type":"Point"}
}
