{
  "id": 454749575,
  "type": "Feature",
  "properties": {
    "date:inception_lower": "1980-01-01",
    "date:inception_upper": "1980-01-01",
    "edtf:cessation": "",
    "edtf:inception": "1980-01-01",
    "geom:area": 0,
    "geom:bbox": "-1.863477,53.648595,-1.863477,53.648595",
    "geom:latitude": 53.648595,
    "geom:longitude": -1.863477,
    "gp:parent_id": "24083",
    "iso:country": "GB",
    "mz:hierarchy_label": 1,
    "mz:is_current": 1,
    "os:country_code": "E92000001",
    "os:county_code": "E99999999",
    "os:district_code": "E08000034",
    "os:positional_quality_indicator": "1",
    "os:region_code": "E12000003",
    "src:geom": "os",
    "wof:belongsto": [
      85633159,
      102191581,
      136253055,
      1864207623,
      1360698917,
      101750573,
      1880762059,
      404227469,
      1880773017
    ],
    "wof:breaches": [],
    "wof:concordances": {
      "gp:id": "26700365"
    },
    "wof:country": "GB",
    "wof:created": 1583701697,
    "wof:geomhash": "1da6b4f79efff5b815f6bc8b7b9a3206",
    "wof:hierarchy": [
      {
        "continent_id": 102191581,
        "country_id": 85633159,
        "county_id": 1360698917,
        "empire_id": 136253055,
        "locality_id": 101750573,
        "macrocounty_id": 1880762059,
        "macroregion_id": 404227469,
        "postalcode_id": 454749575,
        "region_id": 1880773017
      },
      {
        "continent_id": 102191581,
        "country_id": 85633159,
        "empire_id": 136253055,
        "postalcode_id": 454749575,
        "postalregion_id": 1864207623
      }
    ],
    "wof:id": 454749575,
    "wof:lastmodified": 1763548401,
    "wof:name": "HD7 4NZ",
    "wof:parent_id": 101750573,
    "wof:placetype": "postalcode",
    "wof:repo": "whosonfirst-data-postalcode-gb",
    "wof:superseded_by": [],
    "wof:supersedes": [],
    "wof:tags": []
  },
  "bbox": [
    -1.863477,
    53.648595,
    -1.863477,
    53.648595
  ],
  "geometry": {"coordinates":[-1.863477,53.648595],"type":"Point"}
}
