{
  "id": 437401001,
  "type": "Feature",
  "properties": {
    "date:cessation_lower": "2009-06-01",
    "date:cessation_upper": "2009-06-01",
    "date:inception_lower": "1993-08-01",
    "date:inception_upper": "1993-08-01",
    "edtf:cessation": "2009-06-01",
    "edtf:inception": "1993-08-01",
    "geom:area": 0,
    "geom:bbox": "-3.265513,51.406524,-3.265513,51.406524",
    "geom:latitude": 51.406524,
    "geom:longitude": -3.265513,
    "gp:parent_id": "12696121",
    "iso:country": "GB",
    "mz:hierarchy_label": 1,
    "mz:is_current": 0,
    "os:country_code": "W92000004",
    "os:county_code": "W99999999",
    "os:district_code": "W06000014",
    "os:positional_quality_indicator": "1",
    "os:region_code": "W99999999",
    "src:geom": "os",
    "wof:belongsto": [
      85633159,
      102191581,
      136253055,
      1864206219,
      1360698899,
      404433843,
      101750395,
      1880762115,
      404227475,
      1880773187
    ],
    "wof:breaches": [],
    "wof:concordances": {
      "gp:id": "27047462"
    },
    "wof:country": "GB",
    "wof:created": 1583701080,
    "wof:geomhash": "de247b97c056df580bf3e837f37daebe",
    "wof:hierarchy": [
      {
        "continent_id": 102191581,
        "country_id": 85633159,
        "county_id": 1360698899,
        "empire_id": 136253055,
        "localadmin_id": 404433843,
        "locality_id": 101750395,
        "macrocounty_id": 1880762115,
        "macroregion_id": 404227475,
        "postalcode_id": 437401001,
        "region_id": 1880773187
      },
      {
        "continent_id": 102191581,
        "country_id": 85633159,
        "empire_id": 136253055,
        "postalcode_id": 437401001,
        "postalregion_id": 1864206219
      }
    ],
    "wof:id": 437401001,
    "wof:lastmodified": 1763548035,
    "wof:name": "CF63 4TS",
    "wof:parent_id": 101750395,
    "wof:placetype": "postalcode",
    "wof:repo": "whosonfirst-data-postalcode-gb",
    "wof:superseded_by": [],
    "wof:supersedes": [],
    "wof:tags": []
  },
  "bbox": [
    -3.265513,
    51.406524,
    -3.265513,
    51.406524
  ],
  "geometry": {"coordinates":[-3.265513,51.406524],"type":"Point"}
}
