{
  "id": 38462211,
  "type": "Feature",
  "properties": {
    "date:cessation_lower": "1990-12-01",
    "date:cessation_upper": "1990-12-01",
    "date:inception_lower": "1986-07-01",
    "date:inception_upper": "1986-07-01",
    "edtf:cessation": "1990-12-01",
    "edtf:inception": "1986-07-01",
    "geom:area": 0,
    "geom:bbox": "-1.508842,52.418790,-1.508842,52.418790",
    "geom:latitude": 52.41879,
    "geom:longitude": -1.508842,
    "iso:country": "GB",
    "mz:hierarchy_label": 1,
    "mz:is_current": 0,
    "os:country_code": "E92000001",
    "os:county_code": "E99999999",
    "os:district_code": "E08000026",
    "os:positional_quality_indicator": "8",
    "os:region_code": "E12000005",
    "src:geom": "os",
    "wof:belongsto": [
      85633159,
      102191581,
      136253055,
      1864206489,
      1360699115,
      101750449,
      1880762069,
      404227469,
      1880773161
    ],
    "wof:breaches": [],
    "wof:country": "GB",
    "wof:created": 1583790623,
    "wof:geomhash": "9b9481a2c01dfd6c5780765d4c6ecc6a",
    "wof:hierarchy": [
      {
        "continent_id": 102191581,
        "country_id": 85633159,
        "county_id": 1360699115,
        "empire_id": 136253055,
        "locality_id": 101750449,
        "macrocounty_id": 1880762069,
        "macroregion_id": 404227469,
        "postalcode_id": 38462211,
        "region_id": 1880773161
      },
      {
        "continent_id": 102191581,
        "country_id": 85633159,
        "empire_id": 136253055,
        "postalcode_id": 38462211,
        "postalregion_id": 1864206489
      }
    ],
    "wof:id": 38462211,
    "wof:lastmodified": 1763548189,
    "wof:name": "CV1 4NX",
    "wof:parent_id": 101750449,
    "wof:placetype": "postalcode",
    "wof:repo": "whosonfirst-data-postalcode-gb",
    "wof:superseded_by": [],
    "wof:supersedes": [],
    "wof:tags": []
  },
  "bbox": [
    -1.508842,
    52.41879,
    -1.508842,
    52.41879
  ],
  "geometry": {"coordinates":[-1.508842,52.41879],"type":"Point"}
}
