{
  "id": 1160943818,
  "type": "Feature",
  "properties": {
    "date:cessation_lower": "1999-06-01",
    "date:cessation_upper": "1999-06-01",
    "date:inception_lower": "1980-01-01",
    "date:inception_upper": "1980-01-01",
    "edtf:cessation": "1999-06-01",
    "edtf:inception": "1980-01-01",
    "geom:area": 0,
    "geom:bbox": "-3.091530,53.328131,-3.091530,53.328131",
    "geom:latitude": 53.328131,
    "geom:longitude": -3.09153,
    "iso:country": "GB",
    "mz:hierarchy_label": 1,
    "mz:is_current": 0,
    "os:country_code": "E92000001",
    "os:county_code": "E99999999",
    "os:district_code": "E08000015",
    "os:positional_quality_indicator": "8",
    "os:region_code": "E12000002",
    "src:geom": "os",
    "wof:belongsto": [
      102191581,
      85633159,
      1360699049,
      136253055,
      101750549,
      1880762035,
      404227469,
      1880773063
    ],
    "wof:breaches": [],
    "wof:country": "GB",
    "wof:created": 1583796924,
    "wof:geomhash": "e4407d3cbfeaef4494c6c3364f66e50c",
    "wof:hierarchy": [
      {
        "continent_id": 102191581,
        "country_id": 85633159,
        "county_id": 1360699049,
        "empire_id": 136253055,
        "locality_id": 101750549,
        "macrocounty_id": 1880762035,
        "macroregion_id": 404227469,
        "postalcode_id": 1160943818,
        "region_id": 1880773063
      }
    ],
    "wof:id": 1160943818,
    "wof:lastmodified": 1763548343,
    "wof:name": "L60 5RU",
    "wof:parent_id": 101750549,
    "wof:placetype": "postalcode",
    "wof:repo": "whosonfirst-data-postalcode-gb",
    "wof:superseded_by": [],
    "wof:supersedes": [],
    "wof:tags": []
  },
  "bbox": [
    -3.09153,
    53.328131,
    -3.09153,
    53.328131
  ],
  "geometry": {"coordinates":[-3.09153,53.328131],"type":"Point"}
}
