{
  "id": 39737772,
  "type": "Feature",
  "properties": {
    "date:cessation_lower": "1990-09-01",
    "date:cessation_upper": "1990-09-01",
    "date:inception_lower": "1973-08-01",
    "date:inception_upper": "1973-08-01",
    "edtf:cessation": "1990-09-01",
    "edtf:inception": "1973-08-01",
    "geom:area": 0,
    "geom:bbox": "-4.442715,55.818491,-4.442715,55.818491",
    "geom:latitude": 55.818491,
    "geom:longitude": -4.442715,
    "iso:country": "GB",
    "mz:hierarchy_label": 1,
    "mz:is_current": 0,
    "os:country_code": "S92000003",
    "os:county_code": "S99999999",
    "os:district_code": "S12000038",
    "os:positional_quality_indicator": "8",
    "os:region_code": "S99999999",
    "src:geom": "os",
    "wof:belongsto": [
      85633159,
      102191581,
      136253055,
      1864209527,
      1360699097,
      1880762039,
      404227471,
      1880773179
    ],
    "wof:breaches": [],
    "wof:country": "GB",
    "wof:created": 1583804727,
    "wof:geomhash": "329480ff701189c2feb9f75d19d39550",
    "wof:hierarchy": [
      {
        "continent_id": 102191581,
        "country_id": 85633159,
        "county_id": 1360699097,
        "empire_id": 136253055,
        "macrocounty_id": 1880762039,
        "macroregion_id": 404227471,
        "postalcode_id": 39737772,
        "region_id": 1880773179
      },
      {
        "continent_id": 102191581,
        "country_id": 85633159,
        "empire_id": 136253055,
        "postalcode_id": 39737772,
        "postalregion_id": 1864209527
      }
    ],
    "wof:id": 39737772,
    "wof:lastmodified": 1763547907,
    "wof:name": "PA2 8SE",
    "wof:parent_id": 1360699097,
    "wof:placetype": "postalcode",
    "wof:repo": "whosonfirst-data-postalcode-gb",
    "wof:superseded_by": [],
    "wof:supersedes": [],
    "wof:tags": []
  },
  "bbox": [
    -4.442715,
    55.818491,
    -4.442715,
    55.818491
  ],
  "geometry": {"coordinates":[-4.442715,55.818491],"type":"Point"}
}
