{
  "id": 454619189,
  "type": "Feature",
  "properties": {
    "date:inception_lower": "1980-01-01",
    "date:inception_upper": "1980-01-01",
    "edtf:cessation": "",
    "edtf:inception": "1980-01-01",
    "geom:area": 0,
    "geom:bbox": "-2.996352,53.870961,-2.996352,53.870961",
    "geom:latitude": 53.870961,
    "geom:longitude": -2.996352,
    "gp:parent_id": "37385",
    "iso:country": "GB",
    "mz:hierarchy_label": 1,
    "mz:is_current": 1,
    "os:country_code": "E92000001",
    "os:county_code": "E10000017",
    "os:district_code": "E07000128",
    "os:positional_quality_indicator": "1",
    "os:region_code": "E12000002",
    "src:geom": "os",
    "wof:belongsto": [
      85633159,
      102191581,
      136253055,
      1864207309,
      1880771545,
      1360817225,
      1125786323,
      1880762053,
      404227469,
      1880762711
    ],
    "wof:breaches": [],
    "wof:concordances": {
      "gp:id": "26777118"
    },
    "wof:country": "GB",
    "wof:created": 1583701662,
    "wof:geomhash": "50063f9a112ec7c9238bc26eba8951d1",
    "wof:hierarchy": [
      {
        "continent_id": 102191581,
        "country_id": 85633159,
        "county_id": 1880771545,
        "empire_id": 136253055,
        "localadmin_id": 1360817225,
        "locality_id": 1125786323,
        "macrocounty_id": 1880762053,
        "macroregion_id": 404227469,
        "postalcode_id": 454619189,
        "region_id": 1880762711
      },
      {
        "continent_id": 102191581,
        "country_id": 85633159,
        "empire_id": 136253055,
        "postalcode_id": 454619189,
        "postalregion_id": 1864207309
      }
    ],
    "wof:id": 454619189,
    "wof:lastmodified": 1763548273,
    "wof:name": "FY5 5JD",
    "wof:parent_id": 1125786323,
    "wof:placetype": "postalcode",
    "wof:repo": "whosonfirst-data-postalcode-gb",
    "wof:superseded_by": [],
    "wof:supersedes": [],
    "wof:tags": []
  },
  "bbox": [
    -2.996352,
    53.870961,
    -2.996352,
    53.870961
  ],
  "geometry": {"coordinates":[-2.996352,53.870961],"type":"Point"}
}
