{
  "id": 487822151,
  "type": "Feature",
  "properties": {
    "date:inception_lower": "1980-01-01",
    "date:inception_upper": "1980-01-01",
    "edtf:cessation": "",
    "edtf:inception": "1980-01-01",
    "geom:area": 0,
    "geom:bbox": "-2.381819,52.769308,-2.381819,52.769308",
    "geom:latitude": 52.769308,
    "geom:longitude": -2.381819,
    "gp:parent_id": "30164",
    "iso:country": "GB",
    "mz:hierarchy_label": 1,
    "mz:is_current": 1,
    "os:country_code": "E92000001",
    "os:county_code": "E99999999",
    "os:district_code": "E06000020",
    "os:positional_quality_indicator": "1",
    "os:region_code": "E12000005",
    "src:geom": "os",
    "wof:belongsto": [
      85633159,
      102191581,
      136253055,
      1864211039,
      1360698911,
      404450011,
      1126059815,
      1880762073
    ],
    "wof:breaches": [],
    "wof:concordances": {
      "gp:id": "28041258"
    },
    "wof:country": "GB",
    "wof:created": 1583701189,
    "wof:geomhash": "af2da52fb7662d9a1ee24f32a477f83c",
    "wof:hierarchy": [
      {
        "continent_id": -1,
        "country_id": -1,
        "county_id": 1360698911,
        "localadmin_id": 404450011,
        "locality_id": 1126059815,
        "macrocounty_id": 1880762073,
        "postalcode_id": 487822151,
        "region_id": -1
      },
      {
        "continent_id": 102191581,
        "country_id": 85633159,
        "empire_id": 136253055,
        "postalcode_id": 487822151,
        "postalregion_id": 1864211039
      }
    ],
    "wof:id": 487822151,
    "wof:lastmodified": 1763548736,
    "wof:name": "TF10 7BD",
    "wof:parent_id": 1126059815,
    "wof:placetype": "postalcode",
    "wof:repo": "whosonfirst-data-postalcode-gb",
    "wof:superseded_by": [],
    "wof:supersedes": [],
    "wof:tags": []
  },
  "bbox": [
    -2.381819,
    52.769308,
    -2.381819,
    52.769308
  ],
  "geometry": {"coordinates":[-2.381819,52.769308],"type":"Point"}
}
