{
  "id": 471423935,
  "type": "Feature",
  "properties": {
    "date:inception_lower": "1980-01-01",
    "date:inception_upper": "1980-01-01",
    "edtf:cessation": "",
    "edtf:inception": "1980-01-01",
    "geom:area": 0,
    "geom:bbox": "-4.978696,50.480515,-4.978696,50.480515",
    "geom:latitude": 50.480515,
    "geom:longitude": -4.978696,
    "gp:parent_id": "35632",
    "iso:country": "GB",
    "mz:hierarchy_label": 1,
    "mz:is_current": 1,
    "os:country_code": "E92000001",
    "os:county_code": "E99999999",
    "os:district_code": "E06000052",
    "os:positional_quality_indicator": "1",
    "os:region_code": "E12000009",
    "src:geom": "os",
    "wof:belongsto": [
      85633159,
      102191581,
      136253055,
      1864209873,
      1360699085,
      404435629,
      1360757675,
      1880762119,
      404227469,
      1880773165
    ],
    "wof:breaches": [],
    "wof:concordances": {
      "gp:id": "27772333"
    },
    "wof:country": "GB",
    "wof:created": 1583701593,
    "wof:geomhash": "4c7ad22180fff483f6cac81217cedb9a",
    "wof:hierarchy": [
      {
        "continent_id": 102191581,
        "country_id": 85633159,
        "county_id": 1360699085,
        "empire_id": 136253055,
        "localadmin_id": 404435629,
        "locality_id": 1360757675,
        "macrocounty_id": 1880762119,
        "macroregion_id": 404227469,
        "postalcode_id": 471423935,
        "region_id": 1880773165
      },
      {
        "continent_id": 102191581,
        "country_id": 85633159,
        "empire_id": 136253055,
        "postalcode_id": 471423935,
        "postalregion_id": 1864209873
      }
    ],
    "wof:id": 471423935,
    "wof:lastmodified": 1763548066,
    "wof:name": "PL27 7TZ",
    "wof:parent_id": 1360757675,
    "wof:placetype": "postalcode",
    "wof:repo": "whosonfirst-data-postalcode-gb",
    "wof:superseded_by": [],
    "wof:supersedes": [],
    "wof:tags": []
  },
  "bbox": [
    -4.978696,
    50.480515,
    -4.978696,
    50.480515
  ],
  "geometry": {"coordinates":[-4.978696,50.480515],"type":"Point"}
}
