{
  "id": 437808877,
  "type": "Feature",
  "properties": {
    "date:inception_lower": "2024-01-01",
    "date:inception_upper": "2024-01-01",
    "edtf:cessation": "",
    "edtf:inception": "2024-01-01",
    "geom:area": 0,
    "geom:bbox": "-2.522841,51.940474,-2.522841,51.940474",
    "geom:latitude": 51.940474,
    "geom:longitude": -2.522841,
    "gp:parent_id": "33571",
    "iso:country": "GB",
    "mz:hierarchy_label": 1,
    "mz:is_current": 1,
    "os:country_code": "E92000001",
    "os:county_code": "E99999999",
    "os:district_code": "E06000019",
    "os:positional_quality_indicator": "1",
    "os:region_code": "E12000005",
    "src:geom": "os",
    "wof:belongsto": [
      85633159,
      102191581,
      136253055,
      1864207713,
      1360699053,
      1880762015,
      404452115,
      1209134721,
      404227469,
      1880773139
    ],
    "wof:breaches": [],
    "wof:concordances": {
      "gp:id": "28885219"
    },
    "wof:country": "GB",
    "wof:created": 1583701565,
    "wof:geomhash": "8c3567bf23fe7dd267f328dbdca7a033",
    "wof:hierarchy": [
      {
        "continent_id": 102191581,
        "country_id": 85633159,
        "county_id": 1360699053,
        "empire_id": 136253055,
        "localadmin_id": 404452115,
        "locality_id": 1209134721,
        "macrocounty_id": 1880762015,
        "macroregion_id": 404227469,
        "postalcode_id": 437808877,
        "region_id": 1880773139
      },
      {
        "continent_id": 102191581,
        "country_id": 85633159,
        "empire_id": 136253055,
        "postalcode_id": 437808877,
        "postalregion_id": 1864207713
      }
    ],
    "wof:id": 437808877,
    "wof:lastmodified": 1763548244,
    "wof:name": "HR9 7YD",
    "wof:parent_id": 1209134721,
    "wof:placetype": "postalcode",
    "wof:repo": "whosonfirst-data-postalcode-gb",
    "wof:superseded_by": [],
    "wof:supersedes": [],
    "wof:tags": []
  },
  "bbox": [
    -2.522841,
    51.940474,
    -2.522841,
    51.940474
  ],
  "geometry": {"coordinates":[-2.522841,51.940474],"type":"Point"}
}
