{
  "id": 487634127,
  "type": "Feature",
  "properties": {
    "date:inception_lower": "1980-01-01",
    "date:inception_upper": "1980-01-01",
    "edtf:cessation": "",
    "edtf:inception": "1980-01-01",
    "geom:area": 0,
    "geom:bbox": "-1.485530,51.292764,-1.485530,51.292764",
    "geom:latitude": 51.292764,
    "geom:longitude": -1.48553,
    "gp:parent_id": "20094046",
    "iso:country": "GB",
    "mz:hierarchy_label": 1,
    "mz:is_current": 1,
    "os:country_code": "E92000001",
    "os:county_code": "E10000014",
    "os:district_code": "E07000093",
    "os:positional_quality_indicator": "1",
    "os:region_code": "E12000008",
    "src:geom": "os",
    "wof:belongsto": [
      85633159,
      102191581,
      136253055,
      1864210701,
      1880771469,
      404444391,
      1125806061,
      1880762155,
      404227469,
      1880762717
    ],
    "wof:breaches": [],
    "wof:concordances": {
      "gp:id": "27964646"
    },
    "wof:country": "GB",
    "wof:created": 1583701096,
    "wof:geomhash": "52493fec0fef13c48c7ee7a62ace87d6",
    "wof:hierarchy": [
      {
        "continent_id": 102191581,
        "country_id": 85633159,
        "county_id": 1880771469,
        "empire_id": 136253055,
        "localadmin_id": 404444391,
        "locality_id": 1125806061,
        "macrocounty_id": 1880762155,
        "macroregion_id": 404227469,
        "postalcode_id": 487634127,
        "region_id": 1880762717
      },
      {
        "continent_id": 102191581,
        "country_id": 85633159,
        "empire_id": 136253055,
        "postalcode_id": 487634127,
        "postalregion_id": 1864210701
      }
    ],
    "wof:id": 487634127,
    "wof:lastmodified": 1763548648,
    "wof:name": "SP11 0JH",
    "wof:parent_id": 1125806061,
    "wof:placetype": "postalcode",
    "wof:repo": "whosonfirst-data-postalcode-gb",
    "wof:superseded_by": [],
    "wof:supersedes": [],
    "wof:tags": []
  },
  "bbox": [
    -1.48553,
    51.292764,
    -1.48553,
    51.292764
  ],
  "geometry": {"coordinates":[-1.48553,51.292764],"type":"Point"}
}
