{
  "id": 487905019,
  "type": "Feature",
  "properties": {
    "date:inception_lower": "1980-01-01",
    "date:inception_upper": "1980-01-01",
    "edtf:cessation": "",
    "edtf:inception": "1980-01-01",
    "geom:area": 0,
    "geom:bbox": "-3.681476,50.344843,-3.681476,50.344843",
    "geom:latitude": 50.344843,
    "geom:longitude": -3.681476,
    "gp:parent_id": "12837",
    "iso:country": "GB",
    "mz:hierarchy_label": 1,
    "mz:is_current": 1,
    "os:country_code": "E92000001",
    "os:county_code": "E10000008",
    "os:district_code": "E07000044",
    "os:positional_quality_indicator": "1",
    "os:region_code": "E12000009",
    "src:geom": "os",
    "wof:belongsto": [
      85633159,
      102191581,
      136253055,
      1864211185,
      1880771713,
      404455019,
      1126010893,
      1880762149,
      404227469,
      1880762683
    ],
    "wof:breaches": [],
    "wof:concordances": {
      "gp:id": "28072924"
    },
    "wof:country": "GB",
    "wof:created": 1583701245,
    "wof:geomhash": "95b3318dbfee6c9f9b316e1def8937ec",
    "wof:hierarchy": [
      {
        "continent_id": 102191581,
        "country_id": 85633159,
        "county_id": 1880771713,
        "empire_id": 136253055,
        "localadmin_id": 404455019,
        "locality_id": 1126010893,
        "macrocounty_id": 1880762149,
        "macroregion_id": 404227469,
        "postalcode_id": 487905019,
        "region_id": 1880762683
      },
      {
        "continent_id": 102191581,
        "country_id": 85633159,
        "empire_id": 136253055,
        "postalcode_id": 487905019,
        "postalregion_id": 1864211185
      }
    ],
    "wof:id": 487905019,
    "wof:lastmodified": 1763548714,
    "wof:name": "TQ9 7AY",
    "wof:parent_id": 1126010893,
    "wof:placetype": "postalcode",
    "wof:repo": "whosonfirst-data-postalcode-gb",
    "wof:superseded_by": [],
    "wof:supersedes": [],
    "wof:tags": []
  },
  "bbox": [
    -3.681476,
    50.344843,
    -3.681476,
    50.344843
  ],
  "geometry": {"coordinates":[-3.681476,50.344843],"type":"Point"}
}
