{
  "id": 39850713,
  "type": "Feature",
  "properties": {
    "date:cessation_lower": "1996-06-01",
    "date:cessation_upper": "1996-06-01",
    "date:inception_lower": "1992-08-01",
    "date:inception_upper": "1992-08-01",
    "edtf:cessation": "1996-06-01",
    "edtf:inception": "1992-08-01",
    "geom:area": 0,
    "geom:bbox": "-1.390452,51.723245,-1.390452,51.723245",
    "geom:latitude": 51.723245,
    "geom:longitude": -1.390452,
    "iso:country": "GB",
    "mz:hierarchy_label": 1,
    "mz:is_current": 0,
    "os:country_code": "E92000001",
    "os:county_code": "E10000025",
    "os:district_code": "E07000181",
    "os:positional_quality_indicator": "8",
    "os:region_code": "E12000008",
    "src:geom": "os",
    "wof:belongsto": [
      102191581,
      85633159,
      1880771615,
      136253055,
      404441969,
      1125976913,
      1880762079,
      404227469,
      1880762695
    ],
    "wof:breaches": [],
    "wof:country": "GB",
    "wof:created": 1583806012,
    "wof:geomhash": "f57d0e641c24f513ef328b40d6623467",
    "wof:hierarchy": [
      {
        "continent_id": 102191581,
        "country_id": 85633159,
        "county_id": 1880771615,
        "empire_id": 136253055,
        "localadmin_id": 404441969,
        "locality_id": 1125976913,
        "macrocounty_id": 1880762079,
        "macroregion_id": 404227469,
        "postalcode_id": 39850713,
        "region_id": 1880762695
      }
    ],
    "wof:id": 39850713,
    "wof:lastmodified": 1763547899,
    "wof:name": "OX8 1SP",
    "wof:parent_id": 1125976913,
    "wof:placetype": "postalcode",
    "wof:repo": "whosonfirst-data-postalcode-gb",
    "wof:superseded_by": [],
    "wof:supersedes": [],
    "wof:tags": []
  },
  "bbox": [
    -1.390452,
    51.723245,
    -1.390452,
    51.723245
  ],
  "geometry": {"coordinates":[-1.390452,51.723245],"type":"Point"}
}
