{
  "id": 1712653265,
  "type": "Feature",
  "properties": {
    "date:cessation_lower": "2000-06-01",
    "date:cessation_upper": "2000-06-01",
    "date:inception_lower": "1994-12-01",
    "date:inception_upper": "1994-12-01",
    "edtf:cessation": "2000-06-01",
    "edtf:inception": "1994-12-01",
    "geom:area": 0,
    "geom:bbox": "-0.171130,52.345136,-0.171130,52.345136",
    "geom:latitude": 52.345136,
    "geom:longitude": -0.17113,
    "iso:country": "GB",
    "mz:hierarchy_label": 1,
    "mz:is_current": 0,
    "os:country_code": "E92000001",
    "os:county_code": "E10000003",
    "os:district_code": "E07000011",
    "os:positional_quality_indicator": "1",
    "os:region_code": "E12000006",
    "src:geom": "os",
    "wof:belongsto": [
      102191581,
      85633159,
      1880771371,
      136253055,
      404434281,
      101875497,
      1880762143,
      404227469,
      1880762687
    ],
    "wof:breaches": [],
    "wof:country": "GB",
    "wof:created": 1583797619,
    "wof:geomhash": "8bf792886ebfc06b2c8089ab5b1a8788",
    "wof:hierarchy": [
      {
        "continent_id": 102191581,
        "country_id": 85633159,
        "county_id": 1880771371,
        "empire_id": 136253055,
        "localadmin_id": 404434281,
        "locality_id": 101875497,
        "macrocounty_id": 1880762143,
        "macroregion_id": 404227469,
        "postalcode_id": 1712653265,
        "region_id": 1880762687
      }
    ],
    "wof:id": 1712653265,
    "wof:lastmodified": 1763548751,
    "wof:name": "PE18 7GE",
    "wof:parent_id": 101875497,
    "wof:placetype": "postalcode",
    "wof:repo": "whosonfirst-data-postalcode-gb",
    "wof:superseded_by": [],
    "wof:supersedes": [],
    "wof:tags": []
  },
  "bbox": [
    -0.17113,
    52.345136,
    -0.17113,
    52.345136
  ],
  "geometry": {"coordinates":[-0.17113,52.345136],"type":"Point"}
}
