{
  "id": 454050779,
  "type": "Feature",
  "properties": {
    "date:inception_lower": "1990-07-01",
    "date:inception_upper": "1990-07-01",
    "edtf:cessation": "",
    "edtf:inception": "1990-07-01",
    "geom:area": 0,
    "geom:bbox": "-2.557986,54.626480,-2.557986,54.626480",
    "geom:latitude": 54.62648,
    "geom:longitude": -2.557986,
    "gp:parent_id": "25374",
    "iso:country": "GB",
    "mz:hierarchy_label": 1,
    "mz:is_current": 1,
    "os:country_code": "E92000001",
    "os:county_code": "E99999999",
    "os:district_code": "E06000064",
    "os:positional_quality_indicator": "1",
    "os:region_code": "E12000002",
    "src:geom": "os",
    "wof:belongsto": [
      85633159,
      102191581,
      136253055,
      1864206055,
      1880773235,
      404441403,
      1126030323,
      1880761989,
      404227469,
      1880773269
    ],
    "wof:breaches": [],
    "wof:concordances": {
      "gp:id": "27013305"
    },
    "wof:country": "GB",
    "wof:created": 1583701085,
    "wof:geomhash": "3b771424575f45db815bc0046bbefc04",
    "wof:hierarchy": [
      {
        "continent_id": 102191581,
        "country_id": 85633159,
        "county_id": 1880773235,
        "empire_id": 136253055,
        "localadmin_id": 404441403,
        "locality_id": 1126030323,
        "macrocounty_id": 1880761989,
        "macroregion_id": 404227469,
        "postalcode_id": 454050779,
        "region_id": 1880773269
      },
      {
        "continent_id": 102191581,
        "country_id": 85633159,
        "empire_id": 136253055,
        "postalcode_id": 454050779,
        "postalregion_id": 1864206055
      }
    ],
    "wof:id": 454050779,
    "wof:lastmodified": 1763548511,
    "wof:name": "CA10 1UN",
    "wof:parent_id": 1126030323,
    "wof:placetype": "postalcode",
    "wof:repo": "whosonfirst-data-postalcode-gb",
    "wof:superseded_by": [],
    "wof:supersedes": [],
    "wof:tags": []
  },
  "bbox": [
    -2.557986,
    54.62648,
    -2.557986,
    54.62648
  ],
  "geometry": {"coordinates":[-2.557986,54.62648],"type":"Point"}
}
