{
  "id": 454660647,
  "type": "Feature",
  "properties": {
    "date:inception_lower": "1983-07-01",
    "date:inception_upper": "1983-07-01",
    "edtf:cessation": "",
    "edtf:inception": "1983-07-01",
    "geom:area": 0,
    "geom:bbox": "-1.781954,52.049551,-1.781954,52.049551",
    "geom:latitude": 52.049551,
    "geom:longitude": -1.781954,
    "iso:country": "GB",
    "mz:hierarchy_label": 1,
    "mz:is_current": 1,
    "os:country_code": "E92000001",
    "os:county_code": "E10000013",
    "os:district_code": "E07000079",
    "os:positional_quality_indicator": "1",
    "os:region_code": "E12000009",
    "src:geom": "os",
    "wof:belongsto": [
      85633159,
      102191581,
      136253055,
      1864207489,
      1880771449,
      404454505,
      1293918873,
      1880762161,
      404227469,
      1880762693
    ],
    "wof:breaches": [],
    "wof:concordances": {
      "gp:id": "27317707"
    },
    "wof:country": "GB",
    "wof:created": 1583701690,
    "wof:geomhash": "a7b9f55e3fa028f346b750666a1bb92a",
    "wof:hierarchy": [
      {
        "continent_id": 102191581,
        "country_id": 85633159,
        "county_id": 1880771449,
        "empire_id": 136253055,
        "localadmin_id": 404454505,
        "locality_id": 1293918873,
        "macrocounty_id": 1880762161,
        "macroregion_id": 404227469,
        "postalcode_id": 454660647,
        "region_id": 1880762693
      },
      {
        "continent_id": 102191581,
        "country_id": 85633159,
        "empire_id": 136253055,
        "postalcode_id": 454660647,
        "postalregion_id": 1864207489
      }
    ],
    "wof:id": 454660647,
    "wof:lastmodified": 1763548343,
    "wof:name": "GL55 6BW",
    "wof:parent_id": 1293918873,
    "wof:placetype": "postalcode",
    "wof:repo": "whosonfirst-data-postalcode-gb",
    "wof:superseded_by": [],
    "wof:supersedes": [],
    "wof:tags": []
  },
  "bbox": [
    -1.781954,
    52.049551,
    -1.781954,
    52.049551
  ],
  "geometry": {"coordinates":[-1.781954,52.049551],"type":"Point"}
}
