{
  "id": 471051707,
  "type": "Feature",
  "properties": {
    "date:inception_lower": "2002-06-01",
    "date:inception_upper": "2002-06-01",
    "edtf:cessation": "",
    "edtf:inception": "2002-06-01",
    "geom:area": 0,
    "geom:bbox": "-1.508192,55.020478,-1.508192,55.020478",
    "geom:latitude": 55.020478,
    "geom:longitude": -1.508192,
    "gp:parent_id": "29585",
    "iso:country": "GB",
    "mz:hierarchy_label": 1,
    "mz:is_current": 1,
    "os:country_code": "E92000001",
    "os:county_code": "E99999999",
    "os:district_code": "E08000022",
    "os:positional_quality_indicator": "1",
    "os:region_code": "E12000001",
    "src:geom": "os",
    "wof:belongsto": [
      85633159,
      102191581,
      136253055,
      1864209043,
      1360699037,
      1360817045,
      1125978905,
      1880762063
    ],
    "wof:breaches": [],
    "wof:concordances": {
      "gp:id": "27610101"
    },
    "wof:country": "GB",
    "wof:created": 1583701179,
    "wof:geomhash": "423571f78d7839f3f5a3656240064a69",
    "wof:hierarchy": [
      {
        "continent_id": -1,
        "country_id": -1,
        "county_id": 1360699037,
        "localadmin_id": 1360817045,
        "locality_id": 1125978905,
        "macrocounty_id": 1880762063,
        "postalcode_id": 471051707,
        "region_id": -1
      },
      {
        "continent_id": 102191581,
        "country_id": 85633159,
        "empire_id": 136253055,
        "postalcode_id": 471051707,
        "postalregion_id": 1864209043
      }
    ],
    "wof:id": 471051707,
    "wof:lastmodified": 1763548387,
    "wof:name": "NE27 0QW",
    "wof:parent_id": 1125978905,
    "wof:placetype": "postalcode",
    "wof:repo": "whosonfirst-data-postalcode-gb",
    "wof:superseded_by": [],
    "wof:supersedes": [],
    "wof:tags": []
  },
  "bbox": [
    -1.508192,
    55.020478,
    -1.508192,
    55.020478
  ],
  "geometry": {"coordinates":[-1.508192,55.020478],"type":"Point"}
}
