{
  "id": 487815641,
  "type": "Feature",
  "properties": {
    "date:inception_lower": "2001-06-01",
    "date:inception_upper": "2001-06-01",
    "edtf:cessation": "",
    "edtf:inception": "2001-06-01",
    "geom:area": 0,
    "geom:bbox": "-2.891181,51.090834,-2.891181,51.090834",
    "geom:latitude": 51.090834,
    "geom:longitude": -2.891181,
    "gp:parent_id": "28917",
    "iso:country": "GB",
    "mz:hierarchy_label": 1,
    "mz:is_current": 1,
    "os:country_code": "E92000001",
    "os:county_code": "E99999999",
    "os:district_code": "E06000066",
    "os:positional_quality_indicator": "1",
    "os:region_code": "E12000009",
    "src:geom": "os",
    "wof:belongsto": [
      85633159,
      102191581,
      136253055,
      1864210997,
      1360699059,
      404443753,
      1226377871,
      1880762071
    ],
    "wof:breaches": [],
    "wof:concordances": {
      "gp:id": "28035394"
    },
    "wof:country": "GB",
    "wof:created": 1583701183,
    "wof:geomhash": "e7fad3fcba4a32b199aeca120a8d5a40",
    "wof:hierarchy": [
      {
        "continent_id": -1,
        "country_id": -1,
        "county_id": 1360699059,
        "localadmin_id": 404443753,
        "locality_id": 1226377871,
        "macrocounty_id": 1880762071,
        "postalcode_id": 487815641,
        "region_id": -1
      },
      {
        "continent_id": 102191581,
        "country_id": 85633159,
        "empire_id": 136253055,
        "postalcode_id": 487815641,
        "postalregion_id": 1864210997
      }
    ],
    "wof:id": 487815641,
    "wof:lastmodified": 1763548729,
    "wof:name": "TA7 0JU",
    "wof:parent_id": 1226377871,
    "wof:placetype": "postalcode",
    "wof:repo": "whosonfirst-data-postalcode-gb",
    "wof:superseded_by": [],
    "wof:supersedes": [],
    "wof:tags": []
  },
  "bbox": [
    -2.891181,
    51.090834,
    -2.891181,
    51.090834
  ],
  "geometry": {"coordinates":[-2.891181,51.090834],"type":"Point"}
}
