{
  "id": 488579935,
  "type": "Feature",
  "properties": {
    "date:inception_lower": "1980-01-01",
    "date:inception_upper": "1980-01-01",
    "edtf:cessation": "",
    "edtf:inception": "1980-01-01",
    "geom:area": 0,
    "geom:bbox": "-3.353985,51.721859,-3.353985,51.721859",
    "geom:latitude": 51.721859,
    "geom:longitude": -3.353985,
    "gp:parent_id": "38248",
    "iso:country": "GB",
    "mz:hierarchy_label": 1,
    "mz:is_current": 1,
    "os:country_code": "W92000004",
    "os:county_code": "W99999999",
    "os:district_code": "W06000024",
    "os:positional_quality_indicator": "1",
    "os:region_code": "W99999999",
    "src:geom": "os",
    "wof:belongsto": [
      85633159,
      102191581,
      136253055,
      1864206211,
      1360698803,
      404452685,
      1125783849,
      1880762185,
      404227475,
      1880773115
    ],
    "wof:breaches": [],
    "wof:concordances": {
      "gp:id": "27044753"
    },
    "wof:country": "GB",
    "wof:created": 1583701604,
    "wof:geomhash": "75bf7660b3e3119d69b8f8405f1d23ff",
    "wof:hierarchy": [
      {
        "continent_id": 102191581,
        "country_id": 85633159,
        "county_id": 1360698803,
        "empire_id": 136253055,
        "localadmin_id": 404452685,
        "locality_id": 1125783849,
        "macrocounty_id": 1880762185,
        "macroregion_id": 404227475,
        "postalcode_id": 488579935,
        "region_id": 1880773115
      },
      {
        "continent_id": 102191581,
        "country_id": 85633159,
        "empire_id": 136253055,
        "postalcode_id": 488579935,
        "postalregion_id": 1864206211
      }
    ],
    "wof:id": 488579935,
    "wof:lastmodified": 1763548601,
    "wof:name": "CF48 4DH",
    "wof:parent_id": 1125783849,
    "wof:placetype": "postalcode",
    "wof:repo": "whosonfirst-data-postalcode-gb",
    "wof:superseded_by": [],
    "wof:supersedes": [],
    "wof:tags": []
  },
  "bbox": [
    -3.353985,
    51.721859,
    -3.353985,
    51.721859
  ],
  "geometry": {"coordinates":[-3.353985,51.721859],"type":"Point"}
}
