{
  "id": 39499767,
  "type": "Feature",
  "properties": {
    "date:cessation_lower": "1999-06-01",
    "date:cessation_upper": "1999-06-01",
    "date:inception_lower": "1980-01-01",
    "date:inception_upper": "1980-01-01",
    "edtf:cessation": "1999-06-01",
    "edtf:inception": "1980-01-01",
    "geom:area": 0,
    "geom:bbox": "-3.276197,51.751160,-3.276197,51.751160",
    "geom:latitude": 51.75116,
    "geom:longitude": -3.276197,
    "iso:country": "GB",
    "mz:hierarchy_label": 1,
    "mz:is_current": 0,
    "os:country_code": "W92000004",
    "os:county_code": "W99999999",
    "os:district_code": "W06000018",
    "os:positional_quality_indicator": "8",
    "os:region_code": "W99999999",
    "src:geom": "os",
    "wof:belongsto": [
      102191581,
      85633159,
      1360698925,
      136253055,
      404439051,
      101852785,
      1880762173,
      404227475,
      1880773189
    ],
    "wof:breaches": [],
    "wof:country": "GB",
    "wof:created": 1583802164,
    "wof:geomhash": "231dff90fb5ac3b90bd2c31e05090b32",
    "wof:hierarchy": [
      {
        "continent_id": 102191581,
        "country_id": 85633159,
        "county_id": 1360698925,
        "empire_id": 136253055,
        "localadmin_id": 404439051,
        "locality_id": 101852785,
        "macrocounty_id": 1880762173,
        "macroregion_id": 404227475,
        "postalcode_id": 39499767,
        "region_id": 1880773189
      }
    ],
    "wof:id": 39499767,
    "wof:lastmodified": 1763548401,
    "wof:name": "NP2 5LA",
    "wof:parent_id": 101852785,
    "wof:placetype": "postalcode",
    "wof:repo": "whosonfirst-data-postalcode-gb",
    "wof:superseded_by": [],
    "wof:supersedes": [],
    "wof:tags": []
  },
  "bbox": [
    -3.276197,
    51.75116,
    -3.276197,
    51.75116
  ],
  "geometry": {"coordinates":[-3.276197,51.75116],"type":"Point"}
}
