{
  "id": 504584485,
  "type": "Feature",
  "properties": {
    "date:inception_lower": "1980-01-01",
    "date:inception_upper": "1980-01-01",
    "edtf:cessation": "",
    "edtf:inception": "1980-01-01",
    "geom:area": 0,
    "geom:bbox": "-4.063643,51.779853,-4.063643,51.779853",
    "geom:latitude": 51.779853,
    "geom:longitude": -4.063643,
    "gp:parent_id": "17435",
    "iso:country": "GB",
    "mz:hierarchy_label": 1,
    "mz:is_current": 1,
    "os:country_code": "W92000004",
    "os:county_code": "W99999999",
    "os:district_code": "W06000010",
    "os:positional_quality_indicator": "1",
    "os:region_code": "W99999999",
    "src:geom": "os",
    "wof:belongsto": [
      85633159,
      102191581,
      136253055,
      1864210299,
      1360698785,
      404451573,
      101852967,
      1880762181,
      404227475,
      1880772913
    ],
    "wof:breaches": [],
    "wof:concordances": {
      "gp:id": "27872289"
    },
    "wof:country": "GB",
    "wof:created": 1583701452,
    "wof:geomhash": "244c9e8811f1ab0a35245bd7eb228326",
    "wof:hierarchy": [
      {
        "continent_id": 102191581,
        "country_id": 85633159,
        "county_id": 1360698785,
        "empire_id": 136253055,
        "localadmin_id": 404451573,
        "locality_id": 101852967,
        "macrocounty_id": 1880762181,
        "macroregion_id": 404227475,
        "postalcode_id": 504584485,
        "region_id": 1880772913
      },
      {
        "continent_id": 102191581,
        "country_id": 85633159,
        "empire_id": 136253055,
        "postalcode_id": 504584485,
        "postalregion_id": 1864210299
      }
    ],
    "wof:id": 504584485,
    "wof:lastmodified": 1763548177,
    "wof:name": "SA14 6PU",
    "wof:parent_id": 101852967,
    "wof:placetype": "postalcode",
    "wof:repo": "whosonfirst-data-postalcode-gb",
    "wof:superseded_by": [],
    "wof:supersedes": [],
    "wof:tags": []
  },
  "bbox": [
    -4.063643,
    51.779853,
    -4.063643,
    51.779853
  ],
  "geometry": {"coordinates":[-4.063643,51.779853],"type":"Point"}
}
