{
  "id": 874470973,
  "type": "Feature",
  "properties": {
    "date:inception_lower": "2011-01-01",
    "date:inception_upper": "2011-01-01",
    "edtf:cessation": "",
    "edtf:inception": "2011-01-01",
    "geom:area": 0,
    "geom:bbox": "-4.229347,57.448630,-4.229347,57.448630",
    "geom:latitude": 57.44863,
    "geom:longitude": -4.229347,
    "iso:country": "GB",
    "mz:hierarchy_label": 1,
    "mz:is_current": 1,
    "os:country_code": "S92000003",
    "os:county_code": "S99999999",
    "os:district_code": "S12000017",
    "os:positional_quality_indicator": "1",
    "os:region_code": "S99999999",
    "src:geom": "os",
    "wof:belongsto": [
      85633159,
      102191581,
      136253055,
      1864207923,
      1360699045,
      1880762005,
      404227471,
      1880773131
    ],
    "wof:breaches": [],
    "wof:country": "GB",
    "wof:created": 1468882596,
    "wof:geomhash": "4fc2e1261e2ba7aa1288ea44e813286b",
    "wof:hierarchy": [
      {
        "continent_id": 102191581,
        "country_id": 85633159,
        "county_id": 1360699045,
        "empire_id": 136253055,
        "macrocounty_id": 1880762005,
        "macroregion_id": 404227471,
        "postalcode_id": 874470973,
        "region_id": 1880773131
      },
      {
        "continent_id": 102191581,
        "country_id": 85633159,
        "empire_id": 136253055,
        "postalcode_id": 874470973,
        "postalregion_id": 1864207923
      }
    ],
    "wof:id": 874470973,
    "wof:lastmodified": 1763547936,
    "wof:name": "IV2 6BX",
    "wof:parent_id": 1360699045,
    "wof:placetype": "postalcode",
    "wof:repo": "whosonfirst-data-postalcode-gb",
    "wof:superseded_by": [],
    "wof:supersedes": [],
    "wof:tags": []
  },
  "bbox": [
    -4.229347,
    57.44863,
    -4.229347,
    57.44863
  ],
  "geometry": {"coordinates":[-4.229347,57.44863],"type":"Point"}
}
