{
  "id": 471773107,
  "type": "Feature",
  "properties": {
    "date:inception_lower": "2000-06-01",
    "date:inception_upper": "2000-06-01",
    "edtf:cessation": "",
    "edtf:inception": "2000-06-01",
    "geom:area": 0,
    "geom:bbox": "-2.071975,53.446900,-2.071975,53.446900",
    "geom:latitude": 53.4469,
    "geom:longitude": -2.071975,
    "gp:parent_id": "20980",
    "iso:country": "GB",
    "mz:hierarchy_label": 1,
    "mz:is_current": 1,
    "os:country_code": "E92000001",
    "os:county_code": "E99999999",
    "os:district_code": "E08000008",
    "os:positional_quality_indicator": "1",
    "os:region_code": "E12000002",
    "src:geom": "os",
    "wof:belongsto": [
      85633159,
      102191581,
      136253055,
      1864210525,
      1360698931,
      1360817329,
      1125978547,
      1880762163,
      404227469,
      1880773095
    ],
    "wof:breaches": [],
    "wof:concordances": {
      "gp:id": "27917443"
    },
    "wof:country": "GB",
    "wof:created": 1583701736,
    "wof:geomhash": "e38dd5e76f77d116f78ccac24e29da88",
    "wof:hierarchy": [
      {
        "continent_id": 102191581,
        "country_id": 85633159,
        "county_id": 1360698931,
        "empire_id": 136253055,
        "localadmin_id": 1360817329,
        "locality_id": 1125978547,
        "macrocounty_id": 1880762163,
        "macroregion_id": 404227469,
        "postalcode_id": 471773107,
        "region_id": 1880773095
      },
      {
        "continent_id": 102191581,
        "country_id": 85633159,
        "empire_id": 136253055,
        "postalcode_id": 471773107,
        "postalregion_id": 1864210525
      }
    ],
    "wof:id": 471773107,
    "wof:lastmodified": 1763548419,
    "wof:name": "SK14 1RS",
    "wof:parent_id": 1125978547,
    "wof:placetype": "postalcode",
    "wof:repo": "whosonfirst-data-postalcode-gb",
    "wof:superseded_by": [],
    "wof:supersedes": [],
    "wof:tags": []
  },
  "bbox": [
    -2.071975,
    53.4469,
    -2.071975,
    53.4469
  ],
  "geometry": {"coordinates":[-2.071975,53.4469],"type":"Point"}
}
