{
  "id": 487860159,
  "type": "Feature",
  "properties": {
    "date:inception_lower": "1980-01-01",
    "date:inception_upper": "1980-01-01",
    "edtf:cessation": "",
    "edtf:inception": "1980-01-01",
    "geom:area": 0,
    "geom:bbox": "0.818600,51.172504,0.818600,51.172504",
    "geom:latitude": 51.172504,
    "geom:longitude": 0.8186,
    "gp:parent_id": "23987",
    "iso:country": "GB",
    "mz:hierarchy_label": 1,
    "mz:is_current": 1,
    "os:country_code": "E92000001",
    "os:county_code": "E10000016",
    "os:district_code": "E07000105",
    "os:positional_quality_indicator": "1",
    "os:region_code": "E12000008",
    "src:geom": "os",
    "wof:belongsto": [
      85633159,
      102191581,
      136253055,
      1864211107,
      1880771513,
      404432211,
      1125910779,
      1880762057,
      404227469,
      1880762705
    ],
    "wof:breaches": [],
    "wof:concordances": {
      "gp:id": "28056327"
    },
    "wof:country": "GB",
    "wof:created": 1583701215,
    "wof:geomhash": "336aa6971d5e4f8dbf95a2277a9c9ef5",
    "wof:hierarchy": [
      {
        "continent_id": 102191581,
        "country_id": 85633159,
        "county_id": 1880771513,
        "empire_id": 136253055,
        "localadmin_id": 404432211,
        "locality_id": 1125910779,
        "macrocounty_id": 1880762057,
        "macroregion_id": 404227469,
        "postalcode_id": 487860159,
        "region_id": 1880762705
      },
      {
        "continent_id": 102191581,
        "country_id": 85633159,
        "empire_id": 136253055,
        "postalcode_id": 487860159,
        "postalregion_id": 1864211107
      }
    ],
    "wof:id": 487860159,
    "wof:lastmodified": 1763548660,
    "wof:name": "TN26 1EF",
    "wof:parent_id": 1125910779,
    "wof:placetype": "postalcode",
    "wof:repo": "whosonfirst-data-postalcode-gb",
    "wof:superseded_by": [],
    "wof:supersedes": [],
    "wof:tags": []
  },
  "bbox": [
    0.8186,
    51.172504,
    0.8186,
    51.172504
  ],
  "geometry": {"coordinates":[0.8186,51.172504],"type":"Point"}
}
