{
  "id": 471105725,
  "type": "Feature",
  "properties": {
    "date:inception_lower": "1984-10-01",
    "date:inception_upper": "1984-10-01",
    "edtf:cessation": "",
    "edtf:inception": "1984-10-01",
    "geom:area": 0,
    "geom:bbox": "-1.172056,52.911712,-1.172056,52.911712",
    "geom:latitude": 52.911712,
    "geom:longitude": -1.172056,
    "gp:parent_id": "30720",
    "iso:country": "GB",
    "mz:hierarchy_label": 1,
    "mz:is_current": 1,
    "os:country_code": "E92000001",
    "os:county_code": "E99999999",
    "os:district_code": "E06000018",
    "os:positional_quality_indicator": "1",
    "os:region_code": "E12000004",
    "src:geom": "os",
    "wof:belongsto": [
      85633159,
      102191581,
      136253055,
      1864209151,
      1360698801,
      1175612705,
      1880762077,
      404227469,
      1880762689
    ],
    "wof:breaches": [],
    "wof:concordances": {
      "gp:id": "27630688"
    },
    "wof:country": "GB",
    "wof:created": 1583701305,
    "wof:geomhash": "43b3dd9100e8474a21069b50c7dd2bd5",
    "wof:hierarchy": [
      {
        "continent_id": 102191581,
        "country_id": 85633159,
        "county_id": 1360698801,
        "empire_id": 136253055,
        "locality_id": 1175612705,
        "macrocounty_id": 1880762077,
        "macroregion_id": 404227469,
        "postalcode_id": 471105725,
        "region_id": 1880762689
      },
      {
        "continent_id": 102191581,
        "country_id": 85633159,
        "empire_id": 136253055,
        "postalcode_id": 471105725,
        "postalregion_id": 1864209151
      }
    ],
    "wof:id": 471105725,
    "wof:lastmodified": 1763547961,
    "wof:name": "NG11 8GE",
    "wof:parent_id": 1175612705,
    "wof:placetype": "postalcode",
    "wof:repo": "whosonfirst-data-postalcode-gb",
    "wof:superseded_by": [],
    "wof:supersedes": [],
    "wof:tags": []
  },
  "bbox": [
    -1.172056,
    52.911712,
    -1.172056,
    52.911712
  ],
  "geometry": {"coordinates":[-1.172056,52.911712],"type":"Point"}
}
