{
  "id": 454612199,
  "type": "Feature",
  "properties": {
    "date:inception_lower": "1980-01-01",
    "date:inception_upper": "1980-01-01",
    "edtf:cessation": "",
    "edtf:inception": "1980-01-01",
    "geom:area": 0,
    "geom:bbox": "-3.044273,53.854347,-3.044273,53.854347",
    "geom:latitude": 53.854347,
    "geom:longitude": -3.044273,
    "gp:parent_id": "12903",
    "iso:country": "GB",
    "mz:hierarchy_label": 1,
    "mz:is_current": 1,
    "os:country_code": "E92000001",
    "os:county_code": "E99999999",
    "os:district_code": "E06000009",
    "os:positional_quality_indicator": "1",
    "os:region_code": "E12000002",
    "src:geom": "os",
    "wof:belongsto": [
      85633159,
      102191581,
      136253055,
      1864207301,
      1360698789,
      101913927,
      1880762053,
      404227469,
      1880762711
    ],
    "wof:breaches": [],
    "wof:concordances": {
      "gp:id": "27274991"
    },
    "wof:country": "GB",
    "wof:created": 1583701661,
    "wof:geomhash": "3e64c45818c79d5a694ad6f8fabeff69",
    "wof:hierarchy": [
      {
        "continent_id": 102191581,
        "country_id": 85633159,
        "county_id": 1360698789,
        "empire_id": 136253055,
        "locality_id": 101913927,
        "macrocounty_id": 1880762053,
        "macroregion_id": 404227469,
        "postalcode_id": 454612199,
        "region_id": 1880762711
      },
      {
        "continent_id": 102191581,
        "country_id": 85633159,
        "empire_id": 136253055,
        "postalcode_id": 454612199,
        "postalregion_id": 1864207301
      }
    ],
    "wof:id": 454612199,
    "wof:lastmodified": 1763548486,
    "wof:name": "FY2 9AR",
    "wof:parent_id": 101913927,
    "wof:placetype": "postalcode",
    "wof:repo": "whosonfirst-data-postalcode-gb",
    "wof:superseded_by": [],
    "wof:supersedes": [],
    "wof:tags": []
  },
  "bbox": [
    -3.044273,
    53.854347,
    -3.044273,
    53.854347
  ],
  "geometry": {"coordinates":[-3.044273,53.854347],"type":"Point"}
}
