{
  "id": 488118233,
  "type": "Feature",
  "properties": {
    "date:inception_lower": "1980-01-01",
    "date:inception_upper": "1980-01-01",
    "edtf:cessation": "",
    "edtf:inception": "1980-01-01",
    "geom:area": 0,
    "geom:bbox": "-1.474157,53.692354,-1.474157,53.692354",
    "geom:latitude": 53.692354,
    "geom:longitude": -1.474157,
    "gp:parent_id": "38952",
    "iso:country": "GB",
    "mz:hierarchy_label": 1,
    "mz:is_current": 1,
    "os:country_code": "E92000001",
    "os:county_code": "E99999999",
    "os:district_code": "E08000036",
    "os:positional_quality_indicator": "1",
    "os:region_code": "E12000003",
    "src:geom": "os",
    "wof:belongsto": [
      85633159,
      102191581,
      136253055,
      1864211545,
      1360698945,
      1360817491,
      101751637,
      1880762059,
      404227469,
      1880773017
    ],
    "wof:breaches": [],
    "wof:concordances": {
      "gp:id": "28149563"
    },
    "wof:country": "GB",
    "wof:created": 1583701254,
    "wof:geomhash": "08ba9fa576ac41fdeb34ed12c23776bc",
    "wof:hierarchy": [
      {
        "continent_id": 102191581,
        "country_id": 85633159,
        "county_id": 1360698945,
        "empire_id": 136253055,
        "localadmin_id": 1360817491,
        "locality_id": 101751637,
        "macrocounty_id": 1880762059,
        "macroregion_id": 404227469,
        "postalcode_id": 488118233,
        "region_id": 1880773017
      },
      {
        "continent_id": 102191581,
        "country_id": 85633159,
        "empire_id": 136253055,
        "postalcode_id": 488118233,
        "postalregion_id": 1864211545
      }
    ],
    "wof:id": 488118233,
    "wof:lastmodified": 1763548503,
    "wof:name": "WF1 4JQ",
    "wof:parent_id": 101751637,
    "wof:placetype": "postalcode",
    "wof:repo": "whosonfirst-data-postalcode-gb",
    "wof:superseded_by": [],
    "wof:supersedes": [],
    "wof:tags": []
  },
  "bbox": [
    -1.474157,
    53.692354,
    -1.474157,
    53.692354
  ],
  "geometry": {"coordinates":[-1.474157,53.692354],"type":"Point"}
}
