{
  "id": 454871829,
  "type": "Feature",
  "properties": {
    "date:inception_lower": "1980-01-01",
    "date:inception_upper": "1980-01-01",
    "edtf:cessation": "",
    "edtf:inception": "1980-01-01",
    "geom:area": 0,
    "geom:bbox": "1.627815,52.265010,1.627815,52.265010",
    "geom:latitude": 52.26501,
    "geom:longitude": 1.627815,
    "gp:parent_id": "18751",
    "iso:country": "GB",
    "mz:hierarchy_label": 1,
    "mz:is_current": 1,
    "os:country_code": "E92000001",
    "os:county_code": "E10000029",
    "os:district_code": "E07000244",
    "os:positional_quality_indicator": "1",
    "os:region_code": "E12000006",
    "src:geom": "os",
    "wof:belongsto": [
      85633159,
      102191581,
      136253055,
      1864207839,
      1880771635,
      404433689,
      1125801033,
      1880762001,
      404227469,
      1880762685
    ],
    "wof:breaches": [],
    "wof:concordances": {
      "gp:id": "27395685"
    },
    "wof:country": "GB",
    "wof:created": 1583701744,
    "wof:geomhash": "bf40338cc8c75c8778187e8879d34d91",
    "wof:hierarchy": [
      {
        "continent_id": 102191581,
        "country_id": 85633159,
        "county_id": 1880771635,
        "empire_id": 136253055,
        "localadmin_id": 404433689,
        "locality_id": 1125801033,
        "macrocounty_id": 1880762001,
        "macroregion_id": 404227469,
        "postalcode_id": 454871829,
        "region_id": 1880762685
      },
      {
        "continent_id": 102191581,
        "country_id": 85633159,
        "empire_id": 136253055,
        "postalcode_id": 454871829,
        "postalregion_id": 1864207839
      }
    ],
    "wof:id": 454871829,
    "wof:lastmodified": 1763548484,
    "wof:name": "IP17 3DG",
    "wof:parent_id": 1125801033,
    "wof:placetype": "postalcode",
    "wof:repo": "whosonfirst-data-postalcode-gb",
    "wof:superseded_by": [],
    "wof:supersedes": [],
    "wof:tags": []
  },
  "bbox": [
    1.627815,
    52.26501,
    1.627815,
    52.26501
  ],
  "geometry": {"coordinates":[1.627815,52.26501],"type":"Point"}
}
