{
  "id": 1998341323,
  "type": "Feature",
  "properties": {
    "date:inception_lower": "2025-07-01",
    "date:inception_upper": "2025-07-01",
    "edtf:cessation": "",
    "edtf:inception": "2025-07-01",
    "geom:area": 0,
    "geom:bbox": "-2.815944,52.717618,-2.815944,52.717618",
    "geom:latitude": 52.717618,
    "geom:longitude": -2.815944,
    "iso:country": "GB",
    "mz:hierarchy_label": 1,
    "mz:is_current": 1,
    "os:country_code": "E92000001",
    "os:county_code": "E99999999",
    "os:district_code": "E06000051",
    "os:positional_quality_indicator": "1",
    "os:region_code": "E12000005",
    "src:geom": "os",
    "wof:belongsto": [
      102191581,
      85633159,
      1360698821,
      136253055,
      404449337,
      1260008845,
      1880762073,
      404227469,
      1880772941,
      1864210933
    ],
    "wof:breaches": [],
    "wof:country": "GB",
    "wof:created": 1763548895,
    "wof:geomhash": "b6f9703ae3fa3431fc9c270d0ae7edb5",
    "wof:hierarchy": [
      {
        "continent_id": 102191581,
        "country_id": 85633159,
        "county_id": 1360698821,
        "empire_id": 136253055,
        "localadmin_id": 404449337,
        "locality_id": 1260008845,
        "macrocounty_id": 1880762073,
        "macroregion_id": 404227469,
        "postalcode_id": 1998341323,
        "region_id": 1880772941
      },
      {
        "continent_id": 102191581,
        "country_id": 85633159,
        "empire_id": 136253055,
        "postalcode_id": 1998341323,
        "postalregion_id": 1864210933
      }
    ],
    "wof:id": 1998341323,
    "wof:lastmodified": 1763548895,
    "wof:name": "SY3 5FH",
    "wof:parent_id": 1260008845,
    "wof:placetype": "postalcode",
    "wof:repo": "whosonfirst-data-postalcode-gb",
    "wof:superseded_by": [],
    "wof:supersedes": [],
    "wof:tags": []
  },
  "bbox": [
    -2.815944,
    52.717618,
    -2.815944,
    52.717618
  ],
  "geometry": {"coordinates":[-2.815944,52.717618],"type":"Point"}
}
