{
  "id": 38722491,
  "type": "Feature",
  "properties": {
    "date:cessation_lower": "2000-10-01",
    "date:cessation_upper": "2000-10-01",
    "date:inception_lower": "1996-06-01",
    "date:inception_upper": "1996-06-01",
    "edtf:cessation": "2000-10-01",
    "edtf:inception": "1996-06-01",
    "geom:area": 0,
    "geom:bbox": "-1.948088,52.077791,-1.948088,52.077791",
    "geom:latitude": 52.077791,
    "geom:longitude": -1.948088,
    "iso:country": "GB",
    "mz:hierarchy_label": 1,
    "mz:is_current": 0,
    "os:country_code": "E92000001",
    "os:county_code": "E10000034",
    "os:district_code": "E07000238",
    "os:positional_quality_indicator": "6",
    "os:region_code": "E12000005",
    "src:geom": "os",
    "wof:belongsto": [
      85633159,
      102191581,
      136253055,
      1864211609,
      1880771701,
      404436323,
      101853029,
      1880762019,
      404227469,
      1880762691
    ],
    "wof:breaches": [],
    "wof:country": "GB",
    "wof:created": 1583793600,
    "wof:geomhash": "3e9becb75b6b63d8005b5165ea03bd6e",
    "wof:hierarchy": [
      {
        "continent_id": 102191581,
        "country_id": 85633159,
        "county_id": 1880771701,
        "empire_id": 136253055,
        "localadmin_id": 404436323,
        "locality_id": 101853029,
        "macrocounty_id": 1880762019,
        "macroregion_id": 404227469,
        "postalcode_id": 38722491,
        "region_id": 1880762691
      },
      {
        "continent_id": 102191581,
        "country_id": 85633159,
        "empire_id": 136253055,
        "postalcode_id": 38722491,
        "postalregion_id": 1864211609
      }
    ],
    "wof:id": 38722491,
    "wof:lastmodified": 1763548630,
    "wof:name": "WR11 6WZ",
    "wof:parent_id": 101853029,
    "wof:placetype": "postalcode",
    "wof:repo": "whosonfirst-data-postalcode-gb",
    "wof:superseded_by": [],
    "wof:supersedes": [],
    "wof:tags": []
  },
  "bbox": [
    -1.948088,
    52.077791,
    -1.948088,
    52.077791
  ],
  "geometry": {"coordinates":[-1.948088,52.077791],"type":"Point"}
}
