{
  "id": 504463297,
  "type": "Feature",
  "properties": {
    "date:inception_lower": "1980-01-01",
    "date:inception_upper": "1980-01-01",
    "edtf:cessation": "",
    "edtf:inception": "1980-01-01",
    "geom:area": 0,
    "geom:bbox": "-3.432034,58.594217,-3.432034,58.594217",
    "geom:latitude": 58.594217,
    "geom:longitude": -3.432034,
    "gp:parent_id": "12696199",
    "iso:country": "GB",
    "mz:hierarchy_label": 1,
    "mz:is_current": 1,
    "os:country_code": "S92000003",
    "os:county_code": "S99999999",
    "os:district_code": "S12000017",
    "os:positional_quality_indicator": "1",
    "os:region_code": "S99999999",
    "src:geom": "os",
    "wof:belongsto": [
      85633159,
      102191581,
      136253055,
      1864208149,
      1360699045,
      1880762005,
      404227471,
      1880773131
    ],
    "wof:breaches": [],
    "wof:concordances": {
      "gp:id": "27433555"
    },
    "wof:country": "GB",
    "wof:created": 1583701344,
    "wof:geomhash": "bff868ac50874d7d0ca66d209b301f3f",
    "wof:hierarchy": [
      {
        "continent_id": 102191581,
        "country_id": 85633159,
        "county_id": 1360699045,
        "empire_id": 136253055,
        "macrocounty_id": 1880762005,
        "macroregion_id": 404227471,
        "postalcode_id": 504463297,
        "region_id": 1880773131
      },
      {
        "continent_id": 102191581,
        "country_id": 85633159,
        "empire_id": 136253055,
        "postalcode_id": 504463297,
        "postalregion_id": 1864208149
      }
    ],
    "wof:id": 504463297,
    "wof:lastmodified": 1763547990,
    "wof:name": "KW14 8SR",
    "wof:parent_id": 1360699045,
    "wof:placetype": "postalcode",
    "wof:repo": "whosonfirst-data-postalcode-gb",
    "wof:superseded_by": [],
    "wof:supersedes": [],
    "wof:tags": []
  },
  "bbox": [
    -3.432034,
    58.594217,
    -3.432034,
    58.594217
  ],
  "geometry": {"coordinates":[-3.432034,58.594217],"type":"Point"}
}
