{
  "id": 1712795791,
  "type": "Feature",
  "properties": {
    "date:cessation_lower": "1996-06-01",
    "date:cessation_upper": "1996-06-01",
    "date:inception_lower": "1990-08-01",
    "date:inception_upper": "1990-08-01",
    "edtf:cessation": "1996-06-01",
    "edtf:inception": "1990-08-01",
    "geom:area": 0,
    "geom:bbox": "-2.740206,57.526986,-2.740206,57.526986",
    "geom:latitude": 57.526986,
    "geom:longitude": -2.740206,
    "iso:country": "GB",
    "mz:hierarchy_label": 1,
    "mz:is_current": 0,
    "os:country_code": "S92000003",
    "os:county_code": "S99999999",
    "os:district_code": "S12000020",
    "os:positional_quality_indicator": "1",
    "os:region_code": "S99999999",
    "src:geom": "os",
    "wof:belongsto": [
      85633159,
      102191581,
      136253055,
      1864205445,
      1360698869,
      1880762111,
      404227471,
      1880772981
    ],
    "wof:breaches": [],
    "wof:country": "GB",
    "wof:created": 1583803942,
    "wof:geomhash": "c869f276680ac445390ffdae1fd95c5f",
    "wof:hierarchy": [
      {
        "continent_id": 102191581,
        "country_id": 85633159,
        "county_id": 1360698869,
        "empire_id": 136253055,
        "macrocounty_id": 1880762111,
        "macroregion_id": 404227471,
        "postalcode_id": 1712795791,
        "region_id": 1880772981
      },
      {
        "continent_id": 102191581,
        "country_id": 85633159,
        "empire_id": 136253055,
        "postalcode_id": 1712795791,
        "postalregion_id": 1864205445
      }
    ],
    "wof:id": 1712795791,
    "wof:lastmodified": 1763548726,
    "wof:name": "AB54 5NJ",
    "wof:parent_id": 1360698869,
    "wof:placetype": "postalcode",
    "wof:repo": "whosonfirst-data-postalcode-gb",
    "wof:superseded_by": [],
    "wof:supersedes": [],
    "wof:tags": []
  },
  "bbox": [
    -2.740206,
    57.526986,
    -2.740206,
    57.526986
  ],
  "geometry": {"coordinates":[-2.740206,57.526986],"type":"Point"}
}
