{
  "id": 471176323,
  "type": "Feature",
  "properties": {
    "date:inception_lower": "1993-08-01",
    "date:inception_upper": "1993-08-01",
    "edtf:cessation": "",
    "edtf:inception": "1993-08-01",
    "geom:area": 0,
    "geom:bbox": "-0.721667,52.418159,-0.721667,52.418159",
    "geom:latitude": 52.418159,
    "geom:longitude": -0.721667,
    "iso:country": "GB",
    "mz:hierarchy_label": 1,
    "mz:is_current": 1,
    "os:country_code": "E92000001",
    "os:county_code": "E99999999",
    "os:district_code": "E06000061",
    "os:positional_quality_indicator": "1",
    "os:region_code": "E12000004",
    "src:geom": "os",
    "wof:belongsto": [
      85633159,
      102191581,
      136253055,
      1864209233,
      1880773237,
      101750457,
      1880762029,
      404227469,
      1880773265
    ],
    "wof:breaches": [],
    "wof:concordances": {
      "gp:id": "27656098"
    },
    "wof:country": "GB",
    "wof:created": 1583701375,
    "wof:geomhash": "0cbf07a5012fa7324bf3f569e5581310",
    "wof:hierarchy": [
      {
        "continent_id": 102191581,
        "country_id": 85633159,
        "county_id": 1880773237,
        "empire_id": 136253055,
        "locality_id": 101750457,
        "macrocounty_id": 1880762029,
        "macroregion_id": 404227469,
        "postalcode_id": 471176323,
        "region_id": 1880773265
      },
      {
        "continent_id": 102191581,
        "country_id": 85633159,
        "empire_id": 136253055,
        "postalcode_id": 471176323,
        "postalregion_id": 1864209233
      }
    ],
    "wof:id": 471176323,
    "wof:lastmodified": 1763548431,
    "wof:name": "NN16 9BS",
    "wof:parent_id": 101750457,
    "wof:placetype": "postalcode",
    "wof:repo": "whosonfirst-data-postalcode-gb",
    "wof:superseded_by": [],
    "wof:supersedes": [],
    "wof:tags": []
  },
  "bbox": [
    -0.721667,
    52.418159,
    -0.721667,
    52.418159
  ],
  "geometry": {"coordinates":[-0.721667,52.418159],"type":"Point"}
}
