{
  "id": 437732723,
  "type": "Feature",
  "properties": {
    "date:cessation_lower": "2004-08-01",
    "date:cessation_upper": "2004-08-01",
    "date:inception_lower": "2000-12-01",
    "date:inception_upper": "2000-12-01",
    "edtf:cessation": "2004-08-01",
    "edtf:inception": "2000-12-01",
    "geom:area": 0,
    "geom:bbox": "-2.023529,52.516897,-2.023529,52.516897",
    "geom:latitude": 52.516897,
    "geom:longitude": -2.023529,
    "gp:parent_id": "31003",
    "iso:country": "GB",
    "mz:hierarchy_label": 1,
    "mz:is_current": 0,
    "os:country_code": "E92000001",
    "os:county_code": "E99999999",
    "os:district_code": "E08000028",
    "os:positional_quality_indicator": "5",
    "os:region_code": "E12000005",
    "src:geom": "os",
    "wof:belongsto": [
      85633159,
      102191581,
      136253055,
      1864205593,
      1360699035,
      1360817335,
      1126041385,
      1880762069
    ],
    "wof:breaches": [],
    "wof:concordances": {
      "gp:id": "28840893"
    },
    "wof:country": "GB",
    "wof:created": 1583701514,
    "wof:geomhash": "67a6c8c66921820bf8ce35abb20944ef",
    "wof:hierarchy": [
      {
        "continent_id": -1,
        "country_id": -1,
        "county_id": 1360699035,
        "localadmin_id": 1360817335,
        "locality_id": 1126041385,
        "macrocounty_id": 1880762069,
        "postalcode_id": 437732723,
        "region_id": -1
      },
      {
        "continent_id": 102191581,
        "country_id": 85633159,
        "empire_id": 136253055,
        "postalcode_id": 437732723,
        "postalregion_id": 1864205593
      }
    ],
    "wof:id": 437732723,
    "wof:lastmodified": 1763548150,
    "wof:name": "B69 3EN",
    "wof:parent_id": 1126041385,
    "wof:placetype": "postalcode",
    "wof:repo": "whosonfirst-data-postalcode-gb",
    "wof:superseded_by": [],
    "wof:supersedes": [],
    "wof:tags": []
  },
  "bbox": [
    -2.023529,
    52.516897,
    -2.023529,
    52.516897
  ],
  "geometry": {"coordinates":[-2.023529,52.516897],"type":"Point"}
}
