{
  "id": 437825195,
  "type": "Feature",
  "properties": {
    "date:cessation_lower": "2003-10-01",
    "date:cessation_upper": "2003-10-01",
    "date:inception_lower": "2002-09-01",
    "date:inception_upper": "2002-09-01",
    "edtf:cessation": "2003-10-01",
    "edtf:inception": "2002-09-01",
    "geom:area": 0,
    "geom:bbox": "-4.089014,53.193083,-4.089014,53.193083",
    "geom:latitude": 53.193083,
    "geom:longitude": -4.089014,
    "iso:country": "GB",
    "mz:hierarchy_label": 1,
    "mz:is_current": 0,
    "os:country_code": "W92000004",
    "os:county_code": "W99999999",
    "os:district_code": "W06000002",
    "os:positional_quality_indicator": "5",
    "os:region_code": "W99999999",
    "src:geom": "os",
    "wof:belongsto": [
      85633159,
      102191581,
      136253055,
      1864208549,
      1360698959,
      404450727,
      1360711623,
      1880762187,
      404227475,
      1880773051
    ],
    "wof:breaches": [],
    "wof:concordances": {
      "gp:id": "28894662"
    },
    "wof:country": "GB",
    "wof:created": 1583701575,
    "wof:geomhash": "d6a8771551250e8c4e60cea60a04462d",
    "wof:hierarchy": [
      {
        "continent_id": 102191581,
        "country_id": 85633159,
        "county_id": 1360698959,
        "empire_id": 136253055,
        "localadmin_id": 404450727,
        "locality_id": 1360711623,
        "macrocounty_id": 1880762187,
        "macroregion_id": 404227475,
        "postalcode_id": 437825195,
        "region_id": 1880773051
      },
      {
        "continent_id": 102191581,
        "country_id": 85633159,
        "empire_id": 136253055,
        "postalcode_id": 437825195,
        "postalregion_id": 1864208549
      }
    ],
    "wof:id": 437825195,
    "wof:lastmodified": 1763548220,
    "wof:name": "LL57 4YQ",
    "wof:parent_id": 1360711623,
    "wof:placetype": "postalcode",
    "wof:repo": "whosonfirst-data-postalcode-gb",
    "wof:superseded_by": [],
    "wof:supersedes": [],
    "wof:tags": []
  },
  "bbox": [
    -4.089014,
    53.193083,
    -4.089014,
    53.193083
  ],
  "geometry": {"coordinates":[-4.089014,53.193083],"type":"Point"}
}
