{
  "id": 1947778601,
  "type": "Feature",
  "properties": {
    "date:inception_lower": "2024-06-01",
    "date:inception_upper": "2024-06-01",
    "edtf:cessation": "",
    "edtf:inception": "2024-06-01",
    "geom:area": 0,
    "geom:bbox": "-1.824711,52.908288,-1.824711,52.908288",
    "geom:latitude": 52.908288,
    "geom:longitude": -1.824711,
    "iso:country": "GB",
    "mz:hierarchy_label": 1,
    "mz:is_current": 1,
    "os:country_code": "E92000001",
    "os:county_code": "E10000007",
    "os:district_code": "E07000035",
    "os:positional_quality_indicator": "1",
    "os:region_code": "E12000004",
    "src:geom": "os",
    "wof:belongsto": [
      102191581,
      85633159,
      1880771389,
      136253055,
      404435177,
      1125866903,
      1880762133,
      404227469,
      1880762707,
      1864206673
    ],
    "wof:breaches": [],
    "wof:country": "GB",
    "wof:created": 1736335345,
    "wof:geomhash": "8388e435c765723ef9a387bbdbc176c3",
    "wof:hierarchy": [
      {
        "continent_id": 102191581,
        "country_id": 85633159,
        "county_id": 1880771389,
        "empire_id": 136253055,
        "localadmin_id": 404435177,
        "locality_id": 1125866903,
        "macrocounty_id": 1880762133,
        "macroregion_id": 404227469,
        "postalcode_id": 1947778601,
        "region_id": 1880762707
      },
      {
        "continent_id": 102191581,
        "country_id": 85633159,
        "empire_id": 136253055,
        "postalcode_id": 1947778601,
        "postalregion_id": 1864206673
      }
    ],
    "wof:id": 1947778601,
    "wof:lastmodified": 1763547893,
    "wof:name": "DE6 5RE",
    "wof:parent_id": 1125866903,
    "wof:placetype": "postalcode",
    "wof:repo": "whosonfirst-data-postalcode-gb",
    "wof:superseded_by": [],
    "wof:supersedes": [],
    "wof:tags": []
  },
  "bbox": [
    -1.824711,
    52.908288,
    -1.824711,
    52.908288
  ],
  "geometry": {"coordinates":[-1.824711,52.908288],"type":"Point"}
}
