{
  "id": 890284685,
  "type": "Feature",
  "properties": {
    "date:inception_lower": "2014-06-01",
    "date:inception_upper": "2014-06-01",
    "edtf:cessation": "",
    "edtf:inception": "2014-06-01",
    "geom:area": 0,
    "geom:bbox": "-2.265732,52.183115,-2.265732,52.183115",
    "geom:latitude": 52.183115,
    "geom:longitude": -2.265732,
    "iso:country": "GB",
    "mz:hierarchy_label": 1,
    "mz:is_current": 1,
    "os:country_code": "E92000001",
    "os:county_code": "E10000034",
    "os:district_code": "E07000235",
    "os:positional_quality_indicator": "1",
    "os:region_code": "E12000005",
    "src:geom": "os",
    "wof:belongsto": [
      85633159,
      102191581,
      136253055,
      1864211619,
      1880771695,
      404449067,
      1360753003,
      1880762019,
      404227469,
      1880762691
    ],
    "wof:breaches": [],
    "wof:country": "GB",
    "wof:created": 1468904066,
    "wof:geomhash": "15896696a6cbfd8588d1e14e88610a7d",
    "wof:hierarchy": [
      {
        "continent_id": 102191581,
        "country_id": 85633159,
        "county_id": 1880771695,
        "empire_id": 136253055,
        "localadmin_id": 404449067,
        "locality_id": 1360753003,
        "macrocounty_id": 1880762019,
        "macroregion_id": 404227469,
        "postalcode_id": 890284685,
        "region_id": 1880762691
      },
      {
        "continent_id": 102191581,
        "country_id": 85633159,
        "empire_id": 136253055,
        "postalcode_id": 890284685,
        "postalregion_id": 1864211619
      }
    ],
    "wof:id": 890284685,
    "wof:lastmodified": 1763548616,
    "wof:name": "WR2 5GU",
    "wof:parent_id": 1360753003,
    "wof:placetype": "postalcode",
    "wof:repo": "whosonfirst-data-postalcode-gb",
    "wof:superseded_by": [],
    "wof:supersedes": [],
    "wof:tags": []
  },
  "bbox": [
    -2.265732,
    52.183115,
    -2.265732,
    52.183115
  ],
  "geometry": {"coordinates":[-2.265732,52.183115],"type":"Point"}
}
