{
  "id": 39135105,
  "type": "Feature",
  "properties": {
    "date:cessation_lower": "1994-05-01",
    "date:cessation_upper": "1994-05-01",
    "date:inception_lower": "1993-01-01",
    "date:inception_upper": "1993-01-01",
    "edtf:cessation": "1994-05-01",
    "edtf:inception": "1993-01-01",
    "geom:area": 0,
    "geom:bbox": "-1.197136,53.143457,-1.197136,53.143457",
    "geom:latitude": 53.143457,
    "geom:longitude": -1.197136,
    "iso:country": "GB",
    "mz:hierarchy_label": 1,
    "mz:is_current": 0,
    "os:country_code": "E92000001",
    "os:county_code": "E10000024",
    "os:district_code": "E07000174",
    "os:positional_quality_indicator": "8",
    "os:region_code": "E12000004",
    "src:geom": "os",
    "wof:belongsto": [
      85633159,
      102191581,
      136253055,
      1864209167,
      1880771605,
      101750507,
      1880762077,
      404227469,
      1880762689
    ],
    "wof:breaches": [],
    "wof:country": "GB",
    "wof:created": 1583798116,
    "wof:geomhash": "90345e34ec886d7ddf0401d35b456b49",
    "wof:hierarchy": [
      {
        "continent_id": 102191581,
        "country_id": 85633159,
        "county_id": 1880771605,
        "empire_id": 136253055,
        "locality_id": 101750507,
        "macrocounty_id": 1880762077,
        "macroregion_id": 404227469,
        "postalcode_id": 39135105,
        "region_id": 1880762689
      },
      {
        "continent_id": 102191581,
        "country_id": 85633159,
        "empire_id": 136253055,
        "postalcode_id": 39135105,
        "postalregion_id": 1864209167
      }
    ],
    "wof:id": 39135105,
    "wof:lastmodified": 1763547904,
    "wof:name": "NG18 1DZ",
    "wof:parent_id": 101750507,
    "wof:placetype": "postalcode",
    "wof:repo": "whosonfirst-data-postalcode-gb",
    "wof:superseded_by": [],
    "wof:supersedes": [],
    "wof:tags": []
  },
  "bbox": [
    -1.197136,
    53.143457,
    -1.197136,
    53.143457
  ],
  "geometry": {"coordinates":[-1.197136,53.143457],"type":"Point"}
}
