{
  "id": 487696907,
  "type": "Feature",
  "properties": {
    "date:inception_lower": "1992-01-01",
    "date:inception_upper": "1992-01-01",
    "edtf:cessation": "",
    "edtf:inception": "1992-01-01",
    "geom:area": 0,
    "geom:bbox": "-1.867375,52.891856,-1.867375,52.891856",
    "geom:latitude": 52.891856,
    "geom:longitude": -1.867375,
    "iso:country": "GB",
    "mz:hierarchy_label": 1,
    "mz:is_current": 1,
    "os:country_code": "E92000001",
    "os:county_code": "E10000028",
    "os:district_code": "E07000193",
    "os:positional_quality_indicator": "1",
    "os:region_code": "E12000005",
    "src:geom": "os",
    "wof:belongsto": [
      85633159,
      102191581,
      136253055,
      1864210791,
      1880771629,
      404436469,
      101871897,
      1880761999,
      404227469,
      1880762719
    ],
    "wof:breaches": [],
    "wof:concordances": {
      "gp:id": "26556780"
    },
    "wof:country": "GB",
    "wof:created": 1583701128,
    "wof:geomhash": "b42c8ffedf575cc1c25e4be97c78f829",
    "wof:hierarchy": [
      {
        "continent_id": 102191581,
        "country_id": 85633159,
        "county_id": 1880771629,
        "empire_id": 136253055,
        "localadmin_id": 404436469,
        "locality_id": 101871897,
        "macrocounty_id": 1880761999,
        "macroregion_id": 404227469,
        "postalcode_id": 487696907,
        "region_id": 1880762719
      },
      {
        "continent_id": 102191581,
        "country_id": 85633159,
        "empire_id": 136253055,
        "postalcode_id": 487696907,
        "postalregion_id": 1864210791
      }
    ],
    "wof:id": 487696907,
    "wof:lastmodified": 1763548746,
    "wof:name": "ST14 8TN",
    "wof:parent_id": 101871897,
    "wof:placetype": "postalcode",
    "wof:repo": "whosonfirst-data-postalcode-gb",
    "wof:superseded_by": [],
    "wof:supersedes": [],
    "wof:tags": []
  },
  "bbox": [
    -1.867375,
    52.891856,
    -1.867375,
    52.891856
  ],
  "geometry": {"coordinates":[-1.867375,52.891856],"type":"Point"}
}
