{
  "id": 487807165,
  "type": "Feature",
  "properties": {
    "date:inception_lower": "1997-06-01",
    "date:inception_upper": "1997-06-01",
    "edtf:cessation": "",
    "edtf:inception": "1997-06-01",
    "geom:area": 0,
    "geom:bbox": "-3.461067,51.192845,-3.461067,51.192845",
    "geom:latitude": 51.192845,
    "geom:longitude": -3.461067,
    "iso:country": "GB",
    "mz:hierarchy_label": 1,
    "mz:is_current": 1,
    "os:country_code": "E92000001",
    "os:county_code": "E99999999",
    "os:district_code": "E06000066",
    "os:positional_quality_indicator": "1",
    "os:region_code": "E12000009",
    "src:geom": "os",
    "wof:belongsto": [
      85633159,
      102191581,
      136253055,
      1864210985,
      1360699059,
      404429505,
      101852501,
      1880762071,
      404227469,
      1880773145
    ],
    "wof:breaches": [],
    "wof:concordances": {
      "gp:id": "28032004"
    },
    "wof:country": "GB",
    "wof:created": 1583701176,
    "wof:geomhash": "311fb31fe1c4fa63e5d722c4b30fa509",
    "wof:hierarchy": [
      {
        "continent_id": 102191581,
        "country_id": 85633159,
        "county_id": 1360699059,
        "empire_id": 136253055,
        "localadmin_id": 404429505,
        "locality_id": 101852501,
        "macrocounty_id": 1880762071,
        "macroregion_id": 404227469,
        "postalcode_id": 487807165,
        "region_id": 1880773145
      },
      {
        "continent_id": 102191581,
        "country_id": 85633159,
        "empire_id": 136253055,
        "postalcode_id": 487807165,
        "postalregion_id": 1864210985
      }
    ],
    "wof:id": 487807165,
    "wof:lastmodified": 1763548737,
    "wof:name": "TA24 6LW",
    "wof:parent_id": 101852501,
    "wof:placetype": "postalcode",
    "wof:repo": "whosonfirst-data-postalcode-gb",
    "wof:superseded_by": [],
    "wof:supersedes": [],
    "wof:tags": []
  },
  "bbox": [
    -3.461067,
    51.192845,
    -3.461067,
    51.192845
  ],
  "geometry": {"coordinates":[-3.461067,51.192845],"type":"Point"}
}
