{
  "id": 471333109,
  "type": "Feature",
  "properties": {
    "date:inception_lower": "2001-06-01",
    "date:inception_upper": "2001-06-01",
    "edtf:cessation": "",
    "edtf:inception": "2001-06-01",
    "geom:area": 0,
    "geom:bbox": "-1.464501,51.725907,-1.464501,51.725907",
    "geom:latitude": 51.725907,
    "geom:longitude": -1.464501,
    "gp:parent_id": "34617",
    "iso:country": "GB",
    "mz:hierarchy_label": 1,
    "mz:is_current": 1,
    "os:country_code": "E92000001",
    "os:county_code": "E10000025",
    "os:district_code": "E07000181",
    "os:positional_quality_indicator": "1",
    "os:region_code": "E12000008",
    "src:geom": "os",
    "wof:belongsto": [
      85633159,
      102191581,
      136253055,
      1864209479,
      1880771615,
      404436491,
      1360758629,
      1880762079,
      404227469,
      1880762695
    ],
    "wof:breaches": [],
    "wof:concordances": {
      "gp:id": "27725064"
    },
    "wof:country": "GB",
    "wof:created": 1583701508,
    "wof:geomhash": "04213429c9529b81319fe567798e0c08",
    "wof:hierarchy": [
      {
        "continent_id": 102191581,
        "country_id": 85633159,
        "county_id": 1880771615,
        "empire_id": 136253055,
        "localadmin_id": 404436491,
        "locality_id": 1360758629,
        "macrocounty_id": 1880762079,
        "macroregion_id": 404227469,
        "postalcode_id": 471333109,
        "region_id": 1880762695
      },
      {
        "continent_id": 102191581,
        "country_id": 85633159,
        "empire_id": 136253055,
        "postalcode_id": 471333109,
        "postalregion_id": 1864209479
      }
    ],
    "wof:id": 471333109,
    "wof:lastmodified": 1763548252,
    "wof:name": "OX29 7QP",
    "wof:parent_id": 1360758629,
    "wof:placetype": "postalcode",
    "wof:repo": "whosonfirst-data-postalcode-gb",
    "wof:superseded_by": [],
    "wof:supersedes": [],
    "wof:tags": []
  },
  "bbox": [
    -1.464501,
    51.725907,
    -1.464501,
    51.725907
  ],
  "geometry": {"coordinates":[-1.464501,51.725907],"type":"Point"}
}
