{
  "id": 1160771466,
  "type": "Feature",
  "properties": {
    "date:cessation_lower": "1994-12-01",
    "date:cessation_upper": "1994-12-01",
    "date:inception_lower": "1980-01-01",
    "date:inception_upper": "1980-01-01",
    "edtf:cessation": "1994-12-01",
    "edtf:inception": "1980-01-01",
    "geom:area": 0,
    "geom:bbox": "-1.352144,50.877770,-1.352144,50.877770",
    "geom:latitude": 50.87777,
    "geom:longitude": -1.352144,
    "iso:country": "GB",
    "mz:hierarchy_label": 1,
    "mz:is_current": 0,
    "os:country_code": "E92000001",
    "os:county_code": "E10000014",
    "os:district_code": "E07000086",
    "os:positional_quality_indicator": "1",
    "os:region_code": "E12000008",
    "src:geom": "os",
    "wof:belongsto": [
      102191581,
      85633159,
      1880771461,
      136253055,
      404447703,
      1360755705,
      1880762155,
      404227469,
      1880762717
    ],
    "wof:breaches": [],
    "wof:country": "GB",
    "wof:created": 1583789247,
    "wof:geomhash": "181fa56ae1606646eace0274cda9c2b9",
    "wof:hierarchy": [
      {
        "continent_id": 102191581,
        "country_id": 85633159,
        "county_id": 1880771461,
        "empire_id": 136253055,
        "localadmin_id": 404447703,
        "locality_id": 1360755705,
        "macrocounty_id": 1880762155,
        "macroregion_id": 404227469,
        "postalcode_id": 1160771466,
        "region_id": 1880762717
      }
    ],
    "wof:id": 1160771466,
    "wof:lastmodified": 1763548214,
    "wof:name": "SO3 5EN",
    "wof:parent_id": 1360755705,
    "wof:placetype": "postalcode",
    "wof:repo": "whosonfirst-data-postalcode-gb",
    "wof:superseded_by": [],
    "wof:supersedes": [],
    "wof:tags": []
  },
  "bbox": [
    -1.352144,
    50.87777,
    -1.352144,
    50.87777
  ],
  "geometry": {"coordinates":[-1.352144,50.87777],"type":"Point"}
}
