{
  "id": 454241487,
  "type": "Feature",
  "properties": {
    "date:inception_lower": "1980-01-01",
    "date:inception_upper": "1980-01-01",
    "edtf:cessation": "",
    "edtf:inception": "1980-01-01",
    "geom:area": 0,
    "geom:bbox": "1.110321,51.361744,1.110321,51.361744",
    "geom:latitude": 51.361744,
    "geom:longitude": 1.110321,
    "gp:parent_id": "23078",
    "iso:country": "GB",
    "mz:hierarchy_label": 1,
    "mz:is_current": 1,
    "os:country_code": "E92000001",
    "os:county_code": "E10000016",
    "os:district_code": "E07000106",
    "os:positional_quality_indicator": "1",
    "os:region_code": "E12000008",
    "src:geom": "os",
    "wof:belongsto": [
      85633159,
      102191581,
      136253055,
      1864206481,
      1360698811,
      1360755123,
      404227469,
      1360698565
    ],
    "wof:breaches": [],
    "wof:concordances": {
      "gp:id": "27104037"
    },
    "wof:country": "GB",
    "wof:created": 1583701407,
    "wof:geomhash": "73de04e20e206a263873e2c82a24bc32",
    "wof:hierarchy": [
      {
        "continent_id": 102191581,
        "country_id": 85633159,
        "county_id": 1360698811,
        "locality_id": 1360755123,
        "macroregion_id": 404227469,
        "postalcode_id": 454241487,
        "region_id": 1360698565
      },
      {
        "continent_id": 102191581,
        "country_id": 85633159,
        "empire_id": 136253055,
        "postalcode_id": 454241487,
        "postalregion_id": 1864206481
      }
    ],
    "wof:id": 454241487,
    "wof:lastmodified": 1763548473,
    "wof:name": "CT6 7PP",
    "wof:parent_id": 1360755123,
    "wof:placetype": "postalcode",
    "wof:repo": "whosonfirst-data-postalcode-gb",
    "wof:superseded_by": [],
    "wof:supersedes": [],
    "wof:tags": []
  },
  "bbox": [
    1.110321,
    51.361744,
    1.110321,
    51.361744
  ],
  "geometry": {"coordinates":[1.110321,51.361744],"type":"Point"}
}
