{
  "id": 488222995,
  "type": "Feature",
  "properties": {
    "date:inception_lower": "1980-01-01",
    "date:inception_upper": "1980-01-01",
    "edtf:cessation": "",
    "edtf:inception": "1980-01-01",
    "geom:area": 0,
    "geom:bbox": "-2.214473,52.617157,-2.214473,52.617157",
    "geom:latitude": 52.617157,
    "geom:longitude": -2.214473,
    "gp:parent_id": "16503",
    "iso:country": "GB",
    "mz:hierarchy_label": 1,
    "mz:is_current": 1,
    "os:country_code": "E92000001",
    "os:county_code": "E10000028",
    "os:district_code": "E07000196",
    "os:positional_quality_indicator": "1",
    "os:region_code": "E12000005",
    "src:geom": "os",
    "wof:belongsto": [
      85633159,
      102191581,
      136253055,
      1864211705,
      1880771619,
      404450321,
      1360754969,
      1880761999,
      404227469,
      1880762719
    ],
    "wof:breaches": [],
    "wof:concordances": {
      "gp:id": "28187468"
    },
    "wof:country": "GB",
    "wof:created": 1583701151,
    "wof:geomhash": "ee52d43defe63315b9bf851c5a2eda0d",
    "wof:hierarchy": [
      {
        "continent_id": 102191581,
        "country_id": 85633159,
        "county_id": 1880771619,
        "empire_id": 136253055,
        "localadmin_id": 404450321,
        "locality_id": 1360754969,
        "macrocounty_id": 1880761999,
        "macroregion_id": 404227469,
        "postalcode_id": 488222995,
        "region_id": 1880762719
      },
      {
        "continent_id": 102191581,
        "country_id": 85633159,
        "empire_id": 136253055,
        "postalcode_id": 488222995,
        "postalregion_id": 1864211705
      }
    ],
    "wof:id": 488222995,
    "wof:lastmodified": 1763548575,
    "wof:name": "WV8 2HL",
    "wof:parent_id": 1360754969,
    "wof:placetype": "postalcode",
    "wof:repo": "whosonfirst-data-postalcode-gb",
    "wof:superseded_by": [],
    "wof:supersedes": [],
    "wof:tags": []
  },
  "bbox": [
    -2.214473,
    52.617157,
    -2.214473,
    52.617157
  ],
  "geometry": {"coordinates":[-2.214473,52.617157],"type":"Point"}
}
