{
  "id": 1712832275,
  "type": "Feature",
  "properties": {
    "date:cessation_lower": "1996-06-01",
    "date:cessation_upper": "1996-06-01",
    "date:inception_lower": "1993-01-01",
    "date:inception_upper": "1993-01-01",
    "edtf:cessation": "1996-06-01",
    "edtf:inception": "1993-01-01",
    "geom:area": 0,
    "geom:bbox": "-1.338660,53.370849,-1.338660,53.370849",
    "geom:latitude": 53.370849,
    "geom:longitude": -1.33866,
    "iso:country": "GB",
    "mz:hierarchy_label": 1,
    "mz:is_current": 0,
    "os:country_code": "E92000001",
    "os:county_code": "E99999999",
    "os:district_code": "E08000018",
    "os:positional_quality_indicator": "8",
    "os:region_code": "E12000003",
    "src:geom": "os",
    "wof:belongsto": [
      85633159,
      102191581,
      136253055,
      1864210181,
      1360698851,
      404448701,
      1360757287,
      1880761997,
      404227469,
      1880772963
    ],
    "wof:breaches": [],
    "wof:country": "GB",
    "wof:created": 1583805576,
    "wof:geomhash": "fee3aa03807a1eb651c28774e7dd9fad",
    "wof:hierarchy": [
      {
        "continent_id": 102191581,
        "country_id": 85633159,
        "county_id": 1360698851,
        "empire_id": 136253055,
        "localadmin_id": 404448701,
        "locality_id": 1360757287,
        "macrocounty_id": 1880761997,
        "macroregion_id": 404227469,
        "postalcode_id": 1712832275,
        "region_id": 1880772963
      },
      {
        "continent_id": 102191581,
        "country_id": 85633159,
        "empire_id": 136253055,
        "postalcode_id": 1712832275,
        "postalregion_id": 1864210181
      }
    ],
    "wof:id": 1712832275,
    "wof:lastmodified": 1763548716,
    "wof:name": "S13 9ZX",
    "wof:parent_id": 1360757287,
    "wof:placetype": "postalcode",
    "wof:repo": "whosonfirst-data-postalcode-gb",
    "wof:superseded_by": [],
    "wof:supersedes": [],
    "wof:tags": []
  },
  "bbox": [
    -1.33866,
    53.370849,
    -1.33866,
    53.370849
  ],
  "geometry": {"coordinates":[-1.33866,53.370849],"type":"Point"}
}
