{
  "id": 471501579,
  "type": "Feature",
  "properties": {
    "date:inception_lower": "1996-12-01",
    "date:inception_upper": "1996-12-01",
    "edtf:cessation": "",
    "edtf:inception": "1996-12-01",
    "geom:area": 0,
    "geom:bbox": "-2.743820,53.908950,-2.743820,53.908950",
    "geom:latitude": 53.90895,
    "geom:longitude": -2.74382,
    "gp:parent_id": "11887",
    "iso:country": "GB",
    "mz:hierarchy_label": 1,
    "mz:is_current": 1,
    "os:country_code": "E92000001",
    "os:county_code": "E10000017",
    "os:district_code": "E07000128",
    "os:positional_quality_indicator": "1",
    "os:region_code": "E12000002",
    "src:geom": "os",
    "wof:belongsto": [
      85633159,
      102191581,
      136253055,
      1864209999,
      1880771545,
      404445957,
      1360752987,
      1880762053,
      404227469,
      1880762711
    ],
    "wof:breaches": [],
    "wof:concordances": {
      "gp:id": "27799039"
    },
    "wof:country": "GB",
    "wof:created": 1583701648,
    "wof:geomhash": "bb2235691e3757f99ef926fe27a9b7b6",
    "wof:hierarchy": [
      {
        "continent_id": 102191581,
        "country_id": 85633159,
        "county_id": 1880771545,
        "empire_id": 136253055,
        "localadmin_id": 404445957,
        "locality_id": 1360752987,
        "macrocounty_id": 1880762053,
        "macroregion_id": 404227469,
        "postalcode_id": 471501579,
        "region_id": 1880762711
      },
      {
        "continent_id": 102191581,
        "country_id": 85633159,
        "empire_id": 136253055,
        "postalcode_id": 471501579,
        "postalregion_id": 1864209999
      }
    ],
    "wof:id": 471501579,
    "wof:lastmodified": 1763548221,
    "wof:name": "PR3 1GZ",
    "wof:parent_id": 1360752987,
    "wof:placetype": "postalcode",
    "wof:repo": "whosonfirst-data-postalcode-gb",
    "wof:superseded_by": [],
    "wof:supersedes": [],
    "wof:tags": []
  },
  "bbox": [
    -2.74382,
    53.90895,
    -2.74382,
    53.90895
  ],
  "geometry": {"coordinates":[-2.74382,53.90895],"type":"Point"}
}
