{
  "id": 1160913106,
  "type": "Feature",
  "properties": {
    "date:cessation_lower": "1994-12-01",
    "date:cessation_upper": "1994-12-01",
    "date:inception_lower": "1987-04-01",
    "date:inception_upper": "1987-04-01",
    "edtf:cessation": "1994-12-01",
    "edtf:inception": "1987-04-01",
    "geom:area": 0,
    "geom:bbox": "0.841852,51.131340,0.841852,51.131340",
    "geom:latitude": 51.13134,
    "geom:longitude": 0.841852,
    "iso:country": "GB",
    "mz:hierarchy_label": 1,
    "mz:is_current": 0,
    "os:country_code": "E92000001",
    "os:county_code": "E10000016",
    "os:district_code": "E07000105",
    "os:positional_quality_indicator": "1",
    "os:region_code": "E12000008",
    "src:geom": "os",
    "wof:belongsto": [
      85633159,
      102191581,
      136253055,
      1864211099,
      1880771513,
      404444919,
      1125960729,
      1880762057,
      404227469,
      1880762705
    ],
    "wof:breaches": [],
    "wof:country": "GB",
    "wof:created": 1583795531,
    "wof:geomhash": "d3ff1ed33964e90c02ef6158ee2f58a2",
    "wof:hierarchy": [
      {
        "continent_id": 102191581,
        "country_id": 85633159,
        "county_id": 1880771513,
        "empire_id": 136253055,
        "localadmin_id": 404444919,
        "locality_id": 1125960729,
        "macrocounty_id": 1880762057,
        "macroregion_id": 404227469,
        "postalcode_id": 1160913106,
        "region_id": 1880762705
      },
      {
        "continent_id": 102191581,
        "country_id": 85633159,
        "empire_id": 136253055,
        "postalcode_id": 1160913106,
        "postalregion_id": 1864211099
      }
    ],
    "wof:id": 1160913106,
    "wof:lastmodified": 1763548256,
    "wof:name": "TN23 2JW",
    "wof:parent_id": 1125960729,
    "wof:placetype": "postalcode",
    "wof:repo": "whosonfirst-data-postalcode-gb",
    "wof:superseded_by": [],
    "wof:supersedes": [],
    "wof:tags": []
  },
  "bbox": [
    0.841852,
    51.13134,
    0.841852,
    51.13134
  ],
  "geometry": {"coordinates":[0.841852,51.13134],"type":"Point"}
}
