{
  "id": 1712506637,
  "type": "Feature",
  "properties": {
    "date:cessation_lower": "1992-07-01",
    "date:cessation_upper": "1992-07-01",
    "date:inception_lower": "1973-08-01",
    "date:inception_upper": "1973-08-01",
    "edtf:cessation": "1992-07-01",
    "edtf:inception": "1973-08-01",
    "geom:area": 0,
    "geom:bbox": "-3.214898,55.949970,-3.214898,55.949970",
    "geom:latitude": 55.94997,
    "geom:longitude": -3.214898,
    "iso:country": "GB",
    "mz:hierarchy_label": 1,
    "mz:is_current": 0,
    "os:country_code": "S92000003",
    "os:county_code": "S99999999",
    "os:district_code": "S12000036",
    "os:positional_quality_indicator": "8",
    "os:region_code": "S99999999",
    "src:geom": "os",
    "wof:belongsto": [
      85633159,
      102191581,
      136253055,
      1864207077,
      1360698761,
      101750629,
      1880762089,
      404227471,
      1880772893
    ],
    "wof:breaches": [],
    "wof:country": "GB",
    "wof:created": 1583791089,
    "wof:geomhash": "4172bf255955c5a0e14c4a2a1eeb3328",
    "wof:hierarchy": [
      {
        "continent_id": 102191581,
        "country_id": 85633159,
        "county_id": 1360698761,
        "empire_id": 136253055,
        "locality_id": 101750629,
        "macrocounty_id": 1880762089,
        "macroregion_id": 404227471,
        "postalcode_id": 1712506637,
        "region_id": 1880772893
      },
      {
        "continent_id": 102191581,
        "country_id": 85633159,
        "empire_id": 136253055,
        "postalcode_id": 1712506637,
        "postalregion_id": 1864207077
      }
    ],
    "wof:id": 1712506637,
    "wof:lastmodified": 1763548689,
    "wof:name": "EH3 7HU",
    "wof:parent_id": 101750629,
    "wof:placetype": "postalcode",
    "wof:repo": "whosonfirst-data-postalcode-gb",
    "wof:superseded_by": [],
    "wof:supersedes": [],
    "wof:tags": []
  },
  "bbox": [
    -3.214898,
    55.94997,
    -3.214898,
    55.94997
  ],
  "geometry": {"coordinates":[-3.214898,55.94997],"type":"Point"}
}
