{
  "id": 1161135946,
  "type": "Feature",
  "properties": {
    "date:cessation_lower": "1996-12-01",
    "date:cessation_upper": "1996-12-01",
    "date:inception_lower": "1995-07-01",
    "date:inception_upper": "1995-07-01",
    "edtf:cessation": "1996-12-01",
    "edtf:inception": "1995-07-01",
    "geom:area": 0,
    "geom:bbox": "-2.167447,53.538846,-2.167447,53.538846",
    "geom:latitude": 53.538846,
    "geom:longitude": -2.167447,
    "iso:country": "GB",
    "mz:hierarchy_label": 1,
    "mz:is_current": 0,
    "os:country_code": "E92000001",
    "os:county_code": "E99999999",
    "os:district_code": "E08000004",
    "os:positional_quality_indicator": "8",
    "os:region_code": "E12000002",
    "src:geom": "os",
    "wof:belongsto": [
      85633159,
      102191581,
      136253055,
      1864208749,
      1360698953,
      1126030435,
      1880762163,
      404227469,
      1880773095
    ],
    "wof:breaches": [],
    "wof:country": "GB",
    "wof:created": 1583805546,
    "wof:geomhash": "23217d0d8dc147c8076380d17428cf41",
    "wof:hierarchy": [
      {
        "continent_id": 102191581,
        "country_id": 85633159,
        "county_id": 1360698953,
        "empire_id": 136253055,
        "locality_id": 1126030435,
        "macrocounty_id": 1880762163,
        "macroregion_id": 404227469,
        "postalcode_id": 1161135946,
        "region_id": 1880773095
      },
      {
        "continent_id": 102191581,
        "country_id": 85633159,
        "empire_id": 136253055,
        "postalcode_id": 1161135946,
        "postalregion_id": 1864208749
      }
    ],
    "wof:id": 1161135946,
    "wof:lastmodified": 1763548348,
    "wof:name": "M24 1GJ",
    "wof:parent_id": 1126030435,
    "wof:placetype": "postalcode",
    "wof:repo": "whosonfirst-data-postalcode-gb",
    "wof:superseded_by": [],
    "wof:supersedes": [],
    "wof:tags": []
  },
  "bbox": [
    -2.167447,
    53.538846,
    -2.167447,
    53.538846
  ],
  "geometry": {"coordinates":[-2.167447,53.538846],"type":"Point"}
}
