{
  "id": 471460397,
  "type": "Feature",
  "properties": {
    "date:inception_lower": "2002-06-01",
    "date:inception_upper": "2002-06-01",
    "edtf:cessation": "",
    "edtf:inception": "2002-06-01",
    "geom:area": 0,
    "geom:bbox": "-0.774349,50.812935,-0.774349,50.812935",
    "geom:latitude": 50.812935,
    "geom:longitude": -0.774349,
    "gp:parent_id": "24158",
    "iso:country": "GB",
    "mz:hierarchy_label": 1,
    "mz:is_current": 1,
    "os:country_code": "E92000001",
    "os:county_code": "E10000032",
    "os:district_code": "E07000225",
    "os:positional_quality_indicator": "1",
    "os:region_code": "E12000008",
    "src:geom": "os",
    "wof:belongsto": [
      85633159,
      102191581,
      136253055,
      1864209939,
      1880771685,
      404431421,
      1125909591,
      1880762061
    ],
    "wof:breaches": [],
    "wof:concordances": {
      "gp:id": "27784912"
    },
    "wof:country": "GB",
    "wof:created": 1583701623,
    "wof:geomhash": "5830b99187b430213e8d0d3c0f078a7c",
    "wof:hierarchy": [
      {
        "continent_id": -1,
        "country_id": -1,
        "county_id": 1880771685,
        "localadmin_id": 404431421,
        "locality_id": 1125909591,
        "macrocounty_id": 1880762061,
        "postalcode_id": 471460397,
        "region_id": -1
      },
      {
        "continent_id": 102191581,
        "country_id": 85633159,
        "empire_id": 136253055,
        "postalcode_id": 471460397,
        "postalregion_id": 1864209939
      }
    ],
    "wof:id": 471460397,
    "wof:lastmodified": 1763548342,
    "wof:name": "PO20 1NR",
    "wof:parent_id": 1125909591,
    "wof:placetype": "postalcode",
    "wof:repo": "whosonfirst-data-postalcode-gb",
    "wof:superseded_by": [],
    "wof:supersedes": [],
    "wof:tags": []
  },
  "bbox": [
    -0.774349,
    50.812935,
    -0.774349,
    50.812935
  ],
  "geometry": {"coordinates":[-0.774349,50.812935],"type":"Point"}
}
