{
  "id": 39249927,
  "type": "Feature",
  "properties": {
    "date:cessation_lower": "1992-07-01",
    "date:cessation_upper": "1992-07-01",
    "date:inception_lower": "1973-08-01",
    "date:inception_upper": "1973-08-01",
    "edtf:cessation": "1992-07-01",
    "edtf:inception": "1973-08-01",
    "geom:area": 0,
    "geom:bbox": "-4.458547,55.844241,-4.458547,55.844241",
    "geom:latitude": 55.844241,
    "geom:longitude": -4.458547,
    "iso:country": "GB",
    "mz:hierarchy_label": 1,
    "mz:is_current": 0,
    "os:country_code": "S92000003",
    "os:county_code": "S99999999",
    "os:district_code": "S12000038",
    "os:positional_quality_indicator": "8",
    "os:region_code": "S99999999",
    "src:geom": "os",
    "wof:belongsto": [
      85633159,
      102191581,
      136253055,
      1864209551,
      1360699097,
      1880762039,
      404227471,
      1880773179
    ],
    "wof:breaches": [],
    "wof:country": "GB",
    "wof:created": 1583799345,
    "wof:geomhash": "6c59331e556b9ef3204ce0b5680382c1",
    "wof:hierarchy": [
      {
        "continent_id": 102191581,
        "country_id": 85633159,
        "county_id": 1360699097,
        "empire_id": 136253055,
        "macrocounty_id": 1880762039,
        "macroregion_id": 404227471,
        "postalcode_id": 39249927,
        "region_id": 1880773179
      },
      {
        "continent_id": 102191581,
        "country_id": 85633159,
        "empire_id": 136253055,
        "postalcode_id": 39249927,
        "postalregion_id": 1864209551
      }
    ],
    "wof:id": 39249927,
    "wof:lastmodified": 1763548380,
    "wof:name": "PA3 1BY",
    "wof:parent_id": 1360699097,
    "wof:placetype": "postalcode",
    "wof:repo": "whosonfirst-data-postalcode-gb",
    "wof:superseded_by": [],
    "wof:supersedes": [],
    "wof:tags": []
  },
  "bbox": [
    -4.458547,
    55.844241,
    -4.458547,
    55.844241
  ],
  "geometry": {"coordinates":[-4.458547,55.844241],"type":"Point"}
}
