{
  "id": 890241031,
  "type": "Feature",
  "properties": {
    "date:inception_lower": "2014-11-01",
    "date:inception_upper": "2014-11-01",
    "edtf:cessation": "",
    "edtf:inception": "2014-11-01",
    "geom:area": 0,
    "geom:bbox": "-0.783172,50.820816,-0.783172,50.820816",
    "geom:latitude": 50.820816,
    "geom:longitude": -0.783172,
    "iso:country": "GB",
    "mz:hierarchy_label": 1,
    "mz:is_current": 1,
    "os:country_code": "E92000001",
    "os:county_code": "E10000032",
    "os:district_code": "E07000225",
    "os:positional_quality_indicator": "1",
    "os:region_code": "E12000008",
    "src:geom": "os",
    "wof:belongsto": [
      85633159,
      102191581,
      136253055,
      1864209935,
      1880771685,
      404449795,
      1125800979,
      1880762061
    ],
    "wof:breaches": [],
    "wof:country": "GB",
    "wof:created": 1468897024,
    "wof:geomhash": "b90dd5de4a8ec8b36f8a7894aa2e57e4",
    "wof:hierarchy": [
      {
        "continent_id": -1,
        "country_id": -1,
        "county_id": 1880771685,
        "localadmin_id": 404449795,
        "locality_id": 1125800979,
        "macrocounty_id": 1880762061,
        "postalcode_id": 890241031,
        "region_id": -1
      },
      {
        "continent_id": 102191581,
        "country_id": 85633159,
        "empire_id": 136253055,
        "postalcode_id": 890241031,
        "postalregion_id": 1864209935
      }
    ],
    "wof:id": 890241031,
    "wof:lastmodified": 1763548617,
    "wof:name": "PO19 8GN",
    "wof:parent_id": 1125800979,
    "wof:placetype": "postalcode",
    "wof:repo": "whosonfirst-data-postalcode-gb",
    "wof:superseded_by": [],
    "wof:supersedes": [],
    "wof:tags": []
  },
  "bbox": [
    -0.783172,
    50.820816,
    -0.783172,
    50.820816
  ],
  "geometry": {"coordinates":[-0.783172,50.820816],"type":"Point"}
}
