{
  "id": 504486597,
  "type": "Feature",
  "properties": {
    "date:inception_lower": "2004-07-01",
    "date:inception_upper": "2004-07-01",
    "edtf:cessation": "",
    "edtf:inception": "2004-07-01",
    "geom:area": 0,
    "geom:bbox": "-3.004742,53.045786,-3.004742,53.045786",
    "geom:latitude": 53.045786,
    "geom:longitude": -3.004742,
    "iso:country": "GB",
    "mz:hierarchy_label": 1,
    "mz:is_current": 1,
    "os:country_code": "W92000004",
    "os:county_code": "W99999999",
    "os:district_code": "W06000006",
    "os:positional_quality_indicator": "1",
    "os:region_code": "W99999999",
    "src:geom": "os",
    "wof:belongsto": [
      85633159,
      102191581,
      136253055,
      1864208451,
      1360698743,
      404444183,
      1360711801,
      1880762183,
      404227475,
      1880772909
    ],
    "wof:breaches": [],
    "wof:concordances": {
      "gp:id": "27486787"
    },
    "wof:country": "GB",
    "wof:created": 1583701373,
    "wof:geomhash": "a1cb7f41c640751fd6c77d0ec8524e3c",
    "wof:hierarchy": [
      {
        "continent_id": 102191581,
        "country_id": 85633159,
        "county_id": 1360698743,
        "empire_id": 136253055,
        "localadmin_id": 404444183,
        "locality_id": 1360711801,
        "macrocounty_id": 1880762183,
        "macroregion_id": 404227475,
        "postalcode_id": 504486597,
        "region_id": 1880772909
      },
      {
        "continent_id": 102191581,
        "country_id": 85633159,
        "empire_id": 136253055,
        "postalcode_id": 504486597,
        "postalregion_id": 1864208451
      }
    ],
    "wof:id": 504486597,
    "wof:lastmodified": 1763548111,
    "wof:name": "LL13 7TF",
    "wof:parent_id": 1360711801,
    "wof:placetype": "postalcode",
    "wof:repo": "whosonfirst-data-postalcode-gb",
    "wof:superseded_by": [],
    "wof:supersedes": [],
    "wof:tags": []
  },
  "bbox": [
    -3.004742,
    53.045786,
    -3.004742,
    53.045786
  ],
  "geometry": {"coordinates":[-3.004742,53.045786],"type":"Point"}
}
