{
  "id": 39748320,
  "type": "Feature",
  "properties": {
    "date:cessation_lower": "2001-05-01",
    "date:cessation_upper": "2001-05-01",
    "date:inception_lower": "2000-12-01",
    "date:inception_upper": "2000-12-01",
    "edtf:cessation": "2001-05-01",
    "edtf:inception": "2000-12-01",
    "geom:area": 0,
    "geom:bbox": "-3.030497,51.821646,-3.030497,51.821646",
    "geom:latitude": 51.821646,
    "geom:longitude": -3.030497,
    "iso:country": "GB",
    "mz:hierarchy_label": 1,
    "mz:is_current": 0,
    "os:country_code": "W92000004",
    "os:county_code": "W99999999",
    "os:district_code": "W06000021",
    "os:positional_quality_indicator": "5",
    "os:region_code": "W99999999",
    "src:geom": "os",
    "wof:belongsto": [
      85633159,
      102191581,
      136253055,
      1864209295,
      1360699109,
      404430819,
      101852897,
      1880762173,
      404227475,
      1880773189
    ],
    "wof:breaches": [],
    "wof:country": "GB",
    "wof:created": 1583804893,
    "wof:geomhash": "4de451c2dbbd0ad1ea657721cb04fcb7",
    "wof:hierarchy": [
      {
        "continent_id": 102191581,
        "country_id": 85633159,
        "county_id": 1360699109,
        "empire_id": 136253055,
        "localadmin_id": 404430819,
        "locality_id": 101852897,
        "macrocounty_id": 1880762173,
        "macroregion_id": 404227475,
        "postalcode_id": 39748320,
        "region_id": 1880773189
      },
      {
        "continent_id": 102191581,
        "country_id": 85633159,
        "empire_id": 136253055,
        "postalcode_id": 39748320,
        "postalregion_id": 1864209295
      }
    ],
    "wof:id": 39748320,
    "wof:lastmodified": 1763547902,
    "wof:name": "NP7 7YP",
    "wof:parent_id": 101852897,
    "wof:placetype": "postalcode",
    "wof:repo": "whosonfirst-data-postalcode-gb",
    "wof:superseded_by": [],
    "wof:supersedes": [],
    "wof:tags": []
  },
  "bbox": [
    -3.030497,
    51.821646,
    -3.030497,
    51.821646
  ],
  "geometry": {"coordinates":[-3.030497,51.821646],"type":"Point"}
}
