{
  "id": 454563311,
  "type": "Feature",
  "properties": {
    "date:inception_lower": "1986-07-01",
    "date:inception_upper": "1986-07-01",
    "edtf:cessation": "",
    "edtf:inception": "1986-07-01",
    "geom:area": 0,
    "geom:bbox": "-3.483705,50.725720,-3.483705,50.725720",
    "geom:latitude": 50.72572,
    "geom:longitude": -3.483705,
    "gp:parent_id": "28835937",
    "iso:country": "GB",
    "mz:hierarchy_label": 1,
    "mz:is_current": 1,
    "os:country_code": "E92000001",
    "os:county_code": "E10000008",
    "os:district_code": "E07000041",
    "os:positional_quality_indicator": "1",
    "os:region_code": "E12000009",
    "src:geom": "os",
    "wof:belongsto": [
      85633159,
      102191581,
      136253055,
      1864207177,
      1880771405,
      101750383,
      1880762149,
      404227469,
      1880762683
    ],
    "wof:breaches": [],
    "wof:concordances": {
      "gp:id": "26626669"
    },
    "wof:country": "GB",
    "wof:created": 1583701638,
    "wof:geomhash": "88ce2cdfb141d0b6c76ab89ce4ab7b7c",
    "wof:hierarchy": [
      {
        "continent_id": 102191581,
        "country_id": 85633159,
        "county_id": 1880771405,
        "empire_id": 136253055,
        "locality_id": 101750383,
        "macrocounty_id": 1880762149,
        "macroregion_id": 404227469,
        "postalcode_id": 454563311,
        "region_id": 1880762683
      },
      {
        "continent_id": 102191581,
        "country_id": 85633159,
        "empire_id": 136253055,
        "postalcode_id": 454563311,
        "postalregion_id": 1864207177
      }
    ],
    "wof:id": 454563311,
    "wof:lastmodified": 1763548448,
    "wof:name": "EX1 3UB",
    "wof:parent_id": 101750383,
    "wof:placetype": "postalcode",
    "wof:repo": "whosonfirst-data-postalcode-gb",
    "wof:superseded_by": [],
    "wof:supersedes": [],
    "wof:tags": []
  },
  "bbox": [
    -3.483705,
    50.72572,
    -3.483705,
    50.72572
  ],
  "geometry": {"coordinates":[-3.483705,50.72572],"type":"Point"}
}
