{
  "id": 1160854512,
  "type": "Feature",
  "properties": {
    "date:cessation_lower": "1996-06-01",
    "date:cessation_upper": "1996-06-01",
    "date:inception_lower": "1982-03-01",
    "date:inception_upper": "1982-03-01",
    "edtf:cessation": "1996-06-01",
    "edtf:inception": "1982-03-01",
    "geom:area": 0,
    "geom:bbox": "-2.066170,52.453951,-2.066170,52.453951",
    "geom:latitude": 52.453951,
    "geom:longitude": -2.06617,
    "iso:country": "GB",
    "mz:hierarchy_label": 1,
    "mz:is_current": 0,
    "os:country_code": "E92000001",
    "os:county_code": "E99999999",
    "os:district_code": "E08000027",
    "os:positional_quality_indicator": "8",
    "os:region_code": "E12000005",
    "src:geom": "os",
    "wof:belongsto": [
      85633159,
      102191581,
      136253055,
      1864205581,
      1360698933,
      1360817295,
      1126020695,
      1880762069,
      404227469,
      1880773161
    ],
    "wof:breaches": [],
    "wof:country": "GB",
    "wof:created": 1583792927,
    "wof:geomhash": "3f115b2c6e44cf5c27bab3660d0b118c",
    "wof:hierarchy": [
      {
        "continent_id": 102191581,
        "country_id": 85633159,
        "county_id": 1360698933,
        "empire_id": 136253055,
        "localadmin_id": 1360817295,
        "locality_id": 1126020695,
        "macrocounty_id": 1880762069,
        "macroregion_id": 404227469,
        "postalcode_id": 1160854512,
        "region_id": 1880773161
      },
      {
        "continent_id": 102191581,
        "country_id": 85633159,
        "empire_id": 136253055,
        "postalcode_id": 1160854512,
        "postalregion_id": 1864205581
      }
    ],
    "wof:id": 1160854512,
    "wof:lastmodified": 1763548230,
    "wof:name": "B63 3UU",
    "wof:parent_id": 1126020695,
    "wof:placetype": "postalcode",
    "wof:repo": "whosonfirst-data-postalcode-gb",
    "wof:superseded_by": [],
    "wof:supersedes": [],
    "wof:tags": []
  },
  "bbox": [
    -2.06617,
    52.453951,
    -2.06617,
    52.453951
  ],
  "geometry": {"coordinates":[-2.06617,52.453951],"type":"Point"}
}
