{
  "id": 437703605,
  "type": "Feature",
  "properties": {
    "date:cessation_lower": "2006-01-01",
    "date:cessation_upper": "2006-01-01",
    "date:inception_lower": "2001-12-01",
    "date:inception_upper": "2001-12-01",
    "edtf:cessation": "2006-01-01",
    "edtf:inception": "2001-12-01",
    "geom:area": 0,
    "geom:bbox": "-1.149616,50.804726,-1.149616,50.804726",
    "geom:latitude": 50.804726,
    "geom:longitude": -1.149616,
    "iso:country": "GB",
    "mz:hierarchy_label": 1,
    "mz:is_current": 0,
    "os:country_code": "E92000001",
    "os:county_code": "E10000014",
    "os:district_code": "E07000088",
    "os:positional_quality_indicator": "1",
    "os:region_code": "E12000008",
    "src:geom": "os",
    "wof:belongsto": [
      85633159,
      102191581,
      136253055,
      1864209921,
      1880771473,
      101750359,
      1880762155,
      404227469,
      1880762717
    ],
    "wof:breaches": [],
    "wof:concordances": {
      "gp:id": "28251325"
    },
    "wof:country": "GB",
    "wof:created": 1583701498,
    "wof:geomhash": "d4d9f0c0942fac5052f9d821b465e7cb",
    "wof:hierarchy": [
      {
        "continent_id": 102191581,
        "country_id": 85633159,
        "county_id": 1880771473,
        "empire_id": 136253055,
        "locality_id": 101750359,
        "macrocounty_id": 1880762155,
        "macroregion_id": 404227469,
        "postalcode_id": 437703605,
        "region_id": 1880762717
      },
      {
        "continent_id": 102191581,
        "country_id": 85633159,
        "empire_id": 136253055,
        "postalcode_id": 437703605,
        "postalregion_id": 1864209921
      }
    ],
    "wof:id": 437703605,
    "wof:lastmodified": 1763548155,
    "wof:name": "PO13 9WA",
    "wof:parent_id": 101750359,
    "wof:placetype": "postalcode",
    "wof:repo": "whosonfirst-data-postalcode-gb",
    "wof:superseded_by": [],
    "wof:supersedes": [],
    "wof:tags": []
  },
  "bbox": [
    -1.149616,
    50.804726,
    -1.149616,
    50.804726
  ],
  "geometry": {"coordinates":[-1.149616,50.804726],"type":"Point"}
}
