{
  "id": 488070741,
  "type": "Feature",
  "properties": {
    "date:inception_lower": "1980-01-01",
    "date:inception_upper": "1980-01-01",
    "edtf:cessation": "",
    "edtf:inception": "1980-01-01",
    "geom:area": 0,
    "geom:bbox": "-2.386766,53.252193,-2.386766,53.252193",
    "geom:latitude": 53.252193,
    "geom:longitude": -2.386766,
    "gp:parent_id": "10653",
    "iso:country": "GB",
    "mz:hierarchy_label": 1,
    "mz:is_current": 1,
    "os:country_code": "E92000001",
    "os:county_code": "E99999999",
    "os:district_code": "E06000050",
    "os:positional_quality_indicator": "1",
    "os:region_code": "E12000002",
    "src:geom": "os",
    "wof:belongsto": [
      85633159,
      102191581,
      136253055,
      1864211467,
      1360698923,
      1880762135,
      404227469,
      1880773021,
      404444071,
      1360758669
    ],
    "wof:breaches": [],
    "wof:concordances": {
      "gp:id": "28132512"
    },
    "wof:country": "GB",
    "wof:created": 1583701228,
    "wof:geomhash": "9098926859650d89fe34c22e3f6a3559",
    "wof:hierarchy": [
      {
        "continent_id": 102191581,
        "country_id": 85633159,
        "county_id": 1360698923,
        "empire_id": 136253055,
        "localadmin_id": 404444071,
        "locality_id": 1360758669,
        "macrocounty_id": 1880762135,
        "macroregion_id": 404227469,
        "postalcode_id": 488070741,
        "region_id": 1880773021
      },
      {
        "continent_id": 102191581,
        "country_id": 85633159,
        "empire_id": 136253055,
        "postalcode_id": 488070741,
        "postalregion_id": 1864211467
      }
    ],
    "wof:id": 488070741,
    "wof:lastmodified": 1763548450,
    "wof:name": "WA16 9JF",
    "wof:parent_id": 1360758669,
    "wof:placetype": "postalcode",
    "wof:repo": "whosonfirst-data-postalcode-gb",
    "wof:superseded_by": [],
    "wof:supersedes": [],
    "wof:tags": []
  },
  "bbox": [
    -2.386766,
    53.252193,
    -2.386766,
    53.252193
  ],
  "geometry": {"coordinates":[-2.386766,53.252193],"type":"Point"}
}
