{
  "id": 39624255,
  "type": "Feature",
  "properties": {
    "date:cessation_lower": "1998-06-01",
    "date:cessation_upper": "1998-06-01",
    "date:inception_lower": "1980-01-01",
    "date:inception_upper": "1980-01-01",
    "edtf:cessation": "1998-06-01",
    "edtf:inception": "1980-01-01",
    "geom:area": 0,
    "geom:bbox": "-1.242427,53.957730,-1.242427,53.957730",
    "geom:latitude": 53.95773,
    "geom:longitude": -1.242427,
    "iso:country": "GB",
    "mz:hierarchy_label": 1,
    "mz:is_current": 0,
    "os:country_code": "E92000001",
    "os:county_code": "E99999999",
    "os:district_code": "E06000065",
    "os:positional_quality_indicator": "1",
    "os:region_code": "E12000003",
    "src:geom": "os",
    "wof:belongsto": [
      102191581,
      85633159,
      1360698753,
      136253055,
      404451939,
      1125862643,
      1880762011,
      404227469,
      1880772891
    ],
    "wof:breaches": [],
    "wof:country": "GB",
    "wof:created": 1583803508,
    "wof:geomhash": "fbeb68ae6889a095b1334ccca6f8e453",
    "wof:hierarchy": [
      {
        "continent_id": 102191581,
        "country_id": 85633159,
        "county_id": 1360698753,
        "empire_id": 136253055,
        "localadmin_id": 404451939,
        "locality_id": 1125862643,
        "macrocounty_id": 1880762011,
        "macroregion_id": 404227469,
        "postalcode_id": 39624255,
        "region_id": 1880772891
      }
    ],
    "wof:id": 39624255,
    "wof:lastmodified": 1763547894,
    "wof:name": "YO5 8PH",
    "wof:parent_id": 1125862643,
    "wof:placetype": "postalcode",
    "wof:repo": "whosonfirst-data-postalcode-gb",
    "wof:superseded_by": [],
    "wof:supersedes": [],
    "wof:tags": []
  },
  "bbox": [
    -1.242427,
    53.95773,
    -1.242427,
    53.95773
  ],
  "geometry": {"coordinates":[-1.242427,53.95773],"type":"Point"}
}
