{
  "id": 454982863,
  "type": "Feature",
  "properties": {
    "date:inception_lower": "1995-01-01",
    "date:inception_upper": "1995-01-01",
    "edtf:cessation": "",
    "edtf:inception": "1995-01-01",
    "geom:area": 0,
    "geom:bbox": "-3.094589,54.195046,-3.094589,54.195046",
    "geom:latitude": 54.195046,
    "geom:longitude": -3.094589,
    "iso:country": "GB",
    "mz:hierarchy_label": 1,
    "mz:is_current": 1,
    "os:country_code": "E92000001",
    "os:county_code": "E99999999",
    "os:district_code": "E06000064",
    "os:positional_quality_indicator": "1",
    "os:region_code": "E12000002",
    "src:geom": "os",
    "wof:belongsto": [
      85633159,
      102191581,
      136253055,
      1864208327,
      1880773235,
      404432323,
      101873381,
      1880761989,
      404227469,
      1880773269
    ],
    "wof:breaches": [],
    "wof:concordances": {
      "gp:id": "26379279"
    },
    "wof:country": "GB",
    "wof:created": 1583701766,
    "wof:geomhash": "082c255c0a7f140be7de05a2657619b9",
    "wof:hierarchy": [
      {
        "continent_id": 102191581,
        "country_id": 85633159,
        "county_id": 1880773235,
        "empire_id": 136253055,
        "localadmin_id": 404432323,
        "locality_id": 101873381,
        "macrocounty_id": 1880761989,
        "macroregion_id": 404227469,
        "postalcode_id": 454982863,
        "region_id": 1880773269
      },
      {
        "continent_id": 102191581,
        "country_id": 85633159,
        "empire_id": 136253055,
        "postalcode_id": 454982863,
        "postalregion_id": 1864208327
      }
    ],
    "wof:id": 454982863,
    "wof:lastmodified": 1763548420,
    "wof:name": "LA12 7LF",
    "wof:parent_id": 101873381,
    "wof:placetype": "postalcode",
    "wof:repo": "whosonfirst-data-postalcode-gb",
    "wof:superseded_by": [],
    "wof:supersedes": [],
    "wof:tags": []
  },
  "bbox": [
    -3.094589,
    54.195046,
    -3.094589,
    54.195046
  ],
  "geometry": {"coordinates":[-3.094589,54.195046],"type":"Point"}
}
