{
  "id": 471549817,
  "type": "Feature",
  "properties": {
    "date:inception_lower": "2002-07-01",
    "date:inception_upper": "2002-07-01",
    "edtf:cessation": "",
    "edtf:inception": "2002-07-01",
    "geom:area": 0,
    "geom:bbox": "-0.904356,51.467032,-0.904356,51.467032",
    "geom:latitude": 51.467032,
    "geom:longitude": -0.904356,
    "iso:country": "GB",
    "mz:hierarchy_label": 1,
    "mz:is_current": 1,
    "os:country_code": "E92000001",
    "os:county_code": "E99999999",
    "os:district_code": "E06000041",
    "os:positional_quality_indicator": "1",
    "os:region_code": "E12000008",
    "src:geom": "os",
    "wof:belongsto": [
      85633159,
      102191581,
      136253055,
      1864210061,
      1360698967,
      404435589,
      1125984869,
      1880762165,
      404227469,
      1880772969
    ],
    "wof:breaches": [],
    "wof:concordances": {
      "gp:id": "27815890"
    },
    "wof:country": "GB",
    "wof:created": 1583701669,
    "wof:geomhash": "7ebd4a844c696741d3fd19a79983cc4d",
    "wof:hierarchy": [
      {
        "continent_id": 102191581,
        "country_id": 85633159,
        "county_id": 1360698967,
        "empire_id": 136253055,
        "localadmin_id": 404435589,
        "locality_id": 1125984869,
        "macrocounty_id": 1880762165,
        "macroregion_id": 404227469,
        "postalcode_id": 471549817,
        "region_id": 1880772969
      },
      {
        "continent_id": 102191581,
        "country_id": 85633159,
        "empire_id": 136253055,
        "postalcode_id": 471549817,
        "postalregion_id": 1864210061
      }
    ],
    "wof:id": 471549817,
    "wof:lastmodified": 1763548394,
    "wof:name": "RG4 6BB",
    "wof:parent_id": 1125984869,
    "wof:placetype": "postalcode",
    "wof:repo": "whosonfirst-data-postalcode-gb",
    "wof:superseded_by": [],
    "wof:supersedes": [],
    "wof:tags": []
  },
  "bbox": [
    -0.904356,
    51.467032,
    -0.904356,
    51.467032
  ],
  "geometry": {"coordinates":[-0.904356,51.467032],"type":"Point"}
}
