{
  "id": 438148819,
  "type": "Feature",
  "properties": {
    "date:inception_lower": "1988-03-01",
    "date:inception_upper": "1988-03-01",
    "edtf:cessation": "",
    "edtf:inception": "1988-03-01",
    "geom:area": 0,
    "geom:bbox": "-1.904901,50.740870,-1.904901,50.740870",
    "geom:latitude": 50.74087,
    "geom:longitude": -1.904901,
    "gp:parent_id": "32326",
    "iso:country": "GB",
    "mz:hierarchy_label": 1,
    "mz:is_current": 1,
    "os:country_code": "E92000001",
    "os:county_code": "E99999999",
    "os:district_code": "E06000058",
    "os:positional_quality_indicator": "1",
    "os:region_code": "E12000009",
    "src:geom": "os",
    "wof:belongsto": [
      85633159,
      102191581,
      136253055,
      1864205791,
      1880773233,
      101750309,
      1880762151,
      404227469,
      1880772881
    ],
    "wof:breaches": [],
    "wof:concordances": {
      "gp:id": "26755819"
    },
    "wof:country": "GB",
    "wof:created": 1583701342,
    "wof:geomhash": "7eb0edcb6741bedf4b825d4853adb565",
    "wof:hierarchy": [
      {
        "continent_id": 102191581,
        "country_id": 85633159,
        "county_id": 1880773233,
        "empire_id": 136253055,
        "locality_id": 101750309,
        "macrocounty_id": 1880762151,
        "macroregion_id": 404227469,
        "postalcode_id": 438148819,
        "region_id": 1880772881
      },
      {
        "continent_id": 102191581,
        "country_id": 85633159,
        "empire_id": 136253055,
        "postalcode_id": 438148819,
        "postalregion_id": 1864205791
      }
    ],
    "wof:id": 438148819,
    "wof:lastmodified": 1763548146,
    "wof:name": "BH12 5ER",
    "wof:parent_id": 101750309,
    "wof:placetype": "postalcode",
    "wof:repo": "whosonfirst-data-postalcode-gb",
    "wof:superseded_by": [],
    "wof:supersedes": [],
    "wof:tags": []
  },
  "bbox": [
    -1.904901,
    50.74087,
    -1.904901,
    50.74087
  ],
  "geometry": {"coordinates":[-1.904901,50.74087],"type":"Point"}
}
