{
  "id": 874486965,
  "type": "Feature",
  "properties": {
    "date:inception_lower": "2014-10-01",
    "date:inception_upper": "2014-10-01",
    "edtf:cessation": "",
    "edtf:inception": "2014-10-01",
    "geom:area": 0,
    "geom:bbox": "0.546695,51.407650,0.546695,51.407650",
    "geom:latitude": 51.40765,
    "geom:longitude": 0.546695,
    "iso:country": "GB",
    "mz:hierarchy_label": 1,
    "mz:is_current": 1,
    "os:country_code": "E92000001",
    "os:county_code": "E99999999",
    "os:district_code": "E06000035",
    "os:positional_quality_indicator": "1",
    "os:region_code": "E12000008",
    "src:geom": "os",
    "wof:belongsto": [
      85633159,
      102191581,
      136253055,
      1864208849,
      1360699105,
      1360817083,
      101750327,
      1880762057,
      404227469,
      1880762705
    ],
    "wof:breaches": [],
    "wof:country": "GB",
    "wof:created": 1468888635,
    "wof:geomhash": "22c7737406a26186aeb5edb2b0107c53",
    "wof:hierarchy": [
      {
        "continent_id": 102191581,
        "country_id": 85633159,
        "county_id": 1360699105,
        "empire_id": 136253055,
        "localadmin_id": 1360817083,
        "locality_id": 101750327,
        "macrocounty_id": 1880762057,
        "macroregion_id": 404227469,
        "postalcode_id": 874486965,
        "region_id": 1880762705
      },
      {
        "continent_id": 102191581,
        "country_id": 85633159,
        "empire_id": 136253055,
        "postalcode_id": 874486965,
        "postalregion_id": 1864208849
      }
    ],
    "wof:id": 874486965,
    "wof:lastmodified": 1763547965,
    "wof:name": "ME4 3JH",
    "wof:parent_id": 101750327,
    "wof:placetype": "postalcode",
    "wof:repo": "whosonfirst-data-postalcode-gb",
    "wof:superseded_by": [],
    "wof:supersedes": [],
    "wof:tags": []
  },
  "bbox": [
    0.546695,
    51.40765,
    0.546695,
    51.40765
  ],
  "geometry": {"coordinates":[0.546695,51.40765],"type":"Point"}
}
