{
  "id": 1880447963,
  "type": "Feature",
  "properties": {
    "date:inception_lower": "2023-07-01",
    "date:inception_upper": "2023-07-01",
    "edtf:cessation": "",
    "edtf:inception": "2023-07-01",
    "geom:area": 0,
    "geom:bbox": "-2.704033,54.746627,-2.704033,54.746627",
    "geom:latitude": 54.746627,
    "geom:longitude": -2.704033,
    "iso:country": "GB",
    "mz:hierarchy_label": 1,
    "mz:is_current": 1,
    "os:country_code": "E92000001",
    "os:county_code": "E99999999",
    "os:district_code": "E06000064",
    "os:positional_quality_indicator": "1",
    "os:region_code": "E12000002",
    "src:geom": "os",
    "wof:belongsto": [
      102191581,
      85633159,
      136253055,
      1864206055,
      1880773235,
      404451167,
      1125909655,
      1880761989,
      404227469,
      1880773269
    ],
    "wof:breaches": [],
    "wof:country": "GB",
    "wof:created": 1695222552,
    "wof:geomhash": "7dafa26e13fc66ae209e84a40b193c7b",
    "wof:hierarchy": [
      {
        "continent_id": 102191581,
        "country_id": 85633159,
        "county_id": 1880773235,
        "empire_id": 136253055,
        "localadmin_id": 404451167,
        "locality_id": 1125909655,
        "macrocounty_id": 1880761989,
        "macroregion_id": 404227469,
        "postalcode_id": 1880447963,
        "region_id": 1880773269
      },
      {
        "continent_id": 102191581,
        "country_id": 85633159,
        "empire_id": 136253055,
        "postalcode_id": 1880447963,
        "postalregion_id": 1864206055
      }
    ],
    "wof:id": 1880447963,
    "wof:lastmodified": 1763548359,
    "wof:name": "CA10 1FR",
    "wof:parent_id": 1125909655,
    "wof:placetype": "postalcode",
    "wof:repo": "whosonfirst-data-postalcode-gb",
    "wof:superseded_by": [],
    "wof:supersedes": [],
    "wof:tags": []
  },
  "bbox": [
    -2.704033,
    54.746627,
    -2.704033,
    54.746627
  ],
  "geometry": {"coordinates":[-2.704033,54.746627],"type":"Point"}
}
