{
  "id": 437860175,
  "type": "Feature",
  "properties": {
    "date:cessation_lower": "2004-08-01",
    "date:cessation_upper": "2004-08-01",
    "date:inception_lower": "2002-06-01",
    "date:inception_upper": "2002-06-01",
    "edtf:cessation": "2004-08-01",
    "edtf:inception": "2002-06-01",
    "geom:area": 0,
    "geom:bbox": "-1.355423,51.846950,-1.355423,51.846950",
    "geom:latitude": 51.84695,
    "geom:longitude": -1.355423,
    "iso:country": "GB",
    "mz:hierarchy_label": 1,
    "mz:is_current": 0,
    "os:country_code": "E92000001",
    "os:county_code": "E10000025",
    "os:district_code": "E07000181",
    "os:positional_quality_indicator": "5",
    "os:region_code": "E12000008",
    "src:geom": "os",
    "wof:belongsto": [
      85633159,
      102191581,
      136253055,
      1864209469,
      1880771615,
      404436939,
      101852961,
      1880762079,
      404227469,
      1880762695
    ],
    "wof:breaches": [],
    "wof:concordances": {
      "gp:id": "28915062"
    },
    "wof:country": "GB",
    "wof:created": 1583701596,
    "wof:geomhash": "1c170bb78a78c65cfdd54a3bb801f306",
    "wof:hierarchy": [
      {
        "continent_id": 102191581,
        "country_id": 85633159,
        "county_id": 1880771615,
        "empire_id": 136253055,
        "localadmin_id": 404436939,
        "locality_id": 101852961,
        "macrocounty_id": 1880762079,
        "macroregion_id": 404227469,
        "postalcode_id": 437860175,
        "region_id": 1880762695
      },
      {
        "continent_id": 102191581,
        "country_id": 85633159,
        "empire_id": 136253055,
        "postalcode_id": 437860175,
        "postalregion_id": 1864209469
      }
    ],
    "wof:id": 437860175,
    "wof:lastmodified": 1763548065,
    "wof:name": "OX20 1WE",
    "wof:parent_id": 101852961,
    "wof:placetype": "postalcode",
    "wof:repo": "whosonfirst-data-postalcode-gb",
    "wof:superseded_by": [],
    "wof:supersedes": [],
    "wof:tags": []
  },
  "bbox": [
    -1.355423,
    51.84695,
    -1.355423,
    51.84695
  ],
  "geometry": {"coordinates":[-1.355423,51.84695],"type":"Point"}
}
