{
  "id": 1712756811,
  "type": "Feature",
  "properties": {
    "date:cessation_lower": "2000-09-01",
    "date:cessation_upper": "2000-09-01",
    "date:inception_lower": "1998-09-01",
    "date:inception_upper": "1998-09-01",
    "edtf:cessation": "2000-09-01",
    "edtf:inception": "1998-09-01",
    "geom:area": 0,
    "geom:bbox": "-2.452427,53.802359,-2.452427,53.802359",
    "geom:latitude": 53.802359,
    "geom:longitude": -2.452427,
    "iso:country": "GB",
    "mz:hierarchy_label": 1,
    "mz:is_current": 0,
    "os:country_code": "E92000001",
    "os:county_code": "E10000017",
    "os:district_code": "E07000124",
    "os:positional_quality_indicator": "8",
    "os:region_code": "E12000002",
    "src:geom": "os",
    "wof:belongsto": [
      85633159,
      102191581,
      136253055,
      1864205713,
      1880771549,
      404441985,
      1360757437,
      1880762053,
      404227469,
      1880762711
    ],
    "wof:breaches": [],
    "wof:country": "GB",
    "wof:created": 1583802211,
    "wof:geomhash": "78d720ee99b14564aeeae23bd95c0e84",
    "wof:hierarchy": [
      {
        "continent_id": 102191581,
        "country_id": 85633159,
        "county_id": 1880771549,
        "empire_id": 136253055,
        "localadmin_id": 404441985,
        "locality_id": 1360757437,
        "macrocounty_id": 1880762053,
        "macroregion_id": 404227469,
        "postalcode_id": 1712756811,
        "region_id": 1880762711
      },
      {
        "continent_id": 102191581,
        "country_id": 85633159,
        "empire_id": 136253055,
        "postalcode_id": 1712756811,
        "postalregion_id": 1864205713
      }
    ],
    "wof:id": 1712756811,
    "wof:lastmodified": 1763548679,
    "wof:name": "BB6 8GE",
    "wof:parent_id": 1360757437,
    "wof:placetype": "postalcode",
    "wof:repo": "whosonfirst-data-postalcode-gb",
    "wof:superseded_by": [],
    "wof:supersedes": [],
    "wof:tags": []
  },
  "bbox": [
    -2.452427,
    53.802359,
    -2.452427,
    53.802359
  ],
  "geometry": {"coordinates":[-2.452427,53.802359],"type":"Point"}
}
