{
  "id": 470967573,
  "type": "Feature",
  "properties": {
    "date:inception_lower": "2025-05-01",
    "date:inception_upper": "2025-05-01",
    "edtf:cessation": "",
    "edtf:inception": "2025-05-01",
    "geom:area": 0,
    "geom:bbox": "-0.658022,52.018772,-0.658022,52.018772",
    "geom:latitude": 52.018772,
    "geom:longitude": -0.658022,
    "gp:parent_id": "39351",
    "iso:country": "GB",
    "mz:hierarchy_label": 1,
    "mz:is_current": 1,
    "os:country_code": "E92000001",
    "os:county_code": "E99999999",
    "os:district_code": "E06000042",
    "os:positional_quality_indicator": "1",
    "os:region_code": "E12000008",
    "src:geom": "os",
    "wof:belongsto": [
      85633159,
      102191581,
      136253055,
      1864208881,
      1360698913,
      1880762141,
      404227469,
      1880773087,
      404432191,
      1126060229
    ],
    "wof:breaches": [],
    "wof:concordances": {
      "gp:id": "27572773"
    },
    "wof:country": "GB",
    "wof:created": 1583701344,
    "wof:geomhash": "25ebdf351e9b7c219eba7c2549f13b3e",
    "wof:hierarchy": [
      {
        "continent_id": 102191581,
        "country_id": 85633159,
        "county_id": 1360698913,
        "empire_id": 136253055,
        "localadmin_id": 404432191,
        "locality_id": 1126060229,
        "macrocounty_id": 1880762141,
        "macroregion_id": 404227469,
        "postalcode_id": 470967573,
        "region_id": 1880773087
      },
      {
        "continent_id": 102191581,
        "country_id": 85633159,
        "empire_id": 136253055,
        "postalcode_id": 470967573,
        "postalregion_id": 1864208881
      }
    ],
    "wof:id": 470967573,
    "wof:lastmodified": 1763548003,
    "wof:name": "MK17 8LQ",
    "wof:parent_id": 1126060229,
    "wof:placetype": "postalcode",
    "wof:repo": "whosonfirst-data-postalcode-gb",
    "wof:superseded_by": [],
    "wof:supersedes": [],
    "wof:tags": []
  },
  "bbox": [
    -0.658022,
    52.018772,
    -0.658022,
    52.018772
  ],
  "geometry": {"coordinates":[-0.658022,52.018772],"type":"Point"}
}
