{
  "id": 504531275,
  "type": "Feature",
  "properties": {
    "date:inception_lower": "1999-06-01",
    "date:inception_upper": "1999-06-01",
    "edtf:cessation": "",
    "edtf:inception": "1999-06-01",
    "geom:area": 0,
    "geom:bbox": "-3.082003,51.567368,-3.082003,51.567368",
    "geom:latitude": 51.567368,
    "geom:longitude": -3.082003,
    "gp:parent_id": "33176",
    "iso:country": "GB",
    "mz:hierarchy_label": 1,
    "mz:is_current": 1,
    "os:country_code": "W92000004",
    "os:county_code": "W99999999",
    "os:district_code": "W06000022",
    "os:positional_quality_indicator": "1",
    "os:region_code": "W99999999",
    "src:geom": "os",
    "wof:belongsto": [
      85633159,
      102191581,
      136253055,
      1864209259,
      1360699025,
      404441965,
      1125891613,
      1880762185,
      404227475,
      1880773115
    ],
    "wof:breaches": [],
    "wof:concordances": {
      "gp:id": "27663019"
    },
    "wof:country": "GB",
    "wof:created": 1583701407,
    "wof:geomhash": "5dc5cd105e73869357cb8d6c8c60ec70",
    "wof:hierarchy": [
      {
        "continent_id": 102191581,
        "country_id": 85633159,
        "county_id": 1360699025,
        "empire_id": 136253055,
        "localadmin_id": 404441965,
        "locality_id": 1125891613,
        "macrocounty_id": 1880762185,
        "macroregion_id": 404227475,
        "postalcode_id": 504531275,
        "region_id": 1880773115
      },
      {
        "continent_id": 102191581,
        "country_id": 85633159,
        "empire_id": 136253055,
        "postalcode_id": 504531275,
        "postalregion_id": 1864209259
      }
    ],
    "wof:id": 504531275,
    "wof:lastmodified": 1763548083,
    "wof:name": "NP10 8RT",
    "wof:parent_id": 1125891613,
    "wof:placetype": "postalcode",
    "wof:repo": "whosonfirst-data-postalcode-gb",
    "wof:superseded_by": [],
    "wof:supersedes": [],
    "wof:tags": []
  },
  "bbox": [
    -3.082003,
    51.567368,
    -3.082003,
    51.567368
  ],
  "geometry": {"coordinates":[-3.082003,51.567368],"type":"Point"}
}
