{
  "id": 38789217,
  "type": "Feature",
  "properties": {
    "date:cessation_lower": "1995-07-01",
    "date:cessation_upper": "1995-07-01",
    "date:inception_lower": "1980-01-01",
    "date:inception_upper": "1980-01-01",
    "edtf:cessation": "1995-07-01",
    "edtf:inception": "1980-01-01",
    "geom:area": 0,
    "geom:bbox": "-1.779123,53.643023,-1.779123,53.643023",
    "geom:latitude": 53.643023,
    "geom:longitude": -1.779123,
    "iso:country": "GB",
    "mz:hierarchy_label": 1,
    "mz:is_current": 0,
    "os:country_code": "E92000001",
    "os:county_code": "E99999999",
    "os:district_code": "E08000034",
    "os:positional_quality_indicator": "8",
    "os:region_code": "E12000003",
    "src:geom": "os",
    "wof:belongsto": [
      85633159,
      102191581,
      136253055,
      1864207609,
      1360698917,
      101750573,
      1880762059,
      404227469,
      1880773017
    ],
    "wof:breaches": [],
    "wof:country": "GB",
    "wof:created": 1583794302,
    "wof:geomhash": "094b0e8ef2673a929c0fe48d1b1e598d",
    "wof:hierarchy": [
      {
        "continent_id": 102191581,
        "country_id": 85633159,
        "county_id": 1360698917,
        "empire_id": 136253055,
        "locality_id": 101750573,
        "macrocounty_id": 1880762059,
        "macroregion_id": 404227469,
        "postalcode_id": 38789217,
        "region_id": 1880773017
      },
      {
        "continent_id": 102191581,
        "country_id": 85633159,
        "empire_id": 136253055,
        "postalcode_id": 38789217,
        "postalregion_id": 1864207609
      }
    ],
    "wof:id": 38789217,
    "wof:lastmodified": 1763548625,
    "wof:name": "HD1 3DJ",
    "wof:parent_id": 101750573,
    "wof:placetype": "postalcode",
    "wof:repo": "whosonfirst-data-postalcode-gb",
    "wof:superseded_by": [],
    "wof:supersedes": [],
    "wof:tags": []
  },
  "bbox": [
    -1.779123,
    53.643023,
    -1.779123,
    53.643023
  ],
  "geometry": {"coordinates":[-1.779123,53.643023],"type":"Point"}
}
