{
  "id": 1712585901,
  "type": "Feature",
  "properties": {
    "date:cessation_lower": "2012-12-01",
    "date:cessation_upper": "2012-12-01",
    "date:inception_lower": "2010-11-01",
    "date:inception_upper": "2010-11-01",
    "edtf:cessation": "2012-12-01",
    "edtf:inception": "2010-11-01",
    "geom:area": 0,
    "geom:bbox": "-2.096255,57.185038,-2.096255,57.185038",
    "geom:latitude": 57.185038,
    "geom:longitude": -2.096255,
    "iso:country": "GB",
    "mz:hierarchy_label": 1,
    "mz:is_current": 0,
    "os:country_code": "S92000003",
    "os:county_code": "S99999999",
    "os:district_code": "S12000033",
    "os:positional_quality_indicator": "1",
    "os:region_code": "S99999999",
    "src:geom": "os",
    "wof:belongsto": [
      85633159,
      102191581,
      136253055,
      1864205399,
      1360698989,
      1880762093,
      404227471,
      1880773079
    ],
    "wof:breaches": [],
    "wof:country": "GB",
    "wof:created": 1583794612,
    "wof:geomhash": "be5fd83f4433ef3027455b8fe33fbf89",
    "wof:hierarchy": [
      {
        "continent_id": 102191581,
        "country_id": 85633159,
        "county_id": 1360698989,
        "empire_id": 136253055,
        "macrocounty_id": 1880762093,
        "macroregion_id": 404227471,
        "postalcode_id": 1712585901,
        "region_id": 1880773079
      },
      {
        "continent_id": 102191581,
        "country_id": 85633159,
        "empire_id": 136253055,
        "postalcode_id": 1712585901,
        "postalregion_id": 1864205399
      }
    ],
    "wof:id": 1712585901,
    "wof:lastmodified": 1763548703,
    "wof:name": "AB23 9AP",
    "wof:parent_id": 1360698989,
    "wof:placetype": "postalcode",
    "wof:repo": "whosonfirst-data-postalcode-gb",
    "wof:superseded_by": [],
    "wof:supersedes": [],
    "wof:tags": []
  },
  "bbox": [
    -2.096255,
    57.185038,
    -2.096255,
    57.185038
  ],
  "geometry": {"coordinates":[-2.096255,57.185038],"type":"Point"}
}
