{
  "id": 454277193,
  "type": "Feature",
  "properties": {
    "date:inception_lower": "1980-01-01",
    "date:inception_upper": "1980-01-01",
    "edtf:cessation": "",
    "edtf:inception": "1980-01-01",
    "geom:area": 0,
    "geom:bbox": "-1.582852,52.404159,-1.582852,52.404159",
    "geom:latitude": 52.404159,
    "geom:longitude": -1.582852,
    "gp:parent_id": "17044",
    "iso:country": "GB",
    "mz:hierarchy_label": 1,
    "mz:is_current": 1,
    "os:country_code": "E92000001",
    "os:county_code": "E99999999",
    "os:district_code": "E08000026",
    "os:positional_quality_indicator": "1",
    "os:region_code": "E12000005",
    "src:geom": "os",
    "wof:belongsto": [
      85633159,
      102191581,
      136253055,
      1864206527,
      1360699115,
      101750449,
      1880762069,
      404227469,
      1880773161
    ],
    "wof:breaches": [],
    "wof:concordances": {
      "gp:id": "27116136"
    },
    "wof:country": "GB",
    "wof:created": 1583701434,
    "wof:geomhash": "751a98e4749a2e1d3fbbf1f9b1103597",
    "wof:hierarchy": [
      {
        "continent_id": 102191581,
        "country_id": 85633159,
        "county_id": 1360699115,
        "empire_id": 136253055,
        "locality_id": 101750449,
        "macrocounty_id": 1880762069,
        "macroregion_id": 404227469,
        "postalcode_id": 454277193,
        "region_id": 1880773161
      },
      {
        "continent_id": 102191581,
        "country_id": 85633159,
        "empire_id": 136253055,
        "postalcode_id": 454277193,
        "postalregion_id": 1864206527
      }
    ],
    "wof:id": 454277193,
    "wof:lastmodified": 1763548470,
    "wof:name": "CV4 9LH",
    "wof:parent_id": 101750449,
    "wof:placetype": "postalcode",
    "wof:repo": "whosonfirst-data-postalcode-gb",
    "wof:superseded_by": [],
    "wof:supersedes": [],
    "wof:tags": []
  },
  "bbox": [
    -1.582852,
    52.404159,
    -1.582852,
    52.404159
  ],
  "geometry": {"coordinates":[-1.582852,52.404159],"type":"Point"}
}
