{
  "id": 504398387,
  "type": "Feature",
  "properties": {
    "date:cessation_lower": "2013-07-01",
    "date:cessation_upper": "2013-07-01",
    "date:inception_lower": "1997-06-01",
    "date:inception_upper": "1997-06-01",
    "edtf:cessation": "2013-07-01",
    "edtf:inception": "1997-06-01",
    "geom:area": 0,
    "geom:bbox": "-4.188819,55.867968,-4.188819,55.867968",
    "geom:latitude": 55.867968,
    "geom:longitude": -4.188819,
    "gp:parent_id": "12696198",
    "iso:country": "GB",
    "mz:hierarchy_label": 1,
    "mz:is_current": 0,
    "os:country_code": "S92000003",
    "os:county_code": "S99999999",
    "os:district_code": "S12000049",
    "os:positional_quality_indicator": "1",
    "os:region_code": "S99999999",
    "src:geom": "os",
    "wof:belongsto": [
      85633159,
      102191581,
      136253055,
      1864207349,
      1360698797,
      1175612707,
      1880762095,
      404227471,
      1880772925
    ],
    "wof:breaches": [],
    "wof:concordances": {
      "gp:id": "27285499"
    },
    "wof:country": "GB",
    "wof:created": 1583701147,
    "wof:geomhash": "0dccf5a31a7b980188bae6d3dcca4882",
    "wof:hierarchy": [
      {
        "continent_id": 102191581,
        "country_id": 85633159,
        "county_id": 1360698797,
        "empire_id": 136253055,
        "locality_id": 1175612707,
        "macrocounty_id": 1880762095,
        "macroregion_id": 404227471,
        "postalcode_id": 504398387,
        "region_id": 1880772925
      },
      {
        "continent_id": 102191581,
        "country_id": 85633159,
        "empire_id": 136253055,
        "postalcode_id": 504398387,
        "postalregion_id": 1864207349
      }
    ],
    "wof:id": 504398387,
    "wof:lastmodified": 1763547909,
    "wof:name": "G33 2RJ",
    "wof:parent_id": 1175612707,
    "wof:placetype": "postalcode",
    "wof:repo": "whosonfirst-data-postalcode-gb",
    "wof:superseded_by": [],
    "wof:supersedes": [],
    "wof:tags": []
  },
  "bbox": [
    -4.188819,
    55.867968,
    -4.188819,
    55.867968
  ],
  "geometry": {"coordinates":[-4.188819,55.867968],"type":"Point"}
}
