{
  "id": 38609829,
  "type": "Feature",
  "properties": {
    "date:cessation_lower": "1999-06-01",
    "date:cessation_upper": "1999-06-01",
    "date:inception_lower": "1996-12-01",
    "date:inception_upper": "1996-12-01",
    "edtf:cessation": "1999-06-01",
    "edtf:inception": "1996-12-01",
    "geom:area": 0,
    "geom:bbox": "0.043740,53.179088,0.043740,53.179088",
    "geom:latitude": 53.179088,
    "geom:longitude": 0.04374,
    "iso:country": "GB",
    "mz:hierarchy_label": 1,
    "mz:is_current": 0,
    "os:country_code": "E92000001",
    "os:county_code": "E10000019",
    "os:district_code": "E07000137",
    "os:positional_quality_indicator": "6",
    "os:region_code": "E12000004",
    "src:geom": "os",
    "wof:belongsto": [
      85633159,
      102191581,
      136253055,
      1864209683,
      1880771581,
      404436201,
      1360758345,
      1880762033,
      404227469,
      1880762701
    ],
    "wof:breaches": [],
    "wof:country": "GB",
    "wof:created": 1583792244,
    "wof:geomhash": "8ab10b9f15201fe54fa281505bbe25b5",
    "wof:hierarchy": [
      {
        "continent_id": 102191581,
        "country_id": 85633159,
        "county_id": 1880771581,
        "empire_id": 136253055,
        "localadmin_id": 404436201,
        "locality_id": 1360758345,
        "macrocounty_id": 1880762033,
        "macroregion_id": 404227469,
        "postalcode_id": 38609829,
        "region_id": 1880762701
      },
      {
        "continent_id": 102191581,
        "country_id": 85633159,
        "empire_id": 136253055,
        "postalcode_id": 38609829,
        "postalregion_id": 1864209683
      }
    ],
    "wof:id": 38609829,
    "wof:lastmodified": 1763548646,
    "wof:name": "PE23 4NJ",
    "wof:parent_id": 1360758345,
    "wof:placetype": "postalcode",
    "wof:repo": "whosonfirst-data-postalcode-gb",
    "wof:superseded_by": [],
    "wof:supersedes": [],
    "wof:tags": []
  },
  "bbox": [
    0.04374,
    53.179088,
    0.04374,
    53.179088
  ],
  "geometry": {"coordinates":[0.04374,53.179088],"type":"Point"}
}
