{
  "id": 471293459,
  "type": "Feature",
  "properties": {
    "date:inception_lower": "1980-01-01",
    "date:inception_upper": "1980-01-01",
    "edtf:cessation": "",
    "edtf:inception": "1980-01-01",
    "geom:area": 0,
    "geom:bbox": "-2.026469,53.560137,-2.026469,53.560137",
    "geom:latitude": 53.560137,
    "geom:longitude": -2.026469,
    "gp:parent_id": "18052",
    "iso:country": "GB",
    "mz:hierarchy_label": 1,
    "mz:is_current": 1,
    "os:country_code": "E92000001",
    "os:county_code": "E99999999",
    "os:district_code": "E08000004",
    "os:positional_quality_indicator": "1",
    "os:region_code": "E12000002",
    "src:geom": "os",
    "wof:belongsto": [
      85633159,
      102191581,
      136253055,
      1864209427,
      1360698953,
      404446855,
      1360754417,
      1880762163,
      404227469,
      1880773095
    ],
    "wof:breaches": [],
    "wof:concordances": {
      "gp:id": "27710254"
    },
    "wof:country": "GB",
    "wof:created": 1583701476,
    "wof:geomhash": "c5d5f275e42ba932b74bad3544eb4c37",
    "wof:hierarchy": [
      {
        "continent_id": 102191581,
        "country_id": 85633159,
        "county_id": 1360698953,
        "empire_id": 136253055,
        "localadmin_id": 404446855,
        "locality_id": 1360754417,
        "macrocounty_id": 1880762163,
        "macroregion_id": 404227469,
        "postalcode_id": 471293459,
        "region_id": 1880773095
      },
      {
        "continent_id": 102191581,
        "country_id": 85633159,
        "empire_id": 136253055,
        "postalcode_id": 471293459,
        "postalregion_id": 1864209427
      }
    ],
    "wof:id": 471293459,
    "wof:lastmodified": 1763548116,
    "wof:name": "OL3 5EA",
    "wof:parent_id": 1360754417,
    "wof:placetype": "postalcode",
    "wof:repo": "whosonfirst-data-postalcode-gb",
    "wof:superseded_by": [],
    "wof:supersedes": [],
    "wof:tags": []
  },
  "bbox": [
    -2.026469,
    53.560137,
    -2.026469,
    53.560137
  ],
  "geometry": {"coordinates":[-2.026469,53.560137],"type":"Point"}
}
