{
  "id": 1712685561,
  "type": "Feature",
  "properties": {
    "date:cessation_lower": "2000-07-01",
    "date:cessation_upper": "2000-07-01",
    "date:inception_lower": "1991-09-01",
    "date:inception_upper": "1991-09-01",
    "edtf:cessation": "2000-07-01",
    "edtf:inception": "1991-09-01",
    "geom:area": 0,
    "geom:bbox": "-1.265457,51.971994,-1.265457,51.971994",
    "geom:latitude": 51.971994,
    "geom:longitude": -1.265457,
    "iso:country": "GB",
    "mz:hierarchy_label": 1,
    "mz:is_current": 0,
    "os:country_code": "E92000001",
    "os:county_code": "E10000025",
    "os:district_code": "E07000177",
    "os:positional_quality_indicator": "1",
    "os:region_code": "E12000008",
    "src:geom": "os",
    "wof:belongsto": [
      102191581,
      85633159,
      1880771613,
      136253055,
      404453065,
      1125869477,
      1880762079,
      404227469,
      1880762695
    ],
    "wof:breaches": [],
    "wof:country": "GB",
    "wof:created": 1583799050,
    "wof:geomhash": "6df60413b82775d513b775df393b0269",
    "wof:hierarchy": [
      {
        "continent_id": 102191581,
        "country_id": 85633159,
        "county_id": 1880771613,
        "empire_id": 136253055,
        "localadmin_id": 404453065,
        "locality_id": 1125869477,
        "macrocounty_id": 1880762079,
        "macroregion_id": 404227469,
        "postalcode_id": 1712685561,
        "region_id": 1880762695
      }
    ],
    "wof:id": 1712685561,
    "wof:lastmodified": 1763548683,
    "wof:name": "OX6 4LU",
    "wof:parent_id": 1125869477,
    "wof:placetype": "postalcode",
    "wof:repo": "whosonfirst-data-postalcode-gb",
    "wof:superseded_by": [],
    "wof:supersedes": [],
    "wof:tags": []
  },
  "bbox": [
    -1.265457,
    51.971994,
    -1.265457,
    51.971994
  ],
  "geometry": {"coordinates":[-1.265457,51.971994],"type":"Point"}
}
