{
  "id": 1161101262,
  "type": "Feature",
  "properties": {
    "date:cessation_lower": "1994-12-01",
    "date:cessation_upper": "1994-12-01",
    "date:inception_lower": "1992-08-01",
    "date:inception_upper": "1992-08-01",
    "edtf:cessation": "1994-12-01",
    "edtf:inception": "1992-08-01",
    "geom:area": 0,
    "geom:bbox": "-1.144274,52.032810,-1.144274,52.032810",
    "geom:latitude": 52.03281,
    "geom:longitude": -1.144274,
    "iso:country": "GB",
    "mz:hierarchy_label": 1,
    "mz:is_current": 0,
    "os:country_code": "E92000001",
    "os:county_code": "E99999999",
    "os:district_code": "E06000062",
    "os:positional_quality_indicator": "8",
    "os:region_code": "E12000004",
    "src:geom": "os",
    "wof:belongsto": [
      85633159,
      102191581,
      136253055,
      1864209225,
      1880773231,
      404444987,
      1126015151,
      1880762029,
      404227469,
      1880773265
    ],
    "wof:breaches": [],
    "wof:country": "GB",
    "wof:created": 1583803910,
    "wof:geomhash": "646d4ccd39de01e462e29b7a7c4ce358",
    "wof:hierarchy": [
      {
        "continent_id": 102191581,
        "country_id": 85633159,
        "county_id": 1880773231,
        "empire_id": 136253055,
        "localadmin_id": 404444987,
        "locality_id": 1126015151,
        "macrocounty_id": 1880762029,
        "macroregion_id": 404227469,
        "postalcode_id": 1161101262,
        "region_id": 1880773265
      },
      {
        "continent_id": 102191581,
        "country_id": 85633159,
        "empire_id": 136253055,
        "postalcode_id": 1161101262,
        "postalregion_id": 1864209225
      }
    ],
    "wof:id": 1161101262,
    "wof:lastmodified": 1763548282,
    "wof:name": "NN13 5UB",
    "wof:parent_id": 1126015151,
    "wof:placetype": "postalcode",
    "wof:repo": "whosonfirst-data-postalcode-gb",
    "wof:superseded_by": [],
    "wof:supersedes": [],
    "wof:tags": []
  },
  "bbox": [
    -1.144274,
    52.03281,
    -1.144274,
    52.03281
  ],
  "geometry": {"coordinates":[-1.144274,52.03281],"type":"Point"}
}
