{
  "id": 1712763957,
  "type": "Feature",
  "properties": {
    "date:cessation_lower": "1992-12-01",
    "date:cessation_upper": "1992-12-01",
    "date:inception_lower": "1980-01-01",
    "date:inception_upper": "1980-01-01",
    "edtf:cessation": "1992-12-01",
    "edtf:inception": "1980-01-01",
    "geom:area": 0,
    "geom:bbox": "-1.534376,52.934869,-1.534376,52.934869",
    "geom:latitude": 52.934869,
    "geom:longitude": -1.534376,
    "iso:country": "GB",
    "mz:hierarchy_label": 1,
    "mz:is_current": 0,
    "os:country_code": "E92000001",
    "os:county_code": "E10000007",
    "os:district_code": "E07000032",
    "os:positional_quality_indicator": "1",
    "os:region_code": "E12000004",
    "src:geom": "os",
    "wof:belongsto": [
      85633159,
      102191581,
      136253055,
      1864206661,
      1880771385,
      404452063,
      1125971567,
      1880762133,
      404227469,
      1880762707
    ],
    "wof:breaches": [],
    "wof:country": "GB",
    "wof:created": 1583802526,
    "wof:geomhash": "fc43cd3d5c03c0f960ab0f8f6a9c08e2",
    "wof:hierarchy": [
      {
        "continent_id": 102191581,
        "country_id": 85633159,
        "county_id": 1880771385,
        "empire_id": 136253055,
        "localadmin_id": 404452063,
        "locality_id": 1125971567,
        "macrocounty_id": 1880762133,
        "macroregion_id": 404227469,
        "postalcode_id": 1712763957,
        "region_id": 1880762707
      },
      {
        "continent_id": 102191581,
        "country_id": 85633159,
        "empire_id": 136253055,
        "postalcode_id": 1712763957,
        "postalregion_id": 1864206661
      }
    ],
    "wof:id": 1712763957,
    "wof:lastmodified": 1763548733,
    "wof:name": "DE3 4LZ",
    "wof:parent_id": 1125971567,
    "wof:placetype": "postalcode",
    "wof:repo": "whosonfirst-data-postalcode-gb",
    "wof:superseded_by": [],
    "wof:supersedes": [],
    "wof:tags": []
  },
  "bbox": [
    -1.534376,
    52.934869,
    -1.534376,
    52.934869
  ],
  "geometry": {"coordinates":[-1.534376,52.934869],"type":"Point"}
}
