{
  "id": 1998338669,
  "type": "Feature",
  "properties": {
    "date:inception_lower": "2025-01-01",
    "date:inception_upper": "2025-01-01",
    "edtf:cessation": "",
    "edtf:inception": "2025-01-01",
    "geom:area": 0,
    "geom:bbox": "-1.094078,51.672061,-1.094078,51.672061",
    "geom:latitude": 51.672061,
    "geom:longitude": -1.094078,
    "iso:country": "GB",
    "mz:hierarchy_label": 1,
    "mz:is_current": 1,
    "os:country_code": "E92000001",
    "os:county_code": "E10000025",
    "os:district_code": "E07000179",
    "os:positional_quality_indicator": "1",
    "os:region_code": "E12000008",
    "src:geom": "os",
    "wof:belongsto": [
      102191581,
      85633159,
      1880771611,
      136253055,
      404451385,
      1126006339,
      1880762079,
      404227469,
      1880762695,
      1864209491
    ],
    "wof:breaches": [],
    "wof:country": "GB",
    "wof:created": 1763548777,
    "wof:geomhash": "e627ac15e93abf740cb1b4038f864a05",
    "wof:hierarchy": [
      {
        "continent_id": 102191581,
        "country_id": 85633159,
        "county_id": 1880771611,
        "empire_id": 136253055,
        "localadmin_id": 404451385,
        "locality_id": 1126006339,
        "macrocounty_id": 1880762079,
        "macroregion_id": 404227469,
        "postalcode_id": 1998338669,
        "region_id": 1880762695
      },
      {
        "continent_id": 102191581,
        "country_id": 85633159,
        "empire_id": 136253055,
        "postalcode_id": 1998338669,
        "postalregion_id": 1864209491
      }
    ],
    "wof:id": 1998338669,
    "wof:lastmodified": 1763548777,
    "wof:name": "OX44 7DD",
    "wof:parent_id": 1126006339,
    "wof:placetype": "postalcode",
    "wof:repo": "whosonfirst-data-postalcode-gb",
    "wof:superseded_by": [],
    "wof:supersedes": [],
    "wof:tags": []
  },
  "bbox": [
    -1.094078,
    51.672061,
    -1.094078,
    51.672061
  ],
  "geometry": {"coordinates":[-1.094078,51.672061],"type":"Point"}
}
