{
  "id": 454593551,
  "type": "Feature",
  "properties": {
    "date:inception_lower": "1980-01-01",
    "date:inception_upper": "1980-01-01",
    "edtf:cessation": "",
    "edtf:inception": "1980-01-01",
    "geom:area": 0,
    "geom:bbox": "-3.796416,51.217547,-3.796416,51.217547",
    "geom:latitude": 51.217547,
    "geom:longitude": -3.796416,
    "gp:parent_id": "28072",
    "iso:country": "GB",
    "mz:hierarchy_label": 1,
    "mz:is_current": 1,
    "os:country_code": "E92000001",
    "os:county_code": "E10000008",
    "os:district_code": "E07000043",
    "os:positional_quality_indicator": "1",
    "os:region_code": "E12000009",
    "src:geom": "os",
    "wof:belongsto": [
      85633159,
      102191581,
      136253055,
      1864207227,
      1880771395,
      404452921,
      1125846141,
      1880762149,
      404227469,
      1880762683
    ],
    "wof:breaches": [],
    "wof:concordances": {
      "gp:id": "27262380"
    },
    "wof:country": "GB",
    "wof:created": 1583701654,
    "wof:geomhash": "90122d7e1dba46c85279efe9221a71ac",
    "wof:hierarchy": [
      {
        "continent_id": 102191581,
        "country_id": 85633159,
        "county_id": 1880771395,
        "empire_id": 136253055,
        "localadmin_id": 404452921,
        "locality_id": 1125846141,
        "macrocounty_id": 1880762149,
        "macroregion_id": 404227469,
        "postalcode_id": 454593551,
        "region_id": 1880762683
      },
      {
        "continent_id": 102191581,
        "country_id": 85633159,
        "empire_id": 136253055,
        "postalcode_id": 454593551,
        "postalregion_id": 1864207227
      }
    ],
    "wof:id": 454593551,
    "wof:lastmodified": 1763548175,
    "wof:name": "EX35 6LG",
    "wof:parent_id": 1125846141,
    "wof:placetype": "postalcode",
    "wof:repo": "whosonfirst-data-postalcode-gb",
    "wof:superseded_by": [],
    "wof:supersedes": [],
    "wof:tags": []
  },
  "bbox": [
    -3.796416,
    51.217547,
    -3.796416,
    51.217547
  ],
  "geometry": {"coordinates":[-3.796416,51.217547],"type":"Point"}
}
