{
  "id": 438080497,
  "type": "Feature",
  "properties": {
    "date:inception_lower": "2002-06-01",
    "date:inception_upper": "2002-06-01",
    "edtf:cessation": "",
    "edtf:inception": "2002-06-01",
    "geom:area": 0,
    "geom:bbox": "-2.485629,53.790131,-2.485629,53.790131",
    "geom:latitude": 53.790131,
    "geom:longitude": -2.485629,
    "gp:parent_id": "28835508",
    "iso:country": "GB",
    "mz:hierarchy_label": 1,
    "mz:is_current": 1,
    "os:country_code": "E92000001",
    "os:county_code": "E10000017",
    "os:district_code": "E07000124",
    "os:positional_quality_indicator": "1",
    "os:region_code": "E12000002",
    "src:geom": "os",
    "wof:belongsto": [
      85633159,
      102191581,
      136253055,
      1864205693,
      1880771549,
      404449593,
      1360753889,
      1880762053,
      404227469,
      1880762711
    ],
    "wof:breaches": [],
    "wof:concordances": {
      "gp:id": "26886030"
    },
    "wof:country": "GB",
    "wof:created": 1583701223,
    "wof:geomhash": "897f241f6c3ed7dcf39c5655b2d80370",
    "wof:hierarchy": [
      {
        "continent_id": 102191581,
        "country_id": 85633159,
        "county_id": 1880771549,
        "empire_id": 136253055,
        "localadmin_id": 404449593,
        "locality_id": 1360753889,
        "macrocounty_id": 1880762053,
        "macroregion_id": 404227469,
        "postalcode_id": 438080497,
        "region_id": 1880762711
      },
      {
        "continent_id": 102191581,
        "country_id": 85633159,
        "empire_id": 136253055,
        "postalcode_id": 438080497,
        "postalregion_id": 1864205693
      }
    ],
    "wof:id": 438080497,
    "wof:lastmodified": 1763548093,
    "wof:name": "BB1 9HG",
    "wof:parent_id": 1360753889,
    "wof:placetype": "postalcode",
    "wof:repo": "whosonfirst-data-postalcode-gb",
    "wof:superseded_by": [],
    "wof:supersedes": [],
    "wof:tags": []
  },
  "bbox": [
    -2.485629,
    53.790131,
    -2.485629,
    53.790131
  ],
  "geometry": {"coordinates":[-2.485629,53.790131],"type":"Point"}
}
