{
  "id": 38351142,
  "type": "Feature",
  "properties": {
    "date:cessation_lower": "1997-06-01",
    "date:cessation_upper": "1997-06-01",
    "date:inception_lower": "1980-01-01",
    "date:inception_upper": "1980-01-01",
    "edtf:cessation": "1997-06-01",
    "edtf:inception": "1980-01-01",
    "geom:area": 0,
    "geom:bbox": "-0.168663,53.600534,-0.168663,53.600534",
    "geom:latitude": 53.600534,
    "geom:longitude": -0.168663,
    "iso:country": "GB",
    "mz:hierarchy_label": 1,
    "mz:is_current": 0,
    "os:country_code": "E92000001",
    "os:county_code": "E99999999",
    "os:district_code": "E06000012",
    "os:positional_quality_indicator": "1",
    "os:region_code": "E12000003",
    "src:geom": "os",
    "wof:belongsto": [
      85633159,
      102191581,
      136253055,
      1864206839,
      1360698837,
      404452687,
      1125878771,
      1880762033,
      404227469,
      1880762701
    ],
    "wof:breaches": [],
    "wof:country": "GB",
    "wof:created": 1583789367,
    "wof:geomhash": "01d2b05ea994a6b8ced42bb0ba916726",
    "wof:hierarchy": [
      {
        "continent_id": 102191581,
        "country_id": 85633159,
        "county_id": 1360698837,
        "empire_id": 136253055,
        "localadmin_id": 404452687,
        "locality_id": 1125878771,
        "macrocounty_id": 1880762033,
        "macroregion_id": 404227469,
        "postalcode_id": 38351142,
        "region_id": 1880762701
      },
      {
        "continent_id": 102191581,
        "country_id": 85633159,
        "empire_id": 136253055,
        "postalcode_id": 38351142,
        "postalregion_id": 1864206839
      }
    ],
    "wof:id": 38351142,
    "wof:lastmodified": 1763548165,
    "wof:name": "DN37 8DD",
    "wof:parent_id": 1125878771,
    "wof:placetype": "postalcode",
    "wof:repo": "whosonfirst-data-postalcode-gb",
    "wof:superseded_by": [],
    "wof:supersedes": [],
    "wof:tags": []
  },
  "bbox": [
    -0.168663,
    53.600534,
    -0.168663,
    53.600534
  ],
  "geometry": {"coordinates":[-0.168663,53.600534],"type":"Point"}
}
