{
  "id": 470826331,
  "type": "Feature",
  "properties": {
    "date:inception_lower": "1993-08-01",
    "date:inception_upper": "1993-08-01",
    "edtf:cessation": "",
    "edtf:inception": "1993-08-01",
    "geom:area": 0,
    "geom:bbox": "-1.249956,53.795147,-1.249956,53.795147",
    "geom:latitude": 53.795147,
    "geom:longitude": -1.249956,
    "iso:country": "GB",
    "mz:hierarchy_label": 1,
    "mz:is_current": 1,
    "os:country_code": "E92000001",
    "os:county_code": "E99999999",
    "os:district_code": "E06000065",
    "os:positional_quality_indicator": "1",
    "os:region_code": "E12000003",
    "src:geom": "os",
    "wof:belongsto": [
      85633159,
      102191581,
      136253055,
      1864208665,
      1360698753,
      404443597,
      101872317,
      1880762011,
      404227469,
      1880772891
    ],
    "wof:breaches": [],
    "wof:concordances": {
      "gp:id": "27521392"
    },
    "wof:country": "GB",
    "wof:created": 1583701062,
    "wof:geomhash": "7c615f2a0b4dc4523cb46d8c029fa490",
    "wof:hierarchy": [
      {
        "continent_id": 102191581,
        "country_id": 85633159,
        "county_id": 1360698753,
        "empire_id": 136253055,
        "localadmin_id": 404443597,
        "locality_id": 101872317,
        "macrocounty_id": 1880762011,
        "macroregion_id": 404227469,
        "postalcode_id": 470826331,
        "region_id": 1880772891
      },
      {
        "continent_id": 102191581,
        "country_id": 85633159,
        "empire_id": 136253055,
        "postalcode_id": 470826331,
        "postalregion_id": 1864208665
      }
    ],
    "wof:id": 470826331,
    "wof:lastmodified": 1763547951,
    "wof:name": "LS25 6ND",
    "wof:parent_id": 101872317,
    "wof:placetype": "postalcode",
    "wof:repo": "whosonfirst-data-postalcode-gb",
    "wof:superseded_by": [],
    "wof:supersedes": [],
    "wof:tags": []
  },
  "bbox": [
    -1.249956,
    53.795147,
    -1.249956,
    53.795147
  ],
  "geometry": {"coordinates":[-1.249956,53.795147],"type":"Point"}
}
