{
  "id": 454055689,
  "type": "Feature",
  "properties": {
    "date:inception_lower": "1980-01-01",
    "date:inception_upper": "1980-01-01",
    "edtf:cessation": "",
    "edtf:inception": "1980-01-01",
    "geom:area": 0,
    "geom:bbox": "-3.355220,54.662250,-3.355220,54.662250",
    "geom:latitude": 54.66225,
    "geom:longitude": -3.35522,
    "iso:country": "GB",
    "mz:hierarchy_label": 1,
    "mz:is_current": 1,
    "os:country_code": "E92000001",
    "os:county_code": "E99999999",
    "os:district_code": "E06000063",
    "os:positional_quality_indicator": "1",
    "os:region_code": "E12000002",
    "src:geom": "os",
    "wof:belongsto": [
      85633159,
      102191581,
      136253055,
      1864206061,
      1880773239,
      404453209,
      101873389,
      1880761989,
      404227469,
      1880773269
    ],
    "wof:breaches": [],
    "wof:concordances": {
      "gp:id": "27015282"
    },
    "wof:country": "GB",
    "wof:created": 1583701098,
    "wof:geomhash": "08cd292abbb9e8a97c7bf3d471079d8c",
    "wof:hierarchy": [
      {
        "continent_id": 102191581,
        "country_id": 85633159,
        "county_id": 1880773239,
        "empire_id": 136253055,
        "localadmin_id": 404453209,
        "locality_id": 101873389,
        "macrocounty_id": 1880761989,
        "macroregion_id": 404227469,
        "postalcode_id": 454055689,
        "region_id": 1880773269
      },
      {
        "continent_id": 102191581,
        "country_id": 85633159,
        "empire_id": 136253055,
        "postalcode_id": 454055689,
        "postalregion_id": 1864206061
      }
    ],
    "wof:id": 454055689,
    "wof:lastmodified": 1763548353,
    "wof:name": "CA13 9AE",
    "wof:parent_id": 101873389,
    "wof:placetype": "postalcode",
    "wof:repo": "whosonfirst-data-postalcode-gb",
    "wof:superseded_by": [],
    "wof:supersedes": [],
    "wof:tags": []
  },
  "bbox": [
    -3.35522,
    54.66225,
    -3.35522,
    54.66225
  ],
  "geometry": {"coordinates":[-3.35522,54.66225],"type":"Point"}
}
