{
  "id": 454451883,
  "type": "Feature",
  "properties": {
    "date:inception_lower": "2024-07-01",
    "date:inception_upper": "2024-07-01",
    "edtf:cessation": "",
    "edtf:inception": "2024-07-01",
    "geom:area": 0,
    "geom:bbox": "-1.272446,53.515982,-1.272446,53.515982",
    "geom:latitude": 53.515982,
    "geom:longitude": -1.272446,
    "gp:parent_id": "23250",
    "iso:country": "GB",
    "mz:hierarchy_label": 1,
    "mz:is_current": 1,
    "os:country_code": "E92000001",
    "os:county_code": "E99999999",
    "os:district_code": "E08000017",
    "os:positional_quality_indicator": "1",
    "os:region_code": "E12000003",
    "src:geom": "os",
    "wof:belongsto": [
      85633159,
      102191581,
      136253055,
      1864206851,
      1360698973,
      1880761997,
      404227469,
      1880772963,
      404444761,
      1360759019
    ],
    "wof:breaches": [],
    "wof:concordances": {
      "gp:id": "27193642"
    },
    "wof:country": "GB",
    "wof:created": 1583701573,
    "wof:geomhash": "55e39afd7257116fb5081db93de9ef2c",
    "wof:hierarchy": [
      {
        "continent_id": 102191581,
        "country_id": 85633159,
        "county_id": 1360698973,
        "empire_id": 136253055,
        "localadmin_id": 404444761,
        "locality_id": 1360759019,
        "macrocounty_id": 1880761997,
        "macroregion_id": 404227469,
        "postalcode_id": 454451883,
        "region_id": 1880772963
      },
      {
        "continent_id": 102191581,
        "country_id": 85633159,
        "empire_id": 136253055,
        "postalcode_id": 454451883,
        "postalregion_id": 1864206851
      }
    ],
    "wof:id": 454451883,
    "wof:lastmodified": 1763548504,
    "wof:name": "DN5 7AN",
    "wof:parent_id": 1360759019,
    "wof:placetype": "postalcode",
    "wof:repo": "whosonfirst-data-postalcode-gb",
    "wof:superseded_by": [],
    "wof:supersedes": [],
    "wof:tags": []
  },
  "bbox": [
    -1.272446,
    53.515982,
    -1.272446,
    53.515982
  ],
  "geometry": {"coordinates":[-1.272446,53.515982],"type":"Point"}
}
