{
  "id": 454356213,
  "type": "Feature",
  "properties": {
    "date:inception_lower": "1980-01-01",
    "date:inception_upper": "1980-01-01",
    "edtf:cessation": "",
    "edtf:inception": "1980-01-01",
    "geom:area": 0,
    "geom:bbox": "-1.840930,53.002428,-1.840930,53.002428",
    "geom:latitude": 53.002428,
    "geom:longitude": -1.84093,
    "gp:parent_id": "19466",
    "iso:country": "GB",
    "mz:hierarchy_label": 1,
    "mz:is_current": 1,
    "os:country_code": "E92000001",
    "os:county_code": "E10000028",
    "os:district_code": "E07000193",
    "os:positional_quality_indicator": "1",
    "os:region_code": "E12000005",
    "src:geom": "os",
    "wof:belongsto": [
      85633159,
      102191581,
      136253055,
      1864206673,
      1880771629,
      404450625,
      1360755449,
      1880761999,
      404227469,
      1880762719
    ],
    "wof:breaches": [],
    "wof:concordances": {
      "gp:id": "27149807"
    },
    "wof:country": "GB",
    "wof:created": 1583701511,
    "wof:geomhash": "9f574ad6a94a38bea52ed052ea6aff49",
    "wof:hierarchy": [
      {
        "continent_id": 102191581,
        "country_id": 85633159,
        "county_id": 1880771629,
        "empire_id": 136253055,
        "localadmin_id": 404450625,
        "locality_id": 1360755449,
        "macrocounty_id": 1880761999,
        "macroregion_id": 404227469,
        "postalcode_id": 454356213,
        "region_id": 1880762719
      },
      {
        "continent_id": 102191581,
        "country_id": 85633159,
        "empire_id": 136253055,
        "postalcode_id": 454356213,
        "postalregion_id": 1864206673
      }
    ],
    "wof:id": 454356213,
    "wof:lastmodified": 1763548452,
    "wof:name": "DE6 2GW",
    "wof:parent_id": 1360755449,
    "wof:placetype": "postalcode",
    "wof:repo": "whosonfirst-data-postalcode-gb",
    "wof:superseded_by": [],
    "wof:supersedes": [],
    "wof:tags": []
  },
  "bbox": [
    -1.84093,
    53.002428,
    -1.84093,
    53.002428
  ],
  "geometry": {"coordinates":[-1.84093,53.002428],"type":"Point"}
}
