{
  "id": 1160743648,
  "type": "Feature",
  "properties": {
    "date:cessation_lower": "1995-07-01",
    "date:cessation_upper": "1995-07-01",
    "date:inception_lower": "1994-05-01",
    "date:inception_upper": "1994-05-01",
    "edtf:cessation": "1995-07-01",
    "edtf:inception": "1994-05-01",
    "geom:area": 0,
    "geom:bbox": "-0.865234,53.708866,-0.865234,53.708866",
    "geom:latitude": 53.708866,
    "geom:longitude": -0.865234,
    "iso:country": "GB",
    "mz:hierarchy_label": 1,
    "mz:is_current": 0,
    "os:country_code": "E92000001",
    "os:county_code": "E99999999",
    "os:district_code": "E06000011",
    "os:positional_quality_indicator": "8",
    "os:region_code": "E12000003",
    "src:geom": "os",
    "wof:belongsto": [
      85633159,
      102191581,
      136253055,
      1864206799,
      1360699001,
      404430095,
      1125882831,
      1880762147,
      404227469,
      1880773091
    ],
    "wof:breaches": [],
    "wof:country": "GB",
    "wof:created": 1583787996,
    "wof:geomhash": "7c68247f07d2c9e337b4a7822fda030b",
    "wof:hierarchy": [
      {
        "continent_id": 102191581,
        "country_id": 85633159,
        "county_id": 1360699001,
        "empire_id": 136253055,
        "localadmin_id": 404430095,
        "locality_id": 1125882831,
        "macrocounty_id": 1880762147,
        "macroregion_id": 404227469,
        "postalcode_id": 1160743648,
        "region_id": 1880773091
      },
      {
        "continent_id": 102191581,
        "country_id": 85633159,
        "empire_id": 136253055,
        "postalcode_id": 1160743648,
        "postalregion_id": 1864206799
      }
    ],
    "wof:id": 1160743648,
    "wof:lastmodified": 1763548313,
    "wof:name": "DN14 5HJ",
    "wof:parent_id": 1125882831,
    "wof:placetype": "postalcode",
    "wof:repo": "whosonfirst-data-postalcode-gb",
    "wof:superseded_by": [],
    "wof:supersedes": [],
    "wof:tags": []
  },
  "bbox": [
    -0.865234,
    53.708866,
    -0.865234,
    53.708866
  ],
  "geometry": {"coordinates":[-0.865234,53.708866],"type":"Point"}
}
