{
  "id": 1160837630,
  "type": "Feature",
  "properties": {
    "date:cessation_lower": "1995-12-01",
    "date:cessation_upper": "1995-12-01",
    "date:inception_lower": "1993-08-01",
    "date:inception_upper": "1993-08-01",
    "edtf:cessation": "1995-12-01",
    "edtf:inception": "1993-08-01",
    "geom:area": 0,
    "geom:bbox": "-1.591996,54.844135,-1.591996,54.844135",
    "geom:latitude": 54.844135,
    "geom:longitude": -1.591996,
    "iso:country": "GB",
    "mz:hierarchy_label": 1,
    "mz:is_current": 0,
    "os:country_code": "E92000001",
    "os:county_code": "E99999999",
    "os:district_code": "E06000047",
    "os:positional_quality_indicator": "8",
    "os:region_code": "E12000001",
    "src:geom": "os",
    "wof:belongsto": [
      85633159,
      102191581,
      136253055,
      1864206727,
      1360699055,
      404431825,
      1360756525,
      1880762117
    ],
    "wof:breaches": [],
    "wof:country": "GB",
    "wof:created": 1583792179,
    "wof:geomhash": "1937b6a6bff7512e3a61388a4dce380d",
    "wof:hierarchy": [
      {
        "continent_id": -1,
        "country_id": -1,
        "county_id": 1360699055,
        "localadmin_id": 404431825,
        "locality_id": 1360756525,
        "macrocounty_id": 1880762117,
        "postalcode_id": 1160837630,
        "region_id": -1
      },
      {
        "continent_id": 102191581,
        "country_id": 85633159,
        "empire_id": 136253055,
        "postalcode_id": 1160837630,
        "postalregion_id": 1864206727
      }
    ],
    "wof:id": 1160837630,
    "wof:lastmodified": 1763548206,
    "wof:name": "DH2 3YY",
    "wof:parent_id": 1360756525,
    "wof:placetype": "postalcode",
    "wof:repo": "whosonfirst-data-postalcode-gb",
    "wof:superseded_by": [],
    "wof:supersedes": [],
    "wof:tags": []
  },
  "bbox": [
    -1.591996,
    54.844135,
    -1.591996,
    54.844135
  ],
  "geometry": {"coordinates":[-1.591996,54.844135],"type":"Point"}
}
