{
  "id": 1712482581,
  "type": "Feature",
  "properties": {
    "date:cessation_lower": "2000-06-01",
    "date:cessation_upper": "2000-06-01",
    "date:inception_lower": "1995-07-01",
    "date:inception_upper": "1995-07-01",
    "edtf:cessation": "2000-06-01",
    "edtf:inception": "1995-07-01",
    "geom:area": 0,
    "geom:bbox": "-2.955951,53.107855,-2.955951,53.107855",
    "geom:latitude": 53.107855,
    "geom:longitude": -2.955951,
    "iso:country": "GB",
    "mz:hierarchy_label": 1,
    "mz:is_current": 0,
    "os:country_code": "W92000004",
    "os:county_code": "W99999999",
    "os:district_code": "W06000006",
    "os:positional_quality_indicator": "3",
    "os:region_code": "W99999999",
    "src:geom": "os",
    "wof:belongsto": [
      85633159,
      102191581,
      136253055,
      1864208449,
      1360698743,
      404433905,
      1125983041,
      1880762183,
      404227475,
      1880772909
    ],
    "wof:breaches": [],
    "wof:country": "GB",
    "wof:created": 1583790019,
    "wof:geomhash": "ed9a27a4a57e3d67648bec496d451ec5",
    "wof:hierarchy": [
      {
        "continent_id": 102191581,
        "country_id": 85633159,
        "county_id": 1360698743,
        "empire_id": 136253055,
        "localadmin_id": 404433905,
        "locality_id": 1125983041,
        "macrocounty_id": 1880762183,
        "macroregion_id": 404227475,
        "postalcode_id": 1712482581,
        "region_id": 1880772909
      },
      {
        "continent_id": 102191581,
        "country_id": 85633159,
        "empire_id": 136253055,
        "postalcode_id": 1712482581,
        "postalregion_id": 1864208449
      }
    ],
    "wof:id": 1712482581,
    "wof:lastmodified": 1763548717,
    "wof:name": "LL12 0HF",
    "wof:parent_id": 1125983041,
    "wof:placetype": "postalcode",
    "wof:repo": "whosonfirst-data-postalcode-gb",
    "wof:superseded_by": [],
    "wof:supersedes": [],
    "wof:tags": []
  },
  "bbox": [
    -2.955951,
    53.107855,
    -2.955951,
    53.107855
  ],
  "geometry": {"coordinates":[-2.955951,53.107855],"type":"Point"}
}
