{
  "id": 471656287,
  "type": "Feature",
  "properties": {
    "date:inception_lower": "1980-01-01",
    "date:inception_upper": "1980-01-01",
    "edtf:cessation": "",
    "edtf:inception": "1980-01-01",
    "geom:area": 0,
    "geom:bbox": "-1.425562,53.172599,-1.425562,53.172599",
    "geom:latitude": 53.172599,
    "geom:longitude": -1.425562,
    "gp:parent_id": "16210",
    "iso:country": "GB",
    "mz:hierarchy_label": 1,
    "mz:is_current": 1,
    "os:country_code": "E92000001",
    "os:county_code": "E10000007",
    "os:district_code": "E07000038",
    "os:positional_quality_indicator": "1",
    "os:region_code": "E12000004",
    "src:geom": "os",
    "wof:belongsto": [
      85633159,
      102191581,
      136253055,
      1864210227,
      1880771383,
      404438603,
      1125962789,
      1880762133,
      404227469,
      1880762707
    ],
    "wof:breaches": [],
    "wof:concordances": {
      "gp:id": "27854780"
    },
    "wof:country": "GB",
    "wof:created": 1583701677,
    "wof:geomhash": "de9cc3e44b4ad11dd96914c89c050a8d",
    "wof:hierarchy": [
      {
        "continent_id": 102191581,
        "country_id": 85633159,
        "county_id": 1880771383,
        "empire_id": 136253055,
        "localadmin_id": 404438603,
        "locality_id": 1125962789,
        "macrocounty_id": 1880762133,
        "macroregion_id": 404227469,
        "postalcode_id": 471656287,
        "region_id": 1880762707
      },
      {
        "continent_id": 102191581,
        "country_id": 85633159,
        "empire_id": 136253055,
        "postalcode_id": 471656287,
        "postalregion_id": 1864210227
      }
    ],
    "wof:id": 471656287,
    "wof:lastmodified": 1763548098,
    "wof:name": "S45 9PR",
    "wof:parent_id": 1125962789,
    "wof:placetype": "postalcode",
    "wof:repo": "whosonfirst-data-postalcode-gb",
    "wof:superseded_by": [],
    "wof:supersedes": [],
    "wof:tags": []
  },
  "bbox": [
    -1.425562,
    53.172599,
    -1.425562,
    53.172599
  ],
  "geometry": {"coordinates":[-1.425562,53.172599],"type":"Point"}
}
