{
  "id": 504757293,
  "type": "Feature",
  "properties": {
    "date:inception_lower": "2008-09-01",
    "date:inception_upper": "2008-09-01",
    "edtf:cessation": "",
    "edtf:inception": "2008-09-01",
    "geom:area": 0,
    "geom:bbox": "-3.541190,51.581859,-3.541190,51.581859",
    "geom:latitude": 51.581859,
    "geom:longitude": -3.54119,
    "gp:parent_id": "12696127",
    "iso:country": "GB",
    "mz:hierarchy_label": 1,
    "mz:is_current": 1,
    "os:country_code": "W92000004",
    "os:county_code": "W99999999",
    "os:district_code": "W06000013",
    "os:positional_quality_indicator": "1",
    "os:region_code": "W99999999",
    "src:geom": "os",
    "wof:belongsto": [
      85633159,
      102191581,
      136253055,
      1864206175,
      1360699051,
      404451197,
      1360711747,
      1880762185,
      404227475,
      1880773115
    ],
    "wof:breaches": [],
    "wof:concordances": {
      "gp:id": "56134138"
    },
    "wof:country": "GB",
    "wof:created": 1583701549,
    "wof:geomhash": "622a0b9d42d3fba9707f251a7a26771a",
    "wof:hierarchy": [
      {
        "continent_id": 102191581,
        "country_id": 85633159,
        "county_id": 1360699051,
        "empire_id": 136253055,
        "localadmin_id": 404451197,
        "locality_id": 1360711747,
        "macrocounty_id": 1880762185,
        "macroregion_id": 404227475,
        "postalcode_id": 504757293,
        "region_id": 1880773115
      },
      {
        "continent_id": 102191581,
        "country_id": 85633159,
        "empire_id": 136253055,
        "postalcode_id": 504757293,
        "postalregion_id": 1864206175
      }
    ],
    "wof:id": 504757293,
    "wof:lastmodified": 1763548088,
    "wof:name": "CF32 7HW",
    "wof:parent_id": 1360711747,
    "wof:placetype": "postalcode",
    "wof:repo": "whosonfirst-data-postalcode-gb",
    "wof:superseded_by": [],
    "wof:supersedes": [],
    "wof:tags": []
  },
  "bbox": [
    -3.54119,
    51.581859,
    -3.54119,
    51.581859
  ],
  "geometry": {"coordinates":[-3.54119,51.581859],"type":"Point"}
}
