{
  "id": 438190967,
  "type": "Feature",
  "properties": {
    "date:inception_lower": "1980-01-01",
    "date:inception_upper": "1980-01-01",
    "edtf:cessation": "",
    "edtf:inception": "1980-01-01",
    "geom:area": 0,
    "geom:bbox": "-2.524111,53.553742,-2.524111,53.553742",
    "geom:latitude": 53.553742,
    "geom:longitude": -2.524111,
    "gp:parent_id": "39946",
    "iso:country": "GB",
    "mz:hierarchy_label": 1,
    "mz:is_current": 1,
    "os:country_code": "E92000001",
    "os:county_code": "E99999999",
    "os:district_code": "E08000001",
    "os:positional_quality_indicator": "1",
    "os:region_code": "E12000002",
    "src:geom": "os",
    "wof:belongsto": [
      85633159,
      102191581,
      136253055,
      1864205855,
      1360699099,
      404446189,
      1125994427,
      1880762163,
      404227469,
      1880773095
    ],
    "wof:breaches": [],
    "wof:concordances": {
      "gp:id": "26440307"
    },
    "wof:country": "GB",
    "wof:created": 1583701388,
    "wof:geomhash": "ffc0aa39f8cce7e9deb4096f9d3991be",
    "wof:hierarchy": [
      {
        "continent_id": 102191581,
        "country_id": 85633159,
        "county_id": 1360699099,
        "empire_id": 136253055,
        "localadmin_id": 404446189,
        "locality_id": 1125994427,
        "macrocounty_id": 1880762163,
        "macroregion_id": 404227469,
        "postalcode_id": 438190967,
        "region_id": 1880773095
      },
      {
        "continent_id": 102191581,
        "country_id": 85633159,
        "empire_id": 136253055,
        "postalcode_id": 438190967,
        "postalregion_id": 1864205855
      }
    ],
    "wof:id": 438190967,
    "wof:lastmodified": 1763548074,
    "wof:name": "BL5 3SW",
    "wof:parent_id": 1125994427,
    "wof:placetype": "postalcode",
    "wof:repo": "whosonfirst-data-postalcode-gb",
    "wof:superseded_by": [],
    "wof:supersedes": [],
    "wof:tags": []
  },
  "bbox": [
    -2.524111,
    53.553742,
    -2.524111,
    53.553742
  ],
  "geometry": {"coordinates":[-2.524111,53.553742],"type":"Point"}
}
