{
  "id": 471657827,
  "type": "Feature",
  "properties": {
    "date:inception_lower": "1980-01-01",
    "date:inception_upper": "1980-01-01",
    "edtf:cessation": "",
    "edtf:inception": "1980-01-01",
    "geom:area": 0,
    "geom:bbox": "-1.457640,53.421262,-1.457640,53.421262",
    "geom:latitude": 53.421262,
    "geom:longitude": -1.45764,
    "gp:parent_id": "34503",
    "iso:country": "GB",
    "mz:hierarchy_label": 1,
    "mz:is_current": 1,
    "os:country_code": "E92000001",
    "os:county_code": "E99999999",
    "os:district_code": "E08000039",
    "os:positional_quality_indicator": "1",
    "os:region_code": "E12000003",
    "src:geom": "os",
    "wof:belongsto": [
      85633159,
      102191581,
      136253055,
      1864210231,
      1360699075,
      101750529,
      1880761997,
      404227469,
      1880772963
    ],
    "wof:breaches": [],
    "wof:concordances": {
      "gp:id": "26730053"
    },
    "wof:country": "GB",
    "wof:created": 1583701680,
    "wof:geomhash": "9e315a90e36e80dc7ebac96c783217c6",
    "wof:hierarchy": [
      {
        "continent_id": 102191581,
        "country_id": 85633159,
        "county_id": 1360699075,
        "empire_id": 136253055,
        "locality_id": 101750529,
        "macrocounty_id": 1880761997,
        "macroregion_id": 404227469,
        "postalcode_id": 471657827,
        "region_id": 1880772963
      },
      {
        "continent_id": 102191581,
        "country_id": 85633159,
        "empire_id": 136253055,
        "postalcode_id": 471657827,
        "postalregion_id": 1864210231
      }
    ],
    "wof:id": 471657827,
    "wof:lastmodified": 1763548130,
    "wof:name": "S5 7UE",
    "wof:parent_id": 101750529,
    "wof:placetype": "postalcode",
    "wof:repo": "whosonfirst-data-postalcode-gb",
    "wof:superseded_by": [],
    "wof:supersedes": [],
    "wof:tags": []
  },
  "bbox": [
    -1.45764,
    53.421262,
    -1.45764,
    53.421262
  ],
  "geometry": {"coordinates":[-1.45764,53.421262],"type":"Point"}
}
