{
  "id": 471836651,
  "type": "Feature",
  "properties": {
    "date:inception_lower": "1980-01-01",
    "date:inception_upper": "1980-01-01",
    "edtf:cessation": "",
    "edtf:inception": "1980-01-01",
    "geom:area": 0,
    "geom:bbox": "-2.000993,51.394960,-2.000993,51.394960",
    "geom:latitude": 51.39496,
    "geom:longitude": -2.000993,
    "gp:parent_id": "22909",
    "iso:country": "GB",
    "mz:hierarchy_label": 1,
    "mz:is_current": 1,
    "os:country_code": "E92000001",
    "os:county_code": "E99999999",
    "os:district_code": "E06000054",
    "os:positional_quality_indicator": "1",
    "os:region_code": "E12000009",
    "src:geom": "os",
    "wof:belongsto": [
      85633159,
      102191581,
      136253055,
      1864210605,
      1360699033,
      404434543,
      1125880099,
      1880762017
    ],
    "wof:breaches": [],
    "wof:concordances": {
      "gp:id": "27939456"
    },
    "wof:country": "GB",
    "wof:created": 1583701753,
    "wof:geomhash": "7032353f6061ecb10762c990fc436158",
    "wof:hierarchy": [
      {
        "continent_id": -1,
        "country_id": -1,
        "county_id": 1360699033,
        "localadmin_id": 404434543,
        "locality_id": 1125880099,
        "macrocounty_id": 1880762017,
        "postalcode_id": 471836651,
        "region_id": -1
      },
      {
        "continent_id": 102191581,
        "country_id": 85633159,
        "empire_id": 136253055,
        "postalcode_id": 471836651,
        "postalregion_id": 1864210605
      }
    ],
    "wof:id": 471836651,
    "wof:lastmodified": 1763548348,
    "wof:name": "SN11 0PN",
    "wof:parent_id": 1125880099,
    "wof:placetype": "postalcode",
    "wof:repo": "whosonfirst-data-postalcode-gb",
    "wof:superseded_by": [],
    "wof:supersedes": [],
    "wof:tags": []
  },
  "bbox": [
    -2.000993,
    51.39496,
    -2.000993,
    51.39496
  ],
  "geometry": {"coordinates":[-2.000993,51.39496],"type":"Point"}
}
