{
  "id": 1712808775,
  "type": "Feature",
  "properties": {
    "date:cessation_lower": "1992-12-01",
    "date:cessation_upper": "1992-12-01",
    "date:inception_lower": "1985-04-01",
    "date:inception_upper": "1985-04-01",
    "edtf:cessation": "1992-12-01",
    "edtf:inception": "1985-04-01",
    "geom:area": 0,
    "geom:bbox": "-1.395476,52.927197,-1.395476,52.927197",
    "geom:latitude": 52.927197,
    "geom:longitude": -1.395476,
    "iso:country": "GB",
    "mz:hierarchy_label": 1,
    "mz:is_current": 0,
    "os:country_code": "E92000001",
    "os:county_code": "E99999999",
    "os:district_code": "E06000015",
    "os:positional_quality_indicator": "1",
    "os:region_code": "E12000004",
    "src:geom": "os",
    "wof:belongsto": [
      102191581,
      85633159,
      1360699093,
      136253055,
      101750489,
      1880762133,
      404227469,
      1880762707
    ],
    "wof:breaches": [],
    "wof:country": "GB",
    "wof:created": 1583804519,
    "wof:geomhash": "0c43c30b1e1280c0217dbb68f590d67e",
    "wof:hierarchy": [
      {
        "continent_id": 102191581,
        "country_id": 85633159,
        "county_id": 1360699093,
        "empire_id": 136253055,
        "locality_id": 101750489,
        "macrocounty_id": 1880762133,
        "macroregion_id": 404227469,
        "postalcode_id": 1712808775,
        "region_id": 1880762707
      }
    ],
    "wof:id": 1712808775,
    "wof:lastmodified": 1763548659,
    "wof:name": "DE2 7TH",
    "wof:parent_id": 101750489,
    "wof:placetype": "postalcode",
    "wof:repo": "whosonfirst-data-postalcode-gb",
    "wof:superseded_by": [],
    "wof:supersedes": [],
    "wof:tags": []
  },
  "bbox": [
    -1.395476,
    52.927197,
    -1.395476,
    52.927197
  ],
  "geometry": {"coordinates":[-1.395476,52.927197],"type":"Point"}
}
