{
  "id": 438043337,
  "type": "Feature",
  "properties": {
    "date:inception_lower": "1987-04-01",
    "date:inception_upper": "1987-04-01",
    "edtf:cessation": "",
    "edtf:inception": "1987-04-01",
    "geom:area": 0,
    "geom:bbox": "-1.951212,52.279001,-1.951212,52.279001",
    "geom:latitude": 52.279001,
    "geom:longitude": -1.951212,
    "iso:country": "GB",
    "mz:hierarchy_label": 1,
    "mz:is_current": 1,
    "os:country_code": "E92000001",
    "os:county_code": "E10000034",
    "os:district_code": "E07000236",
    "os:positional_quality_indicator": "1",
    "os:region_code": "E12000005",
    "src:geom": "os",
    "wof:belongsto": [
      85633159,
      102191581,
      136253055,
      1864205643,
      1880771707,
      101750455,
      1880762019,
      404227469,
      1880762691
    ],
    "wof:breaches": [],
    "wof:concordances": {
      "gp:id": "26872049"
    },
    "wof:country": "GB",
    "wof:created": 1583701131,
    "wof:geomhash": "62b31850cc8ce4058e37da8871897818",
    "wof:hierarchy": [
      {
        "continent_id": 102191581,
        "country_id": 85633159,
        "county_id": 1880771707,
        "empire_id": 136253055,
        "locality_id": 101750455,
        "macrocounty_id": 1880762019,
        "macroregion_id": 404227469,
        "postalcode_id": 438043337,
        "region_id": 1880762691
      },
      {
        "continent_id": 102191581,
        "country_id": 85633159,
        "empire_id": 136253055,
        "postalcode_id": 438043337,
        "postalregion_id": 1864205643
      }
    ],
    "wof:id": 438043337,
    "wof:lastmodified": 1763548103,
    "wof:name": "B97 5XR",
    "wof:parent_id": 101750455,
    "wof:placetype": "postalcode",
    "wof:repo": "whosonfirst-data-postalcode-gb",
    "wof:superseded_by": [],
    "wof:supersedes": [],
    "wof:tags": []
  },
  "bbox": [
    -1.951212,
    52.279001,
    -1.951212,
    52.279001
  ],
  "geometry": {"coordinates":[-1.951212,52.279001],"type":"Point"}
}
