{
  "id": 437408171,
  "type": "Feature",
  "properties": {
    "date:cessation_lower": "2009-01-01",
    "date:cessation_upper": "2009-01-01",
    "date:inception_lower": "1980-01-01",
    "date:inception_upper": "1980-01-01",
    "edtf:cessation": "2009-01-01",
    "edtf:inception": "1980-01-01",
    "geom:area": 0,
    "geom:bbox": "-3.796360,51.961807,-3.796360,51.961807",
    "geom:latitude": 51.961807,
    "geom:longitude": -3.79636,
    "gp:parent_id": "12696118",
    "iso:country": "GB",
    "mz:hierarchy_label": 1,
    "mz:is_current": 0,
    "os:country_code": "W92000004",
    "os:county_code": "W99999999",
    "os:district_code": "W06000010",
    "os:positional_quality_indicator": "1",
    "os:region_code": "W99999999",
    "src:geom": "os",
    "wof:belongsto": [
      85633159,
      102191581,
      136253055,
      1864210315,
      1360698785,
      404454155,
      1125868595,
      1880762181,
      404227475,
      1880772913
    ],
    "wof:breaches": [],
    "wof:concordances": {
      "gp:id": "27876696"
    },
    "wof:country": "GB",
    "wof:created": 1583701100,
    "wof:geomhash": "f51795caf4c4083c7d484d9d9a3012b9",
    "wof:hierarchy": [
      {
        "continent_id": 102191581,
        "country_id": 85633159,
        "county_id": 1360698785,
        "empire_id": 136253055,
        "localadmin_id": 404454155,
        "locality_id": 1125868595,
        "macrocounty_id": 1880762181,
        "macroregion_id": 404227475,
        "postalcode_id": 437408171,
        "region_id": 1880772913
      },
      {
        "continent_id": 102191581,
        "country_id": 85633159,
        "empire_id": 136253055,
        "postalcode_id": 437408171,
        "postalregion_id": 1864210315
      }
    ],
    "wof:id": 437408171,
    "wof:lastmodified": 1763548046,
    "wof:name": "SA20 0JA",
    "wof:parent_id": 1125868595,
    "wof:placetype": "postalcode",
    "wof:repo": "whosonfirst-data-postalcode-gb",
    "wof:superseded_by": [],
    "wof:supersedes": [],
    "wof:tags": []
  },
  "bbox": [
    -3.79636,
    51.961807,
    -3.79636,
    51.961807
  ],
  "geometry": {"coordinates":[-3.79636,51.961807],"type":"Point"}
}
