{
  "id": 437959597,
  "type": "Feature",
  "properties": {
    "date:inception_lower": "1980-01-01",
    "date:inception_upper": "1980-01-01",
    "edtf:cessation": "",
    "edtf:inception": "1980-01-01",
    "geom:area": 0,
    "geom:bbox": "-1.874081,52.430878,-1.874081,52.430878",
    "geom:latitude": 52.430878,
    "geom:longitude": -1.874081,
    "gp:parent_id": "12723",
    "iso:country": "GB",
    "mz:hierarchy_label": 1,
    "mz:is_current": 1,
    "os:country_code": "E92000001",
    "os:county_code": "E99999999",
    "os:district_code": "E08000025",
    "os:positional_quality_indicator": "1",
    "os:region_code": "E12000005",
    "src:geom": "os",
    "wof:belongsto": [
      85633159,
      102191581,
      136253055,
      1864205483,
      1360699077,
      101750467,
      1880762069,
      404227469,
      1880773161
    ],
    "wof:breaches": [],
    "wof:concordances": {
      "gp:id": "26844000"
    },
    "wof:country": "GB",
    "wof:created": 1583701650,
    "wof:geomhash": "f24182b50470e06b7e9cb3ad8f4f1fc3",
    "wof:hierarchy": [
      {
        "continent_id": 102191581,
        "country_id": 85633159,
        "county_id": 1360699077,
        "empire_id": 136253055,
        "locality_id": 101750467,
        "macrocounty_id": 1880762069,
        "macroregion_id": 404227469,
        "postalcode_id": 437959597,
        "region_id": 1880773161
      },
      {
        "continent_id": 102191581,
        "country_id": 85633159,
        "empire_id": 136253055,
        "postalcode_id": 437959597,
        "postalregion_id": 1864205483
      }
    ],
    "wof:id": 437959597,
    "wof:lastmodified": 1763548135,
    "wof:name": "B13 0TQ",
    "wof:parent_id": 101750467,
    "wof:placetype": "postalcode",
    "wof:repo": "whosonfirst-data-postalcode-gb",
    "wof:superseded_by": [],
    "wof:supersedes": [],
    "wof:tags": []
  },
  "bbox": [
    -1.874081,
    52.430878,
    -1.874081,
    52.430878
  ],
  "geometry": {"coordinates":[-1.874081,52.430878],"type":"Point"}
}
