{
  "id": 1160814506,
  "type": "Feature",
  "properties": {
    "date:cessation_lower": "1998-06-01",
    "date:cessation_upper": "1998-06-01",
    "date:inception_lower": "1980-01-01",
    "date:inception_upper": "1980-01-01",
    "edtf:cessation": "1998-06-01",
    "edtf:inception": "1980-01-01",
    "geom:area": 0,
    "geom:bbox": "-1.190835,54.116953,-1.190835,54.116953",
    "geom:latitude": 54.116953,
    "geom:longitude": -1.190835,
    "iso:country": "GB",
    "mz:hierarchy_label": 1,
    "mz:is_current": 0,
    "os:country_code": "E92000001",
    "os:county_code": "E99999999",
    "os:district_code": "E06000065",
    "os:positional_quality_indicator": "1",
    "os:region_code": "E12000003",
    "src:geom": "os",
    "wof:belongsto": [
      1360698753,
      404438477,
      1126056549,
      1880762011
    ],
    "wof:breaches": [],
    "wof:country": "GB",
    "wof:created": 1583791174,
    "wof:geomhash": "73f21b5c12819e40952ad92a37f2fe19",
    "wof:hierarchy": [
      {
        "continent_id": -1,
        "country_id": -1,
        "county_id": 1360698753,
        "localadmin_id": 404438477,
        "locality_id": 1126056549,
        "macrocounty_id": 1880762011,
        "postalcode_id": 1160814506,
        "region_id": -1
      }
    ],
    "wof:id": 1160814506,
    "wof:lastmodified": 1763548324,
    "wof:name": "YO6 3EE",
    "wof:parent_id": 1126056549,
    "wof:placetype": "postalcode",
    "wof:repo": "whosonfirst-data-postalcode-gb",
    "wof:superseded_by": [],
    "wof:supersedes": [],
    "wof:tags": []
  },
  "bbox": [
    -1.190835,
    54.116953,
    -1.190835,
    54.116953
  ],
  "geometry": {"coordinates":[-1.190835,54.116953],"type":"Point"}
}
