{
  "id": 471532991,
  "type": "Feature",
  "properties": {
    "date:inception_lower": "1980-01-01",
    "date:inception_upper": "1980-01-01",
    "edtf:cessation": "",
    "edtf:inception": "1980-01-01",
    "geom:area": 0,
    "geom:bbox": "-0.947870,51.422812,-0.947870,51.422812",
    "geom:latitude": 51.422812,
    "geom:longitude": -0.94787,
    "gp:parent_id": "34637",
    "iso:country": "GB",
    "mz:hierarchy_label": 1,
    "mz:is_current": 1,
    "os:country_code": "E92000001",
    "os:county_code": "E99999999",
    "os:district_code": "E06000041",
    "os:positional_quality_indicator": "1",
    "os:region_code": "E12000008",
    "src:geom": "os",
    "wof:belongsto": [
      85633159,
      102191581,
      136253055,
      1864210031,
      1360698967,
      404431865,
      1126031037,
      1880762165,
      404227469,
      1880772969
    ],
    "wof:breaches": [],
    "wof:concordances": {
      "gp:id": "27809729"
    },
    "wof:country": "GB",
    "wof:created": 1583701663,
    "wof:geomhash": "6313458588ca34c9be334295dc236a7d",
    "wof:hierarchy": [
      {
        "continent_id": 102191581,
        "country_id": 85633159,
        "county_id": 1360698967,
        "empire_id": 136253055,
        "localadmin_id": 404431865,
        "locality_id": 1126031037,
        "macrocounty_id": 1880762165,
        "macroregion_id": 404227469,
        "postalcode_id": 471532991,
        "region_id": 1880772969
      },
      {
        "continent_id": 102191581,
        "country_id": 85633159,
        "empire_id": 136253055,
        "postalcode_id": 471532991,
        "postalregion_id": 1864210031
      }
    ],
    "wof:id": 471532991,
    "wof:lastmodified": 1763547991,
    "wof:name": "RG2 9BL",
    "wof:parent_id": 1126031037,
    "wof:placetype": "postalcode",
    "wof:repo": "whosonfirst-data-postalcode-gb",
    "wof:superseded_by": [],
    "wof:supersedes": [],
    "wof:tags": []
  },
  "bbox": [
    -0.94787,
    51.422812,
    -0.94787,
    51.422812
  ],
  "geometry": {"coordinates":[-0.94787,51.422812],"type":"Point"}
}
