{
  "id": 437756693,
  "type": "Feature",
  "properties": {
    "date:inception_lower": "2018-12-01",
    "date:inception_upper": "2018-12-01",
    "edtf:cessation": "",
    "edtf:inception": "2018-12-01",
    "geom:area": 0,
    "geom:bbox": "-3.562153,51.522220,-3.562153,51.522220",
    "geom:latitude": 51.52222,
    "geom:longitude": -3.562153,
    "gp:parent_id": "31637",
    "iso:country": "GB",
    "mz:hierarchy_label": 1,
    "mz:is_current": 1,
    "os:country_code": "W92000004",
    "os:county_code": "W99999999",
    "os:district_code": "W06000013",
    "os:positional_quality_indicator": "1",
    "os:region_code": "W99999999",
    "src:geom": "os",
    "wof:belongsto": [
      85633159,
      102191581,
      136253055,
      1864206181,
      1360699051,
      404437045,
      1360711795,
      1880762185,
      404227475,
      1880773115
    ],
    "wof:breaches": [],
    "wof:concordances": {
      "gp:id": "28855142"
    },
    "wof:country": "GB",
    "wof:created": 1583701533,
    "wof:geomhash": "f1cb094d4a9a338291554e1a2589b61c",
    "wof:hierarchy": [
      {
        "continent_id": 102191581,
        "country_id": 85633159,
        "county_id": 1360699051,
        "empire_id": 136253055,
        "localadmin_id": 404437045,
        "locality_id": 1360711795,
        "macrocounty_id": 1880762185,
        "macroregion_id": 404227475,
        "postalcode_id": 437756693,
        "region_id": 1880773115
      },
      {
        "continent_id": 102191581,
        "country_id": 85633159,
        "empire_id": 136253055,
        "postalcode_id": 437756693,
        "postalregion_id": 1864206181
      }
    ],
    "wof:id": 437756693,
    "wof:lastmodified": 1763548142,
    "wof:name": "CF35 6PY",
    "wof:parent_id": 1360711795,
    "wof:placetype": "postalcode",
    "wof:repo": "whosonfirst-data-postalcode-gb",
    "wof:superseded_by": [],
    "wof:supersedes": [],
    "wof:tags": []
  },
  "bbox": [
    -3.562153,
    51.52222,
    -3.562153,
    51.52222
  ],
  "geometry": {"coordinates":[-3.562153,51.52222],"type":"Point"}
}
