{
  "id": 471321421,
  "type": "Feature",
  "properties": {
    "date:inception_lower": "1980-01-01",
    "date:inception_upper": "1980-01-01",
    "edtf:cessation": "",
    "edtf:inception": "1980-01-01",
    "geom:area": 0,
    "geom:bbox": "-1.199150,52.077314,-1.199150,52.077314",
    "geom:latitude": 52.077314,
    "geom:longitude": -1.19915,
    "gp:parent_id": "21771",
    "iso:country": "GB",
    "mz:hierarchy_label": 1,
    "mz:is_current": 1,
    "os:country_code": "E92000001",
    "os:county_code": "E99999999",
    "os:district_code": "E06000062",
    "os:positional_quality_indicator": "1",
    "os:region_code": "E12000004",
    "src:geom": "os",
    "wof:belongsto": [
      85633159,
      102191581,
      136253055,
      1864209461,
      1880773231,
      404432781,
      1360753243,
      1880762029,
      404227469,
      1880773265
    ],
    "wof:breaches": [],
    "wof:concordances": {
      "gp:id": "26358866"
    },
    "wof:country": "GB",
    "wof:created": 1583701499,
    "wof:geomhash": "a97b85b7ac87356383586ba54c6f0955",
    "wof:hierarchy": [
      {
        "continent_id": 102191581,
        "country_id": 85633159,
        "county_id": 1880773231,
        "empire_id": 136253055,
        "localadmin_id": 404432781,
        "locality_id": 1360753243,
        "macrocounty_id": 1880762029,
        "macroregion_id": 404227469,
        "postalcode_id": 471321421,
        "region_id": 1880773265
      },
      {
        "continent_id": 102191581,
        "country_id": 85633159,
        "empire_id": 136253055,
        "postalcode_id": 471321421,
        "postalregion_id": 1864209461
      }
    ],
    "wof:id": 471321421,
    "wof:lastmodified": 1763548423,
    "wof:name": "OX17 2DZ",
    "wof:parent_id": 1360753243,
    "wof:placetype": "postalcode",
    "wof:repo": "whosonfirst-data-postalcode-gb",
    "wof:superseded_by": [],
    "wof:supersedes": [],
    "wof:tags": []
  },
  "bbox": [
    -1.19915,
    52.077314,
    -1.19915,
    52.077314
  ],
  "geometry": {"coordinates":[-1.19915,52.077314],"type":"Point"}
}
