{
  "id": 1998338343,
  "type": "Feature",
  "properties": {
    "date:inception_lower": "2024-12-01",
    "date:inception_upper": "2024-12-01",
    "edtf:cessation": "",
    "edtf:inception": "2024-12-01",
    "geom:area": 0,
    "geom:bbox": "-1.546214,53.781047,-1.546214,53.781047",
    "geom:latitude": 53.781047,
    "geom:longitude": -1.546214,
    "iso:country": "GB",
    "mz:hierarchy_label": 1,
    "mz:is_current": 1,
    "os:country_code": "E92000001",
    "os:county_code": "E99999999",
    "os:district_code": "E08000035",
    "os:positional_quality_indicator": "1",
    "os:region_code": "E12000003",
    "src:geom": "os",
    "wof:belongsto": [
      102191581,
      85633159,
      1360698749,
      136253055,
      101750579,
      1880762059,
      404227469,
      1880773017,
      1864208631
    ],
    "wof:breaches": [],
    "wof:country": "GB",
    "wof:created": 1763548770,
    "wof:geomhash": "dd89486973b273c8bf612f0cc575a060",
    "wof:hierarchy": [
      {
        "continent_id": 102191581,
        "country_id": 85633159,
        "county_id": 1360698749,
        "empire_id": 136253055,
        "locality_id": 101750579,
        "macrocounty_id": 1880762059,
        "macroregion_id": 404227469,
        "postalcode_id": 1998338343,
        "region_id": 1880773017
      },
      {
        "continent_id": 102191581,
        "country_id": 85633159,
        "empire_id": 136253055,
        "postalcode_id": 1998338343,
        "postalregion_id": 1864208631
      }
    ],
    "wof:id": 1998338343,
    "wof:lastmodified": 1763548770,
    "wof:name": "LS11 6FE",
    "wof:parent_id": 101750579,
    "wof:placetype": "postalcode",
    "wof:repo": "whosonfirst-data-postalcode-gb",
    "wof:superseded_by": [],
    "wof:supersedes": [],
    "wof:tags": []
  },
  "bbox": [
    -1.546214,
    53.781047,
    -1.546214,
    53.781047
  ],
  "geometry": {"coordinates":[-1.546214,53.781047],"type":"Point"}
}
