{
  "id": 1160887380,
  "type": "Feature",
  "properties": {
    "date:cessation_lower": "1999-06-01",
    "date:cessation_upper": "1999-06-01",
    "date:inception_lower": "1980-01-01",
    "date:inception_upper": "1980-01-01",
    "edtf:cessation": "1999-06-01",
    "edtf:inception": "1980-01-01",
    "geom:area": 0,
    "geom:bbox": "0.310230,51.289756,0.310230,51.289756",
    "geom:latitude": 51.289756,
    "geom:longitude": 0.31023,
    "iso:country": "GB",
    "mz:hierarchy_label": 1,
    "mz:is_current": 0,
    "os:country_code": "E92000001",
    "os:county_code": "E10000016",
    "os:district_code": "E07000115",
    "os:positional_quality_indicator": "1",
    "os:region_code": "E12000008",
    "src:geom": "os",
    "wof:belongsto": [
      85633159,
      102191581,
      136253055,
      1864211079,
      1880771509,
      404449247,
      1125786773,
      1880762057,
      404227469,
      1880762705
    ],
    "wof:breaches": [],
    "wof:country": "GB",
    "wof:created": 1583794415,
    "wof:geomhash": "abdb23e74b889479d57f75e5a5d0092b",
    "wof:hierarchy": [
      {
        "continent_id": 102191581,
        "country_id": 85633159,
        "county_id": 1880771509,
        "empire_id": 136253055,
        "localadmin_id": 404449247,
        "locality_id": 1125786773,
        "macrocounty_id": 1880762057,
        "macroregion_id": 404227469,
        "postalcode_id": 1160887380,
        "region_id": 1880762705
      },
      {
        "continent_id": 102191581,
        "country_id": 85633159,
        "empire_id": 136253055,
        "postalcode_id": 1160887380,
        "postalregion_id": 1864211079
      }
    ],
    "wof:id": 1160887380,
    "wof:lastmodified": 1763548326,
    "wof:name": "TN15 8LT",
    "wof:parent_id": 1125786773,
    "wof:placetype": "postalcode",
    "wof:repo": "whosonfirst-data-postalcode-gb",
    "wof:superseded_by": [],
    "wof:supersedes": [],
    "wof:tags": []
  },
  "bbox": [
    0.31023,
    51.289756,
    0.31023,
    51.289756
  ],
  "geometry": {"coordinates":[0.31023,51.289756],"type":"Point"}
}
