{
  "id": 1161095854,
  "type": "Feature",
  "properties": {
    "date:cessation_lower": "2002-03-01",
    "date:cessation_upper": "2002-03-01",
    "date:inception_lower": "1994-05-01",
    "date:inception_upper": "1994-05-01",
    "edtf:cessation": "2002-03-01",
    "edtf:inception": "1994-05-01",
    "geom:area": 0,
    "geom:bbox": "-1.381935,52.731496,-1.381935,52.731496",
    "geom:latitude": 52.731496,
    "geom:longitude": -1.381935,
    "iso:country": "GB",
    "mz:hierarchy_label": 1,
    "mz:is_current": 0,
    "os:country_code": "E92000001",
    "os:county_code": "E10000018",
    "os:district_code": "E07000134",
    "os:positional_quality_indicator": "1",
    "os:region_code": "E12000004",
    "src:geom": "os",
    "wof:belongsto": [
      85633159,
      102191581,
      136253055,
      1864208433,
      1880771559,
      1125979701,
      1880762051,
      404227469,
      1880773085
    ],
    "wof:breaches": [],
    "wof:country": "GB",
    "wof:created": 1583803642,
    "wof:geomhash": "ce89e57db1012f40c10301d10db29abb",
    "wof:hierarchy": [
      {
        "continent_id": 102191581,
        "country_id": 85633159,
        "county_id": 1880771559,
        "empire_id": 136253055,
        "locality_id": 1125979701,
        "macrocounty_id": 1880762051,
        "macroregion_id": 404227469,
        "postalcode_id": 1161095854,
        "region_id": 1880773085
      },
      {
        "continent_id": 102191581,
        "country_id": 85633159,
        "empire_id": 136253055,
        "postalcode_id": 1161095854,
        "postalregion_id": 1864208433
      }
    ],
    "wof:id": 1161095854,
    "wof:lastmodified": 1763548286,
    "wof:name": "LE67 3HA",
    "wof:parent_id": 1125979701,
    "wof:placetype": "postalcode",
    "wof:repo": "whosonfirst-data-postalcode-gb",
    "wof:superseded_by": [],
    "wof:supersedes": [],
    "wof:tags": []
  },
  "bbox": [
    -1.381935,
    52.731496,
    -1.381935,
    52.731496
  ],
  "geometry": {"coordinates":[-1.381935,52.731496],"type":"Point"}
}
