{
  "id": 874490089,
  "type": "Feature",
  "properties": {
    "date:inception_lower": "2013-07-01",
    "date:inception_upper": "2013-07-01",
    "edtf:cessation": "",
    "edtf:inception": "2013-07-01",
    "geom:area": 0,
    "geom:bbox": "-4.013276,55.849676,-4.013276,55.849676",
    "geom:latitude": 55.849676,
    "geom:longitude": -4.013276,
    "iso:country": "GB",
    "mz:hierarchy_label": 1,
    "mz:is_current": 1,
    "os:country_code": "S92000003",
    "os:county_code": "S99999999",
    "os:district_code": "S12000050",
    "os:positional_quality_indicator": "1",
    "os:region_code": "S99999999",
    "src:geom": "os",
    "wof:belongsto": [
      85633159,
      102191581,
      136253055,
      1864208939,
      1360698949,
      101877117,
      1880762099,
      404227471,
      1880773061
    ],
    "wof:breaches": [],
    "wof:country": "GB",
    "wof:created": 1468889076,
    "wof:geomhash": "cbec32f11210f3c9e9e1cdfb9e3e8eda",
    "wof:hierarchy": [
      {
        "continent_id": 102191581,
        "country_id": 85633159,
        "county_id": 1360698949,
        "empire_id": 136253055,
        "locality_id": 101877117,
        "macrocounty_id": 1880762099,
        "macroregion_id": 404227471,
        "postalcode_id": 874490089,
        "region_id": 1880773061
      },
      {
        "continent_id": 102191581,
        "country_id": 85633159,
        "empire_id": 136253055,
        "postalcode_id": 874490089,
        "postalregion_id": 1864208939
      }
    ],
    "wof:id": 874490089,
    "wof:lastmodified": 1763547947,
    "wof:name": "ML5 4JU",
    "wof:parent_id": 101877117,
    "wof:placetype": "postalcode",
    "wof:repo": "whosonfirst-data-postalcode-gb",
    "wof:superseded_by": [],
    "wof:supersedes": [],
    "wof:tags": []
  },
  "bbox": [
    -4.013276,
    55.849676,
    -4.013276,
    55.849676
  ],
  "geometry": {"coordinates":[-4.013276,55.849676],"type":"Point"}
}
