{
  "id": 1947769715,
  "type": "Feature",
  "properties": {
    "date:inception_lower": "2024-10-01",
    "date:inception_upper": "2024-10-01",
    "edtf:cessation": "",
    "edtf:inception": "2024-10-01",
    "geom:area": 0,
    "geom:bbox": "-2.472956,50.604922,-2.472956,50.604922",
    "geom:latitude": 50.604922,
    "geom:longitude": -2.472956,
    "iso:country": "GB",
    "mz:hierarchy_label": 1,
    "mz:is_current": 1,
    "os:country_code": "E92000001",
    "os:county_code": "E99999999",
    "os:district_code": "E06000059",
    "os:positional_quality_indicator": "1",
    "os:region_code": "E12000009",
    "src:geom": "os",
    "wof:belongsto": [
      102191581,
      85633159,
      1360698745,
      136253055,
      101751585,
      1880762151,
      404227469,
      1880772881,
      1864206875
    ],
    "wof:breaches": [],
    "wof:country": "GB",
    "wof:created": 1736334951,
    "wof:geomhash": "78f9874b81802fee7ad0a34de3e55475",
    "wof:hierarchy": [
      {
        "continent_id": 102191581,
        "country_id": 85633159,
        "county_id": 1360698745,
        "empire_id": 136253055,
        "locality_id": 101751585,
        "macrocounty_id": 1880762151,
        "macroregion_id": 404227469,
        "postalcode_id": 1947769715,
        "region_id": 1880772881
      },
      {
        "continent_id": 102191581,
        "country_id": 85633159,
        "empire_id": 136253055,
        "postalcode_id": 1947769715,
        "postalregion_id": 1864206875
      }
    ],
    "wof:id": 1947769715,
    "wof:lastmodified": 1763547894,
    "wof:name": "DT4 0NE",
    "wof:parent_id": 101751585,
    "wof:placetype": "postalcode",
    "wof:repo": "whosonfirst-data-postalcode-gb",
    "wof:superseded_by": [],
    "wof:supersedes": [],
    "wof:tags": []
  },
  "bbox": [
    -2.472956,
    50.604922,
    -2.472956,
    50.604922
  ],
  "geometry": {"coordinates":[-2.472956,50.604922],"type":"Point"}
}
