{
  "id": 1161093818,
  "type": "Feature",
  "properties": {
    "date:cessation_lower": "2001-01-01",
    "date:cessation_upper": "2001-01-01",
    "date:inception_lower": "1991-09-01",
    "date:inception_upper": "1991-09-01",
    "edtf:cessation": "2001-01-01",
    "edtf:inception": "1991-09-01",
    "geom:area": 0,
    "geom:bbox": "-0.855300,51.270965,-0.855300,51.270965",
    "geom:latitude": 51.270965,
    "geom:longitude": -0.8553,
    "iso:country": "GB",
    "mz:hierarchy_label": 1,
    "mz:is_current": 0,
    "os:country_code": "E92000001",
    "os:county_code": "E10000014",
    "os:district_code": "E07000089",
    "os:positional_quality_indicator": "1",
    "os:region_code": "E12000008",
    "src:geom": "os",
    "wof:belongsto": [
      102191581,
      85633159,
      1880771471,
      136253055,
      404430379,
      1360754303,
      1880762155,
      404227469,
      1880762717
    ],
    "wof:breaches": [],
    "wof:country": "GB",
    "wof:created": 1583803592,
    "wof:geomhash": "464ada012cd3d93c4ffabcd854d02137",
    "wof:hierarchy": [
      {
        "continent_id": 102191581,
        "country_id": 85633159,
        "county_id": 1880771471,
        "empire_id": 136253055,
        "localadmin_id": 404430379,
        "locality_id": 1360754303,
        "macrocounty_id": 1880762155,
        "macroregion_id": 404227469,
        "postalcode_id": 1161093818,
        "region_id": 1880762717
      }
    ],
    "wof:id": 1161093818,
    "wof:lastmodified": 1763548287,
    "wof:name": "GU13 0TY",
    "wof:parent_id": 1360754303,
    "wof:placetype": "postalcode",
    "wof:repo": "whosonfirst-data-postalcode-gb",
    "wof:superseded_by": [],
    "wof:supersedes": [],
    "wof:tags": []
  },
  "bbox": [
    -0.8553,
    51.270965,
    -0.8553,
    51.270965
  ],
  "geometry": {"coordinates":[-0.8553,51.270965],"type":"Point"}
}
