{
  "id": 504577171,
  "type": "Feature",
  "properties": {
    "date:inception_lower": "1980-01-01",
    "date:inception_upper": "1980-01-01",
    "edtf:cessation": "",
    "edtf:inception": "1980-01-01",
    "geom:area": 0,
    "geom:bbox": "-4.028769,56.412257,-4.028769,56.412257",
    "geom:latitude": 56.412257,
    "geom:longitude": -4.028769,
    "gp:parent_id": "16742",
    "iso:country": "GB",
    "mz:hierarchy_label": 1,
    "mz:is_current": 1,
    "os:country_code": "S92000003",
    "os:county_code": "S99999999",
    "os:district_code": "S12000048",
    "os:positional_quality_indicator": "1",
    "os:region_code": "S99999999",
    "src:geom": "os",
    "wof:belongsto": [
      85633159,
      102191581,
      136253055,
      1864209821,
      1360698829,
      1880762043,
      404227471,
      1880772947
    ],
    "wof:breaches": [],
    "wof:concordances": {
      "gp:id": "27763414"
    },
    "wof:country": "GB",
    "wof:created": 1583701448,
    "wof:geomhash": "efb777ea777a07984eae757a063e3d34",
    "wof:hierarchy": [
      {
        "continent_id": 102191581,
        "country_id": 85633159,
        "county_id": 1360698829,
        "empire_id": 136253055,
        "macrocounty_id": 1880762043,
        "macroregion_id": 404227471,
        "postalcode_id": 504577171,
        "region_id": 1880772947
      },
      {
        "continent_id": 102191581,
        "country_id": 85633159,
        "empire_id": 136253055,
        "postalcode_id": 504577171,
        "postalregion_id": 1864209821
      }
    ],
    "wof:id": 504577171,
    "wof:lastmodified": 1763548182,
    "wof:name": "PH6 2LY",
    "wof:parent_id": 1360698829,
    "wof:placetype": "postalcode",
    "wof:repo": "whosonfirst-data-postalcode-gb",
    "wof:superseded_by": [],
    "wof:supersedes": [],
    "wof:tags": []
  },
  "bbox": [
    -4.028769,
    56.412257,
    -4.028769,
    56.412257
  ],
  "geometry": {"coordinates":[-4.028769,56.412257],"type":"Point"}
}
