{
  "id": 1160757206,
  "type": "Feature",
  "properties": {
    "date:cessation_lower": "1994-05-01",
    "date:cessation_upper": "1994-05-01",
    "date:inception_lower": "1980-01-01",
    "date:inception_upper": "1980-01-01",
    "edtf:cessation": "1994-05-01",
    "edtf:inception": "1980-01-01",
    "geom:area": 0,
    "geom:bbox": "-1.190658,53.090377,-1.190658,53.090377",
    "geom:latitude": 53.090377,
    "geom:longitude": -1.190658,
    "iso:country": "GB",
    "mz:hierarchy_label": 1,
    "mz:is_current": 0,
    "os:country_code": "E92000001",
    "os:county_code": "E10000024",
    "os:district_code": "E07000173",
    "os:positional_quality_indicator": "8",
    "os:region_code": "E12000004",
    "src:geom": "os",
    "wof:belongsto": [
      85633159,
      102191581,
      136253055,
      1864209161,
      1880771599,
      404453793,
      1125937967,
      1880762077
    ],
    "wof:breaches": [],
    "wof:country": "GB",
    "wof:created": 1583788700,
    "wof:geomhash": "9775d92560925cbc38b66318b9366a37",
    "wof:hierarchy": [
      {
        "continent_id": -1,
        "country_id": -1,
        "county_id": 1880771599,
        "localadmin_id": 404453793,
        "locality_id": 1125937967,
        "macrocounty_id": 1880762077,
        "postalcode_id": 1160757206,
        "region_id": -1
      },
      {
        "continent_id": 102191581,
        "country_id": 85633159,
        "empire_id": 136253055,
        "postalcode_id": 1160757206,
        "postalregion_id": 1864209161
      }
    ],
    "wof:id": 1160757206,
    "wof:lastmodified": 1763548333,
    "wof:name": "NG15 9AA",
    "wof:parent_id": 1125937967,
    "wof:placetype": "postalcode",
    "wof:repo": "whosonfirst-data-postalcode-gb",
    "wof:superseded_by": [],
    "wof:supersedes": [],
    "wof:tags": []
  },
  "bbox": [
    -1.190658,
    53.090377,
    -1.190658,
    53.090377
  ],
  "geometry": {"coordinates":[-1.190658,53.090377],"type":"Point"}
}
