{
  "id": 1160930878,
  "type": "Feature",
  "properties": {
    "date:cessation_lower": "2000-06-01",
    "date:cessation_upper": "2000-06-01",
    "date:inception_lower": "1980-01-01",
    "date:inception_upper": "1980-01-01",
    "edtf:cessation": "2000-06-01",
    "edtf:inception": "1980-01-01",
    "geom:area": 0,
    "geom:bbox": "-2.792068,54.888892,-2.792068,54.888892",
    "geom:latitude": 54.888892,
    "geom:longitude": -2.792068,
    "iso:country": "GB",
    "mz:hierarchy_label": 1,
    "mz:is_current": 0,
    "os:country_code": "E92000001",
    "os:county_code": "E99999999",
    "os:district_code": "E06000063",
    "os:positional_quality_indicator": "1",
    "os:region_code": "E12000002",
    "src:geom": "os",
    "wof:belongsto": [
      85633159,
      102191581,
      136253055,
      1864206103,
      1880773239,
      404448487,
      1125905565,
      1880761989,
      404227469,
      1880773269
    ],
    "wof:breaches": [],
    "wof:country": "GB",
    "wof:created": 1583796311,
    "wof:geomhash": "95d7013bfc9e094ffabf794e80db0518",
    "wof:hierarchy": [
      {
        "continent_id": 102191581,
        "country_id": 85633159,
        "county_id": 1880773239,
        "empire_id": 136253055,
        "localadmin_id": 404448487,
        "locality_id": 1125905565,
        "macrocounty_id": 1880761989,
        "macroregion_id": 404227469,
        "postalcode_id": 1160930878,
        "region_id": 1880773269
      },
      {
        "continent_id": 102191581,
        "country_id": 85633159,
        "empire_id": 136253055,
        "postalcode_id": 1160930878,
        "postalregion_id": 1864206103
      }
    ],
    "wof:id": 1160930878,
    "wof:lastmodified": 1763548339,
    "wof:name": "CA4 9AL",
    "wof:parent_id": 1125905565,
    "wof:placetype": "postalcode",
    "wof:repo": "whosonfirst-data-postalcode-gb",
    "wof:superseded_by": [],
    "wof:supersedes": [],
    "wof:tags": []
  },
  "bbox": [
    -2.792068,
    54.888892,
    -2.792068,
    54.888892
  ],
  "geometry": {"coordinates":[-2.792068,54.888892],"type":"Point"}
}
