{
  "id": 1161117460,
  "type": "Feature",
  "properties": {
    "date:cessation_lower": "1985-12-01",
    "date:cessation_upper": "1985-12-01",
    "date:inception_lower": "1983-01-01",
    "date:inception_upper": "1983-01-01",
    "edtf:cessation": "1985-12-01",
    "edtf:inception": "1983-01-01",
    "geom:area": 0,
    "geom:bbox": "-0.821287,52.064189,-0.821287,52.064189",
    "geom:latitude": 52.064189,
    "geom:longitude": -0.821287,
    "iso:country": "GB",
    "mz:hierarchy_label": 1,
    "mz:is_current": 0,
    "os:country_code": "E92000001",
    "os:county_code": "E99999999",
    "os:district_code": "E06000042",
    "os:positional_quality_indicator": "8",
    "os:region_code": "E12000008",
    "src:geom": "os",
    "wof:belongsto": [
      85633159,
      102191581,
      136253055,
      1864208869,
      1360698913,
      404436227,
      1360758367,
      1880762141,
      404227469,
      1880773087
    ],
    "wof:breaches": [],
    "wof:country": "GB",
    "wof:created": 1583804623,
    "wof:geomhash": "4979259226710eeb70e62c6de08fe56b",
    "wof:hierarchy": [
      {
        "continent_id": 102191581,
        "country_id": 85633159,
        "county_id": 1360698913,
        "empire_id": 136253055,
        "localadmin_id": 404436227,
        "locality_id": 1360758367,
        "macrocounty_id": 1880762141,
        "macroregion_id": 404227469,
        "postalcode_id": 1161117460,
        "region_id": 1880773087
      },
      {
        "continent_id": 102191581,
        "country_id": 85633159,
        "empire_id": 136253055,
        "postalcode_id": 1161117460,
        "postalregion_id": 1864208869
      }
    ],
    "wof:id": 1161117460,
    "wof:lastmodified": 1763548282,
    "wof:name": "MK12 5QX",
    "wof:parent_id": 1360758367,
    "wof:placetype": "postalcode",
    "wof:repo": "whosonfirst-data-postalcode-gb",
    "wof:superseded_by": [],
    "wof:supersedes": [],
    "wof:tags": []
  },
  "bbox": [
    -0.821287,
    52.064189,
    -0.821287,
    52.064189
  ],
  "geometry": {"coordinates":[-0.821287,52.064189],"type":"Point"}
}
