{
  "id": 488075317,
  "type": "Feature",
  "properties": {
    "date:inception_lower": "1980-01-01",
    "date:inception_upper": "1980-01-01",
    "edtf:cessation": "",
    "edtf:inception": "1980-01-01",
    "geom:area": 0,
    "geom:bbox": "-2.481193,53.472360,-2.481193,53.472360",
    "geom:latitude": 53.47236,
    "geom:longitude": -2.481193,
    "gp:parent_id": "21145",
    "iso:country": "GB",
    "mz:hierarchy_label": 1,
    "mz:is_current": 1,
    "os:country_code": "E92000001",
    "os:county_code": "E99999999",
    "os:district_code": "E08000010",
    "os:positional_quality_indicator": "1",
    "os:region_code": "E12000002",
    "src:geom": "os",
    "wof:belongsto": [
      85633159,
      102191581,
      136253055,
      1864211471,
      1360699023,
      1360817301,
      1125901563,
      1880762163,
      404227469,
      1880773095
    ],
    "wof:breaches": [],
    "wof:concordances": {
      "gp:id": "28134282"
    },
    "wof:country": "GB",
    "wof:created": 1583701231,
    "wof:geomhash": "edee85568e0f22c0b11e888e6da81d3c",
    "wof:hierarchy": [
      {
        "continent_id": 102191581,
        "country_id": 85633159,
        "county_id": 1360699023,
        "empire_id": 136253055,
        "localadmin_id": 1360817301,
        "locality_id": 1125901563,
        "macrocounty_id": 1880762163,
        "macroregion_id": 404227469,
        "postalcode_id": 488075317,
        "region_id": 1880773095
      },
      {
        "continent_id": 102191581,
        "country_id": 85633159,
        "empire_id": 136253055,
        "postalcode_id": 488075317,
        "postalregion_id": 1864211471
      }
    ],
    "wof:id": 488075317,
    "wof:lastmodified": 1763548564,
    "wof:name": "WA3 5QF",
    "wof:parent_id": 1125901563,
    "wof:placetype": "postalcode",
    "wof:repo": "whosonfirst-data-postalcode-gb",
    "wof:superseded_by": [],
    "wof:supersedes": [],
    "wof:tags": []
  },
  "bbox": [
    -2.481193,
    53.47236,
    -2.481193,
    53.47236
  ],
  "geometry": {"coordinates":[-2.481193,53.47236],"type":"Point"}
}
