{
  "id": 504391079,
  "type": "Feature",
  "properties": {
    "date:inception_lower": "1985-09-01",
    "date:inception_upper": "1985-09-01",
    "edtf:cessation": "",
    "edtf:inception": "1985-09-01",
    "geom:area": 0,
    "geom:bbox": "-4.330833,55.890406,-4.330833,55.890406",
    "geom:latitude": 55.890406,
    "geom:longitude": -4.330833,
    "gp:parent_id": "12696198",
    "iso:country": "GB",
    "mz:hierarchy_label": 1,
    "mz:is_current": 1,
    "os:country_code": "S92000003",
    "os:county_code": "S99999999",
    "os:district_code": "S12000049",
    "os:positional_quality_indicator": "1",
    "os:region_code": "S99999999",
    "src:geom": "os",
    "wof:belongsto": [
      85633159,
      102191581,
      136253055,
      1864207325,
      1360698797,
      1175612707,
      1880762095,
      404227471,
      1880772925
    ],
    "wof:breaches": [],
    "wof:concordances": {
      "gp:id": "26679098"
    },
    "wof:country": "GB",
    "wof:created": 1583701126,
    "wof:geomhash": "5cfee72f90ad7ee34a6dc7682776f9ab",
    "wof:hierarchy": [
      {
        "continent_id": 102191581,
        "country_id": 85633159,
        "county_id": 1360698797,
        "empire_id": 136253055,
        "locality_id": 1175612707,
        "macrocounty_id": 1880762095,
        "macroregion_id": 404227471,
        "postalcode_id": 504391079,
        "region_id": 1880772925
      },
      {
        "continent_id": 102191581,
        "country_id": 85633159,
        "empire_id": 136253055,
        "postalcode_id": 504391079,
        "postalregion_id": 1864207325
      }
    ],
    "wof:id": 504391079,
    "wof:lastmodified": 1763547904,
    "wof:name": "G13 2LA",
    "wof:parent_id": 1175612707,
    "wof:placetype": "postalcode",
    "wof:repo": "whosonfirst-data-postalcode-gb",
    "wof:superseded_by": [],
    "wof:supersedes": [],
    "wof:tags": []
  },
  "bbox": [
    -4.330833,
    55.890406,
    -4.330833,
    55.890406
  ],
  "geometry": {"coordinates":[-4.330833,55.890406],"type":"Point"}
}
