{
  "id": 471776875,
  "type": "Feature",
  "properties": {
    "date:inception_lower": "2001-12-01",
    "date:inception_upper": "2001-12-01",
    "edtf:cessation": "",
    "edtf:inception": "2001-12-01",
    "geom:area": 0,
    "geom:bbox": "-2.034676,53.497585,-2.034676,53.497585",
    "geom:latitude": 53.497585,
    "geom:longitude": -2.034676,
    "gp:parent_id": "23153",
    "iso:country": "GB",
    "mz:hierarchy_label": 1,
    "mz:is_current": 1,
    "os:country_code": "E92000001",
    "os:county_code": "E99999999",
    "os:district_code": "E08000008",
    "os:positional_quality_indicator": "1",
    "os:region_code": "E12000002",
    "src:geom": "os",
    "wof:belongsto": [
      85633159,
      102191581,
      136253055,
      1864210529,
      1360698931,
      1360817329,
      1125984457,
      1880762163,
      404227469,
      1880773095
    ],
    "wof:breaches": [],
    "wof:concordances": {
      "gp:id": "27919003"
    },
    "wof:country": "GB",
    "wof:created": 1583701738,
    "wof:geomhash": "378cb5ac47174cafd0c06cd8a5a10c85",
    "wof:hierarchy": [
      {
        "continent_id": 102191581,
        "country_id": 85633159,
        "county_id": 1360698931,
        "empire_id": 136253055,
        "localadmin_id": 1360817329,
        "locality_id": 1125984457,
        "macrocounty_id": 1880762163,
        "macroregion_id": 404227469,
        "postalcode_id": 471776875,
        "region_id": 1880773095
      },
      {
        "continent_id": 102191581,
        "country_id": 85633159,
        "empire_id": 136253055,
        "postalcode_id": 471776875,
        "postalregion_id": 1864210529
      }
    ],
    "wof:id": 471776875,
    "wof:lastmodified": 1763548166,
    "wof:name": "SK15 3RJ",
    "wof:parent_id": 1125984457,
    "wof:placetype": "postalcode",
    "wof:repo": "whosonfirst-data-postalcode-gb",
    "wof:superseded_by": [],
    "wof:supersedes": [],
    "wof:tags": []
  },
  "bbox": [
    -2.034676,
    53.497585,
    -2.034676,
    53.497585
  ],
  "geometry": {"coordinates":[-2.034676,53.497585],"type":"Point"}
}
