{
  "id": 1998339189,
  "type": "Feature",
  "properties": {
    "date:inception_lower": "2025-07-01",
    "date:inception_upper": "2025-07-01",
    "edtf:cessation": "",
    "edtf:inception": "2025-07-01",
    "geom:area": 0,
    "geom:bbox": "-2.461874,53.733538,-2.461874,53.733538",
    "geom:latitude": 53.733538,
    "geom:longitude": -2.461874,
    "iso:country": "GB",
    "mz:hierarchy_label": 1,
    "mz:is_current": 1,
    "os:country_code": "E92000001",
    "os:county_code": "E99999999",
    "os:district_code": "E06000008",
    "os:positional_quality_indicator": "1",
    "os:region_code": "E12000002",
    "src:geom": "os",
    "wof:belongsto": [
      102191581,
      85633159,
      1360698999,
      136253055,
      101750575,
      1880762053,
      404227469,
      1880762711,
      1864205705
    ],
    "wof:breaches": [],
    "wof:country": "GB",
    "wof:created": 1763548801,
    "wof:geomhash": "958b5857c13b0f99093261036114d621",
    "wof:hierarchy": [
      {
        "continent_id": 102191581,
        "country_id": 85633159,
        "county_id": 1360698999,
        "empire_id": 136253055,
        "locality_id": 101750575,
        "macrocounty_id": 1880762053,
        "macroregion_id": 404227469,
        "postalcode_id": 1998339189,
        "region_id": 1880762711
      },
      {
        "continent_id": 102191581,
        "country_id": 85633159,
        "empire_id": 136253055,
        "postalcode_id": 1998339189,
        "postalregion_id": 1864205705
      }
    ],
    "wof:id": 1998339189,
    "wof:lastmodified": 1763548801,
    "wof:name": "BB2 3FJ",
    "wof:parent_id": 101750575,
    "wof:placetype": "postalcode",
    "wof:repo": "whosonfirst-data-postalcode-gb",
    "wof:superseded_by": [],
    "wof:supersedes": [],
    "wof:tags": []
  },
  "bbox": [
    -2.461874,
    53.733538,
    -2.461874,
    53.733538
  ],
  "geometry": {"coordinates":[-2.461874,53.733538],"type":"Point"}
}
