{
  "id": 471033193,
  "type": "Feature",
  "properties": {
    "date:inception_lower": "1999-06-01",
    "date:inception_upper": "1999-06-01",
    "edtf:cessation": "",
    "edtf:inception": "1999-06-01",
    "geom:area": 0,
    "geom:bbox": "-1.581478,55.041923,-1.581478,55.041923",
    "geom:latitude": 55.041923,
    "geom:longitude": -1.581478,
    "iso:country": "GB",
    "mz:hierarchy_label": 1,
    "mz:is_current": 1,
    "os:country_code": "E92000001",
    "os:county_code": "E99999999",
    "os:district_code": "E08000022",
    "os:positional_quality_indicator": "1",
    "os:region_code": "E12000001",
    "src:geom": "os",
    "wof:belongsto": [
      85633159,
      102191581,
      136253055,
      1864209009,
      1360699037,
      1360817045,
      1360832421,
      1880762063,
      404227469,
      1880773053
    ],
    "wof:breaches": [],
    "wof:concordances": {
      "gp:id": "26689159"
    },
    "wof:country": "GB",
    "wof:created": 1583701135,
    "wof:geomhash": "d7660003832e54b2f6927d5418e02a3e",
    "wof:hierarchy": [
      {
        "continent_id": 102191581,
        "country_id": 85633159,
        "county_id": 1360699037,
        "empire_id": 136253055,
        "localadmin_id": 1360817045,
        "locality_id": 1360832421,
        "macrocounty_id": 1880762063,
        "macroregion_id": 404227469,
        "postalcode_id": 471033193,
        "region_id": 1880773053
      },
      {
        "continent_id": 102191581,
        "country_id": 85633159,
        "empire_id": 136253055,
        "postalcode_id": 471033193,
        "postalregion_id": 1864209009
      }
    ],
    "wof:id": 471033193,
    "wof:lastmodified": 1763548370,
    "wof:name": "NE12 5UX",
    "wof:parent_id": 1360832421,
    "wof:placetype": "postalcode",
    "wof:repo": "whosonfirst-data-postalcode-gb",
    "wof:superseded_by": [],
    "wof:supersedes": [],
    "wof:tags": []
  },
  "bbox": [
    -1.581478,
    55.041923,
    -1.581478,
    55.041923
  ],
  "geometry": {"coordinates":[-1.581478,55.041923],"type":"Point"}
}
