{
  "id": 471151551,
  "type": "Feature",
  "properties": {
    "date:inception_lower": "1980-01-01",
    "date:inception_upper": "1980-01-01",
    "edtf:cessation": "",
    "edtf:inception": "1980-01-01",
    "geom:area": 0,
    "geom:bbox": "-1.130447,53.017958,-1.130447,53.017958",
    "geom:latitude": 53.017958,
    "geom:longitude": -1.130447,
    "gp:parent_id": "33051",
    "iso:country": "GB",
    "mz:hierarchy_label": 1,
    "mz:is_current": 1,
    "os:country_code": "E92000001",
    "os:county_code": "E10000024",
    "os:district_code": "E07000173",
    "os:positional_quality_indicator": "1",
    "os:region_code": "E12000004",
    "src:geom": "os",
    "wof:belongsto": [
      85633159,
      102191581,
      136253055,
      1864209201,
      1880771599,
      1360817357,
      1108980397,
      1880762077,
      404227469,
      1880762689
    ],
    "wof:breaches": [],
    "wof:concordances": {
      "gp:id": "27647101"
    },
    "wof:country": "GB",
    "wof:created": 1583701342,
    "wof:geomhash": "4c37f95fb8e53f3c04bc8007813f6ea8",
    "wof:hierarchy": [
      {
        "continent_id": 102191581,
        "country_id": 85633159,
        "county_id": 1880771599,
        "empire_id": 136253055,
        "localadmin_id": 1360817357,
        "locality_id": 1108980397,
        "macrocounty_id": 1880762077,
        "macroregion_id": 404227469,
        "postalcode_id": 471151551,
        "region_id": 1880762689
      },
      {
        "continent_id": 102191581,
        "country_id": 85633159,
        "empire_id": 136253055,
        "postalcode_id": 471151551,
        "postalregion_id": 1864209201
      }
    ],
    "wof:id": 471151551,
    "wof:lastmodified": 1763547985,
    "wof:name": "NG5 8PF",
    "wof:parent_id": 1108980397,
    "wof:placetype": "postalcode",
    "wof:repo": "whosonfirst-data-postalcode-gb",
    "wof:superseded_by": [],
    "wof:supersedes": [],
    "wof:tags": []
  },
  "bbox": [
    -1.130447,
    53.017958,
    -1.130447,
    53.017958
  ],
  "geometry": {"coordinates":[-1.130447,53.017958],"type":"Point"}
}
