{
  "id": 454774165,
  "type": "Feature",
  "properties": {
    "date:inception_lower": "1980-01-01",
    "date:inception_upper": "1980-01-01",
    "edtf:cessation": "",
    "edtf:inception": "1980-01-01",
    "geom:area": 0,
    "geom:bbox": "-0.662992,51.708590,-0.662992,51.708590",
    "geom:latitude": 51.70859,
    "geom:longitude": -0.662992,
    "gp:parent_id": "12695879",
    "iso:country": "GB",
    "mz:hierarchy_label": 1,
    "mz:is_current": 1,
    "os:country_code": "E92000001",
    "os:county_code": "E99999999",
    "os:district_code": "E06000060",
    "os:positional_quality_indicator": "1",
    "os:region_code": "E12000008",
    "src:geom": "os",
    "wof:belongsto": [
      85633159,
      102191581,
      136253055,
      1864207657,
      1360698997,
      404434767,
      1125779381,
      1880762141,
      404227469,
      1880773087
    ],
    "wof:breaches": [],
    "wof:concordances": {
      "gp:id": "27357017"
    },
    "wof:country": "GB",
    "wof:created": 1583701712,
    "wof:geomhash": "ad4d4e7ecc9135b15054ba94b2d7cc14",
    "wof:hierarchy": [
      {
        "continent_id": 102191581,
        "country_id": 85633159,
        "county_id": 1360698997,
        "empire_id": 136253055,
        "localadmin_id": 404434767,
        "locality_id": 1125779381,
        "macrocounty_id": 1880762141,
        "macroregion_id": 404227469,
        "postalcode_id": 454774165,
        "region_id": 1880773087
      },
      {
        "continent_id": 102191581,
        "country_id": 85633159,
        "empire_id": 136253055,
        "postalcode_id": 454774165,
        "postalregion_id": 1864207657
      }
    ],
    "wof:id": 454774165,
    "wof:lastmodified": 1763548562,
    "wof:name": "HP16 0RW",
    "wof:parent_id": 1125779381,
    "wof:placetype": "postalcode",
    "wof:repo": "whosonfirst-data-postalcode-gb",
    "wof:superseded_by": [],
    "wof:supersedes": [],
    "wof:tags": []
  },
  "bbox": [
    -0.662992,
    51.70859,
    -0.662992,
    51.70859
  ],
  "geometry": {"coordinates":[-0.662992,51.70859],"type":"Point"}
}
