{
  "id": 38845692,
  "type": "Feature",
  "properties": {
    "date:cessation_lower": "2000-06-01",
    "date:cessation_upper": "2000-06-01",
    "date:inception_lower": "1995-07-01",
    "date:inception_upper": "1995-07-01",
    "edtf:cessation": "2000-06-01",
    "edtf:inception": "1995-07-01",
    "geom:area": 0,
    "geom:bbox": "-2.270535,53.427344,-2.270535,53.427344",
    "geom:latitude": 53.427344,
    "geom:longitude": -2.270535,
    "iso:country": "GB",
    "mz:hierarchy_label": 1,
    "mz:is_current": 0,
    "os:country_code": "E92000001",
    "os:county_code": "E99999999",
    "os:district_code": "E08000003",
    "os:positional_quality_indicator": "1",
    "os:region_code": "E12000002",
    "src:geom": "os",
    "wof:belongsto": [
      85633159,
      102191581,
      136253055,
      1864208741,
      1360698893,
      101750525,
      1880762163,
      404227469,
      1880773095
    ],
    "wof:breaches": [],
    "wof:country": "GB",
    "wof:created": 1583794931,
    "wof:geomhash": "da7f85d09fd8d0743a61313ded195ec1",
    "wof:hierarchy": [
      {
        "continent_id": 102191581,
        "country_id": 85633159,
        "county_id": 1360698893,
        "empire_id": 136253055,
        "locality_id": 101750525,
        "macrocounty_id": 1880762163,
        "macroregion_id": 404227469,
        "postalcode_id": 38845692,
        "region_id": 1880773095
      },
      {
        "continent_id": 102191581,
        "country_id": 85633159,
        "empire_id": 136253055,
        "postalcode_id": 38845692,
        "postalregion_id": 1864208741
      }
    ],
    "wof:id": 38845692,
    "wof:lastmodified": 1763548769,
    "wof:name": "M21 7JB",
    "wof:parent_id": 101750525,
    "wof:placetype": "postalcode",
    "wof:repo": "whosonfirst-data-postalcode-gb",
    "wof:superseded_by": [],
    "wof:supersedes": [],
    "wof:tags": []
  },
  "bbox": [
    -2.270535,
    53.427344,
    -2.270535,
    53.427344
  ],
  "geometry": {"coordinates":[-2.270535,53.427344],"type":"Point"}
}
