{
  "id": 1947773503,
  "type": "Feature",
  "properties": {
    "date:cessation_lower": "2025-06-01",
    "date:cessation_upper": "2025-06-01",
    "date:inception_lower": "2024-02-01",
    "date:inception_upper": "2024-02-01",
    "edtf:cessation": "2025-06-01",
    "edtf:inception": "2024-02-01",
    "geom:area": 0,
    "geom:bbox": "-2.137481,53.631895,-2.137481,53.631895",
    "geom:latitude": 53.631895,
    "geom:longitude": -2.137481,
    "iso:country": "GB",
    "mz:hierarchy_label": 1,
    "mz:is_current": 0,
    "os:country_code": "E92000001",
    "os:county_code": "E99999999",
    "os:district_code": "E08000005",
    "os:positional_quality_indicator": "1",
    "os:region_code": "E12000002",
    "src:geom": "os",
    "wof:belongsto": [
      102191581,
      85633159,
      1360699063,
      136253055,
      101750565,
      1880762163,
      404227469,
      1880773095,
      1864209415
    ],
    "wof:breaches": [],
    "wof:country": "GB",
    "wof:created": 1736335120,
    "wof:geomhash": "0d0fb85f3631ccf5c30e0f5e96247de8",
    "wof:hierarchy": [
      {
        "continent_id": 102191581,
        "country_id": 85633159,
        "county_id": 1360699063,
        "empire_id": 136253055,
        "locality_id": 101750565,
        "macrocounty_id": 1880762163,
        "macroregion_id": 404227469,
        "postalcode_id": 1947773503,
        "region_id": 1880773095
      },
      {
        "continent_id": 102191581,
        "country_id": 85633159,
        "empire_id": 136253055,
        "postalcode_id": 1947773503,
        "postalregion_id": 1864209415
      }
    ],
    "wof:id": 1947773503,
    "wof:lastmodified": 1763547894,
    "wof:name": "OL12 9FH",
    "wof:parent_id": 101750565,
    "wof:placetype": "postalcode",
    "wof:repo": "whosonfirst-data-postalcode-gb",
    "wof:superseded_by": [],
    "wof:supersedes": [],
    "wof:tags": []
  },
  "bbox": [
    -2.137481,
    53.631895,
    -2.137481,
    53.631895
  ],
  "geometry": {"coordinates":[-2.137481,53.631895],"type":"Point"}
}
