{
  "id": 454329599,
  "type": "Feature",
  "properties": {
    "date:inception_lower": "1995-01-01",
    "date:inception_upper": "1995-01-01",
    "edtf:cessation": "",
    "edtf:inception": "1995-01-01",
    "geom:area": 0,
    "geom:bbox": "-1.565781,52.780162,-1.565781,52.780162",
    "geom:latitude": 52.780162,
    "geom:longitude": -1.565781,
    "gp:parent_id": "30103",
    "iso:country": "GB",
    "mz:hierarchy_label": 1,
    "mz:is_current": 1,
    "os:country_code": "E92000001",
    "os:county_code": "E10000007",
    "os:district_code": "E07000039",
    "os:positional_quality_indicator": "1",
    "os:region_code": "E12000004",
    "src:geom": "os",
    "wof:belongsto": [
      85633159,
      102191581,
      136253055,
      1864206641,
      1880771379,
      1360817119,
      1125943599,
      1880762133,
      404227469,
      1880762707
    ],
    "wof:breaches": [],
    "wof:concordances": {
      "gp:id": "26609046"
    },
    "wof:country": "GB",
    "wof:created": 1583701494,
    "wof:geomhash": "8ca89a63f55d8b9701ef5f8b8901fdb0",
    "wof:hierarchy": [
      {
        "continent_id": 102191581,
        "country_id": 85633159,
        "county_id": 1880771379,
        "empire_id": 136253055,
        "localadmin_id": 1360817119,
        "locality_id": 1125943599,
        "macrocounty_id": 1880762133,
        "macroregion_id": 404227469,
        "postalcode_id": 454329599,
        "region_id": 1880762707
      },
      {
        "continent_id": 102191581,
        "country_id": 85633159,
        "empire_id": 136253055,
        "postalcode_id": 454329599,
        "postalregion_id": 1864206641
      }
    ],
    "wof:id": 454329599,
    "wof:lastmodified": 1763548541,
    "wof:name": "DE11 0RE",
    "wof:parent_id": 1125943599,
    "wof:placetype": "postalcode",
    "wof:repo": "whosonfirst-data-postalcode-gb",
    "wof:superseded_by": [],
    "wof:supersedes": [],
    "wof:tags": []
  },
  "bbox": [
    -1.565781,
    52.780162,
    -1.565781,
    52.780162
  ],
  "geometry": {"coordinates":[-1.565781,52.780162],"type":"Point"}
}
