{
  "id": 1160863612,
  "type": "Feature",
  "properties": {
    "date:cessation_lower": "1992-12-01",
    "date:cessation_upper": "1992-12-01",
    "date:inception_lower": "1990-02-01",
    "date:inception_upper": "1990-02-01",
    "edtf:cessation": "1992-12-01",
    "edtf:inception": "1990-02-01",
    "geom:area": 0,
    "geom:bbox": "-0.245470,52.573130,-0.245470,52.573130",
    "geom:latitude": 52.57313,
    "geom:longitude": -0.24547,
    "iso:country": "GB",
    "mz:hierarchy_label": 1,
    "mz:is_current": 0,
    "os:country_code": "E92000001",
    "os:county_code": "E99999999",
    "os:district_code": "E06000031",
    "os:positional_quality_indicator": "8",
    "os:region_code": "E12000006",
    "src:geom": "os",
    "wof:belongsto": [
      85633159,
      102191581,
      136253055,
      1864209653,
      1360698773,
      101750461,
      1880762143,
      404227469,
      1880762687
    ],
    "wof:breaches": [],
    "wof:country": "GB",
    "wof:created": 1583793343,
    "wof:geomhash": "978103a17e5b8fa23106d0ebbb2ec6d2",
    "wof:hierarchy": [
      {
        "continent_id": 102191581,
        "country_id": 85633159,
        "county_id": 1360698773,
        "empire_id": 136253055,
        "locality_id": 101750461,
        "macrocounty_id": 1880762143,
        "macroregion_id": 404227469,
        "postalcode_id": 1160863612,
        "region_id": 1880762687
      },
      {
        "continent_id": 102191581,
        "country_id": 85633159,
        "empire_id": 136253055,
        "postalcode_id": 1160863612,
        "postalregion_id": 1864209653
      }
    ],
    "wof:id": 1160863612,
    "wof:lastmodified": 1763548329,
    "wof:name": "PE1 1LS",
    "wof:parent_id": 101750461,
    "wof:placetype": "postalcode",
    "wof:repo": "whosonfirst-data-postalcode-gb",
    "wof:superseded_by": [],
    "wof:supersedes": [],
    "wof:tags": []
  },
  "bbox": [
    -0.24547,
    52.57313,
    -0.24547,
    52.57313
  ],
  "geometry": {"coordinates":[-0.24547,52.57313],"type":"Point"}
}
