{
  "id": 437797981,
  "type": "Feature",
  "properties": {
    "date:cessation_lower": "2005-08-01",
    "date:cessation_upper": "2005-08-01",
    "date:inception_lower": "2002-06-01",
    "date:inception_upper": "2002-06-01",
    "edtf:cessation": "2005-08-01",
    "edtf:inception": "2002-06-01",
    "geom:area": 0,
    "geom:bbox": "-2.081483,51.893578,-2.081483,51.893578",
    "geom:latitude": 51.893578,
    "geom:longitude": -2.081483,
    "gp:parent_id": "15790",
    "iso:country": "GB",
    "mz:hierarchy_label": 1,
    "mz:is_current": 0,
    "os:country_code": "E92000001",
    "os:county_code": "E10000013",
    "os:district_code": "E07000078",
    "os:positional_quality_indicator": "5",
    "os:region_code": "E12000009",
    "src:geom": "os",
    "wof:belongsto": [
      85633159,
      102191581,
      136253055,
      1864207477,
      1880771455,
      101750435,
      1880762161,
      404227469,
      1880762693
    ],
    "wof:breaches": [],
    "wof:concordances": {
      "gp:id": "28878923"
    },
    "wof:country": "GB",
    "wof:created": 1583701560,
    "wof:geomhash": "a7efb91c8674d0be4bb958cc89416a33",
    "wof:hierarchy": [
      {
        "continent_id": 102191581,
        "country_id": 85633159,
        "county_id": 1880771455,
        "empire_id": 136253055,
        "locality_id": 101750435,
        "macrocounty_id": 1880762161,
        "macroregion_id": 404227469,
        "postalcode_id": 437797981,
        "region_id": 1880762693
      },
      {
        "continent_id": 102191581,
        "country_id": 85633159,
        "empire_id": 136253055,
        "postalcode_id": 437797981,
        "postalregion_id": 1864207477
      }
    ],
    "wof:id": 437797981,
    "wof:lastmodified": 1763547915,
    "wof:name": "GL50 2XT",
    "wof:parent_id": 101750435,
    "wof:placetype": "postalcode",
    "wof:repo": "whosonfirst-data-postalcode-gb",
    "wof:superseded_by": [],
    "wof:supersedes": [],
    "wof:tags": []
  },
  "bbox": [
    -2.081483,
    51.893578,
    -2.081483,
    51.893578
  ],
  "geometry": {"coordinates":[-2.081483,51.893578],"type":"Point"}
}
