{
  "id": 488520291,
  "type": "Feature",
  "properties": {
    "date:inception_lower": "1990-02-01",
    "date:inception_upper": "1990-02-01",
    "edtf:cessation": "",
    "edtf:inception": "1990-02-01",
    "geom:area": 0,
    "geom:bbox": "-3.197451,53.239668,-3.197451,53.239668",
    "geom:latitude": 53.239668,
    "geom:longitude": -3.197451,
    "iso:country": "GB",
    "mz:hierarchy_label": 1,
    "mz:is_current": 1,
    "os:country_code": "W92000004",
    "os:county_code": "W99999999",
    "os:district_code": "W06000005",
    "os:positional_quality_indicator": "1",
    "os:region_code": "W99999999",
    "src:geom": "os",
    "wof:belongsto": [
      85633159,
      102191581,
      136253055,
      1864206317,
      1360698799,
      404433239,
      1125952723,
      1880762183,
      404227475,
      1880772909
    ],
    "wof:breaches": [],
    "wof:concordances": {
      "gp:id": "27065055"
    },
    "wof:country": "GB",
    "wof:created": 1583701532,
    "wof:geomhash": "b0068a29151323ab1701cad482fddb9e",
    "wof:hierarchy": [
      {
        "continent_id": 102191581,
        "country_id": 85633159,
        "county_id": 1360698799,
        "empire_id": 136253055,
        "localadmin_id": 404433239,
        "locality_id": 1125952723,
        "macrocounty_id": 1880762183,
        "macroregion_id": 404227475,
        "postalcode_id": 488520291,
        "region_id": 1880772909
      },
      {
        "continent_id": 102191581,
        "country_id": 85633159,
        "empire_id": 136253055,
        "postalcode_id": 488520291,
        "postalregion_id": 1864206317
      }
    ],
    "wof:id": 488520291,
    "wof:lastmodified": 1763548514,
    "wof:name": "CH8 8HU",
    "wof:parent_id": 1125952723,
    "wof:placetype": "postalcode",
    "wof:repo": "whosonfirst-data-postalcode-gb",
    "wof:superseded_by": [],
    "wof:supersedes": [],
    "wof:tags": []
  },
  "bbox": [
    -3.197451,
    53.239668,
    -3.197451,
    53.239668
  ],
  "geometry": {"coordinates":[-3.197451,53.239668],"type":"Point"}
}
