{
  "id": 470939693,
  "type": "Feature",
  "properties": {
    "date:inception_lower": "1980-01-01",
    "date:inception_upper": "1980-01-01",
    "edtf:cessation": "",
    "edtf:inception": "1980-01-01",
    "geom:area": 0,
    "geom:bbox": "0.517884,51.246900,0.517884,51.246900",
    "geom:latitude": 51.2469,
    "geom:longitude": 0.517884,
    "gp:parent_id": "28168",
    "iso:country": "GB",
    "mz:hierarchy_label": 1,
    "mz:is_current": 1,
    "os:country_code": "E92000001",
    "os:county_code": "E10000016",
    "os:district_code": "E07000110",
    "os:positional_quality_indicator": "1",
    "os:region_code": "E12000008",
    "src:geom": "os",
    "wof:belongsto": [
      85633159,
      102191581,
      136253055,
      1864208831,
      1880771521,
      101750341,
      1880762057,
      404227469,
      1880762705
    ],
    "wof:breaches": [],
    "wof:concordances": {
      "gp:id": "27562966"
    },
    "wof:country": "GB",
    "wof:created": 1583701320,
    "wof:geomhash": "de2934981eac4a77c40b745515e3ffb9",
    "wof:hierarchy": [
      {
        "continent_id": 102191581,
        "country_id": 85633159,
        "county_id": 1880771521,
        "empire_id": 136253055,
        "locality_id": 101750341,
        "macrocounty_id": 1880762057,
        "macroregion_id": 404227469,
        "postalcode_id": 470939693,
        "region_id": 1880762705
      },
      {
        "continent_id": 102191581,
        "country_id": 85633159,
        "empire_id": 136253055,
        "postalcode_id": 470939693,
        "postalregion_id": 1864208831
      }
    ],
    "wof:id": 470939693,
    "wof:lastmodified": 1763547924,
    "wof:name": "ME15 9SG",
    "wof:parent_id": 101750341,
    "wof:placetype": "postalcode",
    "wof:repo": "whosonfirst-data-postalcode-gb",
    "wof:superseded_by": [],
    "wof:supersedes": [],
    "wof:tags": []
  },
  "bbox": [
    0.517884,
    51.2469,
    0.517884,
    51.2469
  ],
  "geometry": {"coordinates":[0.517884,51.2469],"type":"Point"}
}
