{
  "id": 487715187,
  "type": "Feature",
  "properties": {
    "date:inception_lower": "1980-01-01",
    "date:inception_upper": "1980-01-01",
    "edtf:cessation": "",
    "edtf:inception": "1980-01-01",
    "geom:area": 0,
    "geom:bbox": "-2.227609,53.011844,-2.227609,53.011844",
    "geom:latitude": 53.011844,
    "geom:longitude": -2.227609,
    "gp:parent_id": "30078",
    "iso:country": "GB",
    "mz:hierarchy_label": 1,
    "mz:is_current": 1,
    "os:country_code": "E92000001",
    "os:county_code": "E10000028",
    "os:district_code": "E07000195",
    "os:positional_quality_indicator": "1",
    "os:region_code": "E12000005",
    "src:geom": "os",
    "wof:belongsto": [
      85633159,
      102191581,
      136253055,
      1864210817,
      1880771623,
      1125775375,
      1880761999,
      404227469,
      1880762719
    ],
    "wof:breaches": [],
    "wof:concordances": {
      "gp:id": "27994539"
    },
    "wof:country": "GB",
    "wof:created": 1583701135,
    "wof:geomhash": "3ceb9e883d2a32f250855adc26a61e13",
    "wof:hierarchy": [
      {
        "continent_id": 102191581,
        "country_id": 85633159,
        "county_id": 1880771623,
        "empire_id": 136253055,
        "locality_id": 1125775375,
        "macrocounty_id": 1880761999,
        "macroregion_id": 404227469,
        "postalcode_id": 487715187,
        "region_id": 1880762719
      },
      {
        "continent_id": 102191581,
        "country_id": 85633159,
        "empire_id": 136253055,
        "postalcode_id": 487715187,
        "postalregion_id": 1864210817
      }
    ],
    "wof:id": 487715187,
    "wof:lastmodified": 1763548685,
    "wof:name": "ST5 1RG",
    "wof:parent_id": 1125775375,
    "wof:placetype": "postalcode",
    "wof:repo": "whosonfirst-data-postalcode-gb",
    "wof:superseded_by": [],
    "wof:supersedes": [],
    "wof:tags": []
  },
  "bbox": [
    -2.227609,
    53.011844,
    -2.227609,
    53.011844
  ],
  "geometry": {"coordinates":[-2.227609,53.011844],"type":"Point"}
}
