{
  "id": 488185035,
  "type": "Feature",
  "properties": {
    "date:inception_lower": "2001-06-01",
    "date:inception_upper": "2001-06-01",
    "edtf:cessation": "",
    "edtf:inception": "2001-06-01",
    "geom:area": 0,
    "geom:bbox": "-2.046708,52.694547,-2.046708,52.694547",
    "geom:latitude": 52.694547,
    "geom:longitude": -2.046708,
    "iso:country": "GB",
    "mz:hierarchy_label": 1,
    "mz:is_current": 1,
    "os:country_code": "E92000001",
    "os:county_code": "E10000028",
    "os:district_code": "E07000192",
    "os:positional_quality_indicator": "1",
    "os:region_code": "E12000005",
    "src:geom": "os",
    "wof:belongsto": [
      85633159,
      102191581,
      136253055,
      1864211645,
      1880771631,
      101750497,
      1880761999
    ],
    "wof:breaches": [],
    "wof:concordances": {
      "gp:id": "28173346"
    },
    "wof:country": "GB",
    "wof:created": 1583701297,
    "wof:geomhash": "6930f6315f5cb7fe54e19f38f9c5793d",
    "wof:hierarchy": [
      {
        "continent_id": -1,
        "country_id": -1,
        "county_id": 1880771631,
        "locality_id": 101750497,
        "macrocounty_id": 1880761999,
        "postalcode_id": 488185035,
        "region_id": -1
      },
      {
        "continent_id": 102191581,
        "country_id": 85633159,
        "empire_id": 136253055,
        "postalcode_id": 488185035,
        "postalregion_id": 1864211645
      }
    ],
    "wof:id": 488185035,
    "wof:lastmodified": 1763548607,
    "wof:name": "WS11 1RA",
    "wof:parent_id": 101750497,
    "wof:placetype": "postalcode",
    "wof:repo": "whosonfirst-data-postalcode-gb",
    "wof:superseded_by": [],
    "wof:supersedes": [],
    "wof:tags": []
  },
  "bbox": [
    -2.046708,
    52.694547,
    -2.046708,
    52.694547
  ],
  "geometry": {"coordinates":[-2.046708,52.694547],"type":"Point"}
}
