{
  "id": 1161083540,
  "type": "Feature",
  "properties": {
    "date:cessation_lower": "1995-12-01",
    "date:cessation_upper": "1995-12-01",
    "date:inception_lower": "1993-08-01",
    "date:inception_upper": "1993-08-01",
    "edtf:cessation": "1995-12-01",
    "edtf:inception": "1993-08-01",
    "geom:area": 0,
    "geom:bbox": "-2.227811,53.820073,-2.227811,53.820073",
    "geom:latitude": 53.820073,
    "geom:longitude": -2.227811,
    "iso:country": "GB",
    "mz:hierarchy_label": 1,
    "mz:is_current": 0,
    "os:country_code": "E92000001",
    "os:county_code": "E10000017",
    "os:district_code": "E07000122",
    "os:positional_quality_indicator": "8",
    "os:region_code": "E12000002",
    "src:geom": "os",
    "wof:belongsto": [
      85633159,
      102191581,
      136253055,
      1864205719,
      1880771547,
      404447819,
      1360755883,
      1880762053,
      404227469,
      1880762711
    ],
    "wof:breaches": [],
    "wof:country": "GB",
    "wof:created": 1583803147,
    "wof:geomhash": "80c65dac5a750d141523cefb2340274f",
    "wof:hierarchy": [
      {
        "continent_id": 102191581,
        "country_id": 85633159,
        "county_id": 1880771547,
        "empire_id": 136253055,
        "localadmin_id": 404447819,
        "locality_id": 1360755883,
        "macrocounty_id": 1880762053,
        "macroregion_id": 404227469,
        "postalcode_id": 1161083540,
        "region_id": 1880762711
      },
      {
        "continent_id": 102191581,
        "country_id": 85633159,
        "empire_id": 136253055,
        "postalcode_id": 1161083540,
        "postalregion_id": 1864205719
      }
    ],
    "wof:id": 1161083540,
    "wof:lastmodified": 1763548293,
    "wof:name": "BB9 5EB",
    "wof:parent_id": 1360755883,
    "wof:placetype": "postalcode",
    "wof:repo": "whosonfirst-data-postalcode-gb",
    "wof:superseded_by": [],
    "wof:supersedes": [],
    "wof:tags": []
  },
  "bbox": [
    -2.227811,
    53.820073,
    -2.227811,
    53.820073
  ],
  "geometry": {"coordinates":[-2.227811,53.820073],"type":"Point"}
}
