{
  "id": 438228221,
  "type": "Feature",
  "properties": {
    "date:inception_lower": "1987-10-01",
    "date:inception_upper": "1987-10-01",
    "edtf:cessation": "",
    "edtf:inception": "1987-10-01",
    "geom:area": 0,
    "geom:bbox": "0.313081,50.807743,0.313081,50.807743",
    "geom:latitude": 50.807743,
    "geom:longitude": 0.313081,
    "iso:country": "GB",
    "mz:hierarchy_label": 1,
    "mz:is_current": 1,
    "os:country_code": "E92000001",
    "os:county_code": "E10000011",
    "os:district_code": "E07000061",
    "os:positional_quality_indicator": "1",
    "os:region_code": "E12000008",
    "src:geom": "os",
    "wof:belongsto": [
      85633159,
      102191581,
      136253055,
      1864205899,
      1880771415,
      101750315,
      1880762145,
      404227469,
      1880762703
    ],
    "wof:breaches": [],
    "wof:concordances": {
      "gp:id": "26935821"
    },
    "wof:country": "GB",
    "wof:created": 1583701414,
    "wof:geomhash": "e07264c61b99d2ea92a10b07ecd00a07",
    "wof:hierarchy": [
      {
        "continent_id": 102191581,
        "country_id": 85633159,
        "county_id": 1880771415,
        "empire_id": 136253055,
        "locality_id": 101750315,
        "macrocounty_id": 1880762145,
        "macroregion_id": 404227469,
        "postalcode_id": 438228221,
        "region_id": 1880762703
      },
      {
        "continent_id": 102191581,
        "country_id": 85633159,
        "empire_id": 136253055,
        "postalcode_id": 438228221,
        "postalregion_id": 1864205899
      }
    ],
    "wof:id": 438228221,
    "wof:lastmodified": 1763548014,
    "wof:name": "BN23 8AW",
    "wof:parent_id": 101750315,
    "wof:placetype": "postalcode",
    "wof:repo": "whosonfirst-data-postalcode-gb",
    "wof:superseded_by": [],
    "wof:supersedes": [],
    "wof:tags": []
  },
  "bbox": [
    0.313081,
    50.807743,
    0.313081,
    50.807743
  ],
  "geometry": {"coordinates":[0.313081,50.807743],"type":"Point"}
}
