{
  "id": 437404089,
  "type": "Feature",
  "properties": {
    "date:cessation_lower": "2007-11-01",
    "date:cessation_upper": "2007-11-01",
    "date:inception_lower": "1984-11-01",
    "date:inception_upper": "1984-11-01",
    "edtf:cessation": "2007-11-01",
    "edtf:inception": "1984-11-01",
    "geom:area": 0,
    "geom:bbox": "-3.798382,56.112988,-3.798382,56.112988",
    "geom:latitude": 56.112988,
    "geom:longitude": -3.798382,
    "gp:parent_id": "12696187",
    "iso:country": "GB",
    "mz:hierarchy_label": 1,
    "mz:is_current": 0,
    "os:country_code": "S92000003",
    "os:county_code": "S99999999",
    "os:district_code": "S12000005",
    "os:positional_quality_indicator": "1",
    "os:region_code": "S99999999",
    "src:geom": "os",
    "wof:belongsto": [
      85633159,
      102191581,
      136253055,
      1864207255,
      1360699079,
      1880762127,
      404227471,
      1880773163
    ],
    "wof:breaches": [],
    "wof:concordances": {
      "gp:id": "27269055"
    },
    "wof:country": "GB",
    "wof:created": 1583701088,
    "wof:geomhash": "45b37d293236ddecb0f7c34106e60421",
    "wof:hierarchy": [
      {
        "continent_id": 102191581,
        "country_id": 85633159,
        "county_id": 1360699079,
        "empire_id": 136253055,
        "macrocounty_id": 1880762127,
        "macroregion_id": 404227471,
        "postalcode_id": 437404089,
        "region_id": 1880773163
      },
      {
        "continent_id": 102191581,
        "country_id": 85633159,
        "empire_id": 136253055,
        "postalcode_id": 437404089,
        "postalregion_id": 1864207255
      }
    ],
    "wof:id": 437404089,
    "wof:lastmodified": 1763548264,
    "wof:name": "FK10 1ES",
    "wof:parent_id": 1360699079,
    "wof:placetype": "postalcode",
    "wof:repo": "whosonfirst-data-postalcode-gb",
    "wof:superseded_by": [],
    "wof:supersedes": [],
    "wof:tags": []
  },
  "bbox": [
    -3.798382,
    56.112988,
    -3.798382,
    56.112988
  ],
  "geometry": {"coordinates":[-3.798382,56.112988],"type":"Point"}
}
