{
  "id": 1160728318,
  "type": "Feature",
  "properties": {
    "date:cessation_lower": "1995-07-01",
    "date:cessation_upper": "1995-07-01",
    "date:inception_lower": "1994-05-01",
    "date:inception_upper": "1994-05-01",
    "edtf:cessation": "1995-07-01",
    "edtf:inception": "1994-05-01",
    "geom:area": 0,
    "geom:bbox": "-3.215211,51.589199,-3.215211,51.589199",
    "geom:latitude": 51.589199,
    "geom:longitude": -3.215211,
    "iso:country": "GB",
    "mz:hierarchy_label": 1,
    "mz:is_current": 0,
    "os:country_code": "W92000004",
    "os:county_code": "W99999999",
    "os:district_code": "W06000018",
    "os:positional_quality_indicator": "1",
    "os:region_code": "W99999999",
    "src:geom": "os",
    "wof:belongsto": [
      102191581,
      85633159,
      1360698925,
      136253055,
      404435757,
      101852779,
      1880762173,
      404227475,
      1880773189
    ],
    "wof:breaches": [],
    "wof:country": "GB",
    "wof:created": 1583787316,
    "wof:geomhash": "82401a72816d0d6a0627f2fc7b58dd0d",
    "wof:hierarchy": [
      {
        "continent_id": 102191581,
        "country_id": 85633159,
        "county_id": 1360698925,
        "empire_id": 136253055,
        "localadmin_id": 404435757,
        "locality_id": 101852779,
        "macrocounty_id": 1880762173,
        "macroregion_id": 404227475,
        "postalcode_id": 1160728318,
        "region_id": 1880773189
      }
    ],
    "wof:id": 1160728318,
    "wof:lastmodified": 1763548331,
    "wof:name": "CF8 3QY",
    "wof:parent_id": 101852779,
    "wof:placetype": "postalcode",
    "wof:repo": "whosonfirst-data-postalcode-gb",
    "wof:superseded_by": [],
    "wof:supersedes": [],
    "wof:tags": []
  },
  "bbox": [
    -3.215211,
    51.589199,
    -3.215211,
    51.589199
  ],
  "geometry": {"coordinates":[-3.215211,51.589199],"type":"Point"}
}
