{
  "id": 488566471,
  "type": "Feature",
  "properties": {
    "date:inception_lower": "1980-01-01",
    "date:inception_upper": "1980-01-01",
    "edtf:cessation": "",
    "edtf:inception": "1980-01-01",
    "geom:area": 0,
    "geom:bbox": "-3.572730,51.494939,-3.572730,51.494939",
    "geom:latitude": 51.494939,
    "geom:longitude": -3.57273,
    "gp:parent_id": "12696121",
    "iso:country": "GB",
    "mz:hierarchy_label": 1,
    "mz:is_current": 1,
    "os:country_code": "W92000004",
    "os:county_code": "W99999999",
    "os:district_code": "W06000013",
    "os:positional_quality_indicator": "1",
    "os:region_code": "W99999999",
    "src:geom": "os",
    "wof:belongsto": [
      85633159,
      102191581,
      136253055,
      1864206173,
      1360699051,
      404434531,
      101852763,
      1880762185,
      404227475,
      1880773115
    ],
    "wof:breaches": [],
    "wof:concordances": {
      "gp:id": "27036535"
    },
    "wof:country": "GB",
    "wof:created": 1583701593,
    "wof:geomhash": "3329ba2de4bdd5472f1135963ef58447",
    "wof:hierarchy": [
      {
        "continent_id": 102191581,
        "country_id": 85633159,
        "county_id": 1360699051,
        "empire_id": 136253055,
        "localadmin_id": 404434531,
        "locality_id": 101852763,
        "macrocounty_id": 1880762185,
        "macroregion_id": 404227475,
        "postalcode_id": 488566471,
        "region_id": 1880773115
      },
      {
        "continent_id": 102191581,
        "country_id": 85633159,
        "empire_id": 136253055,
        "postalcode_id": 488566471,
        "postalregion_id": 1864206173
      }
    ],
    "wof:id": 488566471,
    "wof:lastmodified": 1763548419,
    "wof:name": "CF31 3BX",
    "wof:parent_id": 101852763,
    "wof:placetype": "postalcode",
    "wof:repo": "whosonfirst-data-postalcode-gb",
    "wof:superseded_by": [],
    "wof:supersedes": [],
    "wof:tags": []
  },
  "bbox": [
    -3.57273,
    51.494939,
    -3.57273,
    51.494939
  ],
  "geometry": {"coordinates":[-3.57273,51.494939],"type":"Point"}
}
