{
  "id": 1712591393,
  "type": "Feature",
  "properties": {
    "date:cessation_lower": "2000-06-01",
    "date:cessation_upper": "2000-06-01",
    "date:inception_lower": "1993-08-01",
    "date:inception_upper": "1993-08-01",
    "edtf:cessation": "2000-06-01",
    "edtf:inception": "1993-08-01",
    "geom:area": 0,
    "geom:bbox": "-0.214947,52.283270,-0.214947,52.283270",
    "geom:latitude": 52.28327,
    "geom:longitude": -0.214947,
    "iso:country": "GB",
    "mz:hierarchy_label": 1,
    "mz:is_current": 0,
    "os:country_code": "E92000001",
    "os:county_code": "E10000003",
    "os:district_code": "E07000011",
    "os:positional_quality_indicator": "1",
    "os:region_code": "E12000006",
    "src:geom": "os",
    "wof:belongsto": [
      102191581,
      85633159,
      1880771371,
      136253055,
      404433525,
      1360754393,
      1880762143,
      404227469,
      1880762687
    ],
    "wof:breaches": [],
    "wof:country": "GB",
    "wof:created": 1583794855,
    "wof:geomhash": "e08ff8c115466a99d9b0f5bb4ded911f",
    "wof:hierarchy": [
      {
        "continent_id": 102191581,
        "country_id": 85633159,
        "county_id": 1880771371,
        "empire_id": 136253055,
        "localadmin_id": 404433525,
        "locality_id": 1360754393,
        "macrocounty_id": 1880762143,
        "macroregion_id": 404227469,
        "postalcode_id": 1712591393,
        "region_id": 1880762687
      }
    ],
    "wof:id": 1712591393,
    "wof:lastmodified": 1763548688,
    "wof:name": "PE18 9SA",
    "wof:parent_id": 1360754393,
    "wof:placetype": "postalcode",
    "wof:repo": "whosonfirst-data-postalcode-gb",
    "wof:superseded_by": [],
    "wof:supersedes": [],
    "wof:tags": []
  },
  "bbox": [
    -0.214947,
    52.28327,
    -0.214947,
    52.28327
  ],
  "geometry": {"coordinates":[-0.214947,52.28327],"type":"Point"}
}
