{
  "id": 890274539,
  "type": "Feature",
  "properties": {
    "date:inception_lower": "2015-04-01",
    "date:inception_upper": "2015-04-01",
    "edtf:cessation": "",
    "edtf:inception": "2015-04-01",
    "geom:area": 0,
    "geom:bbox": "-5.297990,50.221565,-5.297990,50.221565",
    "geom:latitude": 50.221565,
    "geom:longitude": -5.29799,
    "iso:country": "GB",
    "mz:hierarchy_label": 1,
    "mz:is_current": 1,
    "os:country_code": "E92000001",
    "os:county_code": "E99999999",
    "os:district_code": "E06000052",
    "os:positional_quality_indicator": "1",
    "os:region_code": "E12000009",
    "src:geom": "os",
    "wof:belongsto": [
      85633159,
      102191581,
      136253055,
      1864211199,
      1360699085,
      404443853,
      1125765751,
      1880762119,
      404227469,
      1880773165
    ],
    "wof:breaches": [],
    "wof:country": "GB",
    "wof:created": 1468902852,
    "wof:geomhash": "a7f811f0ab43356509110b35790847e9",
    "wof:hierarchy": [
      {
        "continent_id": 102191581,
        "country_id": 85633159,
        "county_id": 1360699085,
        "empire_id": 136253055,
        "localadmin_id": 404443853,
        "locality_id": 1125765751,
        "macrocounty_id": 1880762119,
        "macroregion_id": 404227469,
        "postalcode_id": 890274539,
        "region_id": 1880773165
      },
      {
        "continent_id": 102191581,
        "country_id": 85633159,
        "empire_id": 136253055,
        "postalcode_id": 890274539,
        "postalregion_id": 1864211199
      }
    ],
    "wof:id": 890274539,
    "wof:lastmodified": 1763548608,
    "wof:name": "TR14 0DT",
    "wof:parent_id": 1125765751,
    "wof:placetype": "postalcode",
    "wof:repo": "whosonfirst-data-postalcode-gb",
    "wof:superseded_by": [],
    "wof:supersedes": [],
    "wof:tags": []
  },
  "bbox": [
    -5.29799,
    50.221565,
    -5.29799,
    50.221565
  ],
  "geometry": {"coordinates":[-5.29799,50.221565],"type":"Point"}
}
