{
  "id": 1161056410,
  "type": "Feature",
  "properties": {
    "date:cessation_lower": "1990-12-01",
    "date:cessation_upper": "1990-12-01",
    "date:inception_lower": "1990-02-01",
    "date:inception_upper": "1990-02-01",
    "edtf:cessation": "1990-12-01",
    "edtf:inception": "1990-02-01",
    "geom:area": 0,
    "geom:bbox": "0.249902,51.166390,0.249902,51.166390",
    "geom:latitude": 51.16639,
    "geom:longitude": 0.249902,
    "iso:country": "GB",
    "mz:hierarchy_label": 1,
    "mz:is_current": 0,
    "os:country_code": "E92000001",
    "os:county_code": "E10000016",
    "os:district_code": "E07000116",
    "os:positional_quality_indicator": "8",
    "os:region_code": "E12000008",
    "src:geom": "os",
    "wof:belongsto": [
      85633159,
      102191581,
      136253055,
      1864211141,
      1880771503,
      404454075,
      1360752965,
      1880762057,
      404227469,
      1880762705
    ],
    "wof:breaches": [],
    "wof:country": "GB",
    "wof:created": 1583801961,
    "wof:geomhash": "9f5925bf26b0ac95086ad0309a3e3f25",
    "wof:hierarchy": [
      {
        "continent_id": 102191581,
        "country_id": 85633159,
        "county_id": 1880771503,
        "empire_id": 136253055,
        "localadmin_id": 404454075,
        "locality_id": 1360752965,
        "macrocounty_id": 1880762057,
        "macroregion_id": 404227469,
        "postalcode_id": 1161056410,
        "region_id": 1880762705
      },
      {
        "continent_id": 102191581,
        "country_id": 85633159,
        "empire_id": 136253055,
        "postalcode_id": 1161056410,
        "postalregion_id": 1864211141
      }
    ],
    "wof:id": 1161056410,
    "wof:lastmodified": 1763548205,
    "wof:name": "TN4 0TZ",
    "wof:parent_id": 1360752965,
    "wof:placetype": "postalcode",
    "wof:repo": "whosonfirst-data-postalcode-gb",
    "wof:superseded_by": [],
    "wof:supersedes": [],
    "wof:tags": []
  },
  "bbox": [
    0.249902,
    51.16639,
    0.249902,
    51.16639
  ],
  "geometry": {"coordinates":[0.249902,51.16639],"type":"Point"}
}
