{
  "id": 437950975,
  "type": "Feature",
  "properties": {
    "date:inception_lower": "1980-01-01",
    "date:inception_upper": "1980-01-01",
    "edtf:cessation": "",
    "edtf:inception": "1980-01-01",
    "geom:area": 0,
    "geom:bbox": "-0.226013,51.812663,-0.226013,51.812663",
    "geom:latitude": 51.812663,
    "geom:longitude": -0.226013,
    "gp:parent_id": "39489",
    "iso:country": "GB",
    "mz:hierarchy_label": 1,
    "mz:is_current": 1,
    "os:country_code": "E92000001",
    "os:county_code": "E10000015",
    "os:district_code": "E07000241",
    "os:positional_quality_indicator": "1",
    "os:region_code": "E12000006",
    "src:geom": "os",
    "wof:belongsto": [
      85633159,
      102191581,
      136253055,
      1864205465,
      1880771495,
      101853555,
      1880762153,
      404227469,
      1880762721
    ],
    "wof:breaches": [],
    "wof:concordances": {
      "gp:id": "26841192"
    },
    "wof:country": "GB",
    "wof:created": 1583701647,
    "wof:geomhash": "2338200c28e66d1e70fc57fe27e71d5a",
    "wof:hierarchy": [
      {
        "continent_id": 102191581,
        "country_id": 85633159,
        "county_id": 1880771495,
        "empire_id": 136253055,
        "locality_id": 101853555,
        "macrocounty_id": 1880762153,
        "macroregion_id": 404227469,
        "postalcode_id": 437950975,
        "region_id": 1880762721
      },
      {
        "continent_id": 102191581,
        "country_id": 85633159,
        "empire_id": 136253055,
        "postalcode_id": 437950975,
        "postalregion_id": 1864205465
      }
    ],
    "wof:id": 437950975,
    "wof:lastmodified": 1763548126,
    "wof:name": "AL6 9AJ",
    "wof:parent_id": 101853555,
    "wof:placetype": "postalcode",
    "wof:repo": "whosonfirst-data-postalcode-gb",
    "wof:superseded_by": [],
    "wof:supersedes": [],
    "wof:tags": []
  },
  "bbox": [
    -0.226013,
    51.812663,
    -0.226013,
    51.812663
  ],
  "geometry": {"coordinates":[-0.226013,51.812663],"type":"Point"}
}
