{
  "id": 504548357,
  "type": "Feature",
  "properties": {
    "date:inception_lower": "1980-01-01",
    "date:inception_upper": "1980-01-01",
    "edtf:cessation": "",
    "edtf:inception": "1980-01-01",
    "geom:area": 0,
    "geom:bbox": "-3.067276,51.742300,-3.067276,51.742300",
    "geom:latitude": 51.7423,
    "geom:longitude": -3.067276,
    "gp:parent_id": "12696119",
    "iso:country": "GB",
    "mz:hierarchy_label": 1,
    "mz:is_current": 1,
    "os:country_code": "W92000004",
    "os:county_code": "W99999999",
    "os:district_code": "W06000020",
    "os:positional_quality_indicator": "1",
    "os:region_code": "W99999999",
    "src:geom": "os",
    "wof:belongsto": [
      85633159,
      102191581,
      136253055,
      1864209291,
      1360698919,
      404452281,
      1126003441,
      1880762173,
      404227475,
      1880773189
    ],
    "wof:breaches": [],
    "wof:concordances": {
      "gp:id": "27672619"
    },
    "wof:country": "GB",
    "wof:created": 1583701415,
    "wof:geomhash": "de99a77ae8337865abe7dacb2104b903",
    "wof:hierarchy": [
      {
        "continent_id": 102191581,
        "country_id": 85633159,
        "county_id": 1360698919,
        "empire_id": 136253055,
        "localadmin_id": 404452281,
        "locality_id": 1126003441,
        "macrocounty_id": 1880762173,
        "macroregion_id": 404227475,
        "postalcode_id": 504548357,
        "region_id": 1880773189
      },
      {
        "continent_id": 102191581,
        "country_id": 85633159,
        "empire_id": 136253055,
        "postalcode_id": 504548357,
        "postalregion_id": 1864209291
      }
    ],
    "wof:id": 504548357,
    "wof:lastmodified": 1763548180,
    "wof:name": "NP4 7SB",
    "wof:parent_id": 1126003441,
    "wof:placetype": "postalcode",
    "wof:repo": "whosonfirst-data-postalcode-gb",
    "wof:superseded_by": [],
    "wof:supersedes": [],
    "wof:tags": []
  },
  "bbox": [
    -3.067276,
    51.7423,
    -3.067276,
    51.7423
  ],
  "geometry": {"coordinates":[-3.067276,51.7423],"type":"Point"}
}
