{
  "id": 39515364,
  "type": "Feature",
  "properties": {
    "date:cessation_lower": "1998-06-01",
    "date:cessation_upper": "1998-06-01",
    "date:inception_lower": "1980-01-01",
    "date:inception_upper": "1980-01-01",
    "edtf:cessation": "1998-06-01",
    "edtf:inception": "1980-01-01",
    "geom:area": 0,
    "geom:bbox": "-0.524013,54.091508,-0.524013,54.091508",
    "geom:latitude": 54.091508,
    "geom:longitude": -0.524013,
    "iso:country": "GB",
    "mz:hierarchy_label": 1,
    "mz:is_current": 0,
    "os:country_code": "E92000001",
    "os:county_code": "E99999999",
    "os:district_code": "E06000065",
    "os:positional_quality_indicator": "1",
    "os:region_code": "E12000003",
    "src:geom": "os",
    "wof:belongsto": [
      85633159,
      102191581,
      136253055,
      1864211747,
      1360698753,
      404446533,
      1360753967,
      1880762011,
      404227469,
      1880772891
    ],
    "wof:breaches": [],
    "wof:country": "GB",
    "wof:created": 1583802302,
    "wof:geomhash": "06024142c5a20a1fe935217f6d1bcb21",
    "wof:hierarchy": [
      {
        "continent_id": 102191581,
        "country_id": 85633159,
        "county_id": 1360698753,
        "empire_id": 136253055,
        "localadmin_id": 404446533,
        "locality_id": 1360753967,
        "macrocounty_id": 1880762011,
        "macroregion_id": 404227469,
        "postalcode_id": 39515364,
        "region_id": 1880772891
      },
      {
        "continent_id": 102191581,
        "country_id": 85633159,
        "empire_id": 136253055,
        "postalcode_id": 39515364,
        "postalregion_id": 1864211747
      }
    ],
    "wof:id": 39515364,
    "wof:lastmodified": 1763548383,
    "wof:name": "YO25 0BP",
    "wof:parent_id": 1360753967,
    "wof:placetype": "postalcode",
    "wof:repo": "whosonfirst-data-postalcode-gb",
    "wof:superseded_by": [],
    "wof:supersedes": [],
    "wof:tags": []
  },
  "bbox": [
    -0.524013,
    54.091508,
    -0.524013,
    54.091508
  ],
  "geometry": {"coordinates":[-0.524013,54.091508],"type":"Point"}
}
