{
  "id": 38855610,
  "type": "Feature",
  "properties": {
    "date:cessation_lower": "1999-12-01",
    "date:cessation_upper": "1999-12-01",
    "date:inception_lower": "1980-01-01",
    "date:inception_upper": "1980-01-01",
    "edtf:cessation": "1999-12-01",
    "edtf:inception": "1980-01-01",
    "geom:area": 0,
    "geom:bbox": "-3.956544,51.637489,-3.956544,51.637489",
    "geom:latitude": 51.637489,
    "geom:longitude": -3.956544,
    "iso:country": "GB",
    "mz:hierarchy_label": 1,
    "mz:is_current": 0,
    "os:country_code": "W92000004",
    "os:county_code": "W99999999",
    "os:district_code": "W06000011",
    "os:positional_quality_indicator": "8",
    "os:region_code": "W99999999",
    "src:geom": "os",
    "wof:belongsto": [
      85633159,
      102191581,
      136253055,
      1864210361,
      1360699095,
      404436121,
      1360711797,
      1880762113,
      404227475,
      1880773177
    ],
    "wof:breaches": [],
    "wof:country": "GB",
    "wof:created": 1583795063,
    "wof:geomhash": "7a7a16e68ebf24cf3d0b4b7cad4dc1fa",
    "wof:hierarchy": [
      {
        "continent_id": 102191581,
        "country_id": 85633159,
        "county_id": 1360699095,
        "empire_id": 136253055,
        "localadmin_id": 404436121,
        "locality_id": 1360711797,
        "macrocounty_id": 1880762113,
        "macroregion_id": 404227475,
        "postalcode_id": 38855610,
        "region_id": 1880773177
      },
      {
        "continent_id": 102191581,
        "country_id": 85633159,
        "empire_id": 136253055,
        "postalcode_id": 38855610,
        "postalregion_id": 1864210361
      }
    ],
    "wof:id": 38855610,
    "wof:lastmodified": 1763548762,
    "wof:name": "SA5 8AZ",
    "wof:parent_id": 1360711797,
    "wof:placetype": "postalcode",
    "wof:repo": "whosonfirst-data-postalcode-gb",
    "wof:superseded_by": [],
    "wof:supersedes": [],
    "wof:tags": []
  },
  "bbox": [
    -3.956544,
    51.637489,
    -3.956544,
    51.637489
  ],
  "geometry": {"coordinates":[-3.956544,51.637489],"type":"Point"}
}
