{
  "id": 454366587,
  "type": "Feature",
  "properties": {
    "date:inception_lower": "1980-01-01",
    "date:inception_upper": "1980-01-01",
    "edtf:cessation": "",
    "edtf:inception": "1980-01-01",
    "geom:area": 0,
    "geom:bbox": "-1.613763,54.873708,-1.613763,54.873708",
    "geom:latitude": 54.873708,
    "geom:longitude": -1.613763,
    "gp:parent_id": "31595",
    "iso:country": "GB",
    "mz:hierarchy_label": 1,
    "mz:is_current": 1,
    "os:country_code": "E92000001",
    "os:county_code": "E99999999",
    "os:district_code": "E06000047",
    "os:positional_quality_indicator": "1",
    "os:region_code": "E12000001",
    "src:geom": "os",
    "wof:belongsto": [
      85633159,
      102191581,
      136253055,
      1864206727,
      1360699055,
      404440239,
      1125861765,
      1880762117
    ],
    "wof:breaches": [],
    "wof:concordances": {
      "gp:id": "27160164"
    },
    "wof:country": "GB",
    "wof:created": 1583701515,
    "wof:geomhash": "cf17704e813a5c3dd76e0c4af44f951d",
    "wof:hierarchy": [
      {
        "continent_id": -1,
        "country_id": -1,
        "county_id": 1360699055,
        "localadmin_id": 404440239,
        "locality_id": 1125861765,
        "macrocounty_id": 1880762117,
        "postalcode_id": 454366587,
        "region_id": -1
      },
      {
        "continent_id": 102191581,
        "country_id": 85633159,
        "empire_id": 136253055,
        "postalcode_id": 454366587,
        "postalregion_id": 1864206727
      }
    ],
    "wof:id": 454366587,
    "wof:lastmodified": 1763548436,
    "wof:name": "DH2 1DW",
    "wof:parent_id": 1125861765,
    "wof:placetype": "postalcode",
    "wof:repo": "whosonfirst-data-postalcode-gb",
    "wof:superseded_by": [],
    "wof:supersedes": [],
    "wof:tags": []
  },
  "bbox": [
    -1.613763,
    54.873708,
    -1.613763,
    54.873708
  ],
  "geometry": {"coordinates":[-1.613763,54.873708],"type":"Point"}
}
