{
  "id": 437762181,
  "type": "Feature",
  "properties": {
    "date:inception_lower": "2025-01-01",
    "date:inception_upper": "2025-01-01",
    "edtf:cessation": "",
    "edtf:inception": "2025-01-01",
    "geom:area": 0,
    "geom:bbox": "0.665331,51.712526,0.665331,51.712526",
    "geom:latitude": 51.712526,
    "geom:longitude": 0.665331,
    "gp:parent_id": "28184",
    "iso:country": "GB",
    "mz:hierarchy_label": 1,
    "mz:is_current": 1,
    "os:country_code": "E92000001",
    "os:county_code": "E10000012",
    "os:district_code": "E07000074",
    "os:positional_quality_indicator": "1",
    "os:region_code": "E12000006",
    "src:geom": "os",
    "wof:belongsto": [
      85633159,
      102191581,
      136253055,
      1864206377,
      1880771435,
      404440765,
      1125881549,
      1880762159,
      404227469,
      1880762723
    ],
    "wof:breaches": [],
    "wof:concordances": {
      "gp:id": "28858278"
    },
    "wof:country": "GB",
    "wof:created": 1583701541,
    "wof:geomhash": "e0f737cf887c7b9c188df679ec6483e8",
    "wof:hierarchy": [
      {
        "continent_id": 102191581,
        "country_id": 85633159,
        "county_id": 1880771435,
        "empire_id": 136253055,
        "localadmin_id": 404440765,
        "locality_id": 1125881549,
        "macrocounty_id": 1880762159,
        "macroregion_id": 404227469,
        "postalcode_id": 437762181,
        "region_id": 1880762723
      },
      {
        "continent_id": 102191581,
        "country_id": 85633159,
        "empire_id": 136253055,
        "postalcode_id": 437762181,
        "postalregion_id": 1864206377
      }
    ],
    "wof:id": 437762181,
    "wof:lastmodified": 1763547958,
    "wof:name": "CM9 6WJ",
    "wof:parent_id": 1125881549,
    "wof:placetype": "postalcode",
    "wof:repo": "whosonfirst-data-postalcode-gb",
    "wof:superseded_by": [],
    "wof:supersedes": [],
    "wof:tags": []
  },
  "bbox": [
    0.665331,
    51.712526,
    0.665331,
    51.712526
  ],
  "geometry": {"coordinates":[0.665331,51.712526],"type":"Point"}
}
