{
  "id": 488261465,
  "type": "Feature",
  "properties": {
    "date:inception_lower": "1998-06-01",
    "date:inception_upper": "1998-06-01",
    "edtf:cessation": "",
    "edtf:inception": "1998-06-01",
    "geom:area": 0,
    "geom:bbox": "-0.915692,53.817645,-0.915692,53.817645",
    "geom:latitude": 53.817645,
    "geom:longitude": -0.915692,
    "gp:parent_id": "14364",
    "iso:country": "GB",
    "mz:hierarchy_label": 1,
    "mz:is_current": 1,
    "os:country_code": "E92000001",
    "os:county_code": "E99999999",
    "os:district_code": "E06000011",
    "os:positional_quality_indicator": "1",
    "os:region_code": "E12000003",
    "src:geom": "os",
    "wof:belongsto": [
      85633159,
      102191581,
      136253055,
      1864211777,
      1360699001,
      404454849,
      1125794315,
      1880762147,
      404227469,
      1880773091
    ],
    "wof:breaches": [],
    "wof:concordances": {
      "gp:id": "28202269"
    },
    "wof:country": "GB",
    "wof:created": 1583701246,
    "wof:geomhash": "5dfaef507f8f596b8a6bfe3f9215fc9a",
    "wof:hierarchy": [
      {
        "continent_id": 102191581,
        "country_id": 85633159,
        "county_id": 1360699001,
        "empire_id": 136253055,
        "localadmin_id": 404454849,
        "locality_id": 1125794315,
        "macrocounty_id": 1880762147,
        "macroregion_id": 404227469,
        "postalcode_id": 488261465,
        "region_id": 1880773091
      },
      {
        "continent_id": 102191581,
        "country_id": 85633159,
        "empire_id": 136253055,
        "postalcode_id": 488261465,
        "postalregion_id": 1864211777
      }
    ],
    "wof:id": 488261465,
    "wof:lastmodified": 1763548471,
    "wof:name": "YO8 6NY",
    "wof:parent_id": 1125794315,
    "wof:placetype": "postalcode",
    "wof:repo": "whosonfirst-data-postalcode-gb",
    "wof:superseded_by": [],
    "wof:supersedes": [],
    "wof:tags": []
  },
  "bbox": [
    -0.915692,
    53.817645,
    -0.915692,
    53.817645
  ],
  "geometry": {"coordinates":[-0.915692,53.817645],"type":"Point"}
}
