{
  "id": 488255251,
  "type": "Feature",
  "properties": {
    "date:inception_lower": "1998-06-01",
    "date:inception_upper": "1998-06-01",
    "edtf:cessation": "",
    "edtf:inception": "1998-06-01",
    "geom:area": 0,
    "geom:bbox": "-0.846212,54.105490,-0.846212,54.105490",
    "geom:latitude": 54.10549,
    "geom:longitude": -0.846212,
    "gp:parent_id": "23232",
    "iso:country": "GB",
    "mz:hierarchy_label": 1,
    "mz:is_current": 1,
    "os:country_code": "E92000001",
    "os:county_code": "E99999999",
    "os:district_code": "E06000065",
    "os:positional_quality_indicator": "1",
    "os:region_code": "E12000003",
    "src:geom": "os",
    "wof:belongsto": [
      85633159,
      102191581,
      136253055,
      1864211767,
      1360698753,
      404450779,
      1276372697,
      1880762011,
      404227469,
      1880772891
    ],
    "wof:breaches": [],
    "wof:concordances": {
      "gp:id": "28199644"
    },
    "wof:country": "GB",
    "wof:created": 1583701230,
    "wof:geomhash": "ef5b1f2aee85c8d4cdada6c2ee9a4e3a",
    "wof:hierarchy": [
      {
        "continent_id": 102191581,
        "country_id": 85633159,
        "county_id": 1360698753,
        "empire_id": 136253055,
        "localadmin_id": 404450779,
        "locality_id": 1276372697,
        "macrocounty_id": 1880762011,
        "macroregion_id": 404227469,
        "postalcode_id": 488255251,
        "region_id": 1880772891
      },
      {
        "continent_id": 102191581,
        "country_id": 85633159,
        "empire_id": 136253055,
        "postalcode_id": 488255251,
        "postalregion_id": 1864211767
      }
    ],
    "wof:id": 488255251,
    "wof:lastmodified": 1763548590,
    "wof:name": "YO60 7HL",
    "wof:parent_id": 1276372697,
    "wof:placetype": "postalcode",
    "wof:repo": "whosonfirst-data-postalcode-gb",
    "wof:superseded_by": [],
    "wof:supersedes": [],
    "wof:tags": []
  },
  "bbox": [
    -0.846212,
    54.10549,
    -0.846212,
    54.10549
  ],
  "geometry": {"coordinates":[-0.846212,54.10549],"type":"Point"}
}
