{
  "id": 437555677,
  "type": "Feature",
  "properties": {
    "date:inception_lower": "2010-06-01",
    "date:inception_upper": "2010-06-01",
    "edtf:cessation": "",
    "edtf:inception": "2010-06-01",
    "geom:area": 0,
    "geom:bbox": "-3.555415,50.704405,-3.555415,50.704405",
    "geom:latitude": 50.704405,
    "geom:longitude": -3.555415,
    "gp:parent_id": "24299",
    "iso:country": "GB",
    "mz:hierarchy_label": 1,
    "mz:is_current": 1,
    "os:country_code": "E92000001",
    "os:county_code": "E10000008",
    "os:district_code": "E07000045",
    "os:positional_quality_indicator": "1",
    "os:region_code": "E12000009",
    "src:geom": "os",
    "wof:belongsto": [
      85633159,
      102191581,
      136253055,
      1864207203,
      1880771399,
      404447795,
      1260108985,
      1880762149,
      404227469,
      1880762683
    ],
    "wof:breaches": [],
    "wof:concordances": {
      "gp:id": "28969838"
    },
    "wof:country": "GB",
    "wof:created": 1583701367,
    "wof:geomhash": "706d8783295b12f6ba948bad5501780a",
    "wof:hierarchy": [
      {
        "continent_id": 102191581,
        "country_id": 85633159,
        "county_id": 1880771399,
        "empire_id": 136253055,
        "localadmin_id": 404447795,
        "locality_id": 1260108985,
        "macrocounty_id": 1880762149,
        "macroregion_id": 404227469,
        "postalcode_id": 437555677,
        "region_id": 1880762683
      },
      {
        "continent_id": 102191581,
        "country_id": 85633159,
        "empire_id": 136253055,
        "postalcode_id": 437555677,
        "postalregion_id": 1864207203
      }
    ],
    "wof:id": 437555677,
    "wof:lastmodified": 1763548137,
    "wof:name": "EX2 9SP",
    "wof:parent_id": 1260108985,
    "wof:placetype": "postalcode",
    "wof:repo": "whosonfirst-data-postalcode-gb",
    "wof:superseded_by": [],
    "wof:supersedes": [],
    "wof:tags": []
  },
  "bbox": [
    -3.555415,
    50.704405,
    -3.555415,
    50.704405
  ],
  "geometry": {"coordinates":[-3.555415,50.704405],"type":"Point"}
}
