{
  "id": 1160748436,
  "type": "Feature",
  "properties": {
    "date:cessation_lower": "1995-07-01",
    "date:cessation_upper": "1995-07-01",
    "date:inception_lower": "1992-08-01",
    "date:inception_upper": "1992-08-01",
    "edtf:cessation": "1995-07-01",
    "edtf:inception": "1992-08-01",
    "geom:area": 0,
    "geom:bbox": "-0.786085,50.822914,-0.786085,50.822914",
    "geom:latitude": 50.822914,
    "geom:longitude": -0.786085,
    "iso:country": "GB",
    "mz:hierarchy_label": 1,
    "mz:is_current": 0,
    "os:country_code": "E92000001",
    "os:county_code": "E10000032",
    "os:district_code": "E07000225",
    "os:positional_quality_indicator": "8",
    "os:region_code": "E12000008",
    "src:geom": "os",
    "wof:belongsto": [
      85633159,
      102191581,
      136253055,
      1864209935,
      1880771685,
      404449795,
      1125800979,
      1880762061
    ],
    "wof:breaches": [],
    "wof:country": "GB",
    "wof:created": 1583788221,
    "wof:geomhash": "cdae56c987d335557c3f4251aedf37b8",
    "wof:hierarchy": [
      {
        "continent_id": -1,
        "country_id": -1,
        "county_id": 1880771685,
        "localadmin_id": 404449795,
        "locality_id": 1125800979,
        "macrocounty_id": 1880762061,
        "postalcode_id": 1160748436,
        "region_id": -1
      },
      {
        "continent_id": 102191581,
        "country_id": 85633159,
        "empire_id": 136253055,
        "postalcode_id": 1160748436,
        "postalregion_id": 1864209935
      }
    ],
    "wof:id": 1160748436,
    "wof:lastmodified": 1763548314,
    "wof:name": "PO19 2SE",
    "wof:parent_id": 1125800979,
    "wof:placetype": "postalcode",
    "wof:repo": "whosonfirst-data-postalcode-gb",
    "wof:superseded_by": [],
    "wof:supersedes": [],
    "wof:tags": []
  },
  "bbox": [
    -0.786085,
    50.822914,
    -0.786085,
    50.822914
  ],
  "geometry": {"coordinates":[-0.786085,50.822914],"type":"Point"}
}
