{
  "id": 455034137,
  "type": "Feature",
  "properties": {
    "date:inception_lower": "1980-01-01",
    "date:inception_upper": "1980-01-01",
    "edtf:cessation": "",
    "edtf:inception": "1980-01-01",
    "geom:area": 0,
    "geom:bbox": "-1.120895,52.678599,-1.120895,52.678599",
    "geom:latitude": 52.678599,
    "geom:longitude": -1.120895,
    "gp:parent_id": "12731",
    "iso:country": "GB",
    "mz:hierarchy_label": 1,
    "mz:is_current": 1,
    "os:country_code": "E92000001",
    "os:county_code": "E10000018",
    "os:district_code": "E07000130",
    "os:positional_quality_indicator": "1",
    "os:region_code": "E12000004",
    "src:geom": "os",
    "wof:belongsto": [
      85633159,
      102191581,
      136253055,
      1864208423,
      1360698995,
      1125772723,
      1880762051,
      404227469,
      1880773085
    ],
    "wof:breaches": [],
    "wof:concordances": {
      "gp:id": "26660489"
    },
    "wof:country": "GB",
    "wof:created": 1583701103,
    "wof:geomhash": "0c9b95c144ff9c709f79e75af2d1ac91",
    "wof:hierarchy": [
      {
        "continent_id": 102191581,
        "country_id": 85633159,
        "county_id": 1360698995,
        "empire_id": 136253055,
        "locality_id": 1125772723,
        "macrocounty_id": 1880762051,
        "macroregion_id": 404227469,
        "postalcode_id": 455034137,
        "region_id": 1880773085
      },
      {
        "continent_id": 102191581,
        "country_id": 85633159,
        "empire_id": 136253055,
        "postalcode_id": 455034137,
        "postalregion_id": 1864208423
      }
    ],
    "wof:id": 455034137,
    "wof:lastmodified": 1763547966,
    "wof:name": "LE4 4JQ",
    "wof:parent_id": 1125772723,
    "wof:placetype": "postalcode",
    "wof:repo": "whosonfirst-data-postalcode-gb",
    "wof:superseded_by": [],
    "wof:supersedes": [],
    "wof:tags": []
  },
  "bbox": [
    -1.120895,
    52.678599,
    -1.120895,
    52.678599
  ],
  "geometry": {"coordinates":[-1.120895,52.678599],"type":"Point"}
}
