{
  "id": 39753198,
  "type": "Feature",
  "properties": {
    "date:cessation_lower": "1990-12-01",
    "date:cessation_upper": "1990-12-01",
    "date:inception_lower": "1980-01-01",
    "date:inception_upper": "1980-01-01",
    "edtf:cessation": "1990-12-01",
    "edtf:inception": "1980-01-01",
    "geom:area": 0,
    "geom:bbox": "-1.576340,54.852169,-1.576340,54.852169",
    "geom:latitude": 54.852169,
    "geom:longitude": -1.57634,
    "iso:country": "GB",
    "mz:hierarchy_label": 1,
    "mz:is_current": 0,
    "os:country_code": "E92000001",
    "os:county_code": "E99999999",
    "os:district_code": "E06000047",
    "os:positional_quality_indicator": "8",
    "os:region_code": "E12000001",
    "src:geom": "os",
    "wof:belongsto": [
      85633159,
      102191581,
      136253055,
      1864206731,
      1360699055,
      101873347,
      1880762117,
      404227469,
      1880773141
    ],
    "wof:breaches": [],
    "wof:country": "GB",
    "wof:created": 1583804950,
    "wof:geomhash": "8c51c6ea4ca611fa756e2e2f36f92434",
    "wof:hierarchy": [
      {
        "continent_id": 102191581,
        "country_id": 85633159,
        "county_id": 1360699055,
        "empire_id": 136253055,
        "locality_id": 101873347,
        "macrocounty_id": 1880762117,
        "macroregion_id": 404227469,
        "postalcode_id": 39753198,
        "region_id": 1880773141
      },
      {
        "continent_id": 102191581,
        "country_id": 85633159,
        "empire_id": 136253055,
        "postalcode_id": 39753198,
        "postalregion_id": 1864206731
      }
    ],
    "wof:id": 39753198,
    "wof:lastmodified": 1763547909,
    "wof:name": "DH3 3HH",
    "wof:parent_id": 101873347,
    "wof:placetype": "postalcode",
    "wof:repo": "whosonfirst-data-postalcode-gb",
    "wof:superseded_by": [],
    "wof:supersedes": [],
    "wof:tags": []
  },
  "bbox": [
    -1.57634,
    54.852169,
    -1.57634,
    54.852169
  ],
  "geometry": {"coordinates":[-1.57634,54.852169],"type":"Point"}
}
