{
  "id": 39186891,
  "type": "Feature",
  "properties": {
    "date:cessation_lower": "1996-06-01",
    "date:cessation_upper": "1996-06-01",
    "date:inception_lower": "1986-04-01",
    "date:inception_upper": "1986-04-01",
    "edtf:cessation": "1996-06-01",
    "edtf:inception": "1986-04-01",
    "geom:area": 0,
    "geom:bbox": "-5.038440,51.714304,-5.038440,51.714304",
    "geom:latitude": 51.714304,
    "geom:longitude": -5.03844,
    "iso:country": "GB",
    "mz:hierarchy_label": 1,
    "mz:is_current": 0,
    "os:country_code": "W92000004",
    "os:county_code": "W99999999",
    "os:district_code": "W06000009",
    "os:positional_quality_indicator": "8",
    "os:region_code": "W99999999",
    "src:geom": "os",
    "wof:belongsto": [
      85633159,
      102191581,
      136253055,
      1864210395,
      1360698843,
      404431005,
      101852993,
      1880762181,
      404227475,
      1880772913
    ],
    "wof:breaches": [],
    "wof:country": "GB",
    "wof:created": 1583798692,
    "wof:geomhash": "8dfc8ab24cc7c9e7afe30440286437b7",
    "wof:hierarchy": [
      {
        "continent_id": 102191581,
        "country_id": 85633159,
        "county_id": 1360698843,
        "empire_id": 136253055,
        "localadmin_id": 404431005,
        "locality_id": 101852993,
        "macrocounty_id": 1880762181,
        "macroregion_id": 404227475,
        "postalcode_id": 39186891,
        "region_id": 1880772913
      },
      {
        "continent_id": 102191581,
        "country_id": 85633159,
        "empire_id": 136253055,
        "postalcode_id": 39186891,
        "postalregion_id": 1864210395
      }
    ],
    "wof:id": 39186891,
    "wof:lastmodified": 1763547896,
    "wof:name": "SA73 2DB",
    "wof:parent_id": 101852993,
    "wof:placetype": "postalcode",
    "wof:repo": "whosonfirst-data-postalcode-gb",
    "wof:superseded_by": [],
    "wof:supersedes": [],
    "wof:tags": []
  },
  "bbox": [
    -5.03844,
    51.714304,
    -5.03844,
    51.714304
  ],
  "geometry": {"coordinates":[-5.03844,51.714304],"type":"Point"}
}
