{
  "id": 39841272,
  "type": "Feature",
  "properties": {
    "date:cessation_lower": "1992-12-01",
    "date:cessation_upper": "1992-12-01",
    "date:inception_lower": "1980-01-01",
    "date:inception_upper": "1980-01-01",
    "edtf:cessation": "1992-12-01",
    "edtf:inception": "1980-01-01",
    "geom:area": 0,
    "geom:bbox": "-4.020333,51.656975,-4.020333,51.656975",
    "geom:latitude": 51.656975,
    "geom:longitude": -4.020333,
    "iso:country": "GB",
    "mz:hierarchy_label": 1,
    "mz:is_current": 0,
    "os:country_code": "W92000004",
    "os:county_code": "W99999999",
    "os:district_code": "W06000011",
    "os:positional_quality_indicator": "1",
    "os:region_code": "W99999999",
    "src:geom": "os",
    "wof:belongsto": [
      85633159,
      102191581,
      136253055,
      1864210339,
      1360699095,
      404436853,
      1360711713,
      1880762113,
      404227475,
      1880773177
    ],
    "wof:breaches": [],
    "wof:country": "GB",
    "wof:created": 1583805888,
    "wof:geomhash": "bf4cf1597202b116179d05e6ff4ee7df",
    "wof:hierarchy": [
      {
        "continent_id": 102191581,
        "country_id": 85633159,
        "county_id": 1360699095,
        "empire_id": 136253055,
        "localadmin_id": 404436853,
        "locality_id": 1360711713,
        "macrocounty_id": 1880762113,
        "macroregion_id": 404227475,
        "postalcode_id": 39841272,
        "region_id": 1880773177
      },
      {
        "continent_id": 102191581,
        "country_id": 85633159,
        "empire_id": 136253055,
        "postalcode_id": 39841272,
        "postalregion_id": 1864210339
      }
    ],
    "wof:id": 39841272,
    "wof:lastmodified": 1763547894,
    "wof:name": "SA4 2LQ",
    "wof:parent_id": 1360711713,
    "wof:placetype": "postalcode",
    "wof:repo": "whosonfirst-data-postalcode-gb",
    "wof:superseded_by": [],
    "wof:supersedes": [],
    "wof:tags": []
  },
  "bbox": [
    -4.020333,
    51.656975,
    -4.020333,
    51.656975
  ],
  "geometry": {"coordinates":[-4.020333,51.656975],"type":"Point"}
}
