{
  "id": 1160738142,
  "type": "Feature",
  "properties": {
    "date:cessation_lower": "1998-06-01",
    "date:cessation_upper": "1998-06-01",
    "date:inception_lower": "1980-01-01",
    "date:inception_upper": "1980-01-01",
    "edtf:cessation": "1998-06-01",
    "edtf:inception": "1980-01-01",
    "geom:area": 0,
    "geom:bbox": "-1.012077,54.005249,-1.012077,54.005249",
    "geom:latitude": 54.005249,
    "geom:longitude": -1.012077,
    "iso:country": "GB",
    "mz:hierarchy_label": 1,
    "mz:is_current": 0,
    "os:country_code": "E92000001",
    "os:county_code": "E99999999",
    "os:district_code": "E06000014",
    "os:positional_quality_indicator": "1",
    "os:region_code": "E12000003",
    "src:geom": "os",
    "wof:belongsto": [
      1360698977,
      404429969,
      1360753683,
      1880762011
    ],
    "wof:breaches": [],
    "wof:country": "GB",
    "wof:created": 1583787770,
    "wof:geomhash": "75bc449307bb87636e6ac179649aa7e7",
    "wof:hierarchy": [
      {
        "continent_id": -1,
        "country_id": -1,
        "county_id": 1360698977,
        "localadmin_id": 404429969,
        "locality_id": 1360753683,
        "macrocounty_id": 1880762011,
        "postalcode_id": 1160738142,
        "region_id": -1
      }
    ],
    "wof:id": 1160738142,
    "wof:lastmodified": 1763548310,
    "wof:name": "YO3 9TL",
    "wof:parent_id": 1360753683,
    "wof:placetype": "postalcode",
    "wof:repo": "whosonfirst-data-postalcode-gb",
    "wof:superseded_by": [],
    "wof:supersedes": [],
    "wof:tags": []
  },
  "bbox": [
    -1.012077,
    54.005249,
    -1.012077,
    54.005249
  ],
  "geometry": {"coordinates":[-1.012077,54.005249],"type":"Point"}
}
