{
  "id": 471505101,
  "type": "Feature",
  "properties": {
    "date:inception_lower": "1980-01-01",
    "date:inception_upper": "1980-01-01",
    "edtf:cessation": "",
    "edtf:inception": "1980-01-01",
    "geom:area": 0,
    "geom:bbox": "-2.842651,53.773880,-2.842651,53.773880",
    "geom:latitude": 53.77388,
    "geom:longitude": -2.842651,
    "gp:parent_id": "20092111",
    "iso:country": "GB",
    "mz:hierarchy_label": 1,
    "mz:is_current": 1,
    "os:country_code": "E92000001",
    "os:county_code": "E10000017",
    "os:district_code": "E07000119",
    "os:positional_quality_indicator": "1",
    "os:region_code": "E12000002",
    "src:geom": "os",
    "wof:belongsto": [
      85633159,
      102191581,
      136253055,
      1864210001,
      1880771541,
      404446265,
      1360753527,
      1880762053,
      404227469,
      1880762711
    ],
    "wof:breaches": [],
    "wof:concordances": {
      "gp:id": "27800392"
    },
    "wof:country": "GB",
    "wof:created": 1583701648,
    "wof:geomhash": "328a20dc9bd53fd7e0dfdf80df4ec248",
    "wof:hierarchy": [
      {
        "continent_id": 102191581,
        "country_id": 85633159,
        "county_id": 1880771541,
        "empire_id": 136253055,
        "localadmin_id": 404446265,
        "locality_id": 1360753527,
        "macrocounty_id": 1880762053,
        "macroregion_id": 404227469,
        "postalcode_id": 471505101,
        "region_id": 1880762711
      },
      {
        "continent_id": 102191581,
        "country_id": 85633159,
        "empire_id": 136253055,
        "postalcode_id": 471505101,
        "postalregion_id": 1864210001
      }
    ],
    "wof:id": 471505101,
    "wof:lastmodified": 1763547954,
    "wof:name": "PR4 3RP",
    "wof:parent_id": 1360753527,
    "wof:placetype": "postalcode",
    "wof:repo": "whosonfirst-data-postalcode-gb",
    "wof:superseded_by": [],
    "wof:supersedes": [],
    "wof:tags": []
  },
  "bbox": [
    -2.842651,
    53.77388,
    -2.842651,
    53.77388
  ],
  "geometry": {"coordinates":[-2.842651,53.77388],"type":"Point"}
}
