{
  "id": 1160870750,
  "type": "Feature",
  "properties": {
    "date:cessation_lower": "2000-06-01",
    "date:cessation_upper": "2000-06-01",
    "date:inception_lower": "1980-01-01",
    "date:inception_upper": "1980-01-01",
    "edtf:cessation": "2000-06-01",
    "edtf:inception": "1980-01-01",
    "geom:area": 0,
    "geom:bbox": "-1.802475,51.606538,-1.802475,51.606538",
    "geom:latitude": 51.606538,
    "geom:longitude": -1.802475,
    "iso:country": "GB",
    "mz:hierarchy_label": 1,
    "mz:is_current": 0,
    "os:country_code": "E92000001",
    "os:county_code": "E99999999",
    "os:district_code": "E06000030",
    "os:positional_quality_indicator": "1",
    "os:region_code": "E12000009",
    "src:geom": "os",
    "wof:belongsto": [
      85633159,
      102191581,
      136253055,
      1864210619,
      1360699033,
      404455227,
      1125839305,
      1880762017,
      404227469,
      1880773035
    ],
    "wof:breaches": [],
    "wof:country": "GB",
    "wof:created": 1583793730,
    "wof:geomhash": "3c2190b85b49e45ef79487cb3f10d6fd",
    "wof:hierarchy": [
      {
        "continent_id": 102191581,
        "country_id": 85633159,
        "county_id": 1360699033,
        "empire_id": 136253055,
        "localadmin_id": 404455227,
        "locality_id": 1125839305,
        "macrocounty_id": 1880762017,
        "macroregion_id": 404227469,
        "postalcode_id": 1160870750,
        "region_id": 1880773035
      },
      {
        "continent_id": 102191581,
        "country_id": 85633159,
        "empire_id": 136253055,
        "postalcode_id": 1160870750,
        "postalregion_id": 1864210619
      }
    ],
    "wof:id": 1160870750,
    "wof:lastmodified": 1763548310,
    "wof:name": "SN2 4DT",
    "wof:parent_id": 1125839305,
    "wof:placetype": "postalcode",
    "wof:repo": "whosonfirst-data-postalcode-gb",
    "wof:superseded_by": [],
    "wof:supersedes": [],
    "wof:tags": []
  },
  "bbox": [
    -1.802475,
    51.606538,
    -1.802475,
    51.606538
  ],
  "geometry": {"coordinates":[-1.802475,51.606538],"type":"Point"}
}
