{
  "id": 454671515,
  "type": "Feature",
  "properties": {
    "date:inception_lower": "1980-01-01",
    "date:inception_upper": "1980-01-01",
    "edtf:cessation": "",
    "edtf:inception": "1980-01-01",
    "geom:area": 0,
    "geom:bbox": "-0.751812,51.159767,-0.751812,51.159767",
    "geom:latitude": 51.159767,
    "geom:longitude": -0.751812,
    "gp:parent_id": "20093320",
    "iso:country": "GB",
    "mz:hierarchy_label": 1,
    "mz:is_current": 1,
    "os:country_code": "E92000001",
    "os:county_code": "E10000030",
    "os:district_code": "E07000216",
    "os:positional_quality_indicator": "1",
    "os:region_code": "E12000008",
    "src:geom": "os",
    "wof:belongsto": [
      85633159,
      102191581,
      136253055,
      1864207505,
      1880771647,
      404445157,
      1125879623,
      1880761993,
      404227469,
      1880762727
    ],
    "wof:breaches": [],
    "wof:concordances": {
      "gp:id": "27321941"
    },
    "wof:country": "GB",
    "wof:created": 1583701681,
    "wof:geomhash": "cc7c13b16c5ba1e674216bc6fec6bd13",
    "wof:hierarchy": [
      {
        "continent_id": 102191581,
        "country_id": 85633159,
        "county_id": 1880771647,
        "empire_id": 136253055,
        "localadmin_id": 404445157,
        "locality_id": 1125879623,
        "macrocounty_id": 1880761993,
        "macroregion_id": 404227469,
        "postalcode_id": 454671515,
        "region_id": 1880762727
      },
      {
        "continent_id": 102191581,
        "country_id": 85633159,
        "empire_id": 136253055,
        "postalcode_id": 454671515,
        "postalregion_id": 1864207505
      }
    ],
    "wof:id": 454671515,
    "wof:lastmodified": 1763548478,
    "wof:name": "GU10 2EJ",
    "wof:parent_id": 1125879623,
    "wof:placetype": "postalcode",
    "wof:repo": "whosonfirst-data-postalcode-gb",
    "wof:superseded_by": [],
    "wof:supersedes": [],
    "wof:tags": []
  },
  "bbox": [
    -0.751812,
    51.159767,
    -0.751812,
    51.159767
  ],
  "geometry": {"coordinates":[-0.751812,51.159767],"type":"Point"}
}
