{
  "id": 1160817176,
  "type": "Feature",
  "properties": {
    "date:inception_lower": "2018-05-01",
    "date:inception_upper": "2018-05-01",
    "edtf:cessation": "",
    "edtf:inception": "2018-05-01",
    "geom:area": 0,
    "geom:bbox": "-1.041073,53.963078,-1.041073,53.963078",
    "geom:latitude": 53.963078,
    "geom:longitude": -1.041073,
    "iso:country": "GB",
    "mz:hierarchy_label": 1,
    "mz:is_current": 1,
    "os:country_code": "E92000001",
    "os:county_code": "E99999999",
    "os:district_code": "E06000014",
    "os:positional_quality_indicator": "1",
    "os:region_code": "E12000003",
    "src:geom": "os",
    "wof:belongsto": [
      85633159,
      102191581,
      136253055,
      1864211755,
      1360698977,
      404432473,
      1125942943,
      1880762011
    ],
    "wof:breaches": [],
    "wof:country": "GB",
    "wof:created": 1583791282,
    "wof:geomhash": "d7ba459c021d1a80651dd8bc1d1f48da",
    "wof:hierarchy": [
      {
        "continent_id": -1,
        "country_id": -1,
        "county_id": 1360698977,
        "localadmin_id": 404432473,
        "locality_id": 1125942943,
        "macrocounty_id": 1880762011,
        "postalcode_id": 1160817176,
        "region_id": -1
      },
      {
        "continent_id": 102191581,
        "country_id": 85633159,
        "empire_id": 136253055,
        "postalcode_id": 1160817176,
        "postalregion_id": 1864211755
      }
    ],
    "wof:id": 1160817176,
    "wof:lastmodified": 1763548324,
    "wof:name": "YO31 0WE",
    "wof:parent_id": 1125942943,
    "wof:placetype": "postalcode",
    "wof:repo": "whosonfirst-data-postalcode-gb",
    "wof:superseded_by": [],
    "wof:supersedes": [],
    "wof:tags": []
  },
  "bbox": [
    -1.041073,
    53.963078,
    -1.041073,
    53.963078
  ],
  "geometry": {"coordinates":[-1.041073,53.963078],"type":"Point"}
}
