{
  "id": 504475261,
  "type": "Feature",
  "properties": {
    "date:inception_lower": "1985-12-01",
    "date:inception_upper": "1985-12-01",
    "edtf:cessation": "",
    "edtf:inception": "1985-12-01",
    "geom:area": 0,
    "geom:bbox": "-3.346746,56.114597,-3.346746,56.114597",
    "geom:latitude": 56.114597,
    "geom:longitude": -3.346746,
    "gp:parent_id": "12696197",
    "iso:country": "GB",
    "mz:hierarchy_label": 1,
    "mz:is_current": 1,
    "os:country_code": "S92000003",
    "os:county_code": "S99999999",
    "os:district_code": "S12000047",
    "os:positional_quality_indicator": "1",
    "os:region_code": "S99999999",
    "src:geom": "os",
    "wof:belongsto": [
      85633159,
      102191581,
      136253055,
      1864208197,
      1360699123,
      1880762125,
      404227471,
      1880773203
    ],
    "wof:breaches": [],
    "wof:concordances": {
      "gp:id": "27440019"
    },
    "wof:country": "GB",
    "wof:created": 1583701356,
    "wof:geomhash": "06fd28f7237f8d89df52b1a6c48d3524",
    "wof:hierarchy": [
      {
        "continent_id": 102191581,
        "country_id": 85633159,
        "county_id": 1360699123,
        "empire_id": 136253055,
        "macrocounty_id": 1880762125,
        "macroregion_id": 404227471,
        "postalcode_id": 504475261,
        "region_id": 1880773203
      },
      {
        "continent_id": 102191581,
        "country_id": 85633159,
        "empire_id": 136253055,
        "postalcode_id": 504475261,
        "postalregion_id": 1864208197
      }
    ],
    "wof:id": 504475261,
    "wof:lastmodified": 1763548108,
    "wof:name": "KY4 9QL",
    "wof:parent_id": 1360699123,
    "wof:placetype": "postalcode",
    "wof:repo": "whosonfirst-data-postalcode-gb",
    "wof:superseded_by": [],
    "wof:supersedes": [],
    "wof:tags": []
  },
  "bbox": [
    -3.346746,
    56.114597,
    -3.346746,
    56.114597
  ],
  "geometry": {"coordinates":[-3.346746,56.114597],"type":"Point"}
}
