{
  "id": 1712600483,
  "type": "Feature",
  "properties": {
    "date:cessation_lower": "1995-01-01",
    "date:cessation_upper": "1995-01-01",
    "date:inception_lower": "1994-05-01",
    "date:inception_upper": "1994-05-01",
    "edtf:cessation": "1995-01-01",
    "edtf:inception": "1994-05-01",
    "geom:area": 0,
    "geom:bbox": "-2.118750,53.391494,-2.118750,53.391494",
    "geom:latitude": 53.391494,
    "geom:longitude": -2.11875,
    "iso:country": "GB",
    "mz:hierarchy_label": 1,
    "mz:is_current": 0,
    "os:country_code": "E92000001",
    "os:county_code": "E99999999",
    "os:district_code": "E08000007",
    "os:positional_quality_indicator": "8",
    "os:region_code": "E12000002",
    "src:geom": "os",
    "wof:belongsto": [
      85633159,
      102191581,
      136253055,
      1864210535,
      1360698879,
      101750527,
      1880762163,
      404227469,
      1880773095
    ],
    "wof:breaches": [],
    "wof:country": "GB",
    "wof:created": 1583795271,
    "wof:geomhash": "b35854b1133524cc0688bdd3d5c19626",
    "wof:hierarchy": [
      {
        "continent_id": 102191581,
        "country_id": 85633159,
        "county_id": 1360698879,
        "empire_id": 136253055,
        "locality_id": 101750527,
        "macrocounty_id": 1880762163,
        "macroregion_id": 404227469,
        "postalcode_id": 1712600483,
        "region_id": 1880773095
      },
      {
        "continent_id": 102191581,
        "country_id": 85633159,
        "empire_id": 136253055,
        "postalcode_id": 1712600483,
        "postalregion_id": 1864210535
      }
    ],
    "wof:id": 1712600483,
    "wof:lastmodified": 1763548692,
    "wof:name": "SK2 5PP",
    "wof:parent_id": 101750527,
    "wof:placetype": "postalcode",
    "wof:repo": "whosonfirst-data-postalcode-gb",
    "wof:superseded_by": [],
    "wof:supersedes": [],
    "wof:tags": []
  },
  "bbox": [
    -2.11875,
    53.391494,
    -2.11875,
    53.391494
  ],
  "geometry": {"coordinates":[-2.11875,53.391494],"type":"Point"}
}
