{
  "id": 471195309,
  "type": "Feature",
  "properties": {
    "date:inception_lower": "1998-12-01",
    "date:inception_upper": "1998-12-01",
    "edtf:cessation": "",
    "edtf:inception": "1998-12-01",
    "geom:area": 0,
    "geom:bbox": "-0.622480,52.332324,-0.622480,52.332324",
    "geom:latitude": 52.332324,
    "geom:longitude": -0.62248,
    "iso:country": "GB",
    "mz:hierarchy_label": 1,
    "mz:is_current": 1,
    "os:country_code": "E92000001",
    "os:county_code": "E99999999",
    "os:district_code": "E06000061",
    "os:positional_quality_indicator": "1",
    "os:region_code": "E12000004",
    "src:geom": "os",
    "wof:belongsto": [
      85633159,
      102191581,
      136253055,
      1864209257,
      1880773237,
      404448195,
      101853571,
      1880762029,
      404227469,
      1880773265
    ],
    "wof:breaches": [],
    "wof:concordances": {
      "gp:id": "27662622"
    },
    "wof:country": "GB",
    "wof:created": 1583701390,
    "wof:geomhash": "878864bed239d9554e4bdfce5968c956",
    "wof:hierarchy": [
      {
        "continent_id": 102191581,
        "country_id": 85633159,
        "county_id": 1880773237,
        "empire_id": 136253055,
        "localadmin_id": 404448195,
        "locality_id": 101853571,
        "macrocounty_id": 1880762029,
        "macroregion_id": 404227469,
        "postalcode_id": 471195309,
        "region_id": 1880773265
      },
      {
        "continent_id": 102191581,
        "country_id": 85633159,
        "empire_id": 136253055,
        "postalcode_id": 471195309,
        "postalregion_id": 1864209257
      }
    ],
    "wof:id": 471195309,
    "wof:lastmodified": 1763547950,
    "wof:name": "NN9 5YE",
    "wof:parent_id": 101853571,
    "wof:placetype": "postalcode",
    "wof:repo": "whosonfirst-data-postalcode-gb",
    "wof:superseded_by": [],
    "wof:supersedes": [],
    "wof:tags": []
  },
  "bbox": [
    -0.62248,
    52.332324,
    -0.62248,
    52.332324
  ],
  "geometry": {"coordinates":[-0.62248,52.332324],"type":"Point"}
}
