{
  "id": 471550463,
  "type": "Feature",
  "properties": {
    "date:inception_lower": "1980-01-01",
    "date:inception_upper": "1980-01-01",
    "edtf:cessation": "",
    "edtf:inception": "1980-01-01",
    "geom:area": 0,
    "geom:bbox": "-0.979525,51.475758,-0.979525,51.475758",
    "geom:latitude": 51.475758,
    "geom:longitude": -0.979525,
    "iso:country": "GB",
    "mz:hierarchy_label": 1,
    "mz:is_current": 1,
    "os:country_code": "E92000001",
    "os:county_code": "E99999999",
    "os:district_code": "E06000038",
    "os:positional_quality_indicator": "1",
    "os:region_code": "E12000008",
    "src:geom": "os",
    "wof:belongsto": [
      85633159,
      102191581,
      136253055,
      1864210061,
      1360698983,
      1175612721,
      1880762165,
      404227469,
      1880772969
    ],
    "wof:breaches": [],
    "wof:concordances": {
      "gp:id": "26361175"
    },
    "wof:country": "GB",
    "wof:created": 1583701668,
    "wof:geomhash": "422bf9d2dcd738705c061780876e1532",
    "wof:hierarchy": [
      {
        "continent_id": 102191581,
        "country_id": 85633159,
        "county_id": 1360698983,
        "empire_id": 136253055,
        "locality_id": 1175612721,
        "macrocounty_id": 1880762165,
        "macroregion_id": 404227469,
        "postalcode_id": 471550463,
        "region_id": 1880772969
      },
      {
        "continent_id": 102191581,
        "country_id": 85633159,
        "empire_id": 136253055,
        "postalcode_id": 471550463,
        "postalregion_id": 1864210061
      }
    ],
    "wof:id": 471550463,
    "wof:lastmodified": 1763547970,
    "wof:name": "RG4 7NA",
    "wof:parent_id": 1175612721,
    "wof:placetype": "postalcode",
    "wof:repo": "whosonfirst-data-postalcode-gb",
    "wof:superseded_by": [],
    "wof:supersedes": [],
    "wof:tags": []
  },
  "bbox": [
    -0.979525,
    51.475758,
    -0.979525,
    51.475758
  ],
  "geometry": {"coordinates":[-0.979525,51.475758],"type":"Point"}
}
