{
  "id": 487815591,
  "type": "Feature",
  "properties": {
    "date:inception_lower": "1985-10-01",
    "date:inception_upper": "1985-10-01",
    "edtf:cessation": "",
    "edtf:inception": "1985-10-01",
    "geom:area": 0,
    "geom:bbox": "-2.932557,51.111815,-2.932557,51.111815",
    "geom:latitude": 51.111815,
    "geom:longitude": -2.932557,
    "iso:country": "GB",
    "mz:hierarchy_label": 1,
    "mz:is_current": 1,
    "os:country_code": "E92000001",
    "os:county_code": "E99999999",
    "os:district_code": "E06000066",
    "os:positional_quality_indicator": "1",
    "os:region_code": "E12000009",
    "src:geom": "os",
    "wof:belongsto": [
      85633159,
      102191581,
      136253055,
      1864210997,
      1360699059,
      404433317,
      101852539,
      1880762071
    ],
    "wof:breaches": [],
    "wof:concordances": {
      "gp:id": "28035372"
    },
    "wof:country": "GB",
    "wof:created": 1583701183,
    "wof:geomhash": "6d59ce64c6b5da9163de2ac9cf094b7b",
    "wof:hierarchy": [
      {
        "continent_id": -1,
        "country_id": -1,
        "county_id": 1360699059,
        "localadmin_id": 404433317,
        "locality_id": 101852539,
        "macrocounty_id": 1880762071,
        "postalcode_id": 487815591,
        "region_id": -1
      },
      {
        "continent_id": 102191581,
        "country_id": 85633159,
        "empire_id": 136253055,
        "postalcode_id": 487815591,
        "postalregion_id": 1864210997
      }
    ],
    "wof:id": 487815591,
    "wof:lastmodified": 1763548729,
    "wof:name": "TA7 0HP",
    "wof:parent_id": 101852539,
    "wof:placetype": "postalcode",
    "wof:repo": "whosonfirst-data-postalcode-gb",
    "wof:superseded_by": [],
    "wof:supersedes": [],
    "wof:tags": []
  },
  "bbox": [
    -2.932557,
    51.111815,
    -2.932557,
    51.111815
  ],
  "geometry": {"coordinates":[-2.932557,51.111815],"type":"Point"}
}
