{
  "id": 454373987,
  "type": "Feature",
  "properties": {
    "date:inception_lower": "1980-01-01",
    "date:inception_upper": "1980-01-01",
    "edtf:cessation": "",
    "edtf:inception": "1980-01-01",
    "geom:area": 0,
    "geom:bbox": "-1.416953,54.740130,-1.416953,54.740130",
    "geom:latitude": 54.74013,
    "geom:longitude": -1.416953,
    "gp:parent_id": "40131",
    "iso:country": "GB",
    "mz:hierarchy_label": 1,
    "mz:is_current": 1,
    "os:country_code": "E92000001",
    "os:county_code": "E99999999",
    "os:district_code": "E06000047",
    "os:positional_quality_indicator": "1",
    "os:region_code": "E12000001",
    "src:geom": "os",
    "wof:belongsto": [
      85633159,
      102191581,
      136253055,
      1864206737,
      1360699055,
      404448221,
      1126050935,
      1880762117
    ],
    "wof:breaches": [],
    "wof:concordances": {
      "gp:id": "27163063"
    },
    "wof:country": "GB",
    "wof:created": 1583701524,
    "wof:geomhash": "874b27a39b0580e86c2e4500565788b0",
    "wof:hierarchy": [
      {
        "continent_id": -1,
        "country_id": -1,
        "county_id": 1360699055,
        "localadmin_id": 404448221,
        "locality_id": 1126050935,
        "macrocounty_id": 1880762117,
        "postalcode_id": 454373987,
        "region_id": -1
      },
      {
        "continent_id": 102191581,
        "country_id": 85633159,
        "empire_id": 136253055,
        "postalcode_id": 454373987,
        "postalregion_id": 1864206737
      }
    ],
    "wof:id": 454373987,
    "wof:lastmodified": 1763548551,
    "wof:name": "DH6 3LF",
    "wof:parent_id": 1126050935,
    "wof:placetype": "postalcode",
    "wof:repo": "whosonfirst-data-postalcode-gb",
    "wof:superseded_by": [],
    "wof:supersedes": [],
    "wof:tags": []
  },
  "bbox": [
    -1.416953,
    54.74013,
    -1.416953,
    54.74013
  ],
  "geometry": {"coordinates":[-1.416953,54.74013],"type":"Point"}
}
