{
  "id": 487611659,
  "type": "Feature",
  "properties": {
    "date:inception_lower": "1994-12-01",
    "date:inception_upper": "1994-12-01",
    "edtf:cessation": "",
    "edtf:inception": "1994-12-01",
    "geom:area": 0,
    "geom:bbox": "-1.346816,50.931426,-1.346816,50.931426",
    "geom:latitude": 50.931426,
    "geom:longitude": -1.346816,
    "gp:parent_id": "39635",
    "iso:country": "GB",
    "mz:hierarchy_label": 1,
    "mz:is_current": 1,
    "os:country_code": "E92000001",
    "os:county_code": "E10000014",
    "os:district_code": "E07000086",
    "os:positional_quality_indicator": "1",
    "os:region_code": "E12000008",
    "src:geom": "os",
    "wof:belongsto": [
      85633159,
      102191581,
      136253055,
      1864210669,
      1880771461,
      404433059,
      1360753679,
      1880762155,
      404227469,
      1880762717
    ],
    "wof:breaches": [],
    "wof:concordances": {
      "gp:id": "26764303"
    },
    "wof:country": "GB",
    "wof:created": 1583701085,
    "wof:geomhash": "12a0b90d2cd93ee859be45d781ec23af",
    "wof:hierarchy": [
      {
        "continent_id": 102191581,
        "country_id": 85633159,
        "county_id": 1880771461,
        "empire_id": 136253055,
        "localadmin_id": 404433059,
        "locality_id": 1360753679,
        "macrocounty_id": 1880762155,
        "macroregion_id": 404227469,
        "postalcode_id": 487611659,
        "region_id": 1880762717
      },
      {
        "continent_id": 102191581,
        "country_id": 85633159,
        "empire_id": 136253055,
        "postalcode_id": 487611659,
        "postalregion_id": 1864210669
      }
    ],
    "wof:id": 487611659,
    "wof:lastmodified": 1763548647,
    "wof:name": "SO30 3AG",
    "wof:parent_id": 1360753679,
    "wof:placetype": "postalcode",
    "wof:repo": "whosonfirst-data-postalcode-gb",
    "wof:superseded_by": [],
    "wof:supersedes": [],
    "wof:tags": []
  },
  "bbox": [
    -1.346816,
    50.931426,
    -1.346816,
    50.931426
  ],
  "geometry": {"coordinates":[-1.346816,50.931426],"type":"Point"}
}
