{
  "id": 488400985,
  "type": "Feature",
  "properties": {
    "date:inception_lower": "1980-01-01",
    "date:inception_upper": "1980-01-01",
    "edtf:cessation": "",
    "edtf:inception": "1980-01-01",
    "geom:area": 0,
    "geom:bbox": "-2.252413,55.650269,-2.252413,55.650269",
    "geom:latitude": 55.650269,
    "geom:longitude": -2.252413,
    "iso:country": "GB",
    "mz:hierarchy_label": 1,
    "mz:is_current": 1,
    "os:country_code": "S92000003",
    "os:county_code": "S99999999",
    "os:district_code": "S12000026",
    "os:positional_quality_indicator": "1",
    "os:region_code": "S99999999",
    "src:geom": "os",
    "wof:belongsto": [
      85633159,
      102191581,
      136253055,
      1864211009,
      1360699015,
      1880761991,
      404227471,
      1880773105
    ],
    "wof:breaches": [],
    "wof:concordances": {
      "gp:id": "28037240"
    },
    "wof:country": "GB",
    "wof:created": 1583701412,
    "wof:geomhash": "91daaad65ce2699a50b6f32e5e13dff4",
    "wof:hierarchy": [
      {
        "continent_id": 102191581,
        "country_id": 85633159,
        "county_id": 1360699015,
        "macrocounty_id": 1880761991,
        "macroregion_id": 404227471,
        "postalcode_id": 488400985,
        "region_id": 1880773105
      },
      {
        "continent_id": 102191581,
        "country_id": 85633159,
        "empire_id": 136253055,
        "postalcode_id": 488400985,
        "postalregion_id": 1864211009
      }
    ],
    "wof:id": 488400985,
    "wof:lastmodified": 1763548487,
    "wof:name": "TD12 4BH",
    "wof:parent_id": 1360699015,
    "wof:placetype": "postalcode",
    "wof:repo": "whosonfirst-data-postalcode-gb",
    "wof:superseded_by": [],
    "wof:supersedes": [],
    "wof:tags": []
  },
  "bbox": [
    -2.252413,
    55.650269,
    -2.252413,
    55.650269
  ],
  "geometry": {"coordinates":[-2.252413,55.650269],"type":"Point"}
}
