{
  "id": 39210444,
  "type": "Feature",
  "properties": {
    "date:cessation_lower": "1994-05-01",
    "date:cessation_upper": "1994-05-01",
    "date:inception_lower": "1980-01-01",
    "date:inception_upper": "1980-01-01",
    "edtf:cessation": "1994-05-01",
    "edtf:inception": "1980-01-01",
    "geom:area": 0,
    "geom:bbox": "-0.649989,52.278139,-0.649989,52.278139",
    "geom:latitude": 52.278139,
    "geom:longitude": -0.649989,
    "iso:country": "GB",
    "mz:hierarchy_label": 1,
    "mz:is_current": 0,
    "os:country_code": "E92000001",
    "os:county_code": "E99999999",
    "os:district_code": "E06000061",
    "os:positional_quality_indicator": "8",
    "os:region_code": "E12000004",
    "src:geom": "os",
    "wof:belongsto": [
      85633159,
      102191581,
      136253055,
      1864209257,
      1880773237,
      404455181,
      101853577,
      1880762029,
      404227469,
      1880773265
    ],
    "wof:breaches": [],
    "wof:country": "GB",
    "wof:created": 1583798935,
    "wof:geomhash": "bcdf268fd3a52e288e0d58a3d57cdf0d",
    "wof:hierarchy": [
      {
        "continent_id": 102191581,
        "country_id": 85633159,
        "county_id": 1880773237,
        "empire_id": 136253055,
        "localadmin_id": 404455181,
        "locality_id": 101853577,
        "macrocounty_id": 1880762029,
        "macroregion_id": 404227469,
        "postalcode_id": 39210444,
        "region_id": 1880773265
      },
      {
        "continent_id": 102191581,
        "country_id": 85633159,
        "empire_id": 136253055,
        "postalcode_id": 39210444,
        "postalregion_id": 1864209257
      }
    ],
    "wof:id": 39210444,
    "wof:lastmodified": 1763548375,
    "wof:name": "NN9 7DX",
    "wof:parent_id": 101853577,
    "wof:placetype": "postalcode",
    "wof:repo": "whosonfirst-data-postalcode-gb",
    "wof:superseded_by": [],
    "wof:supersedes": [],
    "wof:tags": []
  },
  "bbox": [
    -0.649989,
    52.278139,
    -0.649989,
    52.278139
  ],
  "geometry": {"coordinates":[-0.649989,52.278139],"type":"Point"}
}
