{
  "id": 454280565,
  "type": "Feature",
  "properties": {
    "date:inception_lower": "1980-01-01",
    "date:inception_upper": "1980-01-01",
    "edtf:cessation": "",
    "edtf:inception": "1980-01-01",
    "geom:area": 0,
    "geom:bbox": "-1.560965,52.413007,-1.560965,52.413007",
    "geom:latitude": 52.413007,
    "geom:longitude": -1.560965,
    "gp:parent_id": "17044",
    "iso:country": "GB",
    "mz:hierarchy_label": 1,
    "mz:is_current": 1,
    "os:country_code": "E92000001",
    "os:county_code": "E99999999",
    "os:district_code": "E08000026",
    "os:positional_quality_indicator": "1",
    "os:region_code": "E12000005",
    "src:geom": "os",
    "wof:belongsto": [
      85633159,
      102191581,
      136253055,
      1864206533,
      1360699115,
      101750449,
      1880762069,
      404227469,
      1880773161
    ],
    "wof:breaches": [],
    "wof:concordances": {
      "gp:id": "27117312"
    },
    "wof:country": "GB",
    "wof:created": 1583701439,
    "wof:geomhash": "be2f6e13deccb9ef824f3aba21e4964f",
    "wof:hierarchy": [
      {
        "continent_id": 102191581,
        "country_id": 85633159,
        "county_id": 1360699115,
        "empire_id": 136253055,
        "locality_id": 101750449,
        "macrocounty_id": 1880762069,
        "macroregion_id": 404227469,
        "postalcode_id": 454280565,
        "region_id": 1880773161
      },
      {
        "continent_id": 102191581,
        "country_id": 85633159,
        "empire_id": 136253055,
        "postalcode_id": 454280565,
        "postalregion_id": 1864206533
      }
    ],
    "wof:id": 454280565,
    "wof:lastmodified": 1763548258,
    "wof:name": "CV5 9HP",
    "wof:parent_id": 101750449,
    "wof:placetype": "postalcode",
    "wof:repo": "whosonfirst-data-postalcode-gb",
    "wof:superseded_by": [],
    "wof:supersedes": [],
    "wof:tags": []
  },
  "bbox": [
    -1.560965,
    52.413007,
    -1.560965,
    52.413007
  ],
  "geometry": {"coordinates":[-1.560965,52.413007],"type":"Point"}
}
