{
  "id": 39626487,
  "type": "Feature",
  "properties": {
    "date:cessation_lower": "1998-06-01",
    "date:cessation_upper": "1998-06-01",
    "date:inception_lower": "1980-01-01",
    "date:inception_upper": "1980-01-01",
    "edtf:cessation": "1998-06-01",
    "edtf:inception": "1980-01-01",
    "geom:area": 0,
    "geom:bbox": "-1.146771,53.981356,-1.146771,53.981356",
    "geom:latitude": 53.981356,
    "geom:longitude": -1.146771,
    "iso:country": "GB",
    "mz:hierarchy_label": 1,
    "mz:is_current": 0,
    "os:country_code": "E92000001",
    "os:county_code": "E99999999",
    "os:district_code": "E06000014",
    "os:positional_quality_indicator": "1",
    "os:region_code": "E12000003",
    "src:geom": "os",
    "wof:belongsto": [
      1360698977,
      404442457,
      1125803883,
      1880762011
    ],
    "wof:breaches": [],
    "wof:country": "GB",
    "wof:created": 1583803560,
    "wof:geomhash": "5763cc9cf094235e28e1a1332c146100",
    "wof:hierarchy": [
      {
        "continent_id": -1,
        "country_id": -1,
        "county_id": 1360698977,
        "localadmin_id": 404442457,
        "locality_id": 1125803883,
        "macrocounty_id": 1880762011,
        "postalcode_id": 39626487,
        "region_id": -1
      }
    ],
    "wof:id": 39626487,
    "wof:lastmodified": 1763547909,
    "wof:name": "YO2 6HD",
    "wof:parent_id": 1125803883,
    "wof:placetype": "postalcode",
    "wof:repo": "whosonfirst-data-postalcode-gb",
    "wof:superseded_by": [],
    "wof:supersedes": [],
    "wof:tags": []
  },
  "bbox": [
    -1.146771,
    53.981356,
    -1.146771,
    53.981356
  ],
  "geometry": {"coordinates":[-1.146771,53.981356],"type":"Point"}
}
