{
  "id": 504541749,
  "type": "Feature",
  "properties": {
    "date:inception_lower": "1999-06-01",
    "date:inception_upper": "1999-06-01",
    "edtf:cessation": "",
    "edtf:inception": "1999-06-01",
    "geom:area": 0,
    "geom:bbox": "-3.033771,51.610055,-3.033771,51.610055",
    "geom:latitude": 51.610055,
    "geom:longitude": -3.033771,
    "gp:parent_id": "12696123",
    "iso:country": "GB",
    "mz:hierarchy_label": 1,
    "mz:is_current": 1,
    "os:country_code": "W92000004",
    "os:county_code": "W99999999",
    "os:district_code": "W06000022",
    "os:positional_quality_indicator": "1",
    "os:region_code": "W99999999",
    "src:geom": "os",
    "wof:belongsto": [
      85633159,
      102191581,
      136253055,
      1864209277,
      1360698735,
      404444789,
      1126056669,
      1880762173,
      404227475,
      1880773189
    ],
    "wof:breaches": [],
    "wof:concordances": {
      "gp:id": "27668922"
    },
    "wof:country": "GB",
    "wof:created": 1583701412,
    "wof:geomhash": "a2029bcb773668396bb646d267d8b980",
    "wof:hierarchy": [
      {
        "continent_id": 102191581,
        "country_id": 85633159,
        "county_id": 1360698735,
        "empire_id": 136253055,
        "localadmin_id": 404444789,
        "locality_id": 1126056669,
        "macrocounty_id": 1880762173,
        "macroregion_id": 404227475,
        "postalcode_id": 504541749,
        "region_id": 1880773189
      },
      {
        "continent_id": 102191581,
        "country_id": 85633159,
        "empire_id": 136253055,
        "postalcode_id": 504541749,
        "postalregion_id": 1864209277
      }
    ],
    "wof:id": 504541749,
    "wof:lastmodified": 1763548174,
    "wof:name": "NP20 7BD",
    "wof:parent_id": 1126056669,
    "wof:placetype": "postalcode",
    "wof:repo": "whosonfirst-data-postalcode-gb",
    "wof:superseded_by": [],
    "wof:supersedes": [],
    "wof:tags": []
  },
  "bbox": [
    -3.033771,
    51.610055,
    -3.033771,
    51.610055
  ],
  "geometry": {"coordinates":[-3.033771,51.610055],"type":"Point"}
}
