{
  "id": 454679705,
  "type": "Feature",
  "properties": {
    "date:inception_lower": "1986-07-01",
    "date:inception_upper": "1986-07-01",
    "edtf:cessation": "",
    "edtf:inception": "1986-07-01",
    "geom:area": 0,
    "geom:bbox": "-0.749032,51.332735,-0.749032,51.332735",
    "geom:latitude": 51.332735,
    "geom:longitude": -0.749032,
    "iso:country": "GB",
    "mz:hierarchy_label": 1,
    "mz:is_current": 1,
    "os:country_code": "E92000001",
    "os:county_code": "E10000030",
    "os:district_code": "E07000214",
    "os:positional_quality_indicator": "1",
    "os:region_code": "E12000008",
    "src:geom": "os",
    "wof:belongsto": [
      85633159,
      102191581,
      136253055,
      1864207513,
      1880771653,
      101750363,
      1880761993,
      404227469,
      1880762727
    ],
    "wof:breaches": [],
    "wof:concordances": {
      "gp:id": "27324672"
    },
    "wof:country": "GB",
    "wof:created": 1583701696,
    "wof:geomhash": "f4cd0a781638cb8d1b23b28cb75fe85c",
    "wof:hierarchy": [
      {
        "continent_id": 102191581,
        "country_id": 85633159,
        "county_id": 1880771653,
        "empire_id": 136253055,
        "locality_id": 101750363,
        "macrocounty_id": 1880761993,
        "macroregion_id": 404227469,
        "postalcode_id": 454679705,
        "region_id": 1880762727
      },
      {
        "continent_id": 102191581,
        "country_id": 85633159,
        "empire_id": 136253055,
        "postalcode_id": 454679705,
        "postalregion_id": 1864207513
      }
    ],
    "wof:id": 454679705,
    "wof:lastmodified": 1763548493,
    "wof:name": "GU15 2JJ",
    "wof:parent_id": 101750363,
    "wof:placetype": "postalcode",
    "wof:repo": "whosonfirst-data-postalcode-gb",
    "wof:superseded_by": [],
    "wof:supersedes": [],
    "wof:tags": []
  },
  "bbox": [
    -0.749032,
    51.332735,
    -0.749032,
    51.332735
  ],
  "geometry": {"coordinates":[-0.749032,51.332735],"type":"Point"}
}
