{
  "id": 1712758767,
  "type": "Feature",
  "properties": {
    "date:cessation_lower": "2000-09-01",
    "date:cessation_upper": "2000-09-01",
    "date:inception_lower": "1999-06-01",
    "date:inception_upper": "1999-06-01",
    "edtf:cessation": "2000-09-01",
    "edtf:inception": "1999-06-01",
    "geom:area": 0,
    "geom:bbox": "-4.059968,53.184877,-4.059968,53.184877",
    "geom:latitude": 53.184877,
    "geom:longitude": -4.059968,
    "iso:country": "GB",
    "mz:hierarchy_label": 1,
    "mz:is_current": 0,
    "os:country_code": "W92000004",
    "os:county_code": "W99999999",
    "os:district_code": "W06000002",
    "os:positional_quality_indicator": "6",
    "os:region_code": "W99999999",
    "src:geom": "os",
    "wof:belongsto": [
      85633159,
      102191581,
      136253055,
      1864208549,
      1360698959,
      404436045,
      101872021,
      1880762187,
      404227475,
      1880773051
    ],
    "wof:breaches": [],
    "wof:country": "GB",
    "wof:created": 1583802295,
    "wof:geomhash": "6b2e860022c8e7d500e072b32311f7cc",
    "wof:hierarchy": [
      {
        "continent_id": 102191581,
        "country_id": 85633159,
        "county_id": 1360698959,
        "empire_id": 136253055,
        "localadmin_id": 404436045,
        "locality_id": 101872021,
        "macrocounty_id": 1880762187,
        "macroregion_id": 404227475,
        "postalcode_id": 1712758767,
        "region_id": 1880773051
      },
      {
        "continent_id": 102191581,
        "country_id": 85633159,
        "empire_id": 136253055,
        "postalcode_id": 1712758767,
        "postalregion_id": 1864208549
      }
    ],
    "wof:id": 1712758767,
    "wof:lastmodified": 1763548681,
    "wof:name": "LL57 3ZL",
    "wof:parent_id": 101872021,
    "wof:placetype": "postalcode",
    "wof:repo": "whosonfirst-data-postalcode-gb",
    "wof:superseded_by": [],
    "wof:supersedes": [],
    "wof:tags": []
  },
  "bbox": [
    -4.059968,
    53.184877,
    -4.059968,
    53.184877
  ],
  "geometry": {"coordinates":[-4.059968,53.184877],"type":"Point"}
}
