{
  "id": 488437607,
  "type": "Feature",
  "properties": {
    "date:inception_lower": "1980-01-01",
    "date:inception_upper": "1980-01-01",
    "edtf:cessation": "",
    "edtf:inception": "1980-01-01",
    "geom:area": 0,
    "geom:bbox": "-4.251123,55.813296,-4.251123,55.813296",
    "geom:latitude": 55.813296,
    "geom:longitude": -4.251123,
    "gp:parent_id": "12696198",
    "iso:country": "GB",
    "mz:hierarchy_label": 1,
    "mz:is_current": 1,
    "os:country_code": "S92000003",
    "os:county_code": "S99999999",
    "os:district_code": "S12000049",
    "os:positional_quality_indicator": "1",
    "os:region_code": "S99999999",
    "src:geom": "os",
    "wof:belongsto": [
      85633159,
      102191581,
      136253055,
      1864207365,
      1360698797,
      1175612707,
      1880762095,
      404227471,
      1880772925
    ],
    "wof:breaches": [],
    "wof:concordances": {
      "gp:id": "26679238"
    },
    "wof:country": "GB",
    "wof:created": 1583701451,
    "wof:geomhash": "a74c7dbe953c5f45af2b3ae702f54386",
    "wof:hierarchy": [
      {
        "continent_id": 102191581,
        "country_id": 85633159,
        "county_id": 1360698797,
        "empire_id": 136253055,
        "locality_id": 1175612707,
        "macrocounty_id": 1880762095,
        "macroregion_id": 404227471,
        "postalcode_id": 488437607,
        "region_id": 1880772925
      },
      {
        "continent_id": 102191581,
        "country_id": 85633159,
        "empire_id": 136253055,
        "postalcode_id": 488437607,
        "postalregion_id": 1864207365
      }
    ],
    "wof:id": 488437607,
    "wof:lastmodified": 1763548471,
    "wof:name": "G44 5BH",
    "wof:parent_id": 1175612707,
    "wof:placetype": "postalcode",
    "wof:repo": "whosonfirst-data-postalcode-gb",
    "wof:superseded_by": [],
    "wof:supersedes": [],
    "wof:tags": []
  },
  "bbox": [
    -4.251123,
    55.813296,
    -4.251123,
    55.813296
  ],
  "geometry": {"coordinates":[-4.251123,55.813296],"type":"Point"}
}
