{
  "id": 454801027,
  "type": "Feature",
  "properties": {
    "date:inception_lower": "1999-06-01",
    "date:inception_upper": "1999-06-01",
    "edtf:cessation": "",
    "edtf:inception": "1999-06-01",
    "geom:area": 0,
    "geom:bbox": "-2.802045,52.085553,-2.802045,52.085553",
    "geom:latitude": 52.085553,
    "geom:longitude": -2.802045,
    "iso:country": "GB",
    "mz:hierarchy_label": 1,
    "mz:is_current": 1,
    "os:country_code": "E92000001",
    "os:county_code": "E99999999",
    "os:district_code": "E06000019",
    "os:positional_quality_indicator": "1",
    "os:region_code": "E12000005",
    "src:geom": "os",
    "wof:belongsto": [
      85633159,
      102191581,
      136253055,
      1864207703,
      1360699053,
      404447307,
      101853013,
      1880762015,
      404227469,
      1880773139
    ],
    "wof:breaches": [],
    "wof:concordances": {
      "gp:id": "27367023"
    },
    "wof:country": "GB",
    "wof:created": 1583701724,
    "wof:geomhash": "bcae5ebd8d2e2efa6a0cdb9e013295b1",
    "wof:hierarchy": [
      {
        "continent_id": 102191581,
        "country_id": 85633159,
        "county_id": 1360699053,
        "empire_id": 136253055,
        "localadmin_id": 404447307,
        "locality_id": 101853013,
        "macrocounty_id": 1880762015,
        "macroregion_id": 404227469,
        "postalcode_id": 454801027,
        "region_id": 1880773139
      },
      {
        "continent_id": 102191581,
        "country_id": 85633159,
        "empire_id": 136253055,
        "postalcode_id": 454801027,
        "postalregion_id": 1864207703
      }
    ],
    "wof:id": 454801027,
    "wof:lastmodified": 1763548520,
    "wof:name": "HR4 7FB",
    "wof:parent_id": 101853013,
    "wof:placetype": "postalcode",
    "wof:repo": "whosonfirst-data-postalcode-gb",
    "wof:superseded_by": [],
    "wof:supersedes": [],
    "wof:tags": []
  },
  "bbox": [
    -2.802045,
    52.085553,
    -2.802045,
    52.085553
  ],
  "geometry": {"coordinates":[-2.802045,52.085553],"type":"Point"}
}
