{
  "id": 874429455,
  "type": "Feature",
  "properties": {
    "date:inception_lower": "2011-06-01",
    "date:inception_upper": "2011-06-01",
    "edtf:cessation": "",
    "edtf:inception": "2011-06-01",
    "geom:area": 0,
    "geom:bbox": "0.094942,52.223148,0.094942,52.223148",
    "geom:latitude": 52.223148,
    "geom:longitude": 0.094942,
    "iso:country": "GB",
    "mz:hierarchy_label": 1,
    "mz:is_current": 1,
    "os:country_code": "E92000001",
    "os:county_code": "E10000003",
    "os:district_code": "E07000008",
    "os:positional_quality_indicator": "1",
    "os:region_code": "E12000006",
    "src:geom": "os",
    "wof:belongsto": [
      85633159,
      102191581,
      136253055,
      1864206139,
      1880771375,
      101750465,
      1880762143,
      404227469,
      1880762687
    ],
    "wof:breaches": [],
    "wof:country": "GB",
    "wof:created": 1468875714,
    "wof:geomhash": "fee91499f0707e48289014b28ddab6ba",
    "wof:hierarchy": [
      {
        "continent_id": 102191581,
        "country_id": 85633159,
        "county_id": 1880771375,
        "empire_id": 136253055,
        "locality_id": 101750465,
        "macrocounty_id": 1880762143,
        "macroregion_id": 404227469,
        "postalcode_id": 874429455,
        "region_id": 1880762687
      },
      {
        "continent_id": 102191581,
        "country_id": 85633159,
        "empire_id": 136253055,
        "postalcode_id": 874429455,
        "postalregion_id": 1864206139
      }
    ],
    "wof:id": 874429455,
    "wof:lastmodified": 1763547966,
    "wof:name": "CB3 0GS",
    "wof:parent_id": 101750465,
    "wof:placetype": "postalcode",
    "wof:repo": "whosonfirst-data-postalcode-gb",
    "wof:superseded_by": [],
    "wof:supersedes": [],
    "wof:tags": []
  },
  "bbox": [
    0.094942,
    52.223148,
    0.094942,
    52.223148
  ],
  "geometry": {"coordinates":[0.094942,52.223148],"type":"Point"}
}
