{
  "id": 471743403,
  "type": "Feature",
  "properties": {
    "date:inception_lower": "1980-01-01",
    "date:inception_upper": "1980-01-01",
    "edtf:cessation": "",
    "edtf:inception": "1980-01-01",
    "geom:area": 0,
    "geom:bbox": "0.055950,51.822692,0.055950,51.822692",
    "geom:latitude": 51.822692,
    "geom:longitude": 0.05595,
    "gp:parent_id": "40438",
    "iso:country": "GB",
    "mz:hierarchy_label": 1,
    "mz:is_current": 1,
    "os:country_code": "E92000001",
    "os:county_code": "E10000015",
    "os:district_code": "E07000242",
    "os:positional_quality_indicator": "1",
    "os:region_code": "E12000006",
    "src:geom": "os",
    "wof:belongsto": [
      85633159,
      102191581,
      136253055,
      1864210479,
      1880771491,
      404448793,
      1209343715,
      1880762153,
      404227469,
      1880762721
    ],
    "wof:breaches": [],
    "wof:concordances": {
      "gp:id": "27906801"
    },
    "wof:country": "GB",
    "wof:created": 1583701726,
    "wof:geomhash": "a4e9c3f0c8de55c1483e276bcdba85b6",
    "wof:hierarchy": [
      {
        "continent_id": 102191581,
        "country_id": 85633159,
        "county_id": 1880771491,
        "empire_id": 136253055,
        "localadmin_id": 404448793,
        "locality_id": 1209343715,
        "macrocounty_id": 1880762153,
        "macroregion_id": 404227469,
        "postalcode_id": 471743403,
        "region_id": 1880762721
      },
      {
        "continent_id": 102191581,
        "country_id": 85633159,
        "empire_id": 136253055,
        "postalcode_id": 471743403,
        "postalregion_id": 1864210479
      }
    ],
    "wof:id": 471743403,
    "wof:lastmodified": 1763548399,
    "wof:name": "SG12 8RE",
    "wof:parent_id": 1209343715,
    "wof:placetype": "postalcode",
    "wof:repo": "whosonfirst-data-postalcode-gb",
    "wof:superseded_by": [],
    "wof:supersedes": [],
    "wof:tags": []
  },
  "bbox": [
    0.05595,
    51.822692,
    0.05595,
    51.822692
  ],
  "geometry": {"coordinates":[0.05595,51.822692],"type":"Point"}
}
