{
  "id": 488300847,
  "type": "Feature",
  "properties": {
    "date:inception_lower": "2008-06-01",
    "date:inception_upper": "2008-06-01",
    "edtf:cessation": "",
    "edtf:inception": "2008-06-01",
    "geom:area": 0,
    "geom:bbox": "-0.765632,51.254362,-0.765632,51.254362",
    "geom:latitude": 51.254362,
    "geom:longitude": -0.765632,
    "iso:country": "GB",
    "mz:hierarchy_label": 1,
    "mz:is_current": 1,
    "os:country_code": "E92000001",
    "os:county_code": "E10000014",
    "os:district_code": "E07000092",
    "os:positional_quality_indicator": "1",
    "os:region_code": "E12000008",
    "src:geom": "os",
    "wof:belongsto": [
      85633159,
      102191581,
      136253055,
      1864207507,
      1880771479,
      101750357,
      1880762155,
      404227469,
      1880762717
    ],
    "wof:breaches": [],
    "wof:concordances": {
      "gp:id": "56148783"
    },
    "wof:country": "GB",
    "wof:created": 1583701321,
    "wof:geomhash": "be65f306eafc4f3c699f436b871c5c15",
    "wof:hierarchy": [
      {
        "continent_id": 102191581,
        "country_id": 85633159,
        "county_id": 1880771479,
        "empire_id": 136253055,
        "locality_id": 101750357,
        "macrocounty_id": 1880762155,
        "macroregion_id": 404227469,
        "postalcode_id": 488300847,
        "region_id": 1880762717
      },
      {
        "continent_id": 102191581,
        "country_id": 85633159,
        "empire_id": 136253055,
        "postalcode_id": 488300847,
        "postalregion_id": 1864207507
      }
    ],
    "wof:id": 488300847,
    "wof:lastmodified": 1763548404,
    "wof:name": "GU11 1AY",
    "wof:parent_id": 101750357,
    "wof:placetype": "postalcode",
    "wof:repo": "whosonfirst-data-postalcode-gb",
    "wof:superseded_by": [],
    "wof:supersedes": [],
    "wof:tags": []
  },
  "bbox": [
    -0.765632,
    51.254362,
    -0.765632,
    51.254362
  ],
  "geometry": {"coordinates":[-0.765632,51.254362],"type":"Point"}
}
