{
  "id": 488629817,
  "type": "Feature",
  "properties": {
    "date:inception_lower": "1980-01-01",
    "date:inception_upper": "1980-01-01",
    "edtf:cessation": "",
    "edtf:inception": "1980-01-01",
    "geom:area": 0,
    "geom:bbox": "-3.039606,55.944916,-3.039606,55.944916",
    "geom:latitude": 55.944916,
    "geom:longitude": -3.039606,
    "gp:parent_id": "12696193",
    "iso:country": "GB",
    "mz:hierarchy_label": 1,
    "mz:is_current": 1,
    "os:country_code": "S92000003",
    "os:county_code": "S99999999",
    "os:district_code": "S12000010",
    "os:positional_quality_indicator": "1",
    "os:region_code": "S99999999",
    "src:geom": "os",
    "wof:belongsto": [
      85633159,
      102191581,
      136253055,
      1864207057,
      1360699017,
      1125942117,
      1880762091,
      404227471,
      1880773107
    ],
    "wof:breaches": [],
    "wof:concordances": {
      "gp:id": "27231685"
    },
    "wof:country": "GB",
    "wof:created": 1583701627,
    "wof:geomhash": "e940fe6c100328b2a5fb4556c96d9579",
    "wof:hierarchy": [
      {
        "continent_id": 102191581,
        "country_id": 85633159,
        "county_id": 1360699017,
        "empire_id": 136253055,
        "locality_id": 1125942117,
        "macrocounty_id": 1880762091,
        "macroregion_id": 404227471,
        "postalcode_id": 488629817,
        "region_id": 1880773107
      },
      {
        "continent_id": 102191581,
        "country_id": 85633159,
        "empire_id": 136253055,
        "postalcode_id": 488629817,
        "postalregion_id": 1864207057
      }
    ],
    "wof:id": 488629817,
    "wof:lastmodified": 1763548461,
    "wof:name": "EH21 7LH",
    "wof:parent_id": 1125942117,
    "wof:placetype": "postalcode",
    "wof:repo": "whosonfirst-data-postalcode-gb",
    "wof:superseded_by": [],
    "wof:supersedes": [],
    "wof:tags": []
  },
  "bbox": [
    -3.039606,
    55.944916,
    -3.039606,
    55.944916
  ],
  "geometry": {"coordinates":[-3.039606,55.944916],"type":"Point"}
}
