{
  "id": 454439441,
  "type": "Feature",
  "properties": {
    "date:inception_lower": "1980-01-01",
    "date:inception_upper": "1980-01-01",
    "edtf:cessation": "",
    "edtf:inception": "1980-01-01",
    "geom:area": 0,
    "geom:bbox": "-0.051367,53.556242,-0.051367,53.556242",
    "geom:latitude": 53.556242,
    "geom:longitude": -0.051367,
    "gp:parent_id": "21896",
    "iso:country": "GB",
    "mz:hierarchy_label": 1,
    "mz:is_current": 1,
    "os:country_code": "E92000001",
    "os:county_code": "E99999999",
    "os:district_code": "E06000012",
    "os:positional_quality_indicator": "1",
    "os:region_code": "E12000003",
    "src:geom": "os",
    "wof:belongsto": [
      85633159,
      102191581,
      136253055,
      1864206827,
      1360698837,
      1360817097,
      1125999065,
      1880762033,
      404227469,
      1880762701
    ],
    "wof:breaches": [],
    "wof:concordances": {
      "gp:id": "27188897"
    },
    "wof:country": "GB",
    "wof:created": 1583701566,
    "wof:geomhash": "7914e6ad74576d712edc97a6e29bbac9",
    "wof:hierarchy": [
      {
        "continent_id": 102191581,
        "country_id": 85633159,
        "county_id": 1360698837,
        "empire_id": 136253055,
        "localadmin_id": 1360817097,
        "locality_id": 1125999065,
        "macrocounty_id": 1880762033,
        "macroregion_id": 404227469,
        "postalcode_id": 454439441,
        "region_id": 1880762701
      },
      {
        "continent_id": 102191581,
        "country_id": 85633159,
        "empire_id": 136253055,
        "postalcode_id": 454439441,
        "postalregion_id": 1864206827
      }
    ],
    "wof:id": 454439441,
    "wof:lastmodified": 1763548319,
    "wof:name": "DN32 8LY",
    "wof:parent_id": 1125999065,
    "wof:placetype": "postalcode",
    "wof:repo": "whosonfirst-data-postalcode-gb",
    "wof:superseded_by": [],
    "wof:supersedes": [],
    "wof:tags": []
  },
  "bbox": [
    -0.051367,
    53.556242,
    -0.051367,
    53.556242
  ],
  "geometry": {"coordinates":[-0.051367,53.556242],"type":"Point"}
}
