{
  "id": 454056927,
  "type": "Feature",
  "properties": {
    "date:inception_lower": "1980-01-01",
    "date:inception_upper": "1980-01-01",
    "edtf:cessation": "",
    "edtf:inception": "1980-01-01",
    "geom:area": 0,
    "geom:bbox": "-3.463988,54.643970,-3.463988,54.643970",
    "geom:latitude": 54.64397,
    "geom:longitude": -3.463988,
    "gp:parent_id": "26437",
    "iso:country": "GB",
    "mz:hierarchy_label": 1,
    "mz:is_current": 1,
    "os:country_code": "E92000001",
    "os:county_code": "E99999999",
    "os:district_code": "E06000063",
    "os:positional_quality_indicator": "1",
    "os:region_code": "E12000002",
    "src:geom": "os",
    "wof:belongsto": [
      85633159,
      102191581,
      136253055,
      1864206065,
      1880773239,
      404451419,
      1360756673,
      1880761989,
      404227469,
      1880773269
    ],
    "wof:breaches": [],
    "wof:concordances": {
      "gp:id": "27015741"
    },
    "wof:country": "GB",
    "wof:created": 1583701102,
    "wof:geomhash": "a96ce1d04a0fa84386a9a12397125a5e",
    "wof:hierarchy": [
      {
        "continent_id": 102191581,
        "country_id": 85633159,
        "county_id": 1880773239,
        "empire_id": 136253055,
        "localadmin_id": 404451419,
        "locality_id": 1360756673,
        "macrocounty_id": 1880761989,
        "macroregion_id": 404227469,
        "postalcode_id": 454056927,
        "region_id": 1880773269
      },
      {
        "continent_id": 102191581,
        "country_id": 85633159,
        "empire_id": 136253055,
        "postalcode_id": 454056927,
        "postalregion_id": 1864206065
      }
    ],
    "wof:id": 454056927,
    "wof:lastmodified": 1763548521,
    "wof:name": "CA14 1YR",
    "wof:parent_id": 1360756673,
    "wof:placetype": "postalcode",
    "wof:repo": "whosonfirst-data-postalcode-gb",
    "wof:superseded_by": [],
    "wof:supersedes": [],
    "wof:tags": []
  },
  "bbox": [
    -3.463988,
    54.64397,
    -3.463988,
    54.64397
  ],
  "geometry": {"coordinates":[-3.463988,54.64397],"type":"Point"}
}
