{
  "id": 454492393,
  "type": "Feature",
  "properties": {
    "date:inception_lower": "2002-10-01",
    "date:inception_upper": "2002-10-01",
    "edtf:cessation": "",
    "edtf:inception": "2002-10-01",
    "geom:area": 0,
    "geom:bbox": "-2.124246,52.478320,-2.124246,52.478320",
    "geom:latitude": 52.47832,
    "geom:longitude": -2.124246,
    "gp:parent_id": "13893",
    "iso:country": "GB",
    "mz:hierarchy_label": 1,
    "mz:is_current": 1,
    "os:country_code": "E92000001",
    "os:county_code": "E99999999",
    "os:district_code": "E08000027",
    "os:positional_quality_indicator": "1",
    "os:region_code": "E12000005",
    "src:geom": "os",
    "wof:belongsto": [
      85633159,
      102191581,
      136253055,
      1864206907,
      1360698933,
      1360817295,
      1125917795,
      1880762069,
      404227469,
      1880773161
    ],
    "wof:breaches": [],
    "wof:concordances": {
      "gp:id": "27208457"
    },
    "wof:country": "GB",
    "wof:created": 1583701601,
    "wof:geomhash": "9ee6515dae72efa416449796ea729e11",
    "wof:hierarchy": [
      {
        "continent_id": 102191581,
        "country_id": 85633159,
        "county_id": 1360698933,
        "empire_id": 136253055,
        "localadmin_id": 1360817295,
        "locality_id": 1125917795,
        "macrocounty_id": 1880762069,
        "macroregion_id": 404227469,
        "postalcode_id": 454492393,
        "region_id": 1880773161
      },
      {
        "continent_id": 102191581,
        "country_id": 85633159,
        "empire_id": 136253055,
        "postalcode_id": 454492393,
        "postalregion_id": 1864206907
      }
    ],
    "wof:id": 454492393,
    "wof:lastmodified": 1763548521,
    "wof:name": "DY5 3PS",
    "wof:parent_id": 1125917795,
    "wof:placetype": "postalcode",
    "wof:repo": "whosonfirst-data-postalcode-gb",
    "wof:superseded_by": [],
    "wof:supersedes": [],
    "wof:tags": []
  },
  "bbox": [
    -2.124246,
    52.47832,
    -2.124246,
    52.47832
  ],
  "geometry": {"coordinates":[-2.124246,52.47832],"type":"Point"}
}
