{
  "id": 487939317,
  "type": "Feature",
  "properties": {
    "date:inception_lower": "1980-01-01",
    "date:inception_upper": "1980-01-01",
    "edtf:cessation": "",
    "edtf:inception": "1980-01-01",
    "geom:area": 0,
    "geom:bbox": "-1.353550,54.507580,-1.353550,54.507580",
    "geom:latitude": 54.50758,
    "geom:longitude": -1.35355,
    "gp:parent_id": "41328",
    "iso:country": "GB",
    "mz:hierarchy_label": 1,
    "mz:is_current": 1,
    "os:country_code": "E92000001",
    "os:county_code": "E99999999",
    "os:district_code": "E06000004",
    "os:positional_quality_indicator": "1",
    "os:region_code": "E12000001",
    "src:geom": "os",
    "wof:belongsto": [
      85633159,
      102191581,
      136253055,
      1864211261,
      1360699087,
      404430505,
      1126045695,
      1880762117
    ],
    "wof:breaches": [],
    "wof:concordances": {
      "gp:id": "26404046"
    },
    "wof:country": "GB",
    "wof:created": 1583701274,
    "wof:geomhash": "c9af46f1bca4c0d0e97404c119750645",
    "wof:hierarchy": [
      {
        "continent_id": -1,
        "country_id": -1,
        "county_id": 1360699087,
        "localadmin_id": 404430505,
        "locality_id": 1126045695,
        "macrocounty_id": 1880762117,
        "postalcode_id": 487939317,
        "region_id": -1
      },
      {
        "continent_id": 102191581,
        "country_id": 85633159,
        "empire_id": 136253055,
        "postalcode_id": 487939317,
        "postalregion_id": 1864211261
      }
    ],
    "wof:id": 487939317,
    "wof:lastmodified": 1763548621,
    "wof:name": "TS15 9AA",
    "wof:parent_id": 1126045695,
    "wof:placetype": "postalcode",
    "wof:repo": "whosonfirst-data-postalcode-gb",
    "wof:superseded_by": [],
    "wof:supersedes": [],
    "wof:tags": []
  },
  "bbox": [
    -1.35355,
    54.50758,
    -1.35355,
    54.50758
  ],
  "geometry": {"coordinates":[-1.35355,54.50758],"type":"Point"}
}
