{
  "id": 488555213,
  "type": "Feature",
  "properties": {
    "date:inception_lower": "1996-06-01",
    "date:inception_upper": "1996-06-01",
    "edtf:cessation": "",
    "edtf:inception": "1996-06-01",
    "geom:area": 0,
    "geom:bbox": "-2.371952,57.615712,-2.371952,57.615712",
    "geom:latitude": 57.615712,
    "geom:longitude": -2.371952,
    "gp:parent_id": "20231",
    "iso:country": "GB",
    "mz:hierarchy_label": 1,
    "mz:is_current": 1,
    "os:country_code": "S92000003",
    "os:county_code": "S99999999",
    "os:district_code": "S12000034",
    "os:positional_quality_indicator": "1",
    "os:region_code": "S99999999",
    "src:geom": "os",
    "wof:belongsto": [
      85633159,
      102191581,
      136253055,
      1864205443,
      1360699031,
      1880762109,
      404227471,
      1880773121
    ],
    "wof:breaches": [],
    "wof:concordances": {
      "gp:id": "26835369"
    },
    "wof:country": "GB",
    "wof:created": 1583701576,
    "wof:geomhash": "7db0d01d882aaec8a6cb3d89be8210fe",
    "wof:hierarchy": [
      {
        "continent_id": 102191581,
        "country_id": 85633159,
        "county_id": 1360699031,
        "empire_id": 136253055,
        "macrocounty_id": 1880762109,
        "macroregion_id": 404227471,
        "postalcode_id": 488555213,
        "region_id": 1880773121
      },
      {
        "continent_id": 102191581,
        "country_id": 85633159,
        "empire_id": 136253055,
        "postalcode_id": 488555213,
        "postalregion_id": 1864205443
      }
    ],
    "wof:id": 488555213,
    "wof:lastmodified": 1763548530,
    "wof:name": "AB53 5SW",
    "wof:parent_id": 1360699031,
    "wof:placetype": "postalcode",
    "wof:repo": "whosonfirst-data-postalcode-gb",
    "wof:superseded_by": [],
    "wof:supersedes": [],
    "wof:tags": []
  },
  "bbox": [
    -2.371952,
    57.615712,
    -2.371952,
    57.615712
  ],
  "geometry": {"coordinates":[-2.371952,57.615712],"type":"Point"}
}
