{
  "id": 487791313,
  "type": "Feature",
  "properties": {
    "date:inception_lower": "1980-01-01",
    "date:inception_upper": "1980-01-01",
    "edtf:cessation": "",
    "edtf:inception": "1980-01-01",
    "geom:area": 0,
    "geom:bbox": "-2.779647,52.473387,-2.779647,52.473387",
    "geom:latitude": 52.473387,
    "geom:longitude": -2.779647,
    "gp:parent_id": "39944",
    "iso:country": "GB",
    "mz:hierarchy_label": 1,
    "mz:is_current": 1,
    "os:country_code": "E92000001",
    "os:county_code": "E99999999",
    "os:district_code": "E06000051",
    "os:positional_quality_indicator": "1",
    "os:region_code": "E12000005",
    "src:geom": "os",
    "wof:belongsto": [
      85633159,
      102191581,
      136253055,
      1864210943,
      1360698821,
      404446827,
      1125800621,
      1880762073,
      404227469,
      1880772941
    ],
    "wof:breaches": [],
    "wof:concordances": {
      "gp:id": "28025727"
    },
    "wof:country": "GB",
    "wof:created": 1583701168,
    "wof:geomhash": "c6e28cb7c451c93f7e579a291364c200",
    "wof:hierarchy": [
      {
        "continent_id": 102191581,
        "country_id": 85633159,
        "county_id": 1360698821,
        "empire_id": 136253055,
        "localadmin_id": 404446827,
        "locality_id": 1125800621,
        "macrocounty_id": 1880762073,
        "macroregion_id": 404227469,
        "postalcode_id": 487791313,
        "region_id": 1880772941
      },
      {
        "continent_id": 102191581,
        "country_id": 85633159,
        "empire_id": 136253055,
        "postalcode_id": 487791313,
        "postalregion_id": 1864210943
      }
    ],
    "wof:id": 487791313,
    "wof:lastmodified": 1763548623,
    "wof:name": "SY7 9JW",
    "wof:parent_id": 1125800621,
    "wof:placetype": "postalcode",
    "wof:repo": "whosonfirst-data-postalcode-gb",
    "wof:superseded_by": [],
    "wof:supersedes": [],
    "wof:tags": []
  },
  "bbox": [
    -2.779647,
    52.473387,
    -2.779647,
    52.473387
  ],
  "geometry": {"coordinates":[-2.779647,52.473387],"type":"Point"}
}
