{
  "id": 1780439187,
  "type": "Feature",
  "properties": {
    "date:inception_lower": "2021-10-01",
    "date:inception_upper": "2021-10-01",
    "edtf:cessation": "",
    "edtf:inception": "2021-10-01",
    "geom:area": 0,
    "geom:bbox": "-2.530654,53.784430,-2.530654,53.784430",
    "geom:latitude": 53.78443,
    "geom:longitude": -2.530654,
    "iso:country": "GB",
    "mz:hierarchy_label": 1,
    "mz:is_current": 1,
    "os:country_code": "E92000001",
    "os:county_code": "E10000017",
    "os:district_code": "E07000124",
    "os:positional_quality_indicator": "1",
    "os:region_code": "E12000002",
    "src:geom": "os",
    "wof:belongsto": [
      102191581,
      85633159,
      136253055,
      1864205705,
      1880771549,
      404449593,
      1360753889,
      1880762053,
      404227469,
      1880762711
    ],
    "wof:breaches": [],
    "wof:country": "GB",
    "wof:created": 1662041116,
    "wof:geomhash": "aac4db5cfa9d4c720d833fcdb6593e30",
    "wof:hierarchy": [
      {
        "continent_id": 102191581,
        "country_id": 85633159,
        "county_id": 1880771549,
        "empire_id": 136253055,
        "localadmin_id": 404449593,
        "locality_id": 1360753889,
        "macrocounty_id": 1880762053,
        "macroregion_id": 404227469,
        "postalcode_id": 1780439187,
        "region_id": 1880762711
      },
      {
        "continent_id": 102191581,
        "country_id": 85633159,
        "empire_id": 136253055,
        "postalcode_id": 1780439187,
        "postalregion_id": 1864205705
      }
    ],
    "wof:id": 1780439187,
    "wof:lastmodified": 1763548678,
    "wof:name": "BB2 7HQ",
    "wof:parent_id": 1360753889,
    "wof:placetype": "postalcode",
    "wof:repo": "whosonfirst-data-postalcode-gb",
    "wof:superseded_by": [],
    "wof:supersedes": [],
    "wof:tags": []
  },
  "bbox": [
    -2.530654,
    53.78443,
    -2.530654,
    53.78443
  ],
  "geometry": {"coordinates":[-2.530654,53.78443],"type":"Point"}
}
