{
  "id": 471179613,
  "type": "Feature",
  "properties": {
    "date:inception_lower": "1980-01-01",
    "date:inception_upper": "1980-01-01",
    "edtf:cessation": "",
    "edtf:inception": "1980-01-01",
    "geom:area": 0,
    "geom:bbox": "-0.723681,52.472683,-0.723681,52.472683",
    "geom:latitude": 52.472683,
    "geom:longitude": -0.723681,
    "gp:parent_id": "16847",
    "iso:country": "GB",
    "mz:hierarchy_label": 1,
    "mz:is_current": 1,
    "os:country_code": "E92000001",
    "os:county_code": "E99999999",
    "os:district_code": "E06000061",
    "os:positional_quality_indicator": "1",
    "os:region_code": "E12000004",
    "src:geom": "os",
    "wof:belongsto": [
      85633159,
      102191581,
      136253055,
      1864209237,
      1880773237,
      1360817321,
      1880762029,
      404227469,
      1880773265
    ],
    "wof:breaches": [],
    "wof:concordances": {
      "gp:id": "26594062"
    },
    "wof:country": "GB",
    "wof:created": 1583701379,
    "wof:geomhash": "3072a2ff3e8259a507a9ba83cf4b2b33",
    "wof:hierarchy": [
      {
        "continent_id": 102191581,
        "country_id": 85633159,
        "county_id": 1880773237,
        "empire_id": 136253055,
        "localadmin_id": 1360817321,
        "macrocounty_id": 1880762029,
        "macroregion_id": 404227469,
        "postalcode_id": 471179613,
        "region_id": 1880773265
      },
      {
        "continent_id": 102191581,
        "country_id": 85633159,
        "empire_id": 136253055,
        "postalcode_id": 471179613,
        "postalregion_id": 1864209237
      }
    ],
    "wof:id": 471179613,
    "wof:lastmodified": 1763548418,
    "wof:name": "NN18 9JY",
    "wof:parent_id": 1360817321,
    "wof:placetype": "postalcode",
    "wof:repo": "whosonfirst-data-postalcode-gb",
    "wof:superseded_by": [],
    "wof:supersedes": [],
    "wof:tags": []
  },
  "bbox": [
    -0.723681,
    52.472683,
    -0.723681,
    52.472683
  ],
  "geometry": {"coordinates":[-0.723681,52.472683],"type":"Point"}
}
