{
  "id": 454812829,
  "type": "Feature",
  "properties": {
    "date:inception_lower": "1983-07-01",
    "date:inception_upper": "1983-07-01",
    "edtf:cessation": "",
    "edtf:inception": "1983-07-01",
    "geom:area": 0,
    "geom:bbox": "-0.436939,53.724636,-0.436939,53.724636",
    "geom:latitude": 53.724636,
    "geom:longitude": -0.436939,
    "gp:parent_id": "23113",
    "iso:country": "GB",
    "mz:hierarchy_label": 1,
    "mz:is_current": 1,
    "os:country_code": "E92000001",
    "os:county_code": "E99999999",
    "os:district_code": "E06000011",
    "os:positional_quality_indicator": "1",
    "os:region_code": "E12000003",
    "src:geom": "os",
    "wof:belongsto": [
      85633159,
      102191581,
      136253055,
      1864207745,
      1360699001,
      404445695,
      1125882609,
      1880762147,
      404227469,
      1880773091
    ],
    "wof:breaches": [],
    "wof:concordances": {
      "gp:id": "27373024"
    },
    "wof:country": "GB",
    "wof:created": 1583701719,
    "wof:geomhash": "84dcb079a01b96cd234c7d96c50cd782",
    "wof:hierarchy": [
      {
        "continent_id": 102191581,
        "country_id": 85633159,
        "county_id": 1360699001,
        "empire_id": 136253055,
        "localadmin_id": 404445695,
        "locality_id": 1125882609,
        "macrocounty_id": 1880762147,
        "macroregion_id": 404227469,
        "postalcode_id": 454812829,
        "region_id": 1880773091
      },
      {
        "continent_id": 102191581,
        "country_id": 85633159,
        "empire_id": 136253055,
        "postalcode_id": 454812829,
        "postalregion_id": 1864207745
      }
    ],
    "wof:id": 454812829,
    "wof:lastmodified": 1763548480,
    "wof:name": "HU13 0SR",
    "wof:parent_id": 1125882609,
    "wof:placetype": "postalcode",
    "wof:repo": "whosonfirst-data-postalcode-gb",
    "wof:superseded_by": [],
    "wof:supersedes": [],
    "wof:tags": []
  },
  "bbox": [
    -0.436939,
    53.724636,
    -0.436939,
    53.724636
  ],
  "geometry": {"coordinates":[-0.436939,53.724636],"type":"Point"}
}
