{
  "id": 487902903,
  "type": "Feature",
  "properties": {
    "date:inception_lower": "1980-01-01",
    "date:inception_upper": "1980-01-01",
    "edtf:cessation": "",
    "edtf:inception": "1980-01-01",
    "geom:area": 0,
    "geom:bbox": "-3.894130,50.285358,-3.894130,50.285358",
    "geom:latitude": 50.285358,
    "geom:longitude": -3.89413,
    "gp:parent_id": "12585",
    "iso:country": "GB",
    "mz:hierarchy_label": 1,
    "mz:is_current": 1,
    "os:country_code": "E92000001",
    "os:county_code": "E10000008",
    "os:district_code": "E07000044",
    "os:positional_quality_indicator": "1",
    "os:region_code": "E12000009",
    "src:geom": "os",
    "wof:belongsto": [
      85633159,
      102191581,
      136253055,
      1864211181,
      1880771713,
      404433921,
      1125818907,
      1880762149,
      404227469,
      1880762683
    ],
    "wof:breaches": [],
    "wof:concordances": {
      "gp:id": "28072030"
    },
    "wof:country": "GB",
    "wof:created": 1583701244,
    "wof:geomhash": "01156548b9d4ff0759644478f5dc0694",
    "wof:hierarchy": [
      {
        "continent_id": 102191581,
        "country_id": 85633159,
        "county_id": 1880771713,
        "empire_id": 136253055,
        "localadmin_id": 404433921,
        "locality_id": 1125818907,
        "macrocounty_id": 1880762149,
        "macroregion_id": 404227469,
        "postalcode_id": 487902903,
        "region_id": 1880762683
      },
      {
        "continent_id": 102191581,
        "country_id": 85633159,
        "empire_id": 136253055,
        "postalcode_id": 487902903,
        "postalregion_id": 1864211181
      }
    ],
    "wof:id": 487902903,
    "wof:lastmodified": 1763548716,
    "wof:name": "TQ7 4AZ",
    "wof:parent_id": 1125818907,
    "wof:placetype": "postalcode",
    "wof:repo": "whosonfirst-data-postalcode-gb",
    "wof:superseded_by": [],
    "wof:supersedes": [],
    "wof:tags": []
  },
  "bbox": [
    -3.89413,
    50.285358,
    -3.89413,
    50.285358
  ],
  "geometry": {"coordinates":[-3.89413,50.285358],"type":"Point"}
}
