{
  "id": 1712631751,
  "type": "Feature",
  "properties": {
    "date:inception_lower": "2021-09-01",
    "date:inception_upper": "2021-09-01",
    "edtf:cessation": "",
    "edtf:inception": "2021-09-01",
    "geom:area": 0,
    "geom:bbox": "-3.132221,55.898472,-3.132221,55.898472",
    "geom:latitude": 55.898472,
    "geom:longitude": -3.132221,
    "iso:country": "GB",
    "mz:hierarchy_label": 1,
    "mz:is_current": 1,
    "os:country_code": "S92000003",
    "os:county_code": "S99999999",
    "os:district_code": "S12000036",
    "os:positional_quality_indicator": "1",
    "os:region_code": "S99999999",
    "src:geom": "os",
    "wof:belongsto": [
      85633159,
      102191581,
      136253055,
      1864207045,
      1360698761,
      101750629,
      1880762089,
      404227471,
      1880772893
    ],
    "wof:breaches": [],
    "wof:country": "GB",
    "wof:created": 1583796649,
    "wof:geomhash": "b8f674d37cb516c3b91a35248609ee4e",
    "wof:hierarchy": [
      {
        "continent_id": 102191581,
        "country_id": 85633159,
        "county_id": 1360698761,
        "empire_id": 136253055,
        "locality_id": 101750629,
        "macrocounty_id": 1880762089,
        "macroregion_id": 404227471,
        "postalcode_id": 1712631751,
        "region_id": 1880772893
      },
      {
        "continent_id": 102191581,
        "country_id": 85633159,
        "empire_id": 136253055,
        "postalcode_id": 1712631751,
        "postalregion_id": 1864207045
      }
    ],
    "wof:id": 1712631751,
    "wof:lastmodified": 1763548757,
    "wof:name": "EH17 8NF",
    "wof:parent_id": 101750629,
    "wof:placetype": "postalcode",
    "wof:repo": "whosonfirst-data-postalcode-gb",
    "wof:superseded_by": [],
    "wof:supersedes": [],
    "wof:tags": []
  },
  "bbox": [
    -3.132221,
    55.898472,
    -3.132221,
    55.898472
  ],
  "geometry": {"coordinates":[-3.132221,55.898472],"type":"Point"}
}
