{
  "id": 890246363,
  "type": "Feature",
  "properties": {
    "date:inception_lower": "2011-10-01",
    "date:inception_upper": "2011-10-01",
    "edtf:cessation": "",
    "edtf:inception": "2011-10-01",
    "geom:area": 0,
    "geom:bbox": "-0.408785,51.065325,-0.408785,51.065325",
    "geom:latitude": 51.065325,
    "geom:longitude": -0.408785,
    "iso:country": "GB",
    "mz:hierarchy_label": 1,
    "mz:is_current": 1,
    "os:country_code": "E92000001",
    "os:county_code": "E10000032",
    "os:district_code": "E07000227",
    "os:positional_quality_indicator": "1",
    "os:region_code": "E12000008",
    "src:geom": "os",
    "wof:belongsto": [
      85633159,
      102191581,
      136253055,
      1864210091,
      1880771689,
      404432761,
      1125843097,
      1880762061,
      404227469,
      1880762709
    ],
    "wof:breaches": [],
    "wof:country": "GB",
    "wof:created": 1468898187,
    "wof:geomhash": "e3bbae1b763212e2e4bc68d313489f93",
    "wof:hierarchy": [
      {
        "continent_id": 102191581,
        "country_id": 85633159,
        "county_id": 1880771689,
        "empire_id": 136253055,
        "localadmin_id": 404432761,
        "locality_id": 1125843097,
        "macrocounty_id": 1880762061,
        "macroregion_id": 404227469,
        "postalcode_id": 890246363,
        "region_id": 1880762709
      },
      {
        "continent_id": 102191581,
        "country_id": 85633159,
        "empire_id": 136253055,
        "postalcode_id": 890246363,
        "postalregion_id": 1864210091
      }
    ],
    "wof:id": 890246363,
    "wof:lastmodified": 1763548617,
    "wof:name": "RH13 0GN",
    "wof:parent_id": 1125843097,
    "wof:placetype": "postalcode",
    "wof:repo": "whosonfirst-data-postalcode-gb",
    "wof:superseded_by": [],
    "wof:supersedes": [],
    "wof:tags": []
  },
  "bbox": [
    -0.408785,
    51.065325,
    -0.408785,
    51.065325
  ],
  "geometry": {"coordinates":[-0.408785,51.065325],"type":"Point"}
}
