{
  "id": 487923573,
  "type": "Feature",
  "properties": {
    "date:inception_lower": "1980-01-01",
    "date:inception_upper": "1980-01-01",
    "edtf:cessation": "",
    "edtf:inception": "1980-01-01",
    "geom:area": 0,
    "geom:bbox": "-5.487150,50.210432,-5.487150,50.210432",
    "geom:latitude": 50.210432,
    "geom:longitude": -5.48715,
    "iso:country": "GB",
    "mz:hierarchy_label": 1,
    "mz:is_current": 1,
    "os:country_code": "E92000001",
    "os:county_code": "E99999999",
    "os:district_code": "E06000052",
    "os:positional_quality_indicator": "1",
    "os:region_code": "E12000009",
    "src:geom": "os",
    "wof:belongsto": [
      85633159,
      102191581,
      136253055,
      1864211227,
      1360699085,
      404436217,
      1209250139,
      1880762119,
      404227469,
      1880773165
    ],
    "wof:breaches": [],
    "wof:concordances": {
      "gp:id": "28080330"
    },
    "wof:country": "GB",
    "wof:created": 1583701264,
    "wof:geomhash": "b9a9fe738350f9d9a71f8a9993382c14",
    "wof:hierarchy": [
      {
        "continent_id": 102191581,
        "country_id": 85633159,
        "county_id": 1360699085,
        "empire_id": 136253055,
        "localadmin_id": 404436217,
        "locality_id": 1209250139,
        "macrocounty_id": 1880762119,
        "macroregion_id": 404227469,
        "postalcode_id": 487923573,
        "region_id": 1880773165
      },
      {
        "continent_id": 102191581,
        "country_id": 85633159,
        "empire_id": 136253055,
        "postalcode_id": 487923573,
        "postalregion_id": 1864211227
      }
    ],
    "wof:id": 487923573,
    "wof:lastmodified": 1763548683,
    "wof:name": "TR26 1QW",
    "wof:parent_id": 1209250139,
    "wof:placetype": "postalcode",
    "wof:repo": "whosonfirst-data-postalcode-gb",
    "wof:superseded_by": [],
    "wof:supersedes": [],
    "wof:tags": []
  },
  "bbox": [
    -5.48715,
    50.210432,
    -5.48715,
    50.210432
  ],
  "geometry": {"coordinates":[-5.48715,50.210432],"type":"Point"}
}
