{
  "id": 1712716585,
  "type": "Feature",
  "properties": {
    "date:cessation_lower": "1997-06-01",
    "date:cessation_upper": "1997-06-01",
    "date:inception_lower": "1995-12-01",
    "date:inception_upper": "1995-12-01",
    "edtf:cessation": "1997-06-01",
    "edtf:inception": "1995-12-01",
    "geom:area": 0,
    "geom:bbox": "-2.290622,53.537333,-2.290622,53.537333",
    "geom:latitude": 53.537333,
    "geom:longitude": -2.290622,
    "iso:country": "GB",
    "mz:hierarchy_label": 1,
    "mz:is_current": 0,
    "os:country_code": "E92000001",
    "os:county_code": "E99999999",
    "os:district_code": "E08000002",
    "os:positional_quality_indicator": "8",
    "os:region_code": "E12000002",
    "src:geom": "os",
    "wof:belongsto": [
      85633159,
      102191581,
      136253055,
      1864208751,
      1360698847,
      101750567,
      1880762163,
      404227469,
      1880773095
    ],
    "wof:breaches": [],
    "wof:country": "GB",
    "wof:created": 1583800437,
    "wof:geomhash": "7128ca8b95138d64ea0fa69c97c81fc9",
    "wof:hierarchy": [
      {
        "continent_id": 102191581,
        "country_id": 85633159,
        "county_id": 1360698847,
        "empire_id": 136253055,
        "locality_id": 101750567,
        "macrocounty_id": 1880762163,
        "macroregion_id": 404227469,
        "postalcode_id": 1712716585,
        "region_id": 1880773095
      },
      {
        "continent_id": 102191581,
        "country_id": 85633159,
        "empire_id": 136253055,
        "postalcode_id": 1712716585,
        "postalregion_id": 1864208751
      }
    ],
    "wof:id": 1712716585,
    "wof:lastmodified": 1763548741,
    "wof:name": "M25 3BJ",
    "wof:parent_id": 101750567,
    "wof:placetype": "postalcode",
    "wof:repo": "whosonfirst-data-postalcode-gb",
    "wof:superseded_by": [],
    "wof:supersedes": [],
    "wof:tags": []
  },
  "bbox": [
    -2.290622,
    53.537333,
    -2.290622,
    53.537333
  ],
  "geometry": {"coordinates":[-2.290622,53.537333],"type":"Point"}
}
