{
  "id": 1947766313,
  "type": "Feature",
  "properties": {
    "date:inception_lower": "2024-07-01",
    "date:inception_upper": "2024-07-01",
    "edtf:cessation": "",
    "edtf:inception": "2024-07-01",
    "geom:area": 0,
    "geom:bbox": "-0.231868,52.373799,-0.231868,52.373799",
    "geom:latitude": 52.373799,
    "geom:longitude": -0.231868,
    "iso:country": "GB",
    "mz:hierarchy_label": 1,
    "mz:is_current": 1,
    "os:country_code": "E92000001",
    "os:county_code": "E10000003",
    "os:district_code": "E07000011",
    "os:positional_quality_indicator": "1",
    "os:region_code": "E12000006",
    "src:geom": "os",
    "wof:belongsto": [
      102191581,
      85633159,
      1880771371,
      136253055,
      404429459,
      1360759775,
      1880762143,
      404227469,
      1880762687,
      1864209693
    ],
    "wof:breaches": [],
    "wof:country": "GB",
    "wof:created": 1736334800,
    "wof:geomhash": "46c8623dfbcd2c8b1287ba0a245df4f8",
    "wof:hierarchy": [
      {
        "continent_id": 102191581,
        "country_id": 85633159,
        "county_id": 1880771371,
        "empire_id": 136253055,
        "localadmin_id": 404429459,
        "locality_id": 1360759775,
        "macrocounty_id": 1880762143,
        "macroregion_id": 404227469,
        "postalcode_id": 1947766313,
        "region_id": 1880762687
      },
      {
        "continent_id": 102191581,
        "country_id": 85633159,
        "empire_id": 136253055,
        "postalcode_id": 1947766313,
        "postalregion_id": 1864209693
      }
    ],
    "wof:id": 1947766313,
    "wof:lastmodified": 1763547897,
    "wof:name": "PE28 4ZR",
    "wof:parent_id": 1360759775,
    "wof:placetype": "postalcode",
    "wof:repo": "whosonfirst-data-postalcode-gb",
    "wof:superseded_by": [],
    "wof:supersedes": [],
    "wof:tags": []
  },
  "bbox": [
    -0.231868,
    52.373799,
    -0.231868,
    52.373799
  ],
  "geometry": {"coordinates":[-0.231868,52.373799],"type":"Point"}
}
