{
  "id": 437817287,
  "type": "Feature",
  "properties": {
    "date:cessation_lower": "2003-11-01",
    "date:cessation_upper": "2003-11-01",
    "date:inception_lower": "2002-11-01",
    "date:inception_upper": "2002-11-01",
    "edtf:cessation": "2003-11-01",
    "edtf:inception": "2002-11-01",
    "geom:area": 0,
    "geom:bbox": "-3.431892,56.022454,-3.431892,56.022454",
    "geom:latitude": 56.022454,
    "geom:longitude": -3.431892,
    "gp:parent_id": "33585",
    "iso:country": "GB",
    "mz:hierarchy_label": 1,
    "mz:is_current": 0,
    "os:country_code": "S92000003",
    "os:county_code": "S99999999",
    "os:district_code": "S12000047",
    "os:positional_quality_indicator": "5",
    "os:region_code": "S99999999",
    "src:geom": "os",
    "wof:belongsto": [
      85633159,
      102191581,
      136253055,
      1864208179,
      1360699123,
      1880762125,
      404227471,
      1880773203
    ],
    "wof:breaches": [],
    "wof:concordances": {
      "gp:id": "28890121"
    },
    "wof:country": "GB",
    "wof:created": 1583701570,
    "wof:geomhash": "d1a5c04de5b951bb59ecc37ea429a5e4",
    "wof:hierarchy": [
      {
        "continent_id": 102191581,
        "country_id": 85633159,
        "county_id": 1360699123,
        "empire_id": 136253055,
        "macrocounty_id": 1880762125,
        "macroregion_id": 404227471,
        "postalcode_id": 437817287,
        "region_id": 1880773203
      },
      {
        "continent_id": 102191581,
        "country_id": 85633159,
        "empire_id": 136253055,
        "postalcode_id": 437817287,
        "postalregion_id": 1864208179
      }
    ],
    "wof:id": 437817287,
    "wof:lastmodified": 1763548012,
    "wof:name": "KY11 2ZA",
    "wof:parent_id": 1360699123,
    "wof:placetype": "postalcode",
    "wof:repo": "whosonfirst-data-postalcode-gb",
    "wof:superseded_by": [],
    "wof:supersedes": [],
    "wof:tags": []
  },
  "bbox": [
    -3.431892,
    56.022454,
    -3.431892,
    56.022454
  ],
  "geometry": {"coordinates":[-3.431892,56.022454],"type":"Point"}
}
