{
  "id": 1897504419,
  "type": "Feature",
  "properties": {
    "date:inception_lower": "2023-10-01",
    "date:inception_upper": "2023-10-01",
    "edtf:cessation": "",
    "edtf:inception": "2023-10-01",
    "geom:area": 0,
    "geom:bbox": "1.371360,52.662357,1.371360,52.662357",
    "geom:latitude": 52.662357,
    "geom:longitude": 1.37136,
    "iso:country": "GB",
    "mz:hierarchy_label": 1,
    "mz:is_current": 1,
    "os:country_code": "E92000001",
    "os:county_code": "E10000020",
    "os:district_code": "E07000144",
    "os:positional_quality_indicator": "1",
    "os:region_code": "E12000006",
    "src:geom": "os",
    "wof:belongsto": [
      102191581,
      85633159,
      136253055,
      1864209309,
      1880771709,
      404445311,
      1125772899,
      1880762037,
      404227469,
      1880762699
    ],
    "wof:breaches": [],
    "wof:country": "GB",
    "wof:created": 1709410660,
    "wof:geomhash": "47f12b55da564998344a68f2e0d78f03",
    "wof:hierarchy": [
      {
        "continent_id": 102191581,
        "country_id": 85633159,
        "county_id": 1880771709,
        "empire_id": 136253055,
        "localadmin_id": 404445311,
        "locality_id": 1125772899,
        "macrocounty_id": 1880762037,
        "macroregion_id": 404227469,
        "postalcode_id": 1897504419,
        "region_id": 1880762699
      },
      {
        "continent_id": 102191581,
        "country_id": 85633159,
        "empire_id": 136253055,
        "postalcode_id": 1897504419,
        "postalregion_id": 1864209309
      }
    ],
    "wof:id": 1897504419,
    "wof:lastmodified": 1763548183,
    "wof:name": "NR13 6FZ",
    "wof:parent_id": 1125772899,
    "wof:placetype": "postalcode",
    "wof:repo": "whosonfirst-data-postalcode-gb",
    "wof:superseded_by": [],
    "wof:supersedes": [],
    "wof:tags": []
  },
  "bbox": [
    1.37136,
    52.662357,
    1.37136,
    52.662357
  ],
  "geometry": {"coordinates":[1.37136,52.662357],"type":"Point"}
}
