{
  "id": 438109615,
  "type": "Feature",
  "properties": {
    "date:inception_lower": "1980-01-01",
    "date:inception_upper": "1980-01-01",
    "edtf:cessation": "",
    "edtf:inception": "1980-01-01",
    "geom:area": 0,
    "geom:bbox": "-1.693981,53.757830,-1.693981,53.757830",
    "geom:latitude": 53.75783,
    "geom:longitude": -1.693981,
    "iso:country": "GB",
    "mz:hierarchy_label": 1,
    "mz:is_current": 1,
    "os:country_code": "E92000001",
    "os:county_code": "E99999999",
    "os:district_code": "E08000034",
    "os:positional_quality_indicator": "1",
    "os:region_code": "E12000003",
    "src:geom": "os",
    "wof:belongsto": [
      85633159,
      102191581,
      136253055,
      1864205729,
      1360698917,
      101750569,
      1880762059,
      404227469,
      1880773017
    ],
    "wof:breaches": [],
    "wof:concordances": {
      "gp:id": "26378733"
    },
    "wof:country": "GB",
    "wof:created": 1583701297,
    "wof:geomhash": "4d61e2d5e9794b74946b89d14f22b5bb",
    "wof:hierarchy": [
      {
        "continent_id": 102191581,
        "country_id": 85633159,
        "county_id": 1360698917,
        "empire_id": 136253055,
        "locality_id": 101750569,
        "macrocounty_id": 1880762059,
        "macroregion_id": 404227469,
        "postalcode_id": 438109615,
        "region_id": 1880773017
      },
      {
        "continent_id": 102191581,
        "country_id": 85633159,
        "empire_id": 136253055,
        "postalcode_id": 438109615,
        "postalregion_id": 1864205729
      }
    ],
    "wof:id": 438109615,
    "wof:lastmodified": 1763548073,
    "wof:name": "BD11 2BT",
    "wof:parent_id": 101750569,
    "wof:placetype": "postalcode",
    "wof:repo": "whosonfirst-data-postalcode-gb",
    "wof:superseded_by": [],
    "wof:supersedes": [],
    "wof:tags": []
  },
  "bbox": [
    -1.693981,
    53.75783,
    -1.693981,
    53.75783
  ],
  "geometry": {"coordinates":[-1.693981,53.75783],"type":"Point"}
}
