{
  "id": 437748077,
  "type": "Feature",
  "properties": {
    "date:cessation_lower": "2004-01-01",
    "date:cessation_upper": "2004-01-01",
    "date:inception_lower": "2004-01-01",
    "date:inception_upper": "2004-01-01",
    "edtf:cessation": "2004-01-01",
    "edtf:inception": "2004-01-01",
    "geom:area": 0,
    "geom:bbox": "-2.592294,51.461135,-2.592294,51.461135",
    "geom:latitude": 51.461135,
    "geom:longitude": -2.592294,
    "iso:country": "GB",
    "mz:hierarchy_label": 1,
    "mz:is_current": 0,
    "os:country_code": "E92000001",
    "os:county_code": "E99999999",
    "os:district_code": "E06000023",
    "os:positional_quality_indicator": "1",
    "os:region_code": "E12000009",
    "src:geom": "os",
    "wof:belongsto": [
      85633159,
      102191581,
      136253055,
      1864205983,
      1360698747,
      1175612699,
      1880762137,
      404227469,
      1880772883
    ],
    "wof:breaches": [],
    "wof:concordances": {
      "gp:id": "28849850"
    },
    "wof:country": "GB",
    "wof:created": 1583701530,
    "wof:geomhash": "104a6e5a12a25a553e6f4a5ca07fbe64",
    "wof:hierarchy": [
      {
        "continent_id": 102191581,
        "country_id": 85633159,
        "county_id": 1360698747,
        "empire_id": 136253055,
        "locality_id": 1175612699,
        "macrocounty_id": 1880762137,
        "macroregion_id": 404227469,
        "postalcode_id": 437748077,
        "region_id": 1880772883
      },
      {
        "continent_id": 102191581,
        "country_id": 85633159,
        "empire_id": 136253055,
        "postalcode_id": 437748077,
        "postalregion_id": 1864205983
      }
    ],
    "wof:id": 437748077,
    "wof:lastmodified": 1763548113,
    "wof:name": "BS2 8EF",
    "wof:parent_id": 1175612699,
    "wof:placetype": "postalcode",
    "wof:repo": "whosonfirst-data-postalcode-gb",
    "wof:superseded_by": [],
    "wof:supersedes": [],
    "wof:tags": []
  },
  "bbox": [
    -2.592294,
    51.461135,
    -2.592294,
    51.461135
  ],
  "geometry": {"coordinates":[-2.592294,51.461135],"type":"Point"}
}
