{
  "id": 471108687,
  "type": "Feature",
  "properties": {
    "date:inception_lower": "2000-12-01",
    "date:inception_upper": "2000-12-01",
    "edtf:cessation": "",
    "edtf:inception": "2000-12-01",
    "geom:area": 0,
    "geom:bbox": "-0.856481,52.898874,-0.856481,52.898874",
    "geom:latitude": 52.898874,
    "geom:longitude": -0.856481,
    "gp:parent_id": "32181",
    "iso:country": "GB",
    "mz:hierarchy_label": 1,
    "mz:is_current": 1,
    "os:country_code": "E92000001",
    "os:county_code": "E10000018",
    "os:district_code": "E07000133",
    "os:positional_quality_indicator": "1",
    "os:region_code": "E12000004",
    "src:geom": "os",
    "wof:belongsto": [
      85633159,
      102191581,
      136253055,
      1864209155,
      1880771561,
      404444375,
      1125972409,
      1880762051,
      404227469,
      1880773085
    ],
    "wof:breaches": [],
    "wof:concordances": {
      "gp:id": "27631815"
    },
    "wof:country": "GB",
    "wof:created": 1583701305,
    "wof:geomhash": "dab032190900983860d57cae3dd82721",
    "wof:hierarchy": [
      {
        "continent_id": 102191581,
        "country_id": 85633159,
        "county_id": 1880771561,
        "empire_id": 136253055,
        "localadmin_id": 404444375,
        "locality_id": 1125972409,
        "macrocounty_id": 1880762051,
        "macroregion_id": 404227469,
        "postalcode_id": 471108687,
        "region_id": 1880773085
      },
      {
        "continent_id": 102191581,
        "country_id": 85633159,
        "empire_id": 136253055,
        "postalcode_id": 471108687,
        "postalregion_id": 1864209155
      }
    ],
    "wof:id": 471108687,
    "wof:lastmodified": 1763548254,
    "wof:name": "NG13 0JN",
    "wof:parent_id": 1125972409,
    "wof:placetype": "postalcode",
    "wof:repo": "whosonfirst-data-postalcode-gb",
    "wof:superseded_by": [],
    "wof:supersedes": [],
    "wof:tags": []
  },
  "bbox": [
    -0.856481,
    52.898874,
    -0.856481,
    52.898874
  ],
  "geometry": {"coordinates":[-0.856481,52.898874],"type":"Point"}
}
