{
  "id": 437596113,
  "type": "Feature",
  "properties": {
    "date:cessation_lower": "2006-09-01",
    "date:cessation_upper": "2006-09-01",
    "date:inception_lower": "1981-06-01",
    "date:inception_upper": "1981-06-01",
    "edtf:cessation": "2006-09-01",
    "edtf:inception": "1981-06-01",
    "geom:area": 0,
    "geom:bbox": "0.114316,52.171440,0.114316,52.171440",
    "geom:latitude": 52.17144,
    "geom:longitude": 0.114316,
    "iso:country": "GB",
    "mz:hierarchy_label": 1,
    "mz:is_current": 0,
    "os:country_code": "E92000001",
    "os:county_code": "E10000003",
    "os:district_code": "E07000008",
    "os:positional_quality_indicator": "1",
    "os:region_code": "E12000006",
    "src:geom": "os",
    "wof:belongsto": [
      85633159,
      102191581,
      136253055,
      1864206125,
      1880771375,
      101750465,
      1880762143,
      404227469,
      1880762687
    ],
    "wof:breaches": [],
    "wof:concordances": {
      "gp:id": "27025245"
    },
    "wof:country": "GB",
    "wof:created": 1583701402,
    "wof:geomhash": "2c6ed3fb9ed60a98329be64f31caa6c4",
    "wof:hierarchy": [
      {
        "continent_id": 102191581,
        "country_id": 85633159,
        "county_id": 1880771375,
        "empire_id": 136253055,
        "locality_id": 101750465,
        "macrocounty_id": 1880762143,
        "macroregion_id": 404227469,
        "postalcode_id": 437596113,
        "region_id": 1880762687
      },
      {
        "continent_id": 102191581,
        "country_id": 85633159,
        "empire_id": 136253055,
        "postalcode_id": 437596113,
        "postalregion_id": 1864206125
      }
    ],
    "wof:id": 437596113,
    "wof:lastmodified": 1763548157,
    "wof:name": "CB2 2LY",
    "wof:parent_id": 101750465,
    "wof:placetype": "postalcode",
    "wof:repo": "whosonfirst-data-postalcode-gb",
    "wof:superseded_by": [],
    "wof:supersedes": [],
    "wof:tags": []
  },
  "bbox": [
    0.114316,
    52.17144,
    0.114316,
    52.17144
  ],
  "geometry": {"coordinates":[0.114316,52.17144],"type":"Point"}
}
