{
  "id": 437608185,
  "type": "Feature",
  "properties": {
    "date:cessation_lower": "2006-08-01",
    "date:cessation_upper": "2006-08-01",
    "date:inception_lower": "1999-12-01",
    "date:inception_upper": "1999-12-01",
    "edtf:cessation": "2006-08-01",
    "edtf:inception": "1999-12-01",
    "geom:area": 0,
    "geom:bbox": "-3.190564,50.800083,-3.190564,50.800083",
    "geom:latitude": 50.800083,
    "geom:longitude": -3.190564,
    "iso:country": "GB",
    "mz:hierarchy_label": 1,
    "mz:is_current": 0,
    "os:country_code": "E92000001",
    "os:county_code": "E10000008",
    "os:district_code": "E07000040",
    "os:positional_quality_indicator": "1",
    "os:region_code": "E12000009",
    "src:geom": "os",
    "wof:belongsto": [
      85633159,
      102191581,
      136253055,
      1864207189,
      1880771397,
      404452371,
      101852635,
      1880762149,
      404227469,
      1880762683
    ],
    "wof:breaches": [],
    "wof:concordances": {
      "gp:id": "27252308"
    },
    "wof:country": "GB",
    "wof:created": 1583701414,
    "wof:geomhash": "8df1deb895e3c5ed54a1e967e136f9cd",
    "wof:hierarchy": [
      {
        "continent_id": 102191581,
        "country_id": 85633159,
        "county_id": 1880771397,
        "empire_id": 136253055,
        "localadmin_id": 404452371,
        "locality_id": 101852635,
        "macrocounty_id": 1880762149,
        "macroregion_id": 404227469,
        "postalcode_id": 437608185,
        "region_id": 1880762683
      },
      {
        "continent_id": 102191581,
        "country_id": 85633159,
        "empire_id": 136253055,
        "postalcode_id": 437608185,
        "postalregion_id": 1864207189
      }
    ],
    "wof:id": 437608185,
    "wof:lastmodified": 1763548238,
    "wof:name": "EX14 1NT",
    "wof:parent_id": 101852635,
    "wof:placetype": "postalcode",
    "wof:repo": "whosonfirst-data-postalcode-gb",
    "wof:superseded_by": [],
    "wof:supersedes": [],
    "wof:tags": []
  },
  "bbox": [
    -3.190564,
    50.800083,
    -3.190564,
    50.800083
  ],
  "geometry": {"coordinates":[-3.190564,50.800083],"type":"Point"}
}
