{
  "id": 454152145,
  "type": "Feature",
  "properties": {
    "date:inception_lower": "1980-01-01",
    "date:inception_upper": "1980-01-01",
    "edtf:cessation": "",
    "edtf:inception": "1980-01-01",
    "geom:area": 0,
    "geom:bbox": "0.157125,51.835214,0.157125,51.835214",
    "geom:latitude": 51.835214,
    "geom:longitude": 0.157125,
    "gp:parent_id": "35477",
    "iso:country": "GB",
    "mz:hierarchy_label": 1,
    "mz:is_current": 1,
    "os:country_code": "E92000001",
    "os:county_code": "E10000015",
    "os:district_code": "E07000242",
    "os:positional_quality_indicator": "1",
    "os:region_code": "E12000006",
    "src:geom": "os",
    "wof:belongsto": [
      85633159,
      102191581,
      136253055,
      1864206357,
      1880771491,
      404434667,
      101853551,
      1880762153,
      404227469,
      1880762721
    ],
    "wof:breaches": [],
    "wof:concordances": {
      "gp:id": "27073228"
    },
    "wof:country": "GB",
    "wof:created": 1583701314,
    "wof:geomhash": "39961272f19b8e2b4a1ceea074814b5a",
    "wof:hierarchy": [
      {
        "continent_id": 102191581,
        "country_id": 85633159,
        "county_id": 1880771491,
        "empire_id": 136253055,
        "localadmin_id": 404434667,
        "locality_id": 101853551,
        "macrocounty_id": 1880762153,
        "macroregion_id": 404227469,
        "postalcode_id": 454152145,
        "region_id": 1880762721
      },
      {
        "continent_id": 102191581,
        "country_id": 85633159,
        "empire_id": 136253055,
        "postalcode_id": 454152145,
        "postalregion_id": 1864206357
      }
    ],
    "wof:id": 454152145,
    "wof:lastmodified": 1763548458,
    "wof:name": "CM23 4BA",
    "wof:parent_id": 101853551,
    "wof:placetype": "postalcode",
    "wof:repo": "whosonfirst-data-postalcode-gb",
    "wof:superseded_by": [],
    "wof:supersedes": [],
    "wof:tags": []
  },
  "bbox": [
    0.157125,
    51.835214,
    0.157125,
    51.835214
  ],
  "geometry": {"coordinates":[0.157125,51.835214],"type":"Point"}
}
