{
  "id": 504485735,
  "type": "Feature",
  "properties": {
    "date:inception_lower": "1993-01-01",
    "date:inception_upper": "1993-01-01",
    "edtf:cessation": "",
    "edtf:inception": "1993-01-01",
    "geom:area": 0,
    "geom:bbox": "-3.032926,53.105918,-3.032926,53.105918",
    "geom:latitude": 53.105918,
    "geom:longitude": -3.032926,
    "gp:parent_id": "14852",
    "iso:country": "GB",
    "mz:hierarchy_label": 1,
    "mz:is_current": 1,
    "os:country_code": "W92000004",
    "os:county_code": "W99999999",
    "os:district_code": "W06000005",
    "os:positional_quality_indicator": "1",
    "os:region_code": "W99999999",
    "src:geom": "os",
    "wof:belongsto": [
      85633159,
      102191581,
      136253055,
      1864208449,
      1360698799,
      404442183,
      1125877955,
      1880762183,
      404227475,
      1880772909
    ],
    "wof:breaches": [],
    "wof:concordances": {
      "gp:id": "27486184"
    },
    "wof:country": "GB",
    "wof:created": 1583701372,
    "wof:geomhash": "61ae4006edd42e7ad837fb13118e6591",
    "wof:hierarchy": [
      {
        "continent_id": 102191581,
        "country_id": 85633159,
        "county_id": 1360698799,
        "empire_id": 136253055,
        "localadmin_id": 404442183,
        "locality_id": 1125877955,
        "macrocounty_id": 1880762183,
        "macroregion_id": 404227475,
        "postalcode_id": 504485735,
        "region_id": 1880772909
      },
      {
        "continent_id": 102191581,
        "country_id": 85633159,
        "empire_id": 136253055,
        "postalcode_id": 504485735,
        "postalregion_id": 1864208449
      }
    ],
    "wof:id": 504485735,
    "wof:lastmodified": 1763547940,
    "wof:name": "LL12 9BE",
    "wof:parent_id": 1125877955,
    "wof:placetype": "postalcode",
    "wof:repo": "whosonfirst-data-postalcode-gb",
    "wof:superseded_by": [],
    "wof:supersedes": [],
    "wof:tags": []
  },
  "bbox": [
    -3.032926,
    53.105918,
    -3.032926,
    53.105918
  ],
  "geometry": {"coordinates":[-3.032926,53.105918],"type":"Point"}
}
