{
  "id": 1947772239,
  "type": "Feature",
  "properties": {
    "date:inception_lower": "2025-01-01",
    "date:inception_upper": "2025-01-01",
    "edtf:cessation": "",
    "edtf:inception": "2025-01-01",
    "geom:area": 0,
    "geom:bbox": "0.876754,51.915970,0.876754,51.915970",
    "geom:latitude": 51.91597,
    "geom:longitude": 0.876754,
    "iso:country": "GB",
    "mz:hierarchy_label": 1,
    "mz:is_current": 1,
    "os:country_code": "E92000001",
    "os:county_code": "E10000012",
    "os:district_code": "E07000071",
    "os:positional_quality_indicator": "1",
    "os:region_code": "E12000006",
    "src:geom": "os",
    "wof:belongsto": [
      102191581,
      85633159,
      1880771433,
      136253055,
      404453359,
      1360759089,
      1880762159,
      404227469,
      1880762723,
      1864206407
    ],
    "wof:breaches": [],
    "wof:country": "GB",
    "wof:created": 1736335063,
    "wof:geomhash": "e028bd9059c4f6e850918b071514d6ba",
    "wof:hierarchy": [
      {
        "continent_id": 102191581,
        "country_id": 85633159,
        "county_id": 1880771433,
        "empire_id": 136253055,
        "localadmin_id": 404453359,
        "locality_id": 1360759089,
        "macrocounty_id": 1880762159,
        "macroregion_id": 404227469,
        "postalcode_id": 1947772239,
        "region_id": 1880762723
      },
      {
        "continent_id": 102191581,
        "country_id": 85633159,
        "empire_id": 136253055,
        "postalcode_id": 1947772239,
        "postalregion_id": 1864206407
      }
    ],
    "wof:id": 1947772239,
    "wof:lastmodified": 1763547895,
    "wof:name": "CO4 6FG",
    "wof:parent_id": 1360759089,
    "wof:placetype": "postalcode",
    "wof:repo": "whosonfirst-data-postalcode-gb",
    "wof:superseded_by": [],
    "wof:supersedes": [],
    "wof:tags": []
  },
  "bbox": [
    0.876754,
    51.91597,
    0.876754,
    51.91597
  ],
  "geometry": {"coordinates":[0.876754,51.91597],"type":"Point"}
}
