{
  "id": 454828199,
  "type": "Feature",
  "properties": {
    "date:inception_lower": "1980-01-01",
    "date:inception_upper": "1980-01-01",
    "edtf:cessation": "",
    "edtf:inception": "1980-01-01",
    "geom:area": 0,
    "geom:bbox": "-0.313369,53.754830,-0.313369,53.754830",
    "geom:latitude": 53.75483,
    "geom:longitude": -0.313369,
    "gp:parent_id": "25211",
    "iso:country": "GB",
    "mz:hierarchy_label": 1,
    "mz:is_current": 1,
    "os:country_code": "E92000001",
    "os:county_code": "E99999999",
    "os:district_code": "E06000010",
    "os:positional_quality_indicator": "1",
    "os:region_code": "E12000003",
    "src:geom": "os",
    "wof:belongsto": [
      85633159,
      102191581,
      136253055,
      1864207777,
      1360698951,
      101750561,
      1880762147,
      404227469,
      1880773091
    ],
    "wof:breaches": [],
    "wof:concordances": {
      "gp:id": "27379691"
    },
    "wof:country": "GB",
    "wof:created": 1583701730,
    "wof:geomhash": "6ee8626b4df26cf9e94dd1d4ce2b1628",
    "wof:hierarchy": [
      {
        "continent_id": 102191581,
        "country_id": 85633159,
        "county_id": 1360698951,
        "empire_id": 136253055,
        "locality_id": 101750561,
        "macrocounty_id": 1880762147,
        "macroregion_id": 404227469,
        "postalcode_id": 454828199,
        "region_id": 1880773091
      },
      {
        "continent_id": 102191581,
        "country_id": 85633159,
        "empire_id": 136253055,
        "postalcode_id": 454828199,
        "postalregion_id": 1864207777
      }
    ],
    "wof:id": 454828199,
    "wof:lastmodified": 1763548285,
    "wof:name": "HU8 7ST",
    "wof:parent_id": 101750561,
    "wof:placetype": "postalcode",
    "wof:repo": "whosonfirst-data-postalcode-gb",
    "wof:superseded_by": [],
    "wof:supersedes": [],
    "wof:tags": []
  },
  "bbox": [
    -0.313369,
    53.75483,
    -0.313369,
    53.75483
  ],
  "geometry": {"coordinates":[-0.313369,53.75483],"type":"Point"}
}
