{
  "id": 471323461,
  "type": "Feature",
  "properties": {
    "date:inception_lower": "1991-09-01",
    "date:inception_upper": "1991-09-01",
    "edtf:cessation": "",
    "edtf:inception": "1991-09-01",
    "geom:area": 0,
    "geom:bbox": "-1.602420,51.760460,-1.602420,51.760460",
    "geom:latitude": 51.76046,
    "geom:longitude": -1.60242,
    "iso:country": "GB",
    "mz:hierarchy_label": 1,
    "mz:is_current": 1,
    "os:country_code": "E92000001",
    "os:county_code": "E10000025",
    "os:district_code": "E07000181",
    "os:positional_quality_indicator": "1",
    "os:region_code": "E12000008",
    "src:geom": "os",
    "wof:belongsto": [
      85633159,
      102191581,
      136253055,
      1864209463,
      1880771615,
      404447673,
      101852947,
      1880762079,
      404227469,
      1880762695
    ],
    "wof:breaches": [],
    "wof:concordances": {
      "gp:id": "27721481"
    },
    "wof:country": "GB",
    "wof:created": 1583701499,
    "wof:geomhash": "f0dd8a7d02d2f7064fbbd99b7c913641",
    "wof:hierarchy": [
      {
        "continent_id": 102191581,
        "country_id": 85633159,
        "county_id": 1880771615,
        "empire_id": 136253055,
        "localadmin_id": 404447673,
        "locality_id": 101852947,
        "macrocounty_id": 1880762079,
        "macroregion_id": 404227469,
        "postalcode_id": 471323461,
        "region_id": 1880762695
      },
      {
        "continent_id": 102191581,
        "country_id": 85633159,
        "empire_id": 136253055,
        "postalcode_id": 471323461,
        "postalregion_id": 1864209463
      }
    ],
    "wof:id": 471323461,
    "wof:lastmodified": 1763548156,
    "wof:name": "OX18 3QF",
    "wof:parent_id": 101852947,
    "wof:placetype": "postalcode",
    "wof:repo": "whosonfirst-data-postalcode-gb",
    "wof:superseded_by": [],
    "wof:supersedes": [],
    "wof:tags": []
  },
  "bbox": [
    -1.60242,
    51.76046,
    -1.60242,
    51.76046
  ],
  "geometry": {"coordinates":[-1.60242,51.76046],"type":"Point"}
}
