{
  "id": 1998347827,
  "type": "Feature",
  "properties": {
    "date:inception_lower": "2025-02-01",
    "date:inception_upper": "2025-02-01",
    "edtf:cessation": "",
    "edtf:inception": "2025-02-01",
    "geom:area": 0,
    "geom:bbox": "-0.809852,53.055835,-0.809852,53.055835",
    "geom:latitude": 53.055835,
    "geom:longitude": -0.809852,
    "iso:country": "GB",
    "mz:hierarchy_label": 1,
    "mz:is_current": 1,
    "os:country_code": "E92000001",
    "os:county_code": "E10000024",
    "os:district_code": "E07000175",
    "os:positional_quality_indicator": "1",
    "os:region_code": "E12000004",
    "src:geom": "os",
    "wof:belongsto": [
      102191581,
      85633159,
      1880771361,
      136253055,
      404441511,
      1125988601,
      1880762077,
      404227469,
      1880762689,
      1864209183
    ],
    "wof:breaches": [],
    "wof:country": "GB",
    "wof:created": 1763549184,
    "wof:geomhash": "9792a024705e4954840fe27aa5bb0e7c",
    "wof:hierarchy": [
      {
        "continent_id": 102191581,
        "country_id": 85633159,
        "county_id": 1880771361,
        "empire_id": 136253055,
        "localadmin_id": 404441511,
        "locality_id": 1125988601,
        "macrocounty_id": 1880762077,
        "macroregion_id": 404227469,
        "postalcode_id": 1998347827,
        "region_id": 1880762689
      },
      {
        "continent_id": 102191581,
        "country_id": 85633159,
        "empire_id": 136253055,
        "postalcode_id": 1998347827,
        "postalregion_id": 1864209183
      }
    ],
    "wof:id": 1998347827,
    "wof:lastmodified": 1763549184,
    "wof:name": "NG24 4GN",
    "wof:parent_id": 1125988601,
    "wof:placetype": "postalcode",
    "wof:repo": "whosonfirst-data-postalcode-gb",
    "wof:superseded_by": [],
    "wof:supersedes": [],
    "wof:tags": []
  },
  "bbox": [
    -0.809852,
    53.055835,
    -0.809852,
    53.055835
  ],
  "geometry": {"coordinates":[-0.809852,53.055835],"type":"Point"}
}
