{
  "id": 1712444803,
  "type": "Feature",
  "properties": {
    "date:cessation_lower": "1999-06-01",
    "date:cessation_upper": "1999-06-01",
    "date:inception_lower": "1980-01-01",
    "date:inception_upper": "1980-01-01",
    "edtf:cessation": "1999-06-01",
    "edtf:inception": "1980-01-01",
    "geom:area": 0,
    "geom:bbox": "-2.782314,51.673663,-2.782314,51.673663",
    "geom:latitude": 51.673663,
    "geom:longitude": -2.782314,
    "iso:country": "GB",
    "mz:hierarchy_label": 1,
    "mz:is_current": 0,
    "os:country_code": "W92000004",
    "os:county_code": "W99999999",
    "os:district_code": "W06000021",
    "os:positional_quality_indicator": "8",
    "os:region_code": "W99999999",
    "src:geom": "os",
    "wof:belongsto": [
      102191581,
      85633159,
      1360699109,
      136253055,
      404442719,
      1125800599,
      1880762173,
      404227475,
      1880773189
    ],
    "wof:breaches": [],
    "wof:country": "GB",
    "wof:created": 1583788347,
    "wof:geomhash": "77ef206955ebd7e1b245332762a55920",
    "wof:hierarchy": [
      {
        "continent_id": 102191581,
        "country_id": 85633159,
        "county_id": 1360699109,
        "empire_id": 136253055,
        "localadmin_id": 404442719,
        "locality_id": 1125800599,
        "macrocounty_id": 1880762173,
        "macroregion_id": 404227475,
        "postalcode_id": 1712444803,
        "region_id": 1880773189
      }
    ],
    "wof:id": 1712444803,
    "wof:lastmodified": 1763548676,
    "wof:name": "NP6 6DB",
    "wof:parent_id": 1125800599,
    "wof:placetype": "postalcode",
    "wof:repo": "whosonfirst-data-postalcode-gb",
    "wof:superseded_by": [],
    "wof:supersedes": [],
    "wof:tags": []
  },
  "bbox": [
    -2.782314,
    51.673663,
    -2.782314,
    51.673663
  ],
  "geometry": {"coordinates":[-2.782314,51.673663],"type":"Point"}
}
