{
  "id": 438277283,
  "type": "Feature",
  "properties": {
    "date:cessation_lower": "2023-06-01",
    "date:cessation_upper": "2023-06-01",
    "date:inception_lower": "2004-01-01",
    "date:inception_upper": "2004-01-01",
    "edtf:cessation": "2023-06-01",
    "edtf:inception": "2004-01-01",
    "geom:area": 0,
    "geom:bbox": "-2.589255,51.461006,-2.589255,51.461006",
    "geom:latitude": 51.461006,
    "geom:longitude": -2.589255,
    "iso:country": "GB",
    "mz:hierarchy_label": 1,
    "mz:is_current": 0,
    "os:country_code": "E92000001",
    "os:county_code": "E99999999",
    "os:district_code": "E06000023",
    "os:positional_quality_indicator": "1",
    "os:region_code": "E12000009",
    "src:geom": "os",
    "wof:belongsto": [
      85633159,
      102191581,
      136253055,
      1864205983,
      1360698747,
      1175612699,
      1880762137,
      404227469,
      1880772883
    ],
    "wof:breaches": [],
    "wof:concordances": {
      "gp:id": "26953863"
    },
    "wof:country": "GB",
    "wof:created": 1583701468,
    "wof:geomhash": "ca63319418817975dec463fbff87508a",
    "wof:hierarchy": [
      {
        "continent_id": 102191581,
        "country_id": 85633159,
        "county_id": 1360698747,
        "empire_id": 136253055,
        "locality_id": 1175612699,
        "macrocounty_id": 1880762137,
        "macroregion_id": 404227469,
        "postalcode_id": 438277283,
        "region_id": 1880772883
      },
      {
        "continent_id": 102191581,
        "country_id": 85633159,
        "empire_id": 136253055,
        "postalcode_id": 438277283,
        "postalregion_id": 1864205983
      }
    ],
    "wof:id": 438277283,
    "wof:lastmodified": 1763548088,
    "wof:name": "BS2 8PY",
    "wof:parent_id": 1175612699,
    "wof:placetype": "postalcode",
    "wof:repo": "whosonfirst-data-postalcode-gb",
    "wof:superseded_by": [],
    "wof:supersedes": [],
    "wof:tags": []
  },
  "bbox": [
    -2.589255,
    51.461006,
    -2.589255,
    51.461006
  ],
  "geometry": {"coordinates":[-2.589255,51.461006],"type":"Point"}
}
