{
  "id": 471568155,
  "type": "Feature",
  "properties": {
    "date:inception_lower": "1983-03-01",
    "date:inception_upper": "1983-03-01",
    "edtf:cessation": "",
    "edtf:inception": "1983-03-01",
    "geom:area": 0,
    "geom:bbox": "-0.848433,51.573078,-0.848433,51.573078",
    "geom:latitude": 51.573078,
    "geom:longitude": -0.848433,
    "gp:parent_id": "22262",
    "iso:country": "GB",
    "mz:hierarchy_label": 1,
    "mz:is_current": 1,
    "os:country_code": "E92000001",
    "os:county_code": "E99999999",
    "os:district_code": "E06000060",
    "os:positional_quality_indicator": "1",
    "os:region_code": "E12000008",
    "src:geom": "os",
    "wof:belongsto": [
      85633159,
      102191581,
      136253055,
      1864210081,
      1360698997,
      404450303,
      1125879895,
      1880762141,
      404227469,
      1880773087
    ],
    "wof:breaches": [],
    "wof:concordances": {
      "gp:id": "27822598"
    },
    "wof:country": "GB",
    "wof:created": 1583701672,
    "wof:geomhash": "bc4ed5dea22672a2bbb8808447763bc1",
    "wof:hierarchy": [
      {
        "continent_id": 102191581,
        "country_id": 85633159,
        "county_id": 1360698997,
        "empire_id": 136253055,
        "localadmin_id": 404450303,
        "locality_id": 1125879895,
        "macrocounty_id": 1880762141,
        "macroregion_id": 404227469,
        "postalcode_id": 471568155,
        "region_id": 1880773087
      },
      {
        "continent_id": 102191581,
        "country_id": 85633159,
        "empire_id": 136253055,
        "postalcode_id": 471568155,
        "postalregion_id": 1864210081
      }
    ],
    "wof:id": 471568155,
    "wof:lastmodified": 1763547969,
    "wof:name": "RG9 6LY",
    "wof:parent_id": 1125879895,
    "wof:placetype": "postalcode",
    "wof:repo": "whosonfirst-data-postalcode-gb",
    "wof:superseded_by": [],
    "wof:supersedes": [],
    "wof:tags": []
  },
  "bbox": [
    -0.848433,
    51.573078,
    -0.848433,
    51.573078
  ],
  "geometry": {"coordinates":[-0.848433,51.573078],"type":"Point"}
}
