{
  "id": 38897388,
  "type": "Feature",
  "properties": {
    "date:cessation_lower": "1984-12-01",
    "date:cessation_upper": "1984-12-01",
    "date:inception_lower": "1980-01-01",
    "date:inception_upper": "1980-01-01",
    "edtf:cessation": "1984-12-01",
    "edtf:inception": "1980-01-01",
    "geom:area": 0,
    "geom:bbox": "-1.311291,54.040319,-1.311291,54.040319",
    "geom:latitude": 54.040319,
    "geom:longitude": -1.311291,
    "iso:country": "GB",
    "mz:hierarchy_label": 1,
    "mz:is_current": 0,
    "os:country_code": "E92000001",
    "os:county_code": "E99999999",
    "os:district_code": "E06000065",
    "os:positional_quality_indicator": "8",
    "os:region_code": "E12000003",
    "src:geom": "os",
    "wof:belongsto": [
      1360698753,
      404446561,
      1360753993,
      1880762011
    ],
    "wof:breaches": [],
    "wof:country": "GB",
    "wof:created": 1583795491,
    "wof:geomhash": "962df4abc1a3e12b1c32cd77c5a772da",
    "wof:hierarchy": [
      {
        "continent_id": -1,
        "country_id": -1,
        "county_id": 1360698753,
        "localadmin_id": 404446561,
        "locality_id": 1360753993,
        "macrocounty_id": 1880762011,
        "postalcode_id": 38897388,
        "region_id": -1
      }
    ],
    "wof:id": 38897388,
    "wof:lastmodified": 1763548770,
    "wof:name": "YO5 9SW",
    "wof:parent_id": 1360753993,
    "wof:placetype": "postalcode",
    "wof:repo": "whosonfirst-data-postalcode-gb",
    "wof:superseded_by": [],
    "wof:supersedes": [],
    "wof:tags": []
  },
  "bbox": [
    -1.311291,
    54.040319,
    -1.311291,
    54.040319
  ],
  "geometry": {"coordinates":[-1.311291,54.040319],"type":"Point"}
}
