{
  "id": 1160977326,
  "type": "Feature",
  "properties": {
    "date:cessation_lower": "1997-06-01",
    "date:cessation_upper": "1997-06-01",
    "date:inception_lower": "1996-06-01",
    "date:inception_upper": "1996-06-01",
    "edtf:cessation": "1997-06-01",
    "edtf:inception": "1996-06-01",
    "geom:area": 0,
    "geom:bbox": "-4.007382,55.783000,-4.007382,55.783000",
    "geom:latitude": 55.783,
    "geom:longitude": -4.007382,
    "iso:country": "GB",
    "mz:hierarchy_label": 1,
    "mz:is_current": 0,
    "os:country_code": "S92000003",
    "os:county_code": "S99999999",
    "os:district_code": "S12000050",
    "os:positional_quality_indicator": "8",
    "os:region_code": "S99999999",
    "src:geom": "os",
    "wof:belongsto": [
      85633159,
      102191581,
      136253055,
      1864208923,
      1360698949,
      1880762099,
      404227471,
      1880773061
    ],
    "wof:breaches": [],
    "wof:country": "GB",
    "wof:created": 1583798431,
    "wof:geomhash": "aa2b9bdca7452b84be303eb3adbc1c17",
    "wof:hierarchy": [
      {
        "continent_id": 102191581,
        "country_id": 85633159,
        "county_id": 1360698949,
        "empire_id": 136253055,
        "macrocounty_id": 1880762099,
        "macroregion_id": 404227471,
        "postalcode_id": 1160977326,
        "region_id": 1880773061
      },
      {
        "continent_id": 102191581,
        "country_id": 85633159,
        "empire_id": 136253055,
        "postalcode_id": 1160977326,
        "postalregion_id": 1864208923
      }
    ],
    "wof:id": 1160977326,
    "wof:lastmodified": 1763548274,
    "wof:name": "ML1 3BF",
    "wof:parent_id": 1360698949,
    "wof:placetype": "postalcode",
    "wof:repo": "whosonfirst-data-postalcode-gb",
    "wof:superseded_by": [],
    "wof:supersedes": [],
    "wof:tags": []
  },
  "bbox": [
    -4.007382,
    55.783,
    -4.007382,
    55.783
  ],
  "geometry": {"coordinates":[-4.007382,55.783],"type":"Point"}
}
