{
  "id": 471821159,
  "type": "Feature",
  "properties": {
    "date:inception_lower": "1991-01-01",
    "date:inception_upper": "1991-01-01",
    "edtf:cessation": "",
    "edtf:inception": "1991-01-01",
    "geom:area": 0,
    "geom:bbox": "-0.551453,51.571982,-0.551453,51.571982",
    "geom:latitude": 51.571982,
    "geom:longitude": -0.551453,
    "gp:parent_id": "21012",
    "iso:country": "GB",
    "mz:hierarchy_label": 1,
    "mz:is_current": 1,
    "os:country_code": "E92000001",
    "os:county_code": "E99999999",
    "os:district_code": "E06000060",
    "os:positional_quality_indicator": "1",
    "os:region_code": "E12000008",
    "src:geom": "os",
    "wof:belongsto": [
      85633159,
      102191581,
      136253055,
      1864210579,
      1360698997,
      404450799,
      1125999965,
      1880762141,
      404227469,
      1880773087
    ],
    "wof:breaches": [],
    "wof:concordances": {
      "gp:id": "27934445"
    },
    "wof:country": "GB",
    "wof:created": 1583701749,
    "wof:geomhash": "dbce064a6c873fa9cf6d7958edb3c943",
    "wof:hierarchy": [
      {
        "continent_id": 102191581,
        "country_id": 85633159,
        "county_id": 1360698997,
        "empire_id": 136253055,
        "localadmin_id": 404450799,
        "locality_id": 1125999965,
        "macrocounty_id": 1880762141,
        "macroregion_id": 404227469,
        "postalcode_id": 471821159,
        "region_id": 1880773087
      },
      {
        "continent_id": 102191581,
        "country_id": 85633159,
        "empire_id": 136253055,
        "postalcode_id": 471821159,
        "postalregion_id": 1864210579
      }
    ],
    "wof:id": 471821159,
    "wof:lastmodified": 1763548045,
    "wof:name": "SL9 7ER",
    "wof:parent_id": 1125999965,
    "wof:placetype": "postalcode",
    "wof:repo": "whosonfirst-data-postalcode-gb",
    "wof:superseded_by": [],
    "wof:supersedes": [],
    "wof:tags": []
  },
  "bbox": [
    -0.551453,
    51.571982,
    -0.551453,
    51.571982
  ],
  "geometry": {"coordinates":[-0.551453,51.571982],"type":"Point"}
}
