{
  "id": 454796159,
  "type": "Feature",
  "properties": {
    "date:inception_lower": "1980-01-01",
    "date:inception_upper": "1980-01-01",
    "edtf:cessation": "",
    "edtf:inception": "1980-01-01",
    "geom:area": 0,
    "geom:bbox": "-2.662499,52.078006,-2.662499,52.078006",
    "geom:latitude": 52.078006,
    "geom:longitude": -2.662499,
    "gp:parent_id": "19260",
    "iso:country": "GB",
    "mz:hierarchy_label": 1,
    "mz:is_current": 1,
    "os:country_code": "E92000001",
    "os:county_code": "E99999999",
    "os:district_code": "E06000019",
    "os:positional_quality_indicator": "1",
    "os:region_code": "E12000005",
    "src:geom": "os",
    "wof:belongsto": [
      85633159,
      102191581,
      136253055,
      1864207695,
      1360699053,
      404445839,
      1327261135,
      1880762015
    ],
    "wof:breaches": [],
    "wof:concordances": {
      "gp:id": "27364902"
    },
    "wof:country": "GB",
    "wof:created": 1583701717,
    "wof:geomhash": "79a364afd9b33b887fe4d96f57bbd003",
    "wof:hierarchy": [
      {
        "continent_id": -1,
        "country_id": -1,
        "county_id": 1360699053,
        "localadmin_id": 404445839,
        "locality_id": 1327261135,
        "macrocounty_id": 1880762015,
        "postalcode_id": 454796159,
        "region_id": -1
      },
      {
        "continent_id": 102191581,
        "country_id": 85633159,
        "empire_id": 136253055,
        "postalcode_id": 454796159,
        "postalregion_id": 1864207695
      }
    ],
    "wof:id": 454796159,
    "wof:lastmodified": 1763548227,
    "wof:name": "HR1 3NF",
    "wof:parent_id": 1327261135,
    "wof:placetype": "postalcode",
    "wof:repo": "whosonfirst-data-postalcode-gb",
    "wof:superseded_by": [],
    "wof:supersedes": [],
    "wof:tags": []
  },
  "bbox": [
    -2.662499,
    52.078006,
    -2.662499,
    52.078006
  ],
  "geometry": {"coordinates":[-2.662499,52.078006],"type":"Point"}
}
