{
  "id": 1712709895,
  "type": "Feature",
  "properties": {
    "date:cessation_lower": "1997-12-01",
    "date:cessation_upper": "1997-12-01",
    "date:inception_lower": "1996-12-01",
    "date:inception_upper": "1996-12-01",
    "edtf:cessation": "1997-12-01",
    "edtf:inception": "1996-12-01",
    "geom:area": 0,
    "geom:bbox": "-2.215024,53.067294,-2.215024,53.067294",
    "geom:latitude": 53.067294,
    "geom:longitude": -2.215024,
    "iso:country": "GB",
    "mz:hierarchy_label": 1,
    "mz:is_current": 0,
    "os:country_code": "E92000001",
    "os:county_code": "E99999999",
    "os:district_code": "E06000021",
    "os:positional_quality_indicator": "6",
    "os:region_code": "E12000005",
    "src:geom": "os",
    "wof:belongsto": [
      85633159,
      102191581,
      136253055,
      1864210821,
      1360698805,
      1175612703,
      1880761999,
      404227469,
      1880762719
    ],
    "wof:breaches": [],
    "wof:country": "GB",
    "wof:created": 1583800127,
    "wof:geomhash": "62cfb496669ff896c7ca1974f33b205e",
    "wof:hierarchy": [
      {
        "continent_id": 102191581,
        "country_id": 85633159,
        "county_id": 1360698805,
        "empire_id": 136253055,
        "locality_id": 1175612703,
        "macrocounty_id": 1880761999,
        "macroregion_id": 404227469,
        "postalcode_id": 1712709895,
        "region_id": 1880762719
      },
      {
        "continent_id": 102191581,
        "country_id": 85633159,
        "empire_id": 136253055,
        "postalcode_id": 1712709895,
        "postalregion_id": 1864210821
      }
    ],
    "wof:id": 1712709895,
    "wof:lastmodified": 1763548711,
    "wof:name": "ST6 5ER",
    "wof:parent_id": 1175612703,
    "wof:placetype": "postalcode",
    "wof:repo": "whosonfirst-data-postalcode-gb",
    "wof:superseded_by": [],
    "wof:supersedes": [],
    "wof:tags": []
  },
  "bbox": [
    -2.215024,
    53.067294,
    -2.215024,
    53.067294
  ],
  "geometry": {"coordinates":[-2.215024,53.067294],"type":"Point"}
}
