{
  "id": 38304864,
  "type": "Feature",
  "properties": {
    "date:cessation_lower": "1994-12-01",
    "date:cessation_upper": "1994-12-01",
    "date:inception_lower": "1990-02-01",
    "date:inception_upper": "1990-02-01",
    "edtf:cessation": "1994-12-01",
    "edtf:inception": "1990-02-01",
    "geom:area": 0,
    "geom:bbox": "-1.455246,50.951281,-1.455246,50.951281",
    "geom:latitude": 50.951281,
    "geom:longitude": -1.455246,
    "iso:country": "GB",
    "mz:hierarchy_label": 1,
    "mz:is_current": 0,
    "os:country_code": "E92000001",
    "os:county_code": "E10000014",
    "os:district_code": "E07000093",
    "os:positional_quality_indicator": "1",
    "os:region_code": "E12000008",
    "src:geom": "os",
    "wof:belongsto": [
      102191581,
      85633159,
      1880771469,
      136253055,
      404448069,
      1360756303,
      1880762155,
      404227469,
      1880762717
    ],
    "wof:breaches": [],
    "wof:country": "GB",
    "wof:created": 1583788854,
    "wof:geomhash": "34ee0c5b823d50bc916f5c734b7f8c6e",
    "wof:hierarchy": [
      {
        "continent_id": 102191581,
        "country_id": 85633159,
        "county_id": 1880771469,
        "empire_id": 136253055,
        "localadmin_id": 404448069,
        "locality_id": 1360756303,
        "macrocounty_id": 1880762155,
        "macroregion_id": 404227469,
        "postalcode_id": 38304864,
        "region_id": 1880762717
      }
    ],
    "wof:id": 38304864,
    "wof:lastmodified": 1763548159,
    "wof:name": "SO1 8JW",
    "wof:parent_id": 1360756303,
    "wof:placetype": "postalcode",
    "wof:repo": "whosonfirst-data-postalcode-gb",
    "wof:superseded_by": [],
    "wof:supersedes": [],
    "wof:tags": []
  },
  "bbox": [
    -1.455246,
    50.951281,
    -1.455246,
    50.951281
  ],
  "geometry": {"coordinates":[-1.455246,50.951281],"type":"Point"}
}
