{
  "id": 488586039,
  "type": "Feature",
  "properties": {
    "date:inception_lower": "1995-07-01",
    "date:inception_upper": "1995-07-01",
    "edtf:cessation": "",
    "edtf:inception": "1995-07-01",
    "geom:area": 0,
    "geom:bbox": "-3.441653,51.539320,-3.441653,51.539320",
    "geom:latitude": 51.53932,
    "geom:longitude": -3.441653,
    "gp:parent_id": "32311",
    "iso:country": "GB",
    "mz:hierarchy_label": 1,
    "mz:is_current": 1,
    "os:country_code": "W92000004",
    "os:county_code": "W99999999",
    "os:district_code": "W06000016",
    "os:positional_quality_indicator": "1",
    "os:region_code": "W99999999",
    "src:geom": "os",
    "wof:belongsto": [
      85633159,
      102191581,
      136253055,
      1864206227,
      1360699025,
      404451127,
      1126021969,
      1880762185,
      404227475,
      1880773115
    ],
    "wof:breaches": [],
    "wof:concordances": {
      "gp:id": "27048939"
    },
    "wof:country": "GB",
    "wof:created": 1583701607,
    "wof:geomhash": "e869bc1ec9d871ab015dc1e942256724",
    "wof:hierarchy": [
      {
        "continent_id": 102191581,
        "country_id": 85633159,
        "county_id": 1360699025,
        "empire_id": 136253055,
        "localadmin_id": 404451127,
        "locality_id": 1126021969,
        "macrocounty_id": 1880762185,
        "macroregion_id": 404227475,
        "postalcode_id": 488586039,
        "region_id": 1880773115
      },
      {
        "continent_id": 102191581,
        "country_id": 85633159,
        "empire_id": 136253055,
        "postalcode_id": 488586039,
        "postalregion_id": 1864206227
      }
    ],
    "wof:id": 488586039,
    "wof:lastmodified": 1763548501,
    "wof:name": "CF72 9PD",
    "wof:parent_id": 1126021969,
    "wof:placetype": "postalcode",
    "wof:repo": "whosonfirst-data-postalcode-gb",
    "wof:superseded_by": [],
    "wof:supersedes": [],
    "wof:tags": []
  },
  "bbox": [
    -3.441653,
    51.53932,
    -3.441653,
    51.53932
  ],
  "geometry": {"coordinates":[-3.441653,51.53932],"type":"Point"}
}
