{
  "id": 38514699,
  "type": "Feature",
  "properties": {
    "date:cessation_lower": "2015-11-01",
    "date:cessation_upper": "2015-11-01",
    "date:inception_lower": "2013-10-01",
    "date:inception_upper": "2013-10-01",
    "edtf:cessation": "2015-11-01",
    "edtf:inception": "2013-10-01",
    "geom:area": 0,
    "geom:bbox": "1.223205,52.676421,1.223205,52.676421",
    "geom:latitude": 52.676421,
    "geom:longitude": 1.223205,
    "iso:country": "GB",
    "mz:hierarchy_label": 1,
    "mz:is_current": 0,
    "os:country_code": "E92000001",
    "os:county_code": "E10000020",
    "os:district_code": "E07000144",
    "os:positional_quality_indicator": "1",
    "os:region_code": "E12000006",
    "src:geom": "os",
    "wof:belongsto": [
      85633159,
      102191581,
      136253055,
      1864209373,
      1880771709,
      404454539,
      1226471633,
      1880762037,
      404227469,
      1880762699
    ],
    "wof:breaches": [],
    "wof:country": "GB",
    "wof:created": 1583791228,
    "wof:geomhash": "a8803d858985a79c63d257cf1cb6a325",
    "wof:hierarchy": [
      {
        "continent_id": 102191581,
        "country_id": 85633159,
        "county_id": 1880771709,
        "empire_id": 136253055,
        "localadmin_id": 404454539,
        "locality_id": 1226471633,
        "macrocounty_id": 1880762037,
        "macroregion_id": 404227469,
        "postalcode_id": 38514699,
        "region_id": 1880762699
      },
      {
        "continent_id": 102191581,
        "country_id": 85633159,
        "empire_id": 136253055,
        "postalcode_id": 38514699,
        "postalregion_id": 1864209373
      }
    ],
    "wof:id": 38514699,
    "wof:lastmodified": 1763548358,
    "wof:name": "NR8 6ZR",
    "wof:parent_id": 1226471633,
    "wof:placetype": "postalcode",
    "wof:repo": "whosonfirst-data-postalcode-gb",
    "wof:superseded_by": [],
    "wof:supersedes": [],
    "wof:tags": []
  },
  "bbox": [
    1.223205,
    52.676421,
    1.223205,
    52.676421
  ],
  "geometry": {"coordinates":[1.223205,52.676421],"type":"Point"}
}
