{
  "id": 504773495,
  "type": "Feature",
  "properties": {
    "date:inception_lower": "2008-02-01",
    "date:inception_upper": "2008-02-01",
    "edtf:cessation": "",
    "edtf:inception": "2008-02-01",
    "geom:area": 0,
    "geom:bbox": "-5.234340,56.432216,-5.234340,56.432216",
    "geom:latitude": 56.432216,
    "geom:longitude": -5.23434,
    "gp:parent_id": "12696185",
    "iso:country": "GB",
    "mz:hierarchy_label": 1,
    "mz:is_current": 1,
    "os:country_code": "S92000003",
    "os:county_code": "S99999999",
    "os:district_code": "S12000035",
    "os:positional_quality_indicator": "1",
    "os:region_code": "S99999999",
    "src:geom": "os",
    "wof:belongsto": [
      85633159,
      102191581,
      136253055,
      1864209565,
      1360698863,
      1880762047,
      404227471,
      1880772977
    ],
    "wof:breaches": [],
    "wof:concordances": {
      "gp:id": "56168244"
    },
    "wof:country": "GB",
    "wof:created": 1583701570,
    "wof:geomhash": "f04dbf73836c62a114a3b00edfdf7ad1",
    "wof:hierarchy": [
      {
        "continent_id": 102191581,
        "country_id": 85633159,
        "county_id": 1360698863,
        "empire_id": 136253055,
        "macrocounty_id": 1880762047,
        "macroregion_id": 404227471,
        "postalcode_id": 504773495,
        "region_id": 1880772977
      },
      {
        "continent_id": 102191581,
        "country_id": 85633159,
        "empire_id": 136253055,
        "postalcode_id": 504773495,
        "postalregion_id": 1864209565
      }
    ],
    "wof:id": 504773495,
    "wof:lastmodified": 1763548176,
    "wof:name": "PA35 1AG",
    "wof:parent_id": 1360698863,
    "wof:placetype": "postalcode",
    "wof:repo": "whosonfirst-data-postalcode-gb",
    "wof:superseded_by": [],
    "wof:supersedes": [],
    "wof:tags": []
  },
  "bbox": [
    -5.23434,
    56.432216,
    -5.23434,
    56.432216
  ],
  "geometry": {"coordinates":[-5.23434,56.432216],"type":"Point"}
}
