{
  "id": 39482469,
  "type": "Feature",
  "properties": {
    "date:cessation_lower": "1999-06-01",
    "date:cessation_upper": "1999-06-01",
    "date:inception_lower": "1980-01-01",
    "date:inception_upper": "1980-01-01",
    "edtf:cessation": "1999-06-01",
    "edtf:inception": "1980-01-01",
    "geom:area": 0,
    "geom:bbox": "-1.820927,54.782150,-1.820927,54.782150",
    "geom:latitude": 54.78215,
    "geom:longitude": -1.820927,
    "iso:country": "GB",
    "mz:hierarchy_label": 1,
    "mz:is_current": 0,
    "os:country_code": "E92000001",
    "os:county_code": "E99999999",
    "os:district_code": "E06000047",
    "os:positional_quality_indicator": "1",
    "os:region_code": "E12000001",
    "src:geom": "os",
    "wof:belongsto": [
      85633159,
      102191581,
      136253055,
      1864206761,
      1360699055,
      404437461,
      1126050123,
      1880762117,
      404227469,
      1880773141
    ],
    "wof:breaches": [],
    "wof:country": "GB",
    "wof:created": 1583801961,
    "wof:geomhash": "ea042171ce1aeb3f929264286c1e57be",
    "wof:hierarchy": [
      {
        "continent_id": 102191581,
        "country_id": 85633159,
        "county_id": 1360699055,
        "empire_id": 136253055,
        "localadmin_id": 404437461,
        "locality_id": 1126050123,
        "macrocounty_id": 1880762117,
        "macroregion_id": 404227469,
        "postalcode_id": 39482469,
        "region_id": 1880773141
      },
      {
        "continent_id": 102191581,
        "country_id": 85633159,
        "empire_id": 136253055,
        "postalcode_id": 39482469,
        "postalregion_id": 1864206761
      }
    ],
    "wof:id": 39482469,
    "wof:lastmodified": 1763548408,
    "wof:name": "DL13 4HP",
    "wof:parent_id": 1126050123,
    "wof:placetype": "postalcode",
    "wof:repo": "whosonfirst-data-postalcode-gb",
    "wof:superseded_by": [],
    "wof:supersedes": [],
    "wof:tags": []
  },
  "bbox": [
    -1.820927,
    54.78215,
    -1.820927,
    54.78215
  ],
  "geometry": {"coordinates":[-1.820927,54.78215],"type":"Point"}
}
