{
  "id": 504472837,
  "type": "Feature",
  "properties": {
    "date:inception_lower": "1998-12-01",
    "date:inception_upper": "1998-12-01",
    "edtf:cessation": "",
    "edtf:inception": "1998-12-01",
    "geom:area": 0,
    "geom:bbox": "-2.780614,56.331940,-2.780614,56.331940",
    "geom:latitude": 56.33194,
    "geom:longitude": -2.780614,
    "gp:parent_id": "12696197",
    "iso:country": "GB",
    "mz:hierarchy_label": 1,
    "mz:is_current": 1,
    "os:country_code": "S92000003",
    "os:county_code": "S99999999",
    "os:district_code": "S12000047",
    "os:positional_quality_indicator": "1",
    "os:region_code": "S99999999",
    "src:geom": "os",
    "wof:belongsto": [
      85633159,
      102191581,
      136253055,
      1864208191,
      1360699123,
      1880762125,
      404227471,
      1880773203
    ],
    "wof:breaches": [],
    "wof:concordances": {
      "gp:id": "27438658"
    },
    "wof:country": "GB",
    "wof:created": 1583701357,
    "wof:geomhash": "21e5e41fd71a9ef8118e33b574e0637a",
    "wof:hierarchy": [
      {
        "continent_id": 102191581,
        "country_id": 85633159,
        "county_id": 1360699123,
        "empire_id": 136253055,
        "macrocounty_id": 1880762125,
        "macroregion_id": 404227471,
        "postalcode_id": 504472837,
        "region_id": 1880773203
      },
      {
        "continent_id": 102191581,
        "country_id": 85633159,
        "empire_id": 136253055,
        "postalcode_id": 504472837,
        "postalregion_id": 1864208191
      }
    ],
    "wof:id": 504472837,
    "wof:lastmodified": 1763548110,
    "wof:name": "KY16 8JU",
    "wof:parent_id": 1360699123,
    "wof:placetype": "postalcode",
    "wof:repo": "whosonfirst-data-postalcode-gb",
    "wof:superseded_by": [],
    "wof:supersedes": [],
    "wof:tags": []
  },
  "bbox": [
    -2.780614,
    56.33194,
    -2.780614,
    56.33194
  ],
  "geometry": {"coordinates":[-2.780614,56.33194],"type":"Point"}
}
