{
  "id": 504429473,
  "type": "Feature",
  "properties": {
    "date:inception_lower": "1980-01-01",
    "date:inception_upper": "1980-01-01",
    "edtf:cessation": "",
    "edtf:inception": "1980-01-01",
    "geom:area": 0,
    "geom:bbox": "-4.744529,56.195470,-4.744529,56.195470",
    "geom:latitude": 56.19547,
    "geom:longitude": -4.744529,
    "gp:parent_id": "12696185",
    "iso:country": "GB",
    "mz:hierarchy_label": 1,
    "mz:is_current": 1,
    "os:country_code": "S92000003",
    "os:county_code": "S99999999",
    "os:district_code": "S12000035",
    "os:positional_quality_indicator": "1",
    "os:region_code": "S99999999",
    "src:geom": "os",
    "wof:belongsto": [
      85633159,
      102191581,
      136253055,
      1864207433,
      1360698863,
      1880762047,
      404227471,
      1880772977
    ],
    "wof:breaches": [],
    "wof:concordances": {
      "gp:id": "27303698"
    },
    "wof:country": "GB",
    "wof:created": 1583701230,
    "wof:geomhash": "8a895f727d11790e4fb650e502dd6ed8",
    "wof:hierarchy": [
      {
        "continent_id": 102191581,
        "country_id": 85633159,
        "county_id": 1360698863,
        "empire_id": 136253055,
        "macrocounty_id": 1880762047,
        "macroregion_id": 404227471,
        "postalcode_id": 504429473,
        "region_id": 1880772977
      },
      {
        "continent_id": 102191581,
        "country_id": 85633159,
        "empire_id": 136253055,
        "postalcode_id": 504429473,
        "postalregion_id": 1864207433
      }
    ],
    "wof:id": 504429473,
    "wof:lastmodified": 1763548113,
    "wof:name": "G83 7BG",
    "wof:parent_id": 1360698863,
    "wof:placetype": "postalcode",
    "wof:repo": "whosonfirst-data-postalcode-gb",
    "wof:superseded_by": [],
    "wof:supersedes": [],
    "wof:tags": []
  },
  "bbox": [
    -4.744529,
    56.19547,
    -4.744529,
    56.19547
  ],
  "geometry": {"coordinates":[-4.744529,56.19547],"type":"Point"}
}
