{
  "id": 1712526035,
  "type": "Feature",
  "properties": {
    "date:cessation_lower": "2003-01-01",
    "date:cessation_upper": "2003-01-01",
    "date:inception_lower": "2001-12-01",
    "date:inception_upper": "2001-12-01",
    "edtf:cessation": "2003-01-01",
    "edtf:inception": "2001-12-01",
    "geom:area": 0,
    "geom:bbox": "-2.489279,53.721709,-2.489279,53.721709",
    "geom:latitude": 53.721709,
    "geom:longitude": -2.489279,
    "iso:country": "GB",
    "mz:hierarchy_label": 1,
    "mz:is_current": 0,
    "os:country_code": "E92000001",
    "os:county_code": "E99999999",
    "os:district_code": "E06000008",
    "os:positional_quality_indicator": "5",
    "os:region_code": "E12000002",
    "src:geom": "os",
    "wof:belongsto": [
      85633159,
      102191581,
      136253055,
      1864205705,
      1360698999,
      101750575,
      1880762053,
      404227469,
      1880762711
    ],
    "wof:breaches": [],
    "wof:country": "GB",
    "wof:created": 1583791956,
    "wof:geomhash": "a8b91dee522a2fa9a7866795fcb8dc76",
    "wof:hierarchy": [
      {
        "continent_id": 102191581,
        "country_id": 85633159,
        "county_id": 1360698999,
        "empire_id": 136253055,
        "locality_id": 101750575,
        "macrocounty_id": 1880762053,
        "macroregion_id": 404227469,
        "postalcode_id": 1712526035,
        "region_id": 1880762711
      },
      {
        "continent_id": 102191581,
        "country_id": 85633159,
        "empire_id": 136253055,
        "postalcode_id": 1712526035,
        "postalregion_id": 1864205705
      }
    ],
    "wof:id": 1712526035,
    "wof:lastmodified": 1763548760,
    "wof:name": "BB2 4XD",
    "wof:parent_id": 101750575,
    "wof:placetype": "postalcode",
    "wof:repo": "whosonfirst-data-postalcode-gb",
    "wof:superseded_by": [],
    "wof:supersedes": [],
    "wof:tags": []
  },
  "bbox": [
    -2.489279,
    53.721709,
    -2.489279,
    53.721709
  ],
  "geometry": {"coordinates":[-2.489279,53.721709],"type":"Point"}
}
