{
  "id": 454921557,
  "type": "Feature",
  "properties": {
    "date:inception_lower": "1980-01-01",
    "date:inception_upper": "1980-01-01",
    "edtf:cessation": "",
    "edtf:inception": "1980-01-01",
    "geom:area": 0,
    "geom:bbox": "-0.345248,51.317052,-0.345248,51.317052",
    "geom:latitude": 51.317052,
    "geom:longitude": -0.345248,
    "iso:country": "GB",
    "mz:hierarchy_label": 1,
    "mz:is_current": 1,
    "os:country_code": "E92000001",
    "os:county_code": "E10000030",
    "os:district_code": "E07000210",
    "os:positional_quality_indicator": "1",
    "os:region_code": "E12000008",
    "src:geom": "os",
    "wof:belongsto": [
      85633159,
      102191581,
      136253055,
      1864208117,
      1360698887,
      1360756083,
      404227469,
      1360698599
    ],
    "wof:breaches": [],
    "wof:concordances": {
      "gp:id": "27429188"
    },
    "wof:country": "GB",
    "wof:created": 1583701757,
    "wof:geomhash": "bf96a71e812b4c633477fc6e70b899e5",
    "wof:hierarchy": [
      {
        "continent_id": 102191581,
        "country_id": 85633159,
        "county_id": 1360698887,
        "locality_id": 1360756083,
        "macroregion_id": 404227469,
        "postalcode_id": 454921557,
        "region_id": 1360698599
      },
      {
        "continent_id": 102191581,
        "country_id": 85633159,
        "empire_id": 136253055,
        "postalcode_id": 454921557,
        "postalregion_id": 1864208117
      }
    ],
    "wof:id": 454921557,
    "wof:lastmodified": 1763548560,
    "wof:name": "KT22 0BX",
    "wof:parent_id": 1360756083,
    "wof:placetype": "postalcode",
    "wof:repo": "whosonfirst-data-postalcode-gb",
    "wof:superseded_by": [],
    "wof:supersedes": [],
    "wof:tags": []
  },
  "bbox": [
    -0.345248,
    51.317052,
    -0.345248,
    51.317052
  ],
  "geometry": {"coordinates":[-0.345248,51.317052],"type":"Point"}
}
