{
  "id": 1712838099,
  "type": "Feature",
  "properties": {
    "date:cessation_lower": "2001-11-01",
    "date:cessation_upper": "2001-11-01",
    "date:inception_lower": "1999-06-01",
    "date:inception_upper": "1999-06-01",
    "edtf:cessation": "2001-11-01",
    "edtf:inception": "1999-06-01",
    "geom:area": 0,
    "geom:bbox": "-3.138456,51.647390,-3.138456,51.647390",
    "geom:latitude": 51.64739,
    "geom:longitude": -3.138456,
    "iso:country": "GB",
    "mz:hierarchy_label": 1,
    "mz:is_current": 0,
    "os:country_code": "W92000004",
    "os:county_code": "W99999999",
    "os:district_code": "W06000018",
    "os:positional_quality_indicator": "1",
    "os:region_code": "W99999999",
    "src:geom": "os",
    "wof:belongsto": [
      85633159,
      102191581,
      136253055,
      1864209261,
      1360698925,
      404442075,
      1125945123,
      1880762173,
      404227475,
      1880773189
    ],
    "wof:breaches": [],
    "wof:country": "GB",
    "wof:created": 1583805824,
    "wof:geomhash": "e92a09804c507d4649baed35d4e05ae9",
    "wof:hierarchy": [
      {
        "continent_id": 102191581,
        "country_id": 85633159,
        "county_id": 1360698925,
        "empire_id": 136253055,
        "localadmin_id": 404442075,
        "locality_id": 1125945123,
        "macrocounty_id": 1880762173,
        "macroregion_id": 404227475,
        "postalcode_id": 1712838099,
        "region_id": 1880773189
      },
      {
        "continent_id": 102191581,
        "country_id": 85633159,
        "empire_id": 136253055,
        "postalcode_id": 1712838099,
        "postalregion_id": 1864209261
      }
    ],
    "wof:id": 1712838099,
    "wof:lastmodified": 1763548719,
    "wof:name": "NP11 4LT",
    "wof:parent_id": 1125945123,
    "wof:placetype": "postalcode",
    "wof:repo": "whosonfirst-data-postalcode-gb",
    "wof:superseded_by": [],
    "wof:supersedes": [],
    "wof:tags": []
  },
  "bbox": [
    -3.138456,
    51.64739,
    -3.138456,
    51.64739
  ],
  "geometry": {"coordinates":[-3.138456,51.64739],"type":"Point"}
}
