{
  "id": 471550989,
  "type": "Feature",
  "properties": {
    "date:inception_lower": "1995-07-01",
    "date:inception_upper": "1995-07-01",
    "edtf:cessation": "",
    "edtf:inception": "1995-07-01",
    "geom:area": 0,
    "geom:bbox": "-0.979779,51.485040,-0.979779,51.485040",
    "geom:latitude": 51.48504,
    "geom:longitude": -0.979779,
    "iso:country": "GB",
    "mz:hierarchy_label": 1,
    "mz:is_current": 1,
    "os:country_code": "E92000001",
    "os:county_code": "E99999999",
    "os:district_code": "E06000038",
    "os:positional_quality_indicator": "1",
    "os:region_code": "E12000008",
    "src:geom": "os",
    "wof:belongsto": [
      85633159,
      102191581,
      136253055,
      1864210061,
      1360698983,
      1175612721,
      1880762165,
      404227469,
      1880772969
    ],
    "wof:breaches": [],
    "wof:concordances": {
      "gp:id": "27816229"
    },
    "wof:country": "GB",
    "wof:created": 1583701670,
    "wof:geomhash": "6bd8f7cb2fb87565d8cd257b72c32394",
    "wof:hierarchy": [
      {
        "continent_id": 102191581,
        "country_id": 85633159,
        "county_id": 1360698983,
        "empire_id": 136253055,
        "locality_id": 1175612721,
        "macrocounty_id": 1880762165,
        "macroregion_id": 404227469,
        "postalcode_id": 471550989,
        "region_id": 1880772969
      },
      {
        "continent_id": 102191581,
        "country_id": 85633159,
        "empire_id": 136253055,
        "postalcode_id": 471550989,
        "postalregion_id": 1864210061
      }
    ],
    "wof:id": 471550989,
    "wof:lastmodified": 1763547970,
    "wof:name": "RG4 8LZ",
    "wof:parent_id": 1175612721,
    "wof:placetype": "postalcode",
    "wof:repo": "whosonfirst-data-postalcode-gb",
    "wof:superseded_by": [],
    "wof:supersedes": [],
    "wof:tags": []
  },
  "bbox": [
    -0.979779,
    51.48504,
    -0.979779,
    51.48504
  ],
  "geometry": {"coordinates":[-0.979779,51.48504],"type":"Point"}
}
