{
  "id": 455063183,
  "type": "Feature",
  "properties": {
    "date:inception_lower": "1980-01-01",
    "date:inception_upper": "1980-01-01",
    "edtf:cessation": "",
    "edtf:inception": "1980-01-01",
    "geom:area": 0,
    "geom:bbox": "-0.556008,53.193177,-0.556008,53.193177",
    "geom:latitude": 53.193177,
    "geom:longitude": -0.556008,
    "iso:country": "GB",
    "mz:hierarchy_label": 1,
    "mz:is_current": 1,
    "os:country_code": "E92000001",
    "os:county_code": "E10000019",
    "os:district_code": "E07000138",
    "os:positional_quality_indicator": "1",
    "os:region_code": "E12000004",
    "src:geom": "os",
    "wof:belongsto": [
      85633159,
      102191581,
      136253055,
      1864208615,
      1880771359,
      101750523,
      1880762033,
      404227469,
      1880762701
    ],
    "wof:breaches": [],
    "wof:concordances": {
      "gp:id": "27508514"
    },
    "wof:country": "GB",
    "wof:created": 1583701170,
    "wof:geomhash": "07731b97e8838f8d592ab20d7c39ccfe",
    "wof:hierarchy": [
      {
        "continent_id": 102191581,
        "country_id": 85633159,
        "county_id": 1880771359,
        "empire_id": 136253055,
        "locality_id": 101750523,
        "macrocounty_id": 1880762033,
        "macroregion_id": 404227469,
        "postalcode_id": 455063183,
        "region_id": 1880762701
      },
      {
        "continent_id": 102191581,
        "country_id": 85633159,
        "empire_id": 136253055,
        "postalcode_id": 455063183,
        "postalregion_id": 1864208615
      }
    ],
    "wof:id": 455063183,
    "wof:lastmodified": 1763547938,
    "wof:name": "LN5 8TA",
    "wof:parent_id": 101750523,
    "wof:placetype": "postalcode",
    "wof:repo": "whosonfirst-data-postalcode-gb",
    "wof:superseded_by": [],
    "wof:supersedes": [],
    "wof:tags": []
  },
  "bbox": [
    -0.556008,
    53.193177,
    -0.556008,
    53.193177
  ],
  "geometry": {"coordinates":[-0.556008,53.193177],"type":"Point"}
}
