{
  "id": 504508939,
  "type": "Feature",
  "properties": {
    "date:inception_lower": "1980-01-01",
    "date:inception_upper": "1980-01-01",
    "edtf:cessation": "",
    "edtf:inception": "1980-01-01",
    "geom:area": 0,
    "geom:bbox": "-4.195086,53.148424,-4.195086,53.148424",
    "geom:latitude": 53.148424,
    "geom:longitude": -4.195086,
    "gp:parent_id": "14859",
    "iso:country": "GB",
    "mz:hierarchy_label": 1,
    "mz:is_current": 1,
    "os:country_code": "W92000004",
    "os:county_code": "W99999999",
    "os:district_code": "W06000002",
    "os:positional_quality_indicator": "1",
    "os:region_code": "W99999999",
    "src:geom": "os",
    "wof:belongsto": [
      85633159,
      102191581,
      136253055,
      1864208543,
      1360698959,
      404444157,
      1125977549,
      1880762187,
      404227475,
      1880773051
    ],
    "wof:breaches": [],
    "wof:concordances": {
      "gp:id": "27499364"
    },
    "wof:country": "GB",
    "wof:created": 1583701389,
    "wof:geomhash": "2dc422576b656f50a25f392c1c223a60",
    "wof:hierarchy": [
      {
        "continent_id": 102191581,
        "country_id": 85633159,
        "county_id": 1360698959,
        "empire_id": 136253055,
        "localadmin_id": 404444157,
        "locality_id": 1125977549,
        "macrocounty_id": 1880762187,
        "macroregion_id": 404227475,
        "postalcode_id": 504508939,
        "region_id": 1880773051
      },
      {
        "continent_id": 102191581,
        "country_id": 85633159,
        "empire_id": 136253055,
        "postalcode_id": 504508939,
        "postalregion_id": 1864208543
      }
    ],
    "wof:id": 504508939,
    "wof:lastmodified": 1763548065,
    "wof:name": "LL55 2AZ",
    "wof:parent_id": 1125977549,
    "wof:placetype": "postalcode",
    "wof:repo": "whosonfirst-data-postalcode-gb",
    "wof:superseded_by": [],
    "wof:supersedes": [],
    "wof:tags": []
  },
  "bbox": [
    -4.195086,
    53.148424,
    -4.195086,
    53.148424
  ],
  "geometry": {"coordinates":[-4.195086,53.148424],"type":"Point"}
}
