{
  "id": 454433569,
  "type": "Feature",
  "properties": {
    "date:inception_lower": "1980-01-01",
    "date:inception_upper": "1980-01-01",
    "edtf:cessation": "",
    "edtf:inception": "1980-01-01",
    "geom:area": 0,
    "geom:bbox": "-0.841599,53.269468,-0.841599,53.269468",
    "geom:latitude": 53.269468,
    "geom:longitude": -0.841599,
    "gp:parent_id": "18953",
    "iso:country": "GB",
    "mz:hierarchy_label": 1,
    "mz:is_current": 1,
    "os:country_code": "E92000001",
    "os:county_code": "E10000024",
    "os:district_code": "E07000171",
    "os:positional_quality_indicator": "1",
    "os:region_code": "E12000004",
    "src:geom": "os",
    "wof:belongsto": [
      85633159,
      102191581,
      136253055,
      1864206821,
      1880771595,
      404450169,
      1360754763,
      1880762077,
      404227469,
      1880762689
    ],
    "wof:breaches": [],
    "wof:concordances": {
      "gp:id": "27186797"
    },
    "wof:country": "GB",
    "wof:created": 1583701565,
    "wof:geomhash": "b13fba136b7187475ee95e7699cdf0ba",
    "wof:hierarchy": [
      {
        "continent_id": 102191581,
        "country_id": 85633159,
        "county_id": 1880771595,
        "empire_id": 136253055,
        "localadmin_id": 404450169,
        "locality_id": 1360754763,
        "macrocounty_id": 1880762077,
        "macroregion_id": 404227469,
        "postalcode_id": 454433569,
        "region_id": 1880762689
      },
      {
        "continent_id": 102191581,
        "country_id": 85633159,
        "empire_id": 136253055,
        "postalcode_id": 454433569,
        "postalregion_id": 1864206821
      }
    ],
    "wof:id": 454433569,
    "wof:lastmodified": 1763548512,
    "wof:name": "DN22 0LH",
    "wof:parent_id": 1360754763,
    "wof:placetype": "postalcode",
    "wof:repo": "whosonfirst-data-postalcode-gb",
    "wof:superseded_by": [],
    "wof:supersedes": [],
    "wof:tags": []
  },
  "bbox": [
    -0.841599,
    53.269468,
    -0.841599,
    53.269468
  ],
  "geometry": {"coordinates":[-0.841599,53.269468],"type":"Point"}
}
