{
  "id": 487811503,
  "type": "Feature",
  "properties": {
    "date:inception_lower": "1980-01-01",
    "date:inception_upper": "1980-01-01",
    "edtf:cessation": "",
    "edtf:inception": "1980-01-01",
    "geom:area": 0,
    "geom:bbox": "-3.276430,51.168260,-3.276430,51.168260",
    "geom:latitude": 51.16826,
    "geom:longitude": -3.27643,
    "gp:parent_id": "39778",
    "iso:country": "GB",
    "mz:hierarchy_label": 1,
    "mz:is_current": 1,
    "os:country_code": "E92000001",
    "os:county_code": "E99999999",
    "os:district_code": "E06000066",
    "os:positional_quality_indicator": "1",
    "os:region_code": "E12000009",
    "src:geom": "os",
    "wof:belongsto": [
      85633159,
      102191581,
      136253055,
      1864210989,
      1360699059,
      404439335,
      1125803405,
      1880762071,
      404227469,
      1880773145
    ],
    "wof:breaches": [],
    "wof:concordances": {
      "gp:id": "28033890"
    },
    "wof:country": "GB",
    "wof:created": 1583701180,
    "wof:geomhash": "8889462d1eecc2a13532873030f25292",
    "wof:hierarchy": [
      {
        "continent_id": 102191581,
        "country_id": 85633159,
        "county_id": 1360699059,
        "empire_id": 136253055,
        "localadmin_id": 404439335,
        "locality_id": 1125803405,
        "macrocounty_id": 1880762071,
        "macroregion_id": 404227469,
        "postalcode_id": 487811503,
        "region_id": 1880773145
      },
      {
        "continent_id": 102191581,
        "country_id": 85633159,
        "empire_id": 136253055,
        "postalcode_id": 487811503,
        "postalregion_id": 1864210989
      }
    ],
    "wof:id": 487811503,
    "wof:lastmodified": 1763548635,
    "wof:name": "TA4 4DF",
    "wof:parent_id": 1125803405,
    "wof:placetype": "postalcode",
    "wof:repo": "whosonfirst-data-postalcode-gb",
    "wof:superseded_by": [],
    "wof:supersedes": [],
    "wof:tags": []
  },
  "bbox": [
    -3.27643,
    51.16826,
    -3.27643,
    51.16826
  ],
  "geometry": {"coordinates":[-3.27643,51.16826],"type":"Point"}
}
