{
  "id": 471198085,
  "type": "Feature",
  "properties": {
    "date:inception_lower": "1980-01-01",
    "date:inception_upper": "1980-01-01",
    "edtf:cessation": "",
    "edtf:inception": "1980-01-01",
    "geom:area": 0,
    "geom:bbox": "1.316296,52.632947,1.316296,52.632947",
    "geom:latitude": 52.632947,
    "geom:longitude": 1.316296,
    "iso:country": "GB",
    "mz:hierarchy_label": 1,
    "mz:is_current": 1,
    "os:country_code": "E92000001",
    "os:county_code": "E10000020",
    "os:district_code": "E07000148",
    "os:positional_quality_indicator": "1",
    "os:region_code": "E12000006",
    "src:geom": "os",
    "wof:belongsto": [
      85633159,
      102191581,
      136253055,
      1864209299,
      1880771593,
      101750483,
      1880762037,
      404227469,
      1880762699
    ],
    "wof:breaches": [],
    "wof:concordances": {
      "gp:id": "27675949"
    },
    "wof:country": "GB",
    "wof:created": 1583701389,
    "wof:geomhash": "d1d5ac47a026afb233129c85b3c34137",
    "wof:hierarchy": [
      {
        "continent_id": 102191581,
        "country_id": 85633159,
        "county_id": 1880771593,
        "empire_id": 136253055,
        "locality_id": 101750483,
        "macrocounty_id": 1880762037,
        "macroregion_id": 404227469,
        "postalcode_id": 471198085,
        "region_id": 1880762699
      },
      {
        "continent_id": 102191581,
        "country_id": 85633159,
        "empire_id": 136253055,
        "postalcode_id": 471198085,
        "postalregion_id": 1864209299
      }
    ],
    "wof:id": 471198085,
    "wof:lastmodified": 1763548207,
    "wof:name": "NR1 4HS",
    "wof:parent_id": 101750483,
    "wof:placetype": "postalcode",
    "wof:repo": "whosonfirst-data-postalcode-gb",
    "wof:superseded_by": [],
    "wof:supersedes": [],
    "wof:tags": []
  },
  "bbox": [
    1.316296,
    52.632947,
    1.316296,
    52.632947
  ],
  "geometry": {"coordinates":[1.316296,52.632947],"type":"Point"}
}
