{
  "id": 437475165,
  "type": "Feature",
  "properties": {
    "date:cessation_lower": "2007-07-01",
    "date:cessation_upper": "2007-07-01",
    "date:inception_lower": "2007-06-01",
    "date:inception_upper": "2007-06-01",
    "edtf:cessation": "2007-07-01",
    "edtf:inception": "2007-06-01",
    "geom:area": 0,
    "geom:bbox": "-2.653215,52.942107,-2.653215,52.942107",
    "geom:latitude": 52.942107,
    "geom:longitude": -2.653215,
    "gp:parent_id": "40500",
    "iso:country": "GB",
    "mz:hierarchy_label": 1,
    "mz:is_current": 0,
    "os:country_code": "E92000001",
    "os:county_code": "E99999999",
    "os:district_code": "E06000051",
    "os:positional_quality_indicator": "5",
    "os:region_code": "E12000005",
    "src:geom": "os",
    "wof:belongsto": [
      85633159,
      102191581,
      136253055,
      1864210901,
      1360698821,
      404434523,
      1360755929,
      1880762073,
      404227469,
      1880772941
    ],
    "wof:breaches": [],
    "wof:concordances": {
      "gp:id": "28016891"
    },
    "wof:country": "GB",
    "wof:created": 1583701258,
    "wof:geomhash": "cd7047bf36b18ecbf90894ca0f0b693b",
    "wof:hierarchy": [
      {
        "continent_id": 102191581,
        "country_id": 85633159,
        "county_id": 1360698821,
        "empire_id": 136253055,
        "localadmin_id": 404434523,
        "locality_id": 1360755929,
        "macrocounty_id": 1880762073,
        "macroregion_id": 404227469,
        "postalcode_id": 437475165,
        "region_id": 1880772941
      },
      {
        "continent_id": 102191581,
        "country_id": 85633159,
        "empire_id": 136253055,
        "postalcode_id": 437475165,
        "postalregion_id": 1864210901
      }
    ],
    "wof:id": 437475165,
    "wof:lastmodified": 1763548197,
    "wof:name": "SY13 4BS",
    "wof:parent_id": 1360755929,
    "wof:placetype": "postalcode",
    "wof:repo": "whosonfirst-data-postalcode-gb",
    "wof:superseded_by": [],
    "wof:supersedes": [],
    "wof:tags": []
  },
  "bbox": [
    -2.653215,
    52.942107,
    -2.653215,
    52.942107
  ],
  "geometry": {"coordinates":[-2.653215,52.942107],"type":"Point"}
}
