{
  "id": 39604104,
  "type": "Feature",
  "properties": {
    "date:cessation_lower": "1998-12-01",
    "date:cessation_upper": "1998-12-01",
    "date:inception_lower": "1983-07-01",
    "date:inception_upper": "1983-07-01",
    "edtf:cessation": "1998-12-01",
    "edtf:inception": "1983-07-01",
    "geom:area": 0,
    "geom:bbox": "1.396147,51.229571,1.396147,51.229571",
    "geom:latitude": 51.229571,
    "geom:longitude": 1.396147,
    "iso:country": "GB",
    "mz:hierarchy_label": 1,
    "mz:is_current": 0,
    "os:country_code": "E92000001",
    "os:county_code": "E10000016",
    "os:district_code": "E07000108",
    "os:positional_quality_indicator": "8",
    "os:region_code": "E12000008",
    "src:geom": "os",
    "wof:belongsto": [
      85633159,
      102191581,
      136253055,
      1864206453,
      1880771519,
      404429983,
      101854637,
      1880762057,
      404227469,
      1880762705
    ],
    "wof:breaches": [],
    "wof:country": "GB",
    "wof:created": 1583803258,
    "wof:geomhash": "ae3ee8e7f4c61566f90bd3f28b37ef09",
    "wof:hierarchy": [
      {
        "continent_id": 102191581,
        "country_id": 85633159,
        "county_id": 1880771519,
        "empire_id": 136253055,
        "localadmin_id": 404429983,
        "locality_id": 101854637,
        "macrocounty_id": 1880762057,
        "macroregion_id": 404227469,
        "postalcode_id": 39604104,
        "region_id": 1880762705
      },
      {
        "continent_id": 102191581,
        "country_id": 85633159,
        "empire_id": 136253055,
        "postalcode_id": 39604104,
        "postalregion_id": 1864206453
      }
    ],
    "wof:id": 39604104,
    "wof:lastmodified": 1763547894,
    "wof:name": "CT14 6RR",
    "wof:parent_id": 101854637,
    "wof:placetype": "postalcode",
    "wof:repo": "whosonfirst-data-postalcode-gb",
    "wof:superseded_by": [],
    "wof:supersedes": [],
    "wof:tags": []
  },
  "bbox": [
    1.396147,
    51.229571,
    1.396147,
    51.229571
  ],
  "geometry": {"coordinates":[1.396147,51.229571],"type":"Point"}
}
