{
  "id": 437619143,
  "type": "Feature",
  "properties": {
    "date:cessation_lower": "2006-09-01",
    "date:cessation_upper": "2006-09-01",
    "date:inception_lower": "1983-03-01",
    "date:inception_upper": "1983-03-01",
    "edtf:cessation": "2006-09-01",
    "edtf:inception": "1983-03-01",
    "geom:area": 0,
    "geom:bbox": "0.524993,51.273602,0.524993,51.273602",
    "geom:latitude": 51.273602,
    "geom:longitude": 0.524993,
    "gp:parent_id": "28168",
    "iso:country": "GB",
    "mz:hierarchy_label": 1,
    "mz:is_current": 0,
    "os:country_code": "E92000001",
    "os:county_code": "E10000016",
    "os:district_code": "E07000110",
    "os:positional_quality_indicator": "1",
    "os:region_code": "E12000008",
    "src:geom": "os",
    "wof:belongsto": [
      85633159,
      102191581,
      136253055,
      1864208829,
      1880771521,
      101750341,
      1880762057,
      404227469,
      1880762705
    ],
    "wof:breaches": [],
    "wof:concordances": {
      "gp:id": "26715683"
    },
    "wof:country": "GB",
    "wof:created": 1583701428,
    "wof:geomhash": "8deb78f417a5b2cf04ae959bd18c6a82",
    "wof:hierarchy": [
      {
        "continent_id": 102191581,
        "country_id": 85633159,
        "county_id": 1880771521,
        "empire_id": 136253055,
        "locality_id": 101750341,
        "macrocounty_id": 1880762057,
        "macroregion_id": 404227469,
        "postalcode_id": 437619143,
        "region_id": 1880762705
      },
      {
        "continent_id": 102191581,
        "country_id": 85633159,
        "empire_id": 136253055,
        "postalcode_id": 437619143,
        "postalregion_id": 1864208829
      }
    ],
    "wof:id": 437619143,
    "wof:lastmodified": 1763548004,
    "wof:name": "ME14 1AZ",
    "wof:parent_id": 101750341,
    "wof:placetype": "postalcode",
    "wof:repo": "whosonfirst-data-postalcode-gb",
    "wof:superseded_by": [],
    "wof:supersedes": [],
    "wof:tags": []
  },
  "bbox": [
    0.524993,
    51.273602,
    0.524993,
    51.273602
  ],
  "geometry": {"coordinates":[0.524993,51.273602],"type":"Point"}
}
