{
  "id": 470897209,
  "type": "Feature",
  "properties": {
    "date:inception_lower": "1980-01-01",
    "date:inception_upper": "1980-01-01",
    "edtf:cessation": "",
    "edtf:inception": "1980-01-01",
    "geom:area": 0,
    "geom:bbox": "-2.317828,53.442562,-2.317828,53.442562",
    "geom:latitude": 53.442562,
    "geom:longitude": -2.317828,
    "iso:country": "GB",
    "mz:hierarchy_label": 1,
    "mz:is_current": 1,
    "os:country_code": "E92000001",
    "os:county_code": "E99999999",
    "os:district_code": "E08000009",
    "os:positional_quality_indicator": "1",
    "os:region_code": "E12000002",
    "src:geom": "os",
    "wof:belongsto": [
      85633159,
      102191581,
      136253055,
      1864208769,
      1360698935,
      1360817437,
      1880762163,
      404227469,
      1880773095
    ],
    "wof:breaches": [],
    "wof:concordances": {
      "gp:id": "26457632"
    },
    "wof:country": "GB",
    "wof:created": 1583701238,
    "wof:geomhash": "279ec80a8d00cc8ade4d160297a368b2",
    "wof:hierarchy": [
      {
        "continent_id": 102191581,
        "country_id": 85633159,
        "county_id": 1360698935,
        "empire_id": 136253055,
        "localadmin_id": 1360817437,
        "macrocounty_id": 1880762163,
        "macroregion_id": 404227469,
        "postalcode_id": 470897209,
        "region_id": 1880773095
      },
      {
        "continent_id": 102191581,
        "country_id": 85633159,
        "empire_id": 136253055,
        "postalcode_id": 470897209,
        "postalregion_id": 1864208769
      }
    ],
    "wof:id": 470897209,
    "wof:lastmodified": 1763548039,
    "wof:name": "M32 9AR",
    "wof:parent_id": 1360817437,
    "wof:placetype": "postalcode",
    "wof:repo": "whosonfirst-data-postalcode-gb",
    "wof:superseded_by": [],
    "wof:supersedes": [],
    "wof:tags": []
  },
  "bbox": [
    -2.317828,
    53.442562,
    -2.317828,
    53.442562
  ],
  "geometry": {"coordinates":[-2.317828,53.442562],"type":"Point"}
}
