{
  "id": 1998346263,
  "type": "Feature",
  "properties": {
    "date:inception_lower": "2025-01-01",
    "date:inception_upper": "2025-01-01",
    "edtf:cessation": "",
    "edtf:inception": "2025-01-01",
    "geom:area": 0,
    "geom:bbox": "-0.150838,52.809123,-0.150838,52.809123",
    "geom:latitude": 52.809123,
    "geom:longitude": -0.150838,
    "iso:country": "GB",
    "mz:hierarchy_label": 1,
    "mz:is_current": 1,
    "os:country_code": "E92000001",
    "os:county_code": "E10000019",
    "os:district_code": "E07000140",
    "os:positional_quality_indicator": "1",
    "os:region_code": "E12000004",
    "src:geom": "os",
    "wof:belongsto": [
      102191581,
      85633159,
      1880771575,
      136253055,
      404440775,
      1126035057,
      1880762033,
      404227469,
      1880762701,
      1864209657
    ],
    "wof:breaches": [],
    "wof:country": "GB",
    "wof:created": 1763549115,
    "wof:geomhash": "381a6407a5215f25486705b8fcc6ccd7",
    "wof:hierarchy": [
      {
        "continent_id": 102191581,
        "country_id": 85633159,
        "county_id": 1880771575,
        "empire_id": 136253055,
        "localadmin_id": 404440775,
        "locality_id": 1126035057,
        "macrocounty_id": 1880762033,
        "macroregion_id": 404227469,
        "postalcode_id": 1998346263,
        "region_id": 1880762701
      },
      {
        "continent_id": 102191581,
        "country_id": 85633159,
        "empire_id": 136253055,
        "postalcode_id": 1998346263,
        "postalregion_id": 1864209657
      }
    ],
    "wof:id": 1998346263,
    "wof:lastmodified": 1763549115,
    "wof:name": "PE11 5AL",
    "wof:parent_id": 1126035057,
    "wof:placetype": "postalcode",
    "wof:repo": "whosonfirst-data-postalcode-gb",
    "wof:superseded_by": [],
    "wof:supersedes": [],
    "wof:tags": []
  },
  "bbox": [
    -0.150838,
    52.809123,
    -0.150838,
    52.809123
  ],
  "geometry": {"coordinates":[-0.150838,52.809123],"type":"Point"}
}
