{
  "id": 487941253,
  "type": "Feature",
  "properties": {
    "date:inception_lower": "2004-06-01",
    "date:inception_upper": "2004-06-01",
    "edtf:cessation": "",
    "edtf:inception": "2004-06-01",
    "geom:area": 0,
    "geom:bbox": "-1.316202,54.518995,-1.316202,54.518995",
    "geom:latitude": 54.518995,
    "geom:longitude": -1.316202,
    "gp:parent_id": "24394",
    "iso:country": "GB",
    "mz:hierarchy_label": 1,
    "mz:is_current": 1,
    "os:country_code": "E92000001",
    "os:county_code": "E99999999",
    "os:district_code": "E06000004",
    "os:positional_quality_indicator": "1",
    "os:region_code": "E12000001",
    "src:geom": "os",
    "wof:belongsto": [
      85633159,
      102191581,
      136253055,
      1864211267,
      1360699087,
      404452839,
      1125908855,
      1880762117,
      404227469,
      1880773141
    ],
    "wof:breaches": [],
    "wof:concordances": {
      "gp:id": "28087347"
    },
    "wof:country": "GB",
    "wof:created": 1583701276,
    "wof:geomhash": "441e74f4cdbf47540f281ddb0e29cffc",
    "wof:hierarchy": [
      {
        "continent_id": 102191581,
        "country_id": 85633159,
        "county_id": 1360699087,
        "empire_id": 136253055,
        "localadmin_id": 404452839,
        "locality_id": 1125908855,
        "macrocounty_id": 1880762117,
        "macroregion_id": 404227469,
        "postalcode_id": 487941253,
        "region_id": 1880773141
      },
      {
        "continent_id": 102191581,
        "country_id": 85633159,
        "empire_id": 136253055,
        "postalcode_id": 487941253,
        "postalregion_id": 1864211267
      }
    ],
    "wof:id": 487941253,
    "wof:lastmodified": 1763548677,
    "wof:name": "TS17 0WB",
    "wof:parent_id": 1125908855,
    "wof:placetype": "postalcode",
    "wof:repo": "whosonfirst-data-postalcode-gb",
    "wof:superseded_by": [],
    "wof:supersedes": [],
    "wof:tags": []
  },
  "bbox": [
    -1.316202,
    54.518995,
    -1.316202,
    54.518995
  ],
  "geometry": {"coordinates":[-1.316202,54.518995],"type":"Point"}
}
