{
  "id": 454242999,
  "type": "Feature",
  "properties": {
    "date:inception_lower": "2003-02-01",
    "date:inception_upper": "2003-02-01",
    "edtf:cessation": "",
    "edtf:inception": "2003-02-01",
    "geom:area": 0,
    "geom:bbox": "1.314878,51.376361,1.314878,51.376361",
    "geom:latitude": 51.376361,
    "geom:longitude": 1.314878,
    "gp:parent_id": "12685",
    "iso:country": "GB",
    "mz:hierarchy_label": 1,
    "mz:is_current": 1,
    "os:country_code": "E92000001",
    "os:county_code": "E10000016",
    "os:district_code": "E07000114",
    "os:positional_quality_indicator": "1",
    "os:region_code": "E12000008",
    "src:geom": "os",
    "wof:belongsto": [
      85633159,
      102191581,
      136253055,
      1864206483,
      1880771511,
      404447777,
      1125932021,
      1880762057,
      404227469,
      1880762705
    ],
    "wof:breaches": [],
    "wof:concordances": {
      "gp:id": "27104545"
    },
    "wof:country": "GB",
    "wof:created": 1583701408,
    "wof:geomhash": "ea072fa560c541b7308e76de2ff0d3a2",
    "wof:hierarchy": [
      {
        "continent_id": 102191581,
        "country_id": 85633159,
        "county_id": 1880771511,
        "empire_id": 136253055,
        "localadmin_id": 404447777,
        "locality_id": 1125932021,
        "macrocounty_id": 1880762057,
        "macroregion_id": 404227469,
        "postalcode_id": 454242999,
        "region_id": 1880762705
      },
      {
        "continent_id": 102191581,
        "country_id": 85633159,
        "empire_id": 136253055,
        "postalcode_id": 454242999,
        "postalregion_id": 1864206483
      }
    ],
    "wof:id": 454242999,
    "wof:lastmodified": 1763548275,
    "wof:name": "CT7 9QZ",
    "wof:parent_id": 1125932021,
    "wof:placetype": "postalcode",
    "wof:repo": "whosonfirst-data-postalcode-gb",
    "wof:superseded_by": [],
    "wof:supersedes": [],
    "wof:tags": []
  },
  "bbox": [
    1.314878,
    51.376361,
    1.314878,
    51.376361
  ],
  "geometry": {"coordinates":[1.314878,51.376361],"type":"Point"}
}
