{
  "id": 1712783441,
  "type": "Feature",
  "properties": {
    "date:cessation_lower": "1999-06-01",
    "date:cessation_upper": "1999-06-01",
    "date:inception_lower": "1980-01-01",
    "date:inception_upper": "1980-01-01",
    "edtf:cessation": "1999-06-01",
    "edtf:inception": "1980-01-01",
    "geom:area": 0,
    "geom:bbox": "-2.995474,51.587708,-2.995474,51.587708",
    "geom:latitude": 51.587708,
    "geom:longitude": -2.995474,
    "iso:country": "GB",
    "mz:hierarchy_label": 1,
    "mz:is_current": 0,
    "os:country_code": "W92000004",
    "os:county_code": "W99999999",
    "os:district_code": "W06000022",
    "os:positional_quality_indicator": "8",
    "os:region_code": "W99999999",
    "src:geom": "os",
    "wof:belongsto": [
      102191581,
      85633159,
      1360698735,
      136253055,
      404454095,
      1360711915,
      1880762173,
      404227475,
      1880773189
    ],
    "wof:breaches": [],
    "wof:country": "GB",
    "wof:created": 1583803425,
    "wof:geomhash": "044518c21ce5a3e76e4e971508962e67",
    "wof:hierarchy": [
      {
        "continent_id": 102191581,
        "country_id": 85633159,
        "county_id": 1360698735,
        "empire_id": 136253055,
        "localadmin_id": 404454095,
        "locality_id": 1360711915,
        "macrocounty_id": 1880762173,
        "macroregion_id": 404227475,
        "postalcode_id": 1712783441,
        "region_id": 1880773189
      }
    ],
    "wof:id": 1712783441,
    "wof:lastmodified": 1763548730,
    "wof:name": "NP9 1DJ",
    "wof:parent_id": 1360711915,
    "wof:placetype": "postalcode",
    "wof:repo": "whosonfirst-data-postalcode-gb",
    "wof:superseded_by": [],
    "wof:supersedes": [],
    "wof:tags": []
  },
  "bbox": [
    -2.995474,
    51.587708,
    -2.995474,
    51.587708
  ],
  "geometry": {"coordinates":[-2.995474,51.587708],"type":"Point"}
}
