{
  "id": 1160752220,
  "type": "Feature",
  "properties": {
    "date:cessation_lower": "2000-06-01",
    "date:cessation_upper": "2000-06-01",
    "date:inception_lower": "1992-02-01",
    "date:inception_upper": "1992-02-01",
    "edtf:cessation": "2000-06-01",
    "edtf:inception": "1992-02-01",
    "geom:area": 0,
    "geom:bbox": "-5.130625,56.680224,-5.130625,56.680224",
    "geom:latitude": 56.680224,
    "geom:longitude": -5.130625,
    "iso:country": "GB",
    "mz:hierarchy_label": 1,
    "mz:is_current": 0,
    "os:country_code": "S92000003",
    "os:county_code": "S99999999",
    "os:district_code": "S12000017",
    "os:positional_quality_indicator": "1",
    "os:region_code": "S99999999",
    "src:geom": "os",
    "wof:belongsto": [
      102191581,
      85633159,
      1360699045,
      136253055,
      1880762005,
      404227471,
      1880773131
    ],
    "wof:breaches": [],
    "wof:country": "GB",
    "wof:created": 1583788353,
    "wof:geomhash": "0c43885b44f59d98a68811d012073963",
    "wof:hierarchy": [
      {
        "continent_id": 102191581,
        "country_id": 85633159,
        "county_id": 1360699045,
        "empire_id": 136253055,
        "macrocounty_id": 1880762005,
        "macroregion_id": 404227471,
        "postalcode_id": 1160752220,
        "region_id": 1880773131
      }
    ],
    "wof:id": 1160752220,
    "wof:lastmodified": 1763548331,
    "wof:name": "PA39 4HL",
    "wof:parent_id": 1360699045,
    "wof:placetype": "postalcode",
    "wof:repo": "whosonfirst-data-postalcode-gb",
    "wof:superseded_by": [],
    "wof:supersedes": [],
    "wof:tags": []
  },
  "bbox": [
    -5.130625,
    56.680224,
    -5.130625,
    56.680224
  ],
  "geometry": {"coordinates":[-5.130625,56.680224],"type":"Point"}
}
