{
  "id": 1712428633,
  "type": "Feature",
  "properties": {
    "date:cessation_lower": "1998-06-01",
    "date:cessation_upper": "1998-06-01",
    "date:inception_lower": "1981-06-01",
    "date:inception_upper": "1981-06-01",
    "edtf:cessation": "1998-06-01",
    "edtf:inception": "1981-06-01",
    "geom:area": 0,
    "geom:bbox": "-3.213500,54.129633,-3.213500,54.129633",
    "geom:latitude": 54.129633,
    "geom:longitude": -3.2135,
    "iso:country": "GB",
    "mz:hierarchy_label": 1,
    "mz:is_current": 0,
    "os:country_code": "E92000001",
    "os:county_code": "E99999999",
    "os:district_code": "E06000064",
    "os:positional_quality_indicator": "8",
    "os:region_code": "E12000002",
    "src:geom": "os",
    "wof:belongsto": [
      85633159,
      102191581,
      136253055,
      1864208329,
      1880773235,
      101872343,
      1880761989,
      404227469,
      1880773269
    ],
    "wof:breaches": [],
    "wof:country": "GB",
    "wof:created": 1583787624,
    "wof:geomhash": "bd30dc93569ff36d4540f02aff30df9f",
    "wof:hierarchy": [
      {
        "continent_id": 102191581,
        "country_id": 85633159,
        "county_id": 1880773235,
        "empire_id": 136253055,
        "locality_id": 101872343,
        "macrocounty_id": 1880761989,
        "macroregion_id": 404227469,
        "postalcode_id": 1712428633,
        "region_id": 1880773269
      },
      {
        "continent_id": 102191581,
        "country_id": 85633159,
        "empire_id": 136253055,
        "postalcode_id": 1712428633,
        "postalregion_id": 1864208329
      }
    ],
    "wof:id": 1712428633,
    "wof:lastmodified": 1763548672,
    "wof:name": "LA13 9JZ",
    "wof:parent_id": 101872343,
    "wof:placetype": "postalcode",
    "wof:repo": "whosonfirst-data-postalcode-gb",
    "wof:superseded_by": [],
    "wof:supersedes": [],
    "wof:tags": []
  },
  "bbox": [
    -3.2135,
    54.129633,
    -3.2135,
    54.129633
  ],
  "geometry": {"coordinates":[-3.2135,54.129633],"type":"Point"}
}
