{
  "id": 487703039,
  "type": "Feature",
  "properties": {
    "date:inception_lower": "1980-01-01",
    "date:inception_upper": "1980-01-01",
    "edtf:cessation": "",
    "edtf:inception": "1980-01-01",
    "geom:area": 0,
    "geom:bbox": "-2.132222,52.779226,-2.132222,52.779226",
    "geom:latitude": 52.779226,
    "geom:longitude": -2.132222,
    "gp:parent_id": "35801",
    "iso:country": "GB",
    "mz:hierarchy_label": 1,
    "mz:is_current": 1,
    "os:country_code": "E92000001",
    "os:county_code": "E10000028",
    "os:district_code": "E07000197",
    "os:positional_quality_indicator": "1",
    "os:region_code": "E12000005",
    "src:geom": "os",
    "wof:belongsto": [
      85633159,
      102191581,
      136253055,
      1864210801,
      1880771627,
      404453035,
      1360758763,
      1880761999
    ],
    "wof:breaches": [],
    "wof:concordances": {
      "gp:id": "27990037"
    },
    "wof:country": "GB",
    "wof:created": 1583701128,
    "wof:geomhash": "a3ba3f1d5b8e2db9772dc0949e5aa675",
    "wof:hierarchy": [
      {
        "continent_id": -1,
        "country_id": -1,
        "county_id": 1880771627,
        "localadmin_id": 404453035,
        "locality_id": 1360758763,
        "macrocounty_id": 1880761999,
        "postalcode_id": 487703039,
        "region_id": -1
      },
      {
        "continent_id": 102191581,
        "country_id": 85633159,
        "empire_id": 136253055,
        "postalcode_id": 487703039,
        "postalregion_id": 1864210801
      }
    ],
    "wof:id": 487703039,
    "wof:lastmodified": 1763548713,
    "wof:name": "ST18 9BB",
    "wof:parent_id": 1360758763,
    "wof:placetype": "postalcode",
    "wof:repo": "whosonfirst-data-postalcode-gb",
    "wof:superseded_by": [],
    "wof:supersedes": [],
    "wof:tags": []
  },
  "bbox": [
    -2.132222,
    52.779226,
    -2.132222,
    52.779226
  ],
  "geometry": {"coordinates":[-2.132222,52.779226],"type":"Point"}
}
