{
  "id": 38214675,
  "type": "Feature",
  "properties": {
    "date:cessation_lower": "1999-12-01",
    "date:cessation_upper": "1999-12-01",
    "date:inception_lower": "1991-09-01",
    "date:inception_upper": "1991-09-01",
    "edtf:cessation": "1999-12-01",
    "edtf:inception": "1991-09-01",
    "geom:area": 0,
    "geom:bbox": "-2.197649,52.567976,-2.197649,52.567976",
    "geom:latitude": 52.567976,
    "geom:longitude": -2.197649,
    "iso:country": "GB",
    "mz:hierarchy_label": 1,
    "mz:is_current": 0,
    "os:country_code": "E92000001",
    "os:county_code": "E10000028",
    "os:district_code": "E07000196",
    "os:positional_quality_indicator": "8",
    "os:region_code": "E12000005",
    "src:geom": "os",
    "wof:belongsto": [
      85633159,
      102191581,
      136253055,
      1864211695,
      1880771619,
      404449007,
      1125920739,
      1880761999,
      404227469,
      1880762719
    ],
    "wof:breaches": [],
    "wof:country": "GB",
    "wof:created": 1583787872,
    "wof:geomhash": "7d5325659fe00825899d480350cc7d97",
    "wof:hierarchy": [
      {
        "continent_id": 102191581,
        "country_id": 85633159,
        "county_id": 1880771619,
        "empire_id": 136253055,
        "localadmin_id": 404449007,
        "locality_id": 1125920739,
        "macrocounty_id": 1880761999,
        "macroregion_id": 404227469,
        "postalcode_id": 38214675,
        "region_id": 1880762719
      },
      {
        "continent_id": 102191581,
        "country_id": 85633159,
        "empire_id": 136253055,
        "postalcode_id": 38214675,
        "postalregion_id": 1864211695
      }
    ],
    "wof:id": 38214675,
    "wof:lastmodified": 1763548371,
    "wof:name": "WV4 4XT",
    "wof:parent_id": 1125920739,
    "wof:placetype": "postalcode",
    "wof:repo": "whosonfirst-data-postalcode-gb",
    "wof:superseded_by": [],
    "wof:supersedes": [],
    "wof:tags": []
  },
  "bbox": [
    -2.197649,
    52.567976,
    -2.197649,
    52.567976
  ],
  "geometry": {"coordinates":[-2.197649,52.567976],"type":"Point"}
}
