{
  "id": 437582229,
  "type": "Feature",
  "properties": {
    "date:cessation_lower": "2006-09-01",
    "date:cessation_upper": "2006-09-01",
    "date:inception_lower": "1998-12-01",
    "date:inception_upper": "1998-12-01",
    "edtf:cessation": "2006-09-01",
    "edtf:inception": "1998-12-01",
    "geom:area": 0,
    "geom:bbox": "0.118379,52.248600,0.118379,52.248600",
    "geom:latitude": 52.2486,
    "geom:longitude": 0.118379,
    "iso:country": "GB",
    "mz:hierarchy_label": 1,
    "mz:is_current": 0,
    "os:country_code": "E92000001",
    "os:county_code": "E10000003",
    "os:district_code": "E07000012",
    "os:positional_quality_indicator": "1",
    "os:region_code": "E12000006",
    "src:geom": "os",
    "wof:belongsto": [
      85633159,
      102191581,
      136253055,
      1864206141,
      1880771367,
      404441083,
      1125883803,
      1880762143,
      404227469,
      1880762687
    ],
    "wof:breaches": [],
    "wof:concordances": {
      "gp:id": "27027728"
    },
    "wof:country": "GB",
    "wof:created": 1583701392,
    "wof:geomhash": "a4da55598d053dfdb5e3de2929ecae8e",
    "wof:hierarchy": [
      {
        "continent_id": 102191581,
        "country_id": 85633159,
        "county_id": 1880771367,
        "empire_id": 136253055,
        "localadmin_id": 404441083,
        "locality_id": 1125883803,
        "macrocounty_id": 1880762143,
        "macroregion_id": 404227469,
        "postalcode_id": 437582229,
        "region_id": 1880762687
      },
      {
        "continent_id": 102191581,
        "country_id": 85633159,
        "empire_id": 136253055,
        "postalcode_id": 437582229,
        "postalregion_id": 1864206141
      }
    ],
    "wof:id": 437582229,
    "wof:lastmodified": 1763548267,
    "wof:name": "CB4 9ZU",
    "wof:parent_id": 1125883803,
    "wof:placetype": "postalcode",
    "wof:repo": "whosonfirst-data-postalcode-gb",
    "wof:superseded_by": [],
    "wof:supersedes": [],
    "wof:tags": []
  },
  "bbox": [
    0.118379,
    52.2486,
    0.118379,
    52.2486
  ],
  "geometry": {"coordinates":[0.118379,52.2486],"type":"Point"}
}
