{
  "id": 471854823,
  "type": "Feature",
  "properties": {
    "date:inception_lower": "1980-01-01",
    "date:inception_upper": "1980-01-01",
    "edtf:cessation": "",
    "edtf:inception": "1980-01-01",
    "geom:area": 0,
    "geom:bbox": "-1.818360,51.498198,-1.818360,51.498198",
    "geom:latitude": 51.498198,
    "geom:longitude": -1.81836,
    "gp:parent_id": "38502",
    "iso:country": "GB",
    "mz:hierarchy_label": 1,
    "mz:is_current": 1,
    "os:country_code": "E92000001",
    "os:county_code": "E99999999",
    "os:district_code": "E06000054",
    "os:positional_quality_indicator": "1",
    "os:region_code": "E12000009",
    "src:geom": "os",
    "wof:belongsto": [
      85633159,
      102191581,
      136253055,
      1864210629,
      1360698937,
      404441309,
      1126000393,
      1880762017
    ],
    "wof:breaches": [],
    "wof:concordances": {
      "gp:id": "27946201"
    },
    "wof:country": "GB",
    "wof:created": 1583701757,
    "wof:geomhash": "4fe7b4334dedaa0e3b0f1fe2f9c130a6",
    "wof:hierarchy": [
      {
        "continent_id": -1,
        "country_id": -1,
        "county_id": 1360698937,
        "localadmin_id": 404441309,
        "locality_id": 1126000393,
        "macrocounty_id": 1880762017,
        "postalcode_id": 471854823,
        "region_id": -1
      },
      {
        "continent_id": 102191581,
        "country_id": 85633159,
        "empire_id": 136253055,
        "postalcode_id": 471854823,
        "postalregion_id": 1864210629
      }
    ],
    "wof:id": 471854823,
    "wof:lastmodified": 1763548366,
    "wof:name": "SN4 9LZ",
    "wof:parent_id": 1126000393,
    "wof:placetype": "postalcode",
    "wof:repo": "whosonfirst-data-postalcode-gb",
    "wof:superseded_by": [],
    "wof:supersedes": [],
    "wof:tags": []
  },
  "bbox": [
    -1.81836,
    51.498198,
    -1.81836,
    51.498198
  ],
  "geometry": {"coordinates":[-1.81836,51.498198],"type":"Point"}
}
