{
  "id": 504624065,
  "type": "Feature",
  "properties": {
    "date:inception_lower": "1980-01-01",
    "date:inception_upper": "1980-01-01",
    "edtf:cessation": "",
    "edtf:inception": "1980-01-01",
    "geom:area": 0,
    "geom:bbox": "-2.337060,55.799765,-2.337060,55.799765",
    "geom:latitude": 55.799765,
    "geom:longitude": -2.33706,
    "gp:parent_id": "12696186",
    "iso:country": "GB",
    "mz:hierarchy_label": 1,
    "mz:is_current": 1,
    "os:country_code": "S92000003",
    "os:county_code": "S99999999",
    "os:district_code": "S12000026",
    "os:positional_quality_indicator": "1",
    "os:region_code": "S99999999",
    "src:geom": "os",
    "wof:belongsto": [
      85633159,
      102191581,
      136253055,
      1864211007,
      1360699015,
      1880761991,
      404227471,
      1880773105
    ],
    "wof:breaches": [],
    "wof:concordances": {
      "gp:id": "28037159"
    },
    "wof:country": "GB",
    "wof:created": 1583701493,
    "wof:geomhash": "e6ceee9f01ef7af67151604af345e762",
    "wof:hierarchy": [
      {
        "continent_id": 102191581,
        "country_id": 85633159,
        "county_id": 1360699015,
        "macrocounty_id": 1880761991,
        "macroregion_id": 404227471,
        "postalcode_id": 504624065,
        "region_id": 1880773105
      },
      {
        "continent_id": 102191581,
        "country_id": 85633159,
        "empire_id": 136253055,
        "postalcode_id": 504624065,
        "postalregion_id": 1864211007
      }
    ],
    "wof:id": 504624065,
    "wof:lastmodified": 1763548114,
    "wof:name": "TD11 3TB",
    "wof:parent_id": 1360699015,
    "wof:placetype": "postalcode",
    "wof:repo": "whosonfirst-data-postalcode-gb",
    "wof:superseded_by": [],
    "wof:supersedes": [],
    "wof:tags": []
  },
  "bbox": [
    -2.33706,
    55.799765,
    -2.33706,
    55.799765
  ],
  "geometry": {"coordinates":[-2.33706,55.799765],"type":"Point"}
}
