{
  "id": 1998354131,
  "type": "Feature",
  "properties": {
    "date:inception_lower": "2024-12-01",
    "date:inception_upper": "2024-12-01",
    "edtf:cessation": "",
    "edtf:inception": "2024-12-01",
    "geom:area": 0,
    "geom:bbox": "-0.458867,53.759988,-0.458867,53.759988",
    "geom:latitude": 53.759988,
    "geom:longitude": -0.458867,
    "iso:country": "GB",
    "mz:hierarchy_label": 1,
    "mz:is_current": 1,
    "os:country_code": "E92000001",
    "os:county_code": "E99999999",
    "os:district_code": "E06000011",
    "os:positional_quality_indicator": "1",
    "os:region_code": "E12000003",
    "src:geom": "os",
    "wof:belongsto": [
      102191581,
      85633159,
      1360699001,
      136253055,
      404451853,
      1360757379,
      1880762147,
      404227469,
      1880773091,
      1864207739
    ],
    "wof:breaches": [],
    "wof:country": "GB",
    "wof:created": 1763549465,
    "wof:geomhash": "ecf64856a5e56cd5f4268a50b761ad6c",
    "wof:hierarchy": [
      {
        "continent_id": 102191581,
        "country_id": 85633159,
        "county_id": 1360699001,
        "empire_id": 136253055,
        "localadmin_id": 404451853,
        "locality_id": 1360757379,
        "macrocounty_id": 1880762147,
        "macroregion_id": 404227469,
        "postalcode_id": 1998354131,
        "region_id": 1880773091
      },
      {
        "continent_id": 102191581,
        "country_id": 85633159,
        "empire_id": 136253055,
        "postalcode_id": 1998354131,
        "postalregion_id": 1864207739
      }
    ],
    "wof:id": 1998354131,
    "wof:lastmodified": 1763549465,
    "wof:name": "HU10 7LF",
    "wof:parent_id": 1360757379,
    "wof:placetype": "postalcode",
    "wof:repo": "whosonfirst-data-postalcode-gb",
    "wof:superseded_by": [],
    "wof:supersedes": [],
    "wof:tags": []
  },
  "bbox": [
    -0.458867,
    53.759988,
    -0.458867,
    53.759988
  ],
  "geometry": {"coordinates":[-0.458867,53.759988],"type":"Point"}
}
