{
  "id": 438214233,
  "type": "Feature",
  "properties": {
    "date:inception_lower": "1994-12-01",
    "date:inception_upper": "1994-12-01",
    "edtf:cessation": "",
    "edtf:inception": "1994-12-01",
    "geom:area": 0,
    "geom:bbox": "-0.504678,50.810664,-0.504678,50.810664",
    "geom:latitude": 50.810664,
    "geom:longitude": -0.504678,
    "gp:parent_id": "33810",
    "iso:country": "GB",
    "mz:hierarchy_label": 1,
    "mz:is_current": 1,
    "os:country_code": "E92000001",
    "os:county_code": "E10000032",
    "os:district_code": "E07000224",
    "os:positional_quality_indicator": "1",
    "os:region_code": "E12000008",
    "src:geom": "os",
    "wof:belongsto": [
      85633159,
      102191581,
      136253055,
      1864205885,
      1880771681,
      404449615,
      1125778711,
      1880762061
    ],
    "wof:breaches": [],
    "wof:concordances": {
      "gp:id": "26930892"
    },
    "wof:country": "GB",
    "wof:created": 1583701406,
    "wof:geomhash": "710d02dd1ba4a89daf6810f26952a664",
    "wof:hierarchy": [
      {
        "continent_id": -1,
        "country_id": -1,
        "county_id": 1880771681,
        "localadmin_id": 404449615,
        "locality_id": 1125778711,
        "macrocounty_id": 1880762061,
        "postalcode_id": 438214233,
        "region_id": -1
      },
      {
        "continent_id": 102191581,
        "country_id": 85633159,
        "empire_id": 136253055,
        "postalcode_id": 438214233,
        "postalregion_id": 1864205885
      }
    ],
    "wof:id": 438214233,
    "wof:lastmodified": 1763548107,
    "wof:name": "BN16 3BP",
    "wof:parent_id": 1125778711,
    "wof:placetype": "postalcode",
    "wof:repo": "whosonfirst-data-postalcode-gb",
    "wof:superseded_by": [],
    "wof:supersedes": [],
    "wof:tags": []
  },
  "bbox": [
    -0.504678,
    50.810664,
    -0.504678,
    50.810664
  ],
  "geometry": {"coordinates":[-0.504678,50.810664],"type":"Point"}
}
