{
  "id": 454491763,
  "type": "Feature",
  "properties": {
    "date:inception_lower": "1980-01-01",
    "date:inception_upper": "1980-01-01",
    "edtf:cessation": "",
    "edtf:inception": "1980-01-01",
    "geom:area": 0,
    "geom:bbox": "-2.128720,52.462331,-2.128720,52.462331",
    "geom:latitude": 52.462331,
    "geom:longitude": -2.12872,
    "gp:parent_id": "13893",
    "iso:country": "GB",
    "mz:hierarchy_label": 1,
    "mz:is_current": 1,
    "os:country_code": "E92000001",
    "os:county_code": "E99999999",
    "os:district_code": "E08000027",
    "os:positional_quality_indicator": "1",
    "os:region_code": "E12000005",
    "src:geom": "os",
    "wof:belongsto": [
      85633159,
      102191581,
      136253055,
      1864206907,
      1360698933,
      1360817295,
      1125999239,
      1880762069
    ],
    "wof:breaches": [],
    "wof:concordances": {
      "gp:id": "27208256"
    },
    "wof:country": "GB",
    "wof:created": 1583701602,
    "wof:geomhash": "d1d915feced2bcb3e99b2cfcbc31caeb",
    "wof:hierarchy": [
      {
        "continent_id": -1,
        "country_id": -1,
        "county_id": 1360698933,
        "localadmin_id": 1360817295,
        "locality_id": 1125999239,
        "macrocounty_id": 1880762069,
        "postalcode_id": 454491763,
        "region_id": -1
      },
      {
        "continent_id": 102191581,
        "country_id": 85633159,
        "empire_id": 136253055,
        "postalcode_id": 454491763,
        "postalregion_id": 1864206907
      }
    ],
    "wof:id": 454491763,
    "wof:lastmodified": 1763548371,
    "wof:name": "DY5 2QA",
    "wof:parent_id": 1125999239,
    "wof:placetype": "postalcode",
    "wof:repo": "whosonfirst-data-postalcode-gb",
    "wof:superseded_by": [],
    "wof:supersedes": [],
    "wof:tags": []
  },
  "bbox": [
    -2.12872,
    52.462331,
    -2.12872,
    52.462331
  ],
  "geometry": {"coordinates":[-2.12872,52.462331],"type":"Point"}
}
