{
  "id": 38678337,
  "type": "Feature",
  "properties": {
    "date:cessation_lower": "1998-06-01",
    "date:cessation_upper": "1998-06-01",
    "date:inception_lower": "1980-01-01",
    "date:inception_upper": "1980-01-01",
    "edtf:cessation": "1998-06-01",
    "edtf:inception": "1980-01-01",
    "geom:area": 0,
    "geom:bbox": "-1.303316,54.006767,-1.303316,54.006767",
    "geom:latitude": 54.006767,
    "geom:longitude": -1.303316,
    "iso:country": "GB",
    "mz:hierarchy_label": 1,
    "mz:is_current": 0,
    "os:country_code": "E92000001",
    "os:county_code": "E99999999",
    "os:district_code": "E06000065",
    "os:positional_quality_indicator": "1",
    "os:region_code": "E12000003",
    "src:geom": "os",
    "wof:belongsto": [
      1360698753,
      404439177,
      1125847207,
      1880762011
    ],
    "wof:breaches": [],
    "wof:country": "GB",
    "wof:created": 1583793031,
    "wof:geomhash": "154aa3f52ee657c19e3cc440747dc708",
    "wof:hierarchy": [
      {
        "continent_id": -1,
        "country_id": -1,
        "county_id": 1360698753,
        "localadmin_id": 404439177,
        "locality_id": 1125847207,
        "macrocounty_id": 1880762011,
        "postalcode_id": 38678337,
        "region_id": -1
      }
    ],
    "wof:id": 38678337,
    "wof:lastmodified": 1763548649,
    "wof:name": "YO5 8AE",
    "wof:parent_id": 1125847207,
    "wof:placetype": "postalcode",
    "wof:repo": "whosonfirst-data-postalcode-gb",
    "wof:superseded_by": [],
    "wof:supersedes": [],
    "wof:tags": []
  },
  "bbox": [
    -1.303316,
    54.006767,
    -1.303316,
    54.006767
  ],
  "geometry": {"coordinates":[-1.303316,54.006767],"type":"Point"}
}
