{
  "id": 38403504,
  "type": "Feature",
  "properties": {
    "date:cessation_lower": "1999-06-01",
    "date:cessation_upper": "1999-06-01",
    "date:inception_lower": "1980-01-01",
    "date:inception_upper": "1980-01-01",
    "edtf:cessation": "1999-06-01",
    "edtf:inception": "1980-01-01",
    "geom:area": 0,
    "geom:bbox": "-3.180137,51.678431,-3.180137,51.678431",
    "geom:latitude": 51.678431,
    "geom:longitude": -3.180137,
    "iso:country": "GB",
    "mz:hierarchy_label": 1,
    "mz:is_current": 0,
    "os:country_code": "W92000004",
    "os:county_code": "W99999999",
    "os:district_code": "W06000018",
    "os:positional_quality_indicator": "8",
    "os:region_code": "W99999999",
    "src:geom": "os",
    "wof:belongsto": [
      102191581,
      85633159,
      1360698925,
      136253055,
      404437181,
      1360711869,
      1880762173,
      404227475,
      1880773189
    ],
    "wof:breaches": [],
    "wof:country": "GB",
    "wof:created": 1583789953,
    "wof:geomhash": "66ca61c37f3a6f05de08c7f3d03c3fac",
    "wof:hierarchy": [
      {
        "continent_id": 102191581,
        "country_id": 85633159,
        "county_id": 1360698925,
        "empire_id": 136253055,
        "localadmin_id": 404437181,
        "locality_id": 1360711869,
        "macrocounty_id": 1880762173,
        "macroregion_id": 404227475,
        "postalcode_id": 38403504,
        "region_id": 1880773189
      }
    ],
    "wof:id": 38403504,
    "wof:lastmodified": 1763548192,
    "wof:name": "NP2 0JP",
    "wof:parent_id": 1360711869,
    "wof:placetype": "postalcode",
    "wof:repo": "whosonfirst-data-postalcode-gb",
    "wof:superseded_by": [],
    "wof:supersedes": [],
    "wof:tags": []
  },
  "bbox": [
    -3.180137,
    51.678431,
    -3.180137,
    51.678431
  ],
  "geometry": {"coordinates":[-3.180137,51.678431],"type":"Point"}
}
