{
  "id": 471362599,
  "type": "Feature",
  "properties": {
    "date:inception_lower": "1986-04-01",
    "date:inception_upper": "1986-04-01",
    "edtf:cessation": "",
    "edtf:inception": "1986-04-01",
    "geom:area": 0,
    "geom:bbox": "-0.265894,52.216360,-0.265894,52.216360",
    "geom:latitude": 52.21636,
    "geom:longitude": -0.265894,
    "gp:parent_id": "19816",
    "iso:country": "GB",
    "mz:hierarchy_label": 1,
    "mz:is_current": 1,
    "os:country_code": "E92000001",
    "os:county_code": "E10000003",
    "os:district_code": "E07000011",
    "os:positional_quality_indicator": "1",
    "os:region_code": "E12000006",
    "src:geom": "os",
    "wof:belongsto": [
      85633159,
      102191581,
      136253055,
      1864209671,
      1880771371,
      404449225,
      1126031581,
      1880762143,
      404227469,
      1880762687
    ],
    "wof:breaches": [],
    "wof:concordances": {
      "gp:id": "27743860"
    },
    "wof:country": "GB",
    "wof:created": 1583701532,
    "wof:geomhash": "2a55152584d0eadacba48ab1cde4e204",
    "wof:hierarchy": [
      {
        "continent_id": 102191581,
        "country_id": 85633159,
        "county_id": 1880771371,
        "empire_id": 136253055,
        "localadmin_id": 404449225,
        "locality_id": 1126031581,
        "macrocounty_id": 1880762143,
        "macroregion_id": 404227469,
        "postalcode_id": 471362599,
        "region_id": 1880762687
      },
      {
        "continent_id": 102191581,
        "country_id": 85633159,
        "empire_id": 136253055,
        "postalcode_id": 471362599,
        "postalregion_id": 1864209671
      }
    ],
    "wof:id": 471362599,
    "wof:lastmodified": 1763547940,
    "wof:name": "PE19 2RH",
    "wof:parent_id": 1126031581,
    "wof:placetype": "postalcode",
    "wof:repo": "whosonfirst-data-postalcode-gb",
    "wof:superseded_by": [],
    "wof:supersedes": [],
    "wof:tags": []
  },
  "bbox": [
    -0.265894,
    52.21636,
    -0.265894,
    52.21636
  ],
  "geometry": {"coordinates":[-0.265894,52.21636],"type":"Point"}
}
