{
  "id": 437445561,
  "type": "Feature",
  "properties": {
    "date:cessation_lower": "2007-04-01",
    "date:cessation_upper": "2007-04-01",
    "date:inception_lower": "1985-10-01",
    "date:inception_upper": "1985-10-01",
    "edtf:cessation": "2007-04-01",
    "edtf:inception": "1985-10-01",
    "geom:area": 0,
    "geom:bbox": "-0.603323,51.677449,-0.603323,51.677449",
    "geom:latitude": 51.677449,
    "geom:longitude": -0.603323,
    "iso:country": "GB",
    "mz:hierarchy_label": 1,
    "mz:is_current": 0,
    "os:country_code": "E92000001",
    "os:county_code": "E99999999",
    "os:district_code": "E06000060",
    "os:positional_quality_indicator": "1",
    "os:region_code": "E12000008",
    "src:geom": "os",
    "wof:belongsto": [
      85633159,
      102191581,
      136253055,
      1864207687,
      1360698997,
      404441987,
      101854803,
      1880762141,
      404227469,
      1880773087
    ],
    "wof:breaches": [],
    "wof:concordances": {
      "gp:id": "27363336"
    },
    "wof:country": "GB",
    "wof:created": 1583701191,
    "wof:geomhash": "a175767daa2ca54749a5a9ff8a3deb7b",
    "wof:hierarchy": [
      {
        "continent_id": 102191581,
        "country_id": 85633159,
        "county_id": 1360698997,
        "empire_id": 136253055,
        "localadmin_id": 404441987,
        "locality_id": 101854803,
        "macrocounty_id": 1880762141,
        "macroregion_id": 404227469,
        "postalcode_id": 437445561,
        "region_id": 1880773087
      },
      {
        "continent_id": 102191581,
        "country_id": 85633159,
        "empire_id": 136253055,
        "postalcode_id": 437445561,
        "postalregion_id": 1864207687
      }
    ],
    "wof:id": 437445561,
    "wof:lastmodified": 1763548222,
    "wof:name": "HP6 6AY",
    "wof:parent_id": 101854803,
    "wof:placetype": "postalcode",
    "wof:repo": "whosonfirst-data-postalcode-gb",
    "wof:superseded_by": [],
    "wof:supersedes": [],
    "wof:tags": []
  },
  "bbox": [
    -0.603323,
    51.677449,
    -0.603323,
    51.677449
  ],
  "geometry": {"coordinates":[-0.603323,51.677449],"type":"Point"}
}
