{
  "id": 471418671,
  "type": "Feature",
  "properties": {
    "date:cessation_lower": "2017-06-01",
    "date:cessation_upper": "2017-06-01",
    "date:inception_lower": "1980-01-01",
    "date:inception_upper": "1980-01-01",
    "edtf:cessation": "2017-06-01",
    "edtf:inception": "1980-01-01",
    "geom:area": 0,
    "geom:bbox": "-4.634072,50.335876,-4.634072,50.335876",
    "geom:latitude": 50.335876,
    "geom:longitude": -4.634072,
    "iso:country": "GB",
    "mz:hierarchy_label": 1,
    "mz:is_current": 0,
    "os:country_code": "E92000001",
    "os:county_code": "E99999999",
    "os:district_code": "E06000052",
    "os:positional_quality_indicator": "1",
    "os:region_code": "E12000009",
    "src:geom": "os",
    "wof:belongsto": [
      85633159,
      102191581,
      136253055,
      1864209865,
      101852389
    ],
    "wof:breaches": [],
    "wof:concordances": {
      "gp:id": "27770359"
    },
    "wof:country": "GB",
    "wof:created": 1583701588,
    "wof:geomhash": "c3680472ae92b79c4fb297af2db37761",
    "wof:hierarchy": [
      {
        "continent_id": 102191581,
        "country_id": -1,
        "locality_id": 101852389,
        "postalcode_id": 471418671,
        "region_id": -1
      },
      {
        "continent_id": 102191581,
        "country_id": 85633159,
        "empire_id": 136253055,
        "postalcode_id": 471418671,
        "postalregion_id": 1864209865
      }
    ],
    "wof:id": 471418671,
    "wof:lastmodified": 1763548312,
    "wof:name": "PL23 1AF",
    "wof:parent_id": 101852389,
    "wof:placetype": "postalcode",
    "wof:repo": "whosonfirst-data-postalcode-gb",
    "wof:superseded_by": [],
    "wof:supersedes": [],
    "wof:tags": []
  },
  "bbox": [
    -4.634072,
    50.335876,
    -4.634072,
    50.335876
  ],
  "geometry": {"coordinates":[-4.634072,50.335876],"type":"Point"}
}
