{
  "id": 471133731,
  "type": "Feature",
  "properties": {
    "date:inception_lower": "2003-10-01",
    "date:inception_upper": "2003-10-01",
    "edtf:cessation": "",
    "edtf:inception": "2003-10-01",
    "geom:area": 0,
    "geom:bbox": "-0.806012,53.074935,-0.806012,53.074935",
    "geom:latitude": 53.074935,
    "geom:longitude": -0.806012,
    "iso:country": "GB",
    "mz:hierarchy_label": 1,
    "mz:is_current": 1,
    "os:country_code": "E92000001",
    "os:county_code": "E10000024",
    "os:district_code": "E07000175",
    "os:positional_quality_indicator": "1",
    "os:region_code": "E12000004",
    "src:geom": "os",
    "wof:belongsto": [
      85633159,
      102191581,
      136253055,
      1864209183,
      1880771361,
      404444647,
      1360758949,
      1880762077,
      404227469,
      1880762689
    ],
    "wof:breaches": [],
    "wof:concordances": {
      "gp:id": "27640802"
    },
    "wof:country": "GB",
    "wof:created": 1583701326,
    "wof:geomhash": "f1c03ce569c85ba78606767aede02be7",
    "wof:hierarchy": [
      {
        "continent_id": 102191581,
        "country_id": 85633159,
        "county_id": 1880771361,
        "empire_id": 136253055,
        "localadmin_id": 404444647,
        "locality_id": 1360758949,
        "macrocounty_id": 1880762077,
        "macroregion_id": 404227469,
        "postalcode_id": 471133731,
        "region_id": 1880762689
      },
      {
        "continent_id": 102191581,
        "country_id": 85633159,
        "empire_id": 136253055,
        "postalcode_id": 471133731,
        "postalregion_id": 1864209183
      }
    ],
    "wof:id": 471133731,
    "wof:lastmodified": 1763547966,
    "wof:name": "NG24 1UP",
    "wof:parent_id": 1360758949,
    "wof:placetype": "postalcode",
    "wof:repo": "whosonfirst-data-postalcode-gb",
    "wof:superseded_by": [],
    "wof:supersedes": [],
    "wof:tags": []
  },
  "bbox": [
    -0.806012,
    53.074935,
    -0.806012,
    53.074935
  ],
  "geometry": {"coordinates":[-0.806012,53.074935],"type":"Point"}
}
