{
  "id": 1998352551,
  "type": "Feature",
  "properties": {
    "date:inception_lower": "2024-11-01",
    "date:inception_upper": "2024-11-01",
    "edtf:cessation": "",
    "edtf:inception": "2024-11-01",
    "geom:area": 0,
    "geom:bbox": "-0.022244,51.848609,-0.022244,51.848609",
    "geom:latitude": 51.848609,
    "geom:longitude": -0.022244,
    "iso:country": "GB",
    "mz:hierarchy_label": 1,
    "mz:is_current": 1,
    "os:country_code": "E92000001",
    "os:county_code": "E10000015",
    "os:district_code": "E07000242",
    "os:positional_quality_indicator": "1",
    "os:region_code": "E12000006",
    "src:geom": "os",
    "wof:belongsto": [
      102191581,
      85633159,
      1880771491,
      136253055,
      404437277,
      1125942659,
      1880762153,
      404227469,
      1880762721,
      1864210477
    ],
    "wof:breaches": [],
    "wof:country": "GB",
    "wof:created": 1763549394,
    "wof:geomhash": "1efc27fb9fb011297a17ba3a1daf2f9e",
    "wof:hierarchy": [
      {
        "continent_id": 102191581,
        "country_id": 85633159,
        "county_id": 1880771491,
        "empire_id": 136253055,
        "localadmin_id": 404437277,
        "locality_id": 1125942659,
        "macrocounty_id": 1880762153,
        "macroregion_id": 404227469,
        "postalcode_id": 1998352551,
        "region_id": 1880762721
      },
      {
        "continent_id": 102191581,
        "country_id": 85633159,
        "empire_id": 136253055,
        "postalcode_id": 1998352551,
        "postalregion_id": 1864210477
      }
    ],
    "wof:id": 1998352551,
    "wof:lastmodified": 1763549394,
    "wof:name": "SG11 1FF",
    "wof:parent_id": 1125942659,
    "wof:placetype": "postalcode",
    "wof:repo": "whosonfirst-data-postalcode-gb",
    "wof:superseded_by": [],
    "wof:supersedes": [],
    "wof:tags": []
  },
  "bbox": [
    -0.022244,
    51.848609,
    -0.022244,
    51.848609
  ],
  "geometry": {"coordinates":[-0.022244,51.848609],"type":"Point"}
}
