{
  "id": 1160880490,
  "type": "Feature",
  "properties": {
    "date:cessation_lower": "1992-12-01",
    "date:cessation_upper": "1992-12-01",
    "date:inception_lower": "1980-01-01",
    "date:inception_upper": "1980-01-01",
    "edtf:cessation": "1992-12-01",
    "edtf:inception": "1980-01-01",
    "geom:area": 0,
    "geom:bbox": "-3.220941,51.436698,-3.220941,51.436698",
    "geom:latitude": 51.436698,
    "geom:longitude": -3.220941,
    "iso:country": "GB",
    "mz:hierarchy_label": 1,
    "mz:is_current": 0,
    "os:country_code": "W92000004",
    "os:county_code": "W99999999",
    "os:district_code": "W06000014",
    "os:positional_quality_indicator": "1",
    "os:region_code": "W99999999",
    "src:geom": "os",
    "wof:belongsto": [
      102191581,
      85633159,
      1360698899,
      136253055,
      404453001,
      101875427,
      1880762115,
      404227475,
      1880773187
    ],
    "wof:breaches": [],
    "wof:country": "GB",
    "wof:created": 1583794113,
    "wof:geomhash": "40e4dab7be6339cc6755aa3266c0919f",
    "wof:hierarchy": [
      {
        "continent_id": 102191581,
        "country_id": 85633159,
        "county_id": 1360698899,
        "empire_id": 136253055,
        "localadmin_id": 404453001,
        "locality_id": 101875427,
        "macrocounty_id": 1880762115,
        "macroregion_id": 404227475,
        "postalcode_id": 1160880490,
        "region_id": 1880773187
      }
    ],
    "wof:id": 1160880490,
    "wof:lastmodified": 1763548327,
    "wof:name": "CF6 4BY",
    "wof:parent_id": 101875427,
    "wof:placetype": "postalcode",
    "wof:repo": "whosonfirst-data-postalcode-gb",
    "wof:superseded_by": [],
    "wof:supersedes": [],
    "wof:tags": []
  },
  "bbox": [
    -3.220941,
    51.436698,
    -3.220941,
    51.436698
  ],
  "geometry": {"coordinates":[-3.220941,51.436698],"type":"Point"}
}
