{
  "id": 488243035,
  "type": "Feature",
  "properties": {
    "date:inception_lower": "2005-03-01",
    "date:inception_upper": "2005-03-01",
    "edtf:cessation": "",
    "edtf:inception": "2005-03-01",
    "geom:area": 0,
    "geom:bbox": "-0.432556,54.002337,-0.432556,54.002337",
    "geom:latitude": 54.002337,
    "geom:longitude": -0.432556,
    "gp:parent_id": "18489",
    "iso:country": "GB",
    "mz:hierarchy_label": 1,
    "mz:is_current": 1,
    "os:country_code": "E92000001",
    "os:county_code": "E99999999",
    "os:district_code": "E06000011",
    "os:positional_quality_indicator": "1",
    "os:region_code": "E12000003",
    "src:geom": "os",
    "wof:belongsto": [
      85633159,
      102191581,
      136253055,
      1864211747,
      1360699001,
      404439763,
      1125840247,
      1880762147,
      404227469,
      1880773091
    ],
    "wof:breaches": [],
    "wof:concordances": {
      "gp:id": "28216526"
    },
    "wof:country": "GB",
    "wof:created": 1583701199,
    "wof:geomhash": "4d17b394014a60cec12e21a7c356351a",
    "wof:hierarchy": [
      {
        "continent_id": 102191581,
        "country_id": 85633159,
        "county_id": 1360699001,
        "empire_id": 136253055,
        "localadmin_id": 404439763,
        "locality_id": 1125840247,
        "macrocounty_id": 1880762147,
        "macroregion_id": 404227469,
        "postalcode_id": 488243035,
        "region_id": 1880773091
      },
      {
        "continent_id": 102191581,
        "country_id": 85633159,
        "empire_id": 136253055,
        "postalcode_id": 488243035,
        "postalregion_id": 1864211747
      }
    ],
    "wof:id": 488243035,
    "wof:lastmodified": 1763548458,
    "wof:name": "YO25 6AA",
    "wof:parent_id": 1125840247,
    "wof:placetype": "postalcode",
    "wof:repo": "whosonfirst-data-postalcode-gb",
    "wof:superseded_by": [],
    "wof:supersedes": [],
    "wof:tags": []
  },
  "bbox": [
    -0.432556,
    54.002337,
    -0.432556,
    54.002337
  ],
  "geometry": {"coordinates":[-0.432556,54.002337],"type":"Point"}
}
