{
  "id": 471298045,
  "type": "Feature",
  "properties": {
    "date:inception_lower": "1980-01-01",
    "date:inception_upper": "1980-01-01",
    "edtf:cessation": "",
    "edtf:inception": "1980-01-01",
    "geom:area": 0,
    "geom:bbox": "-2.078262,53.492630,-2.078262,53.492630",
    "geom:latitude": 53.49263,
    "geom:longitude": -2.078262,
    "gp:parent_id": "11225",
    "iso:country": "GB",
    "mz:hierarchy_label": 1,
    "mz:is_current": 1,
    "os:country_code": "E92000001",
    "os:county_code": "E99999999",
    "os:district_code": "E08000008",
    "os:positional_quality_indicator": "1",
    "os:region_code": "E12000002",
    "src:geom": "os",
    "wof:belongsto": [
      85633159,
      102191581,
      136253055,
      1864209435,
      1360698931,
      1360817329,
      1125984457,
      1880762163,
      404227469,
      1880773095
    ],
    "wof:breaches": [],
    "wof:concordances": {
      "gp:id": "27711891"
    },
    "wof:country": "GB",
    "wof:created": 1583701478,
    "wof:geomhash": "5da4b39e2fd348f3d76d7aec61ea7a49",
    "wof:hierarchy": [
      {
        "continent_id": 102191581,
        "country_id": 85633159,
        "county_id": 1360698931,
        "empire_id": 136253055,
        "localadmin_id": 1360817329,
        "locality_id": 1125984457,
        "macrocounty_id": 1880762163,
        "macroregion_id": 404227469,
        "postalcode_id": 471298045,
        "region_id": 1880773095
      },
      {
        "continent_id": 102191581,
        "country_id": 85633159,
        "empire_id": 136253055,
        "postalcode_id": 471298045,
        "postalregion_id": 1864209435
      }
    ],
    "wof:id": 471298045,
    "wof:lastmodified": 1763548354,
    "wof:name": "OL6 6PR",
    "wof:parent_id": 1125984457,
    "wof:placetype": "postalcode",
    "wof:repo": "whosonfirst-data-postalcode-gb",
    "wof:superseded_by": [],
    "wof:supersedes": [],
    "wof:tags": []
  },
  "bbox": [
    -2.078262,
    53.49263,
    -2.078262,
    53.49263
  ],
  "geometry": {"coordinates":[-2.078262,53.49263],"type":"Point"}
}
