{
  "id": 487620609,
  "type": "Feature",
  "properties": {
    "date:inception_lower": "1986-01-01",
    "date:inception_upper": "1986-01-01",
    "edtf:cessation": "",
    "edtf:inception": "1986-01-01",
    "geom:area": 0,
    "geom:bbox": "-1.581291,50.838747,-1.581291,50.838747",
    "geom:latitude": 50.838747,
    "geom:longitude": -1.581291,
    "iso:country": "GB",
    "mz:hierarchy_label": 1,
    "mz:is_current": 1,
    "os:country_code": "E92000001",
    "os:county_code": "E10000014",
    "os:district_code": "E07000091",
    "os:positional_quality_indicator": "1",
    "os:region_code": "E12000008",
    "src:geom": "os",
    "wof:belongsto": [
      85633159,
      102191581,
      136253055,
      1864210681,
      1880771459,
      404430127,
      101852461,
      1880762155,
      404227469,
      1880762717
    ],
    "wof:breaches": [],
    "wof:concordances": {
      "gp:id": "27959858"
    },
    "wof:country": "GB",
    "wof:created": 1583701090,
    "wof:geomhash": "3232f0905f5483556e52cd5d7fc78b12",
    "wof:hierarchy": [
      {
        "continent_id": 102191581,
        "country_id": 85633159,
        "county_id": 1880771459,
        "empire_id": 136253055,
        "localadmin_id": 404430127,
        "locality_id": 101852461,
        "macrocounty_id": 1880762155,
        "macroregion_id": 404227469,
        "postalcode_id": 487620609,
        "region_id": 1880762717
      },
      {
        "continent_id": 102191581,
        "country_id": 85633159,
        "empire_id": 136253055,
        "postalcode_id": 487620609,
        "postalregion_id": 1864210681
      }
    ],
    "wof:id": 487620609,
    "wof:lastmodified": 1763548645,
    "wof:name": "SO42 7QH",
    "wof:parent_id": 101852461,
    "wof:placetype": "postalcode",
    "wof:repo": "whosonfirst-data-postalcode-gb",
    "wof:superseded_by": [],
    "wof:supersedes": [],
    "wof:tags": []
  },
  "bbox": [
    -1.581291,
    50.838747,
    -1.581291,
    50.838747
  ],
  "geometry": {"coordinates":[-1.581291,50.838747],"type":"Point"}
}
