{
  "id": 454935251,
  "type": "Feature",
  "properties": {
    "date:inception_lower": "2001-06-01",
    "date:inception_upper": "2001-06-01",
    "edtf:cessation": "",
    "edtf:inception": "2001-06-01",
    "geom:area": 0,
    "geom:bbox": "-2.897361,53.454246,-2.897361,53.454246",
    "geom:latitude": 53.454246,
    "geom:longitude": -2.897361,
    "gp:parent_id": "26734",
    "iso:country": "GB",
    "mz:hierarchy_label": 1,
    "mz:is_current": 1,
    "os:country_code": "E92000001",
    "os:county_code": "E99999999",
    "os:district_code": "E08000012",
    "os:positional_quality_indicator": "1",
    "os:region_code": "E12000002",
    "src:geom": "os",
    "wof:belongsto": [
      85633159,
      102191581,
      136253055,
      1864208217,
      1360698971,
      101750547,
      1880762035,
      404227469,
      1880773063
    ],
    "wof:breaches": [],
    "wof:concordances": {
      "gp:id": "27443113"
    },
    "wof:country": "GB",
    "wof:created": 1583701758,
    "wof:geomhash": "85bd50a1d13a34463006e6ff492dece9",
    "wof:hierarchy": [
      {
        "continent_id": 102191581,
        "country_id": 85633159,
        "county_id": 1360698971,
        "empire_id": 136253055,
        "locality_id": 101750547,
        "macrocounty_id": 1880762035,
        "macroregion_id": 404227469,
        "postalcode_id": 454935251,
        "region_id": 1880773063
      },
      {
        "continent_id": 102191581,
        "country_id": 85633159,
        "empire_id": 136253055,
        "postalcode_id": 454935251,
        "postalregion_id": 1864208217
      }
    ],
    "wof:id": 454935251,
    "wof:lastmodified": 1763548444,
    "wof:name": "L11 4UR",
    "wof:parent_id": 101750547,
    "wof:placetype": "postalcode",
    "wof:repo": "whosonfirst-data-postalcode-gb",
    "wof:superseded_by": [],
    "wof:supersedes": [],
    "wof:tags": []
  },
  "bbox": [
    -2.897361,
    53.454246,
    -2.897361,
    53.454246
  ],
  "geometry": {"coordinates":[-2.897361,53.454246],"type":"Point"}
}
