{
  "id": 1160989472,
  "type": "Feature",
  "properties": {
    "date:cessation_lower": "1992-12-01",
    "date:cessation_upper": "1992-12-01",
    "date:inception_lower": "1980-01-01",
    "date:inception_upper": "1980-01-01",
    "edtf:cessation": "1992-12-01",
    "edtf:inception": "1980-01-01",
    "geom:area": 0,
    "geom:bbox": "-1.343278,53.143347,-1.343278,53.143347",
    "geom:latitude": 53.143347,
    "geom:longitude": -1.343278,
    "iso:country": "GB",
    "mz:hierarchy_label": 1,
    "mz:is_current": 0,
    "os:country_code": "E92000001",
    "os:county_code": "E10000007",
    "os:district_code": "E07000033",
    "os:positional_quality_indicator": "1",
    "os:region_code": "E12000004",
    "src:geom": "os",
    "wof:belongsto": [
      85633159,
      102191581,
      136253055,
      1864206667,
      1880771387,
      404447851,
      101872061,
      1880762133,
      404227469,
      1880762707
    ],
    "wof:breaches": [],
    "wof:country": "GB",
    "wof:created": 1583798937,
    "wof:geomhash": "eb213a7c2bcb51a5a402abe7fb478f8b",
    "wof:hierarchy": [
      {
        "continent_id": 102191581,
        "country_id": 85633159,
        "county_id": 1880771387,
        "empire_id": 136253055,
        "localadmin_id": 404447851,
        "locality_id": 101872061,
        "macrocounty_id": 1880762133,
        "macroregion_id": 404227469,
        "postalcode_id": 1160989472,
        "region_id": 1880762707
      },
      {
        "continent_id": 102191581,
        "country_id": 85633159,
        "empire_id": 136253055,
        "postalcode_id": 1160989472,
        "postalregion_id": 1864206667
      }
    ],
    "wof:id": 1160989472,
    "wof:lastmodified": 1763548265,
    "wof:name": "DE5 5NU",
    "wof:parent_id": 101872061,
    "wof:placetype": "postalcode",
    "wof:repo": "whosonfirst-data-postalcode-gb",
    "wof:superseded_by": [],
    "wof:supersedes": [],
    "wof:tags": []
  },
  "bbox": [
    -1.343278,
    53.143347,
    -1.343278,
    53.143347
  ],
  "geometry": {"coordinates":[-1.343278,53.143347],"type":"Point"}
}
