{
  "id": 1160900968,
  "type": "Feature",
  "properties": {
    "date:cessation_lower": "1996-12-01",
    "date:cessation_upper": "1996-12-01",
    "date:inception_lower": "1995-12-01",
    "date:inception_upper": "1995-12-01",
    "edtf:cessation": "1996-12-01",
    "edtf:inception": "1995-12-01",
    "geom:area": 0,
    "geom:bbox": "-1.587137,53.164324,-1.587137,53.164324",
    "geom:latitude": 53.164324,
    "geom:longitude": -1.587137,
    "iso:country": "GB",
    "mz:hierarchy_label": 1,
    "mz:is_current": 0,
    "os:country_code": "E92000001",
    "os:county_code": "E10000007",
    "os:district_code": "E07000035",
    "os:positional_quality_indicator": "8",
    "os:region_code": "E12000004",
    "src:geom": "os",
    "wof:belongsto": [
      85633159,
      102191581,
      136253055,
      1864206663,
      1880771389,
      404430989,
      1125990877,
      1880762133,
      404227469,
      1880762707
    ],
    "wof:breaches": [],
    "wof:country": "GB",
    "wof:created": 1583795056,
    "wof:geomhash": "2026f8e5987c92916123fd3e9187c3dc",
    "wof:hierarchy": [
      {
        "continent_id": 102191581,
        "country_id": 85633159,
        "county_id": 1880771389,
        "empire_id": 136253055,
        "localadmin_id": 404430989,
        "locality_id": 1125990877,
        "macrocounty_id": 1880762133,
        "macroregion_id": 404227469,
        "postalcode_id": 1160900968,
        "region_id": 1880762707
      },
      {
        "continent_id": 102191581,
        "country_id": 85633159,
        "empire_id": 136253055,
        "postalcode_id": 1160900968,
        "postalregion_id": 1864206663
      }
    ],
    "wof:id": 1160900968,
    "wof:lastmodified": 1763548271,
    "wof:name": "DE4 2ZZ",
    "wof:parent_id": 1125990877,
    "wof:placetype": "postalcode",
    "wof:repo": "whosonfirst-data-postalcode-gb",
    "wof:superseded_by": [],
    "wof:supersedes": [],
    "wof:tags": []
  },
  "bbox": [
    -1.587137,
    53.164324,
    -1.587137,
    53.164324
  ],
  "geometry": {"coordinates":[-1.587137,53.164324],"type":"Point"}
}
