{
  "id": 39085272,
  "type": "Feature",
  "properties": {
    "date:cessation_lower": "1999-12-01",
    "date:cessation_upper": "1999-12-01",
    "date:inception_lower": "1987-04-01",
    "date:inception_upper": "1987-04-01",
    "edtf:cessation": "1999-12-01",
    "edtf:inception": "1987-04-01",
    "geom:area": 0,
    "geom:bbox": "-0.705489,51.602521,-0.705489,51.602521",
    "geom:latitude": 51.602521,
    "geom:longitude": -0.705489,
    "iso:country": "GB",
    "mz:hierarchy_label": 1,
    "mz:is_current": 0,
    "os:country_code": "E92000001",
    "os:county_code": "E99999999",
    "os:district_code": "E06000060",
    "os:positional_quality_indicator": "6",
    "os:region_code": "E12000008",
    "src:geom": "os",
    "wof:belongsto": [
      85633159,
      102191581,
      136253055,
      1864207643,
      1360698997,
      404435459,
      1360757397,
      1880762141,
      404227469,
      1880773087
    ],
    "wof:breaches": [],
    "wof:country": "GB",
    "wof:created": 1583797561,
    "wof:geomhash": "eeaeb97291fc96d371b1981294dac81f",
    "wof:hierarchy": [
      {
        "continent_id": 102191581,
        "country_id": 85633159,
        "county_id": 1360698997,
        "empire_id": 136253055,
        "localadmin_id": 404435459,
        "locality_id": 1360757397,
        "macrocounty_id": 1880762141,
        "macroregion_id": 404227469,
        "postalcode_id": 39085272,
        "region_id": 1880773087
      },
      {
        "continent_id": 102191581,
        "country_id": 85633159,
        "empire_id": 136253055,
        "postalcode_id": 39085272,
        "postalregion_id": 1864207643
      }
    ],
    "wof:id": 39085272,
    "wof:lastmodified": 1763547934,
    "wof:name": "HP10 9AF",
    "wof:parent_id": 1360757397,
    "wof:placetype": "postalcode",
    "wof:repo": "whosonfirst-data-postalcode-gb",
    "wof:superseded_by": [],
    "wof:supersedes": [],
    "wof:tags": []
  },
  "bbox": [
    -0.705489,
    51.602521,
    -0.705489,
    51.602521
  ],
  "geometry": {"coordinates":[-0.705489,51.602521],"type":"Point"}
}
