{
  "id": 454641391,
  "type": "Feature",
  "properties": {
    "date:inception_lower": "1998-06-01",
    "date:inception_upper": "1998-06-01",
    "edtf:cessation": "",
    "edtf:inception": "1998-06-01",
    "geom:area": 0,
    "geom:bbox": "-2.142330,51.981362,-2.142330,51.981362",
    "geom:latitude": 51.981362,
    "geom:longitude": -2.14233,
    "gp:parent_id": "39095",
    "iso:country": "GB",
    "mz:hierarchy_label": 1,
    "mz:is_current": 1,
    "os:country_code": "E92000001",
    "os:county_code": "E10000013",
    "os:district_code": "E07000083",
    "os:positional_quality_indicator": "1",
    "os:region_code": "E12000009",
    "src:geom": "os",
    "wof:belongsto": [
      85633159,
      102191581,
      136253055,
      1864207469,
      1880771453,
      404430141,
      1360753979,
      1880762161,
      404227469,
      1880762693
    ],
    "wof:breaches": [],
    "wof:concordances": {
      "gp:id": "27310965"
    },
    "wof:country": "GB",
    "wof:created": 1583701673,
    "wof:geomhash": "74691d8b0f77f2b5a42df50c3b1d14ab",
    "wof:hierarchy": [
      {
        "continent_id": 102191581,
        "country_id": 85633159,
        "county_id": 1880771453,
        "empire_id": 136253055,
        "localadmin_id": 404430141,
        "locality_id": 1360753979,
        "macrocounty_id": 1880762161,
        "macroregion_id": 404227469,
        "postalcode_id": 454641391,
        "region_id": 1880762693
      },
      {
        "continent_id": 102191581,
        "country_id": 85633159,
        "empire_id": 136253055,
        "postalcode_id": 454641391,
        "postalregion_id": 1864207469
      }
    ],
    "wof:id": 454641391,
    "wof:lastmodified": 1763548491,
    "wof:name": "GL20 7RH",
    "wof:parent_id": 1360753979,
    "wof:placetype": "postalcode",
    "wof:repo": "whosonfirst-data-postalcode-gb",
    "wof:superseded_by": [],
    "wof:supersedes": [],
    "wof:tags": []
  },
  "bbox": [
    -2.14233,
    51.981362,
    -2.14233,
    51.981362
  ],
  "geometry": {"coordinates":[-2.14233,51.981362],"type":"Point"}
}
