{
  "id": 504611979,
  "type": "Feature",
  "properties": {
    "date:inception_lower": "1980-01-01",
    "date:inception_upper": "1980-01-01",
    "edtf:cessation": "",
    "edtf:inception": "1980-01-01",
    "geom:area": 0,
    "geom:bbox": "-3.879195,51.756851,-3.879195,51.756851",
    "geom:latitude": 51.756851,
    "geom:longitude": -3.879195,
    "gp:parent_id": "12696122",
    "iso:country": "GB",
    "mz:hierarchy_label": 1,
    "mz:is_current": 1,
    "os:country_code": "W92000004",
    "os:county_code": "W99999999",
    "os:district_code": "W06000012",
    "os:positional_quality_indicator": "1",
    "os:region_code": "W99999999",
    "src:geom": "os",
    "wof:belongsto": [
      85633159,
      102191581,
      136253055,
      1864210397,
      1360698825,
      404444833,
      1126058691,
      1880762113,
      404227475,
      1880773177
    ],
    "wof:breaches": [],
    "wof:concordances": {
      "gp:id": "27888744"
    },
    "wof:country": "GB",
    "wof:created": 1583701484,
    "wof:geomhash": "50fb664e538e4ca77886795c8c9f24fc",
    "wof:hierarchy": [
      {
        "continent_id": 102191581,
        "country_id": 85633159,
        "county_id": 1360698825,
        "empire_id": 136253055,
        "localadmin_id": 404444833,
        "locality_id": 1126058691,
        "macrocounty_id": 1880762113,
        "macroregion_id": 404227475,
        "postalcode_id": 504611979,
        "region_id": 1880773177
      },
      {
        "continent_id": 102191581,
        "country_id": 85633159,
        "empire_id": 136253055,
        "postalcode_id": 504611979,
        "postalregion_id": 1864210397
      }
    ],
    "wof:id": 504611979,
    "wof:lastmodified": 1763547974,
    "wof:name": "SA8 4SY",
    "wof:parent_id": 1126058691,
    "wof:placetype": "postalcode",
    "wof:repo": "whosonfirst-data-postalcode-gb",
    "wof:superseded_by": [],
    "wof:supersedes": [],
    "wof:tags": []
  },
  "bbox": [
    -3.879195,
    51.756851,
    -3.879195,
    51.756851
  ],
  "geometry": {"coordinates":[-3.879195,51.756851],"type":"Point"}
}
