{
  "id": 487848779,
  "type": "Feature",
  "properties": {
    "date:inception_lower": "1980-01-01",
    "date:inception_upper": "1980-01-01",
    "edtf:cessation": "",
    "edtf:inception": "1980-01-01",
    "geom:area": 0,
    "geom:bbox": "0.550956,51.021802,0.550956,51.021802",
    "geom:latitude": 51.021802,
    "geom:longitude": 0.550956,
    "gp:parent_id": "33992",
    "iso:country": "GB",
    "mz:hierarchy_label": 1,
    "mz:is_current": 1,
    "os:country_code": "E92000001",
    "os:county_code": "E10000016",
    "os:district_code": "E07000116",
    "os:positional_quality_indicator": "1",
    "os:region_code": "E12000008",
    "src:geom": "os",
    "wof:belongsto": [
      85633159,
      102191581,
      136253055,
      1864211087,
      1880771503,
      404438687,
      1360754643,
      1880762057,
      404227469,
      1880762705
    ],
    "wof:breaches": [],
    "wof:concordances": {
      "gp:id": "28051762"
    },
    "wof:country": "GB",
    "wof:created": 1583701208,
    "wof:geomhash": "9a179369286a74a7d6160a8aa04fedcf",
    "wof:hierarchy": [
      {
        "continent_id": 102191581,
        "country_id": 85633159,
        "county_id": 1880771503,
        "empire_id": 136253055,
        "localadmin_id": 404438687,
        "locality_id": 1360754643,
        "macrocounty_id": 1880762057,
        "macroregion_id": 404227469,
        "postalcode_id": 487848779,
        "region_id": 1880762705
      },
      {
        "continent_id": 102191581,
        "country_id": 85633159,
        "empire_id": 136253055,
        "postalcode_id": 487848779,
        "postalregion_id": 1864211087
      }
    ],
    "wof:id": 487848779,
    "wof:lastmodified": 1763548724,
    "wof:name": "TN18 5LR",
    "wof:parent_id": 1360754643,
    "wof:placetype": "postalcode",
    "wof:repo": "whosonfirst-data-postalcode-gb",
    "wof:superseded_by": [],
    "wof:supersedes": [],
    "wof:tags": []
  },
  "bbox": [
    0.550956,
    51.021802,
    0.550956,
    51.021802
  ],
  "geometry": {"coordinates":[0.550956,51.021802],"type":"Point"}
}
