{
  "id": 874435009,
  "type": "Feature",
  "properties": {
    "date:inception_lower": "2010-03-01",
    "date:inception_upper": "2010-03-01",
    "edtf:cessation": "",
    "edtf:inception": "2010-03-01",
    "geom:area": 0,
    "geom:bbox": "1.073449,51.843261,1.073449,51.843261",
    "geom:latitude": 51.843261,
    "geom:longitude": 1.073449,
    "iso:country": "GB",
    "mz:hierarchy_label": 1,
    "mz:is_current": 1,
    "os:country_code": "E92000001",
    "os:county_code": "E10000012",
    "os:district_code": "E07000076",
    "os:positional_quality_indicator": "1",
    "os:region_code": "E12000006",
    "src:geom": "os",
    "wof:belongsto": [
      85633159,
      102191581,
      136253055,
      1864206413,
      1880771425,
      404451275,
      1125917531,
      1880762159,
      404227469,
      1880762723
    ],
    "wof:breaches": [],
    "wof:country": "GB",
    "wof:created": 1468876628,
    "wof:geomhash": "a3b2400579077fe2819e9d4ccd7c5dd3",
    "wof:hierarchy": [
      {
        "continent_id": 102191581,
        "country_id": 85633159,
        "county_id": 1880771425,
        "empire_id": 136253055,
        "localadmin_id": 404451275,
        "locality_id": 1125917531,
        "macrocounty_id": 1880762159,
        "macroregion_id": 404227469,
        "postalcode_id": 874435009,
        "region_id": 1880762723
      },
      {
        "continent_id": 102191581,
        "country_id": 85633159,
        "empire_id": 136253055,
        "postalcode_id": 874435009,
        "postalregion_id": 1864206413
      }
    ],
    "wof:id": 874435009,
    "wof:lastmodified": 1763547992,
    "wof:name": "CO7 8EW",
    "wof:parent_id": 1125917531,
    "wof:placetype": "postalcode",
    "wof:repo": "whosonfirst-data-postalcode-gb",
    "wof:superseded_by": [],
    "wof:supersedes": [],
    "wof:tags": []
  },
  "bbox": [
    1.073449,
    51.843261,
    1.073449,
    51.843261
  ],
  "geometry": {"coordinates":[1.073449,51.843261],"type":"Point"}
}
