{
  "id": 874443765,
  "type": "Feature",
  "properties": {
    "date:inception_lower": "2010-11-01",
    "date:inception_upper": "2010-11-01",
    "edtf:cessation": "",
    "edtf:inception": "2010-11-01",
    "geom:area": 0,
    "geom:bbox": "-1.450036,54.745910,-1.450036,54.745910",
    "geom:latitude": 54.74591,
    "geom:longitude": -1.450036,
    "iso:country": "GB",
    "mz:hierarchy_label": 1,
    "mz:is_current": 1,
    "os:country_code": "E92000001",
    "os:county_code": "E99999999",
    "os:district_code": "E06000047",
    "os:positional_quality_indicator": "1",
    "os:region_code": "E12000001",
    "src:geom": "os",
    "wof:belongsto": [
      85633159,
      102191581,
      136253055,
      1864206737,
      1360699055,
      404448847,
      1126017075,
      1880762117
    ],
    "wof:breaches": [],
    "wof:country": "GB",
    "wof:created": 1468877953,
    "wof:geomhash": "dd46ddc5a55c45ba07dff697fd7a3a4f",
    "wof:hierarchy": [
      {
        "continent_id": -1,
        "country_id": -1,
        "county_id": 1360699055,
        "localadmin_id": 404448847,
        "locality_id": 1126017075,
        "macrocounty_id": 1880762117,
        "postalcode_id": 874443765,
        "region_id": -1
      },
      {
        "continent_id": 102191581,
        "country_id": 85633159,
        "empire_id": 136253055,
        "postalcode_id": 874443765,
        "postalregion_id": 1864206737
      }
    ],
    "wof:id": 874443765,
    "wof:lastmodified": 1763547963,
    "wof:name": "DH6 3GZ",
    "wof:parent_id": 1126017075,
    "wof:placetype": "postalcode",
    "wof:repo": "whosonfirst-data-postalcode-gb",
    "wof:superseded_by": [],
    "wof:supersedes": [],
    "wof:tags": []
  },
  "bbox": [
    -1.450036,
    54.74591,
    -1.450036,
    54.74591
  ],
  "geometry": {"coordinates":[-1.450036,54.74591],"type":"Point"}
}
