{
  "id": 487614791,
  "type": "Feature",
  "properties": {
    "date:inception_lower": "1994-12-01",
    "date:inception_upper": "1994-12-01",
    "edtf:cessation": "",
    "edtf:inception": "1994-12-01",
    "geom:area": 0,
    "geom:bbox": "-1.218653,50.955442,-1.218653,50.955442",
    "geom:latitude": 50.955442,
    "geom:longitude": -1.218653,
    "gp:parent_id": "12779",
    "iso:country": "GB",
    "mz:hierarchy_label": 1,
    "mz:is_current": 1,
    "os:country_code": "E92000001",
    "os:county_code": "E10000014",
    "os:district_code": "E07000094",
    "os:positional_quality_indicator": "1",
    "os:region_code": "E12000008",
    "src:geom": "os",
    "wof:belongsto": [
      85633159,
      102191581,
      136253055,
      1864210675,
      1880771467,
      404436977,
      1125840043,
      1880762155,
      404227469,
      1880762717
    ],
    "wof:breaches": [],
    "wof:concordances": {
      "gp:id": "27957708"
    },
    "wof:country": "GB",
    "wof:created": 1583701087,
    "wof:geomhash": "8ae2ca5f502af7c356235ee267672f33",
    "wof:hierarchy": [
      {
        "continent_id": 102191581,
        "country_id": 85633159,
        "county_id": 1880771467,
        "empire_id": 136253055,
        "localadmin_id": 404436977,
        "locality_id": 1125840043,
        "macrocounty_id": 1880762155,
        "macroregion_id": 404227469,
        "postalcode_id": 487614791,
        "region_id": 1880762717
      },
      {
        "continent_id": 102191581,
        "country_id": 85633159,
        "empire_id": 136253055,
        "postalcode_id": 487614791,
        "postalregion_id": 1864210675
      }
    ],
    "wof:id": 487614791,
    "wof:lastmodified": 1763548718,
    "wof:name": "SO32 1BB",
    "wof:parent_id": 1125840043,
    "wof:placetype": "postalcode",
    "wof:repo": "whosonfirst-data-postalcode-gb",
    "wof:superseded_by": [],
    "wof:supersedes": [],
    "wof:tags": []
  },
  "bbox": [
    -1.218653,
    50.955442,
    -1.218653,
    50.955442
  ],
  "geometry": {"coordinates":[-1.218653,50.955442],"type":"Point"}
}
