{
  "id": 1160715696,
  "type": "Feature",
  "properties": {
    "date:cessation_lower": "1991-12-01",
    "date:cessation_upper": "1991-12-01",
    "date:inception_lower": "1980-01-01",
    "date:inception_upper": "1980-01-01",
    "edtf:cessation": "1991-12-01",
    "edtf:inception": "1980-01-01",
    "geom:area": 0,
    "geom:bbox": "-0.876149,53.697284,-0.876149,53.697284",
    "geom:latitude": 53.697284,
    "geom:longitude": -0.876149,
    "iso:country": "GB",
    "mz:hierarchy_label": 1,
    "mz:is_current": 0,
    "os:country_code": "E92000001",
    "os:county_code": "E99999999",
    "os:district_code": "E06000011",
    "os:positional_quality_indicator": "8",
    "os:region_code": "E12000003",
    "src:geom": "os",
    "wof:belongsto": [
      85633159,
      102191581,
      136253055,
      1864206799,
      1360699001,
      404430095,
      1125882831,
      1880762147,
      404227469,
      1880773091
    ],
    "wof:breaches": [],
    "wof:country": "GB",
    "wof:created": 1583786924,
    "wof:geomhash": "a540b206830438f6b7819a26f763ffdf",
    "wof:hierarchy": [
      {
        "continent_id": 102191581,
        "country_id": 85633159,
        "county_id": 1360699001,
        "empire_id": 136253055,
        "localadmin_id": 404430095,
        "locality_id": 1125882831,
        "macrocounty_id": 1880762147,
        "macroregion_id": 404227469,
        "postalcode_id": 1160715696,
        "region_id": 1880773091
      },
      {
        "continent_id": 102191581,
        "country_id": 85633159,
        "empire_id": 136253055,
        "postalcode_id": 1160715696,
        "postalregion_id": 1864206799
      }
    ],
    "wof:id": 1160715696,
    "wof:lastmodified": 1763548220,
    "wof:name": "DN14 5TA",
    "wof:parent_id": 1125882831,
    "wof:placetype": "postalcode",
    "wof:repo": "whosonfirst-data-postalcode-gb",
    "wof:superseded_by": [],
    "wof:supersedes": [],
    "wof:tags": []
  },
  "bbox": [
    -0.876149,
    53.697284,
    -0.876149,
    53.697284
  ],
  "geometry": {"coordinates":[-0.876149,53.697284],"type":"Point"}
}
