{
  "id": 454934613,
  "type": "Feature",
  "properties": {
    "date:inception_lower": "1980-01-01",
    "date:inception_upper": "1980-01-01",
    "edtf:cessation": "",
    "edtf:inception": "1980-01-01",
    "geom:area": 0,
    "geom:bbox": "-2.894694,53.456325,-2.894694,53.456325",
    "geom:latitude": 53.456325,
    "geom:longitude": -2.894694,
    "iso:country": "GB",
    "mz:hierarchy_label": 1,
    "mz:is_current": 1,
    "os:country_code": "E92000001",
    "os:county_code": "E99999999",
    "os:district_code": "E08000012",
    "os:positional_quality_indicator": "1",
    "os:region_code": "E12000002",
    "src:geom": "os",
    "wof:belongsto": [
      85633159,
      102191581,
      136253055,
      1864208217,
      1360698971,
      101750547,
      1880762035,
      404227469,
      1880773063
    ],
    "wof:breaches": [],
    "wof:concordances": {
      "gp:id": "27442852"
    },
    "wof:country": "GB",
    "wof:created": 1583701759,
    "wof:geomhash": "e6a2e75d002d8b7c2328734b53531851",
    "wof:hierarchy": [
      {
        "continent_id": 102191581,
        "country_id": 85633159,
        "county_id": 1360698971,
        "empire_id": 136253055,
        "locality_id": 101750547,
        "macrocounty_id": 1880762035,
        "macroregion_id": 404227469,
        "postalcode_id": 454934613,
        "region_id": 1880773063
      },
      {
        "continent_id": 102191581,
        "country_id": 85633159,
        "empire_id": 136253055,
        "postalcode_id": 454934613,
        "postalregion_id": 1864208217
      }
    ],
    "wof:id": 454934613,
    "wof:lastmodified": 1763548465,
    "wof:name": "L11 0BN",
    "wof:parent_id": 101750547,
    "wof:placetype": "postalcode",
    "wof:repo": "whosonfirst-data-postalcode-gb",
    "wof:superseded_by": [],
    "wof:supersedes": [],
    "wof:tags": []
  },
  "bbox": [
    -2.894694,
    53.456325,
    -2.894694,
    53.456325
  ],
  "geometry": {"coordinates":[-2.894694,53.456325],"type":"Point"}
}
