{
  "id": 1897511163,
  "type": "Feature",
  "properties": {
    "date:inception_lower": "2023-10-01",
    "date:inception_upper": "2023-10-01",
    "edtf:cessation": "",
    "edtf:inception": "2023-10-01",
    "geom:area": 0,
    "geom:bbox": "-2.799301,51.373826,-2.799301,51.373826",
    "geom:latitude": 51.373826,
    "geom:longitude": -2.799301,
    "iso:country": "GB",
    "mz:hierarchy_label": 1,
    "mz:is_current": 1,
    "os:country_code": "E92000001",
    "os:county_code": "E99999999",
    "os:district_code": "E06000024",
    "os:positional_quality_indicator": "1",
    "os:region_code": "E12000009",
    "src:geom": "os",
    "wof:belongsto": [
      102191581,
      85633159,
      136253055,
      1864206037,
      1360699111,
      404450279,
      101852677,
      1880762071,
      404227469,
      1880773145
    ],
    "wof:breaches": [],
    "wof:country": "GB",
    "wof:created": 1709410747,
    "wof:geomhash": "320ebf9713a9f3ab7788abbc66ef5ec6",
    "wof:hierarchy": [
      {
        "continent_id": 102191581,
        "country_id": 85633159,
        "county_id": 1360699111,
        "empire_id": 136253055,
        "localadmin_id": 404450279,
        "locality_id": 101852677,
        "macrocounty_id": 1880762071,
        "macroregion_id": 404227469,
        "postalcode_id": 1897511163,
        "region_id": 1880773145
      },
      {
        "continent_id": 102191581,
        "country_id": 85633159,
        "empire_id": 136253055,
        "postalcode_id": 1897511163,
        "postalregion_id": 1864206037
      }
    ],
    "wof:id": 1897511163,
    "wof:lastmodified": 1763548178,
    "wof:name": "BS49 5EH",
    "wof:parent_id": 101852677,
    "wof:placetype": "postalcode",
    "wof:repo": "whosonfirst-data-postalcode-gb",
    "wof:superseded_by": [],
    "wof:supersedes": [],
    "wof:tags": []
  },
  "bbox": [
    -2.799301,
    51.373826,
    -2.799301,
    51.373826
  ],
  "geometry": {"coordinates":[-2.799301,51.373826],"type":"Point"}
}
