{
  "id": 1897514719,
  "type": "Feature",
  "properties": {
    "date:inception_lower": "2025-01-01",
    "date:inception_upper": "2025-01-01",
    "edtf:cessation": "",
    "edtf:inception": "2025-01-01",
    "geom:area": 0,
    "geom:bbox": "-2.170768,53.855706,-2.170768,53.855706",
    "geom:latitude": 53.855706,
    "geom:longitude": -2.170768,
    "iso:country": "GB",
    "mz:hierarchy_label": 1,
    "mz:is_current": 1,
    "os:country_code": "E92000001",
    "os:county_code": "E10000017",
    "os:district_code": "E07000122",
    "os:positional_quality_indicator": "1",
    "os:region_code": "E12000002",
    "src:geom": "os",
    "wof:belongsto": [
      102191581,
      85633159,
      136253055,
      1864205717,
      1880771547,
      404454985,
      1310034385,
      1880762053,
      404227469,
      1880762711
    ],
    "wof:breaches": [],
    "wof:country": "GB",
    "wof:created": 1709410791,
    "wof:geomhash": "72e97910972faced5b191898f1b4ff28",
    "wof:hierarchy": [
      {
        "continent_id": 102191581,
        "country_id": 85633159,
        "county_id": 1880771547,
        "empire_id": 136253055,
        "localadmin_id": 404454985,
        "locality_id": 1310034385,
        "macrocounty_id": 1880762053,
        "macroregion_id": 404227469,
        "postalcode_id": 1897514719,
        "region_id": 1880762711
      },
      {
        "continent_id": 102191581,
        "country_id": 85633159,
        "empire_id": 136253055,
        "postalcode_id": 1897514719,
        "postalregion_id": 1864205717
      }
    ],
    "wof:id": 1897514719,
    "wof:lastmodified": 1763548177,
    "wof:name": "BB8 0AT",
    "wof:parent_id": 1310034385,
    "wof:placetype": "postalcode",
    "wof:repo": "whosonfirst-data-postalcode-gb",
    "wof:superseded_by": [],
    "wof:supersedes": [],
    "wof:tags": []
  },
  "bbox": [
    -2.170768,
    53.855706,
    -2.170768,
    53.855706
  ],
  "geometry": {"coordinates":[-2.170768,53.855706],"type":"Point"}
}
