{
  "id": 438162531,
  "type": "Feature",
  "properties": {
    "date:inception_lower": "1980-01-01",
    "date:inception_upper": "1980-01-01",
    "edtf:cessation": "",
    "edtf:inception": "1980-01-01",
    "geom:area": 0,
    "geom:bbox": "-1.891896,50.788980,-1.891896,50.788980",
    "geom:latitude": 50.78898,
    "geom:longitude": -1.891896,
    "gp:parent_id": "39764",
    "iso:country": "GB",
    "mz:hierarchy_label": 1,
    "mz:is_current": 1,
    "os:country_code": "E92000001",
    "os:county_code": "E99999999",
    "os:district_code": "E06000059",
    "os:positional_quality_indicator": "1",
    "os:region_code": "E12000009",
    "src:geom": "os",
    "wof:belongsto": [
      85633159,
      102191581,
      136253055,
      1864205817,
      1360698745,
      404437857,
      1125814271,
      1880762151,
      404227469,
      1880772881
    ],
    "wof:breaches": [],
    "wof:concordances": {
      "gp:id": "26913747"
    },
    "wof:country": "GB",
    "wof:created": 1583701353,
    "wof:geomhash": "246bcc5042d48933133ad507f077b805",
    "wof:hierarchy": [
      {
        "continent_id": 102191581,
        "country_id": 85633159,
        "county_id": 1360698745,
        "empire_id": 136253055,
        "localadmin_id": 404437857,
        "locality_id": 1125814271,
        "macrocounty_id": 1880762151,
        "macroregion_id": 404227469,
        "postalcode_id": 438162531,
        "region_id": 1880772881
      },
      {
        "continent_id": 102191581,
        "country_id": 85633159,
        "empire_id": 136253055,
        "postalcode_id": 438162531,
        "postalregion_id": 1864205817
      }
    ],
    "wof:id": 438162531,
    "wof:lastmodified": 1763548069,
    "wof:name": "BH22 8RX",
    "wof:parent_id": 1125814271,
    "wof:placetype": "postalcode",
    "wof:repo": "whosonfirst-data-postalcode-gb",
    "wof:superseded_by": [],
    "wof:supersedes": [],
    "wof:tags": []
  },
  "bbox": [
    -1.891896,
    50.78898,
    -1.891896,
    50.78898
  ],
  "geometry": {"coordinates":[-1.891896,50.78898],"type":"Point"}
}
