{
  "id": 488578253,
  "type": "Feature",
  "properties": {
    "date:inception_lower": "1994-05-01",
    "date:inception_upper": "1994-05-01",
    "edtf:cessation": "",
    "edtf:inception": "1994-05-01",
    "geom:area": 0,
    "geom:bbox": "-3.372140,51.739074,-3.372140,51.739074",
    "geom:latitude": 51.739074,
    "geom:longitude": -3.37214,
    "gp:parent_id": "12696125",
    "iso:country": "GB",
    "mz:hierarchy_label": 1,
    "mz:is_current": 1,
    "os:country_code": "W92000004",
    "os:county_code": "W99999999",
    "os:district_code": "W06000024",
    "os:positional_quality_indicator": "1",
    "os:region_code": "W99999999",
    "src:geom": "os",
    "wof:belongsto": [
      85633159,
      102191581,
      136253055,
      1864206209,
      1360698803,
      404453105,
      1360711525,
      1880762185,
      404227475,
      1880773115
    ],
    "wof:breaches": [],
    "wof:concordances": {
      "gp:id": "27043883"
    },
    "wof:country": "GB",
    "wof:created": 1583701601,
    "wof:geomhash": "fa10ce70d3d802b182aa5b2569398772",
    "wof:hierarchy": [
      {
        "continent_id": 102191581,
        "country_id": 85633159,
        "county_id": 1360698803,
        "empire_id": 136253055,
        "localadmin_id": 404453105,
        "locality_id": 1360711525,
        "macrocounty_id": 1880762185,
        "macroregion_id": 404227475,
        "postalcode_id": 488578253,
        "region_id": 1880773115
      },
      {
        "continent_id": 102191581,
        "country_id": 85633159,
        "empire_id": 136253055,
        "postalcode_id": 488578253,
        "postalregion_id": 1864206209
      }
    ],
    "wof:id": 488578253,
    "wof:lastmodified": 1763548596,
    "wof:name": "CF47 0YR",
    "wof:parent_id": 1360711525,
    "wof:placetype": "postalcode",
    "wof:repo": "whosonfirst-data-postalcode-gb",
    "wof:superseded_by": [],
    "wof:supersedes": [],
    "wof:tags": []
  },
  "bbox": [
    -3.37214,
    51.739074,
    -3.37214,
    51.739074
  ],
  "geometry": {"coordinates":[-3.37214,51.739074],"type":"Point"}
}
