{
  "id": 437809947,
  "type": "Feature",
  "properties": {
    "date:cessation_lower": "2002-10-01",
    "date:cessation_upper": "2002-10-01",
    "date:inception_lower": "1984-10-01",
    "date:inception_upper": "1984-10-01",
    "edtf:cessation": "2002-10-01",
    "edtf:inception": "1984-10-01",
    "geom:area": 0,
    "geom:bbox": "-1.870280,53.719672,-1.870280,53.719672",
    "geom:latitude": 53.719672,
    "geom:longitude": -1.87028,
    "gp:parent_id": "22179",
    "iso:country": "GB",
    "mz:hierarchy_label": 1,
    "mz:is_current": 0,
    "os:country_code": "E92000001",
    "os:county_code": "E99999999",
    "os:district_code": "E08000033",
    "os:positional_quality_indicator": "1",
    "os:region_code": "E12000003",
    "src:geom": "os",
    "wof:belongsto": [
      85633159,
      102191581,
      136253055,
      1864207781,
      1360698833,
      1360817303,
      101750577,
      1880762059,
      404227469,
      1880773017
    ],
    "wof:breaches": [],
    "wof:concordances": {
      "gp:id": "28885858"
    },
    "wof:country": "GB",
    "wof:created": 1583701564,
    "wof:geomhash": "9d2d843a307f1778213fecefb8b3a6df",
    "wof:hierarchy": [
      {
        "continent_id": 102191581,
        "country_id": 85633159,
        "county_id": 1360698833,
        "empire_id": 136253055,
        "localadmin_id": 1360817303,
        "locality_id": 101750577,
        "macrocounty_id": 1880762059,
        "macroregion_id": 404227469,
        "postalcode_id": 437809947,
        "region_id": 1880773017
      },
      {
        "continent_id": 102191581,
        "country_id": 85633159,
        "empire_id": 136253055,
        "postalcode_id": 437809947,
        "postalregion_id": 1864207781
      }
    ],
    "wof:id": 437809947,
    "wof:lastmodified": 1763548232,
    "wof:name": "HX1 2TT",
    "wof:parent_id": 101750577,
    "wof:placetype": "postalcode",
    "wof:repo": "whosonfirst-data-postalcode-gb",
    "wof:superseded_by": [],
    "wof:supersedes": [],
    "wof:tags": []
  },
  "bbox": [
    -1.87028,
    53.719672,
    -1.87028,
    53.719672
  ],
  "geometry": {"coordinates":[-1.87028,53.719672],"type":"Point"}
}
