{
  "id": 1998351521,
  "type": "Feature",
  "properties": {
    "date:inception_lower": "2025-02-01",
    "date:inception_upper": "2025-02-01",
    "edtf:cessation": "",
    "edtf:inception": "2025-02-01",
    "geom:area": 0,
    "geom:bbox": "-4.152619,50.366020,-4.152619,50.366020",
    "geom:latitude": 50.36602,
    "geom:longitude": -4.152619,
    "iso:country": "GB",
    "mz:hierarchy_label": 1,
    "mz:is_current": 1,
    "os:country_code": "E92000001",
    "os:county_code": "E99999999",
    "os:district_code": "E06000026",
    "os:positional_quality_indicator": "1",
    "os:region_code": "E12000009",
    "src:geom": "os",
    "wof:belongsto": [
      102191581,
      85633159,
      1360698841,
      136253055,
      101750297,
      1880762149,
      404227469,
      1880762683,
      1864209831
    ],
    "wof:breaches": [],
    "wof:country": "GB",
    "wof:created": 1763549349,
    "wof:geomhash": "8cac5668546d9fdb3ccb7a90438291f8",
    "wof:hierarchy": [
      {
        "continent_id": 102191581,
        "country_id": 85633159,
        "county_id": 1360698841,
        "empire_id": 136253055,
        "locality_id": 101750297,
        "macrocounty_id": 1880762149,
        "macroregion_id": 404227469,
        "postalcode_id": 1998351521,
        "region_id": 1880762683
      },
      {
        "continent_id": 102191581,
        "country_id": 85633159,
        "empire_id": 136253055,
        "postalcode_id": 1998351521,
        "postalregion_id": 1864209831
      }
    ],
    "wof:id": 1998351521,
    "wof:lastmodified": 1763549349,
    "wof:name": "PL1 3FU",
    "wof:parent_id": 101750297,
    "wof:placetype": "postalcode",
    "wof:repo": "whosonfirst-data-postalcode-gb",
    "wof:superseded_by": [],
    "wof:supersedes": [],
    "wof:tags": []
  },
  "bbox": [
    -4.152619,
    50.36602,
    -4.152619,
    50.36602
  ],
  "geometry": {"coordinates":[-4.152619,50.36602],"type":"Point"}
}
