{
  "id": 1712681429,
  "type": "Feature",
  "properties": {
    "date:cessation_lower": "1997-12-01",
    "date:cessation_upper": "1997-12-01",
    "date:inception_lower": "1995-01-01",
    "date:inception_upper": "1995-01-01",
    "edtf:cessation": "1997-12-01",
    "edtf:inception": "1995-01-01",
    "geom:area": 0,
    "geom:bbox": "-3.043355,51.577042,-3.043355,51.577042",
    "geom:latitude": 51.577042,
    "geom:longitude": -3.043355,
    "iso:country": "GB",
    "mz:hierarchy_label": 1,
    "mz:is_current": 0,
    "os:country_code": "W92000004",
    "os:county_code": "W99999999",
    "os:district_code": "W06000022",
    "os:positional_quality_indicator": "6",
    "os:region_code": "W99999999",
    "src:geom": "os",
    "wof:belongsto": [
      102191581,
      85633159,
      1360699025,
      136253055,
      404441965,
      1125891613,
      1880762185,
      404227475,
      1880773115
    ],
    "wof:breaches": [],
    "wof:country": "GB",
    "wof:created": 1583798858,
    "wof:geomhash": "d05803f93ebb8f82160b6c9256be00cb",
    "wof:hierarchy": [
      {
        "continent_id": 102191581,
        "country_id": 85633159,
        "county_id": 1360699025,
        "empire_id": 136253055,
        "localadmin_id": 404441965,
        "locality_id": 1125891613,
        "macrocounty_id": 1880762185,
        "macroregion_id": 404227475,
        "postalcode_id": 1712681429,
        "region_id": 1880773115
      }
    ],
    "wof:id": 1712681429,
    "wof:lastmodified": 1763548686,
    "wof:name": "NP1 9XN",
    "wof:parent_id": 1125891613,
    "wof:placetype": "postalcode",
    "wof:repo": "whosonfirst-data-postalcode-gb",
    "wof:superseded_by": [],
    "wof:supersedes": [],
    "wof:tags": []
  },
  "bbox": [
    -3.043355,
    51.577042,
    -3.043355,
    51.577042
  ],
  "geometry": {"coordinates":[-3.043355,51.577042],"type":"Point"}
}
