{
  "id": 470888399,
  "type": "Feature",
  "properties": {
    "date:inception_lower": "2003-06-01",
    "date:inception_upper": "2003-06-01",
    "edtf:cessation": "",
    "edtf:inception": "2003-06-01",
    "geom:area": 0,
    "geom:bbox": "-2.307435,53.510785,-2.307435,53.510785",
    "geom:latitude": 53.510785,
    "geom:longitude": -2.307435,
    "iso:country": "GB",
    "mz:hierarchy_label": 1,
    "mz:is_current": 1,
    "os:country_code": "E92000001",
    "os:county_code": "E99999999",
    "os:district_code": "E08000006",
    "os:positional_quality_indicator": "1",
    "os:region_code": "E12000002",
    "src:geom": "os",
    "wof:belongsto": [
      85633159,
      102191581,
      136253055,
      1864208755,
      1360699005,
      1175612693,
      1880762163,
      404227469,
      1880773095
    ],
    "wof:breaches": [],
    "wof:concordances": {
      "gp:id": "27543118"
    },
    "wof:country": "GB",
    "wof:created": 1583701217,
    "wof:geomhash": "2ad855ba91636a2050dca586dc871af5",
    "wof:hierarchy": [
      {
        "continent_id": 102191581,
        "country_id": 85633159,
        "county_id": 1360699005,
        "empire_id": 136253055,
        "locality_id": 1175612693,
        "macrocounty_id": 1880762163,
        "macroregion_id": 404227469,
        "postalcode_id": 470888399,
        "region_id": 1880773095
      },
      {
        "continent_id": 102191581,
        "country_id": 85633159,
        "empire_id": 136253055,
        "postalcode_id": 470888399,
        "postalregion_id": 1864208755
      }
    ],
    "wof:id": 470888399,
    "wof:lastmodified": 1763547956,
    "wof:name": "M27 8AQ",
    "wof:parent_id": 1175612693,
    "wof:placetype": "postalcode",
    "wof:repo": "whosonfirst-data-postalcode-gb",
    "wof:superseded_by": [],
    "wof:supersedes": [],
    "wof:tags": []
  },
  "bbox": [
    -2.307435,
    53.510785,
    -2.307435,
    53.510785
  ],
  "geometry": {"coordinates":[-2.307435,53.510785],"type":"Point"}
}
