{
  "id": 504539821,
  "type": "Feature",
  "properties": {
    "date:inception_lower": "1999-06-01",
    "date:inception_upper": "1999-06-01",
    "edtf:cessation": "",
    "edtf:inception": "1999-06-01",
    "geom:area": 0,
    "geom:bbox": "-2.946490,51.594273,-2.946490,51.594273",
    "geom:latitude": 51.594273,
    "geom:longitude": -2.94649,
    "gp:parent_id": "12696123",
    "iso:country": "GB",
    "mz:hierarchy_label": 1,
    "mz:is_current": 1,
    "os:country_code": "W92000004",
    "os:county_code": "W99999999",
    "os:district_code": "W06000022",
    "os:positional_quality_indicator": "1",
    "os:region_code": "W99999999",
    "src:geom": "os",
    "wof:belongsto": [
      85633159,
      102191581,
      136253055,
      1864209275,
      1880771709,
      404440923,
      1126022561,
      1880762037,
      404227469,
      1880762699
    ],
    "wof:breaches": [],
    "wof:concordances": {
      "gp:id": "27667786"
    },
    "wof:country": "GB",
    "wof:created": 1583701410,
    "wof:geomhash": "d179942509bebdea8247dd04348d766d",
    "wof:hierarchy": [
      {
        "continent_id": 102191581,
        "country_id": 85633159,
        "county_id": 1880771709,
        "empire_id": 136253055,
        "localadmin_id": 404440923,
        "locality_id": 1126022561,
        "macrocounty_id": 1880762037,
        "macroregion_id": 404227469,
        "postalcode_id": 504539821,
        "region_id": 1880762699
      },
      {
        "continent_id": 102191581,
        "country_id": 85633159,
        "empire_id": 136253055,
        "postalcode_id": 504539821,
        "postalregion_id": 1864209275
      }
    ],
    "wof:id": 504539821,
    "wof:lastmodified": 1763548070,
    "wof:name": "NP19 9DJ",
    "wof:parent_id": 1126022561,
    "wof:placetype": "postalcode",
    "wof:repo": "whosonfirst-data-postalcode-gb",
    "wof:superseded_by": [],
    "wof:supersedes": [],
    "wof:tags": []
  },
  "bbox": [
    -2.94649,
    51.594273,
    -2.94649,
    51.594273
  ],
  "geometry": {"coordinates":[-2.94649,51.594273],"type":"Point"}
}
