{
  "id": 1998349239,
  "type": "Feature",
  "properties": {
    "date:inception_lower": "2025-02-01",
    "date:inception_upper": "2025-02-01",
    "edtf:cessation": "",
    "edtf:inception": "2025-02-01",
    "geom:area": 0,
    "geom:bbox": "-2.612653,53.125292,-2.612653,53.125292",
    "geom:latitude": 53.125292,
    "geom:longitude": -2.612653,
    "iso:country": "GB",
    "mz:hierarchy_label": 1,
    "mz:is_current": 1,
    "os:country_code": "E92000001",
    "os:county_code": "E99999999",
    "os:district_code": "E06000049",
    "os:positional_quality_indicator": "1",
    "os:region_code": "E12000002",
    "src:geom": "os",
    "wof:belongsto": [
      102191581,
      85633159,
      1360698929,
      136253055,
      404453933,
      1276903491,
      1880762135,
      404227469,
      1880773021,
      1864206561
    ],
    "wof:breaches": [],
    "wof:country": "GB",
    "wof:created": 1763549247,
    "wof:geomhash": "87bb0070d21705a71321aa39094f4680",
    "wof:hierarchy": [
      {
        "continent_id": 102191581,
        "country_id": 85633159,
        "county_id": 1360698929,
        "empire_id": 136253055,
        "localadmin_id": 404453933,
        "locality_id": 1276903491,
        "macrocounty_id": 1880762135,
        "macroregion_id": 404227469,
        "postalcode_id": 1998349239,
        "region_id": 1880773021
      },
      {
        "continent_id": 102191581,
        "country_id": 85633159,
        "empire_id": 136253055,
        "postalcode_id": 1998349239,
        "postalregion_id": 1864206561
      }
    ],
    "wof:id": 1998349239,
    "wof:lastmodified": 1763549247,
    "wof:name": "CW6 9ZG",
    "wof:parent_id": 1276903491,
    "wof:placetype": "postalcode",
    "wof:repo": "whosonfirst-data-postalcode-gb",
    "wof:superseded_by": [],
    "wof:supersedes": [],
    "wof:tags": []
  },
  "bbox": [
    -2.612653,
    53.125292,
    -2.612653,
    53.125292
  ],
  "geometry": {"coordinates":[-2.612653,53.125292],"type":"Point"}
}
