{
  "id": 1712612451,
  "type": "Feature",
  "properties": {
    "date:cessation_lower": "1991-12-01",
    "date:cessation_upper": "1991-12-01",
    "date:inception_lower": "1991-09-01",
    "date:inception_upper": "1991-09-01",
    "edtf:cessation": "1991-12-01",
    "edtf:inception": "1991-09-01",
    "geom:area": 0,
    "geom:bbox": "-0.289768,52.496455,-0.289768,52.496455",
    "geom:latitude": 52.496455,
    "geom:longitude": -0.289768,
    "iso:country": "GB",
    "mz:hierarchy_label": 1,
    "mz:is_current": 0,
    "os:country_code": "E92000001",
    "os:county_code": "E10000003",
    "os:district_code": "E07000011",
    "os:positional_quality_indicator": "8",
    "os:region_code": "E12000006",
    "src:geom": "os",
    "wof:belongsto": [
      85633159,
      102191581,
      136253055,
      1864209697,
      1880771371,
      404448041,
      1125960855,
      1880762143,
      404227469,
      1880762687
    ],
    "wof:breaches": [],
    "wof:country": "GB",
    "wof:created": 1583795814,
    "wof:geomhash": "433942f0a937bc93bf3648cc3e983bc5",
    "wof:hierarchy": [
      {
        "continent_id": 102191581,
        "country_id": 85633159,
        "county_id": 1880771371,
        "empire_id": 136253055,
        "localadmin_id": 404448041,
        "locality_id": 1125960855,
        "macrocounty_id": 1880762143,
        "macroregion_id": 404227469,
        "postalcode_id": 1712612451,
        "region_id": 1880762687
      },
      {
        "continent_id": 102191581,
        "country_id": 85633159,
        "empire_id": 136253055,
        "postalcode_id": 1712612451,
        "postalregion_id": 1864209697
      }
    ],
    "wof:id": 1712612451,
    "wof:lastmodified": 1763548692,
    "wof:name": "PE3 6FF",
    "wof:parent_id": 1125960855,
    "wof:placetype": "postalcode",
    "wof:repo": "whosonfirst-data-postalcode-gb",
    "wof:superseded_by": [],
    "wof:supersedes": [],
    "wof:tags": []
  },
  "bbox": [
    -0.289768,
    52.496455,
    -0.289768,
    52.496455
  ],
  "geometry": {"coordinates":[-0.289768,52.496455],"type":"Point"}
}
