{
  "id": 488591837,
  "type": "Feature",
  "properties": {
    "date:inception_lower": "1990-07-01",
    "date:inception_upper": "1990-07-01",
    "edtf:cessation": "",
    "edtf:inception": "1990-07-01",
    "geom:area": 0,
    "geom:bbox": "-3.128841,53.236409,-3.128841,53.236409",
    "geom:latitude": 53.236409,
    "geom:longitude": -3.128841,
    "gp:parent_id": "12696124",
    "iso:country": "GB",
    "mz:hierarchy_label": 1,
    "mz:is_current": 1,
    "os:country_code": "W92000004",
    "os:county_code": "W99999999",
    "os:district_code": "W06000005",
    "os:positional_quality_indicator": "1",
    "os:region_code": "W99999999",
    "src:geom": "os",
    "wof:belongsto": [
      85633159,
      102191581,
      136253055,
      1864206293,
      1360698799,
      404442043,
      101872047,
      1880762183,
      404227475,
      1880772909
    ],
    "wof:breaches": [],
    "wof:concordances": {
      "gp:id": "27059402"
    },
    "wof:country": "GB",
    "wof:created": 1583701609,
    "wof:geomhash": "18caac0e409e67868eaaff6e66564b06",
    "wof:hierarchy": [
      {
        "continent_id": 102191581,
        "country_id": 85633159,
        "county_id": 1360698799,
        "empire_id": 136253055,
        "localadmin_id": 404442043,
        "locality_id": 101872047,
        "macrocounty_id": 1880762183,
        "macroregion_id": 404227475,
        "postalcode_id": 488591837,
        "region_id": 1880772909
      },
      {
        "continent_id": 102191581,
        "country_id": 85633159,
        "empire_id": 136253055,
        "postalcode_id": 488591837,
        "postalregion_id": 1864206293
      }
    ],
    "wof:id": 488591837,
    "wof:lastmodified": 1763548545,
    "wof:name": "CH6 5SA",
    "wof:parent_id": 101872047,
    "wof:placetype": "postalcode",
    "wof:repo": "whosonfirst-data-postalcode-gb",
    "wof:superseded_by": [],
    "wof:supersedes": [],
    "wof:tags": []
  },
  "bbox": [
    -3.128841,
    53.236409,
    -3.128841,
    53.236409
  ],
  "geometry": {"coordinates":[-3.128841,53.236409],"type":"Point"}
}
