{
  "id": 454870857,
  "type": "Feature",
  "properties": {
    "date:cessation_lower": "2016-05-01",
    "date:cessation_upper": "2016-05-01",
    "date:inception_lower": "1986-04-01",
    "date:inception_upper": "1986-04-01",
    "edtf:cessation": "2016-05-01",
    "edtf:inception": "1986-04-01",
    "geom:area": 0,
    "geom:bbox": "1.477668,52.198320,1.477668,52.198320",
    "geom:latitude": 52.19832,
    "geom:longitude": 1.477668,
    "gp:parent_id": "12357",
    "iso:country": "GB",
    "mz:hierarchy_label": 1,
    "mz:is_current": 0,
    "os:country_code": "E92000001",
    "os:county_code": "E10000029",
    "os:district_code": "E07000244",
    "os:positional_quality_indicator": "1",
    "os:region_code": "E12000006",
    "src:geom": "os",
    "wof:belongsto": [
      85633159,
      102191581,
      136253055,
      1864207839,
      1880771635,
      404448015,
      1360756213,
      1880762001,
      404227469,
      1880762685
    ],
    "wof:breaches": [],
    "wof:concordances": {
      "gp:id": "27395250"
    },
    "wof:country": "GB",
    "wof:created": 1583701744,
    "wof:geomhash": "6ec2cf3c2e7d0db5e583820fb6f949a4",
    "wof:hierarchy": [
      {
        "continent_id": 102191581,
        "country_id": 85633159,
        "county_id": 1880771635,
        "empire_id": 136253055,
        "localadmin_id": 404448015,
        "locality_id": 1360756213,
        "macrocounty_id": 1880762001,
        "macroregion_id": 404227469,
        "postalcode_id": 454870857,
        "region_id": 1880762685
      },
      {
        "continent_id": 102191581,
        "country_id": 85633159,
        "empire_id": 136253055,
        "postalcode_id": 454870857,
        "postalregion_id": 1864207839
      }
    ],
    "wof:id": 454870857,
    "wof:lastmodified": 1763548471,
    "wof:name": "IP17 1JS",
    "wof:parent_id": 1360756213,
    "wof:placetype": "postalcode",
    "wof:repo": "whosonfirst-data-postalcode-gb",
    "wof:superseded_by": [],
    "wof:supersedes": [],
    "wof:tags": []
  },
  "bbox": [
    1.477668,
    52.19832,
    1.477668,
    52.19832
  ],
  "geometry": {"coordinates":[1.477668,52.19832],"type":"Point"}
}
