{
  "id": 1712561761,
  "type": "Feature",
  "properties": {
    "date:cessation_lower": "1996-06-01",
    "date:cessation_upper": "1996-06-01",
    "date:inception_lower": "1980-01-01",
    "date:inception_upper": "1980-01-01",
    "edtf:cessation": "1996-06-01",
    "edtf:inception": "1980-01-01",
    "geom:area": 0,
    "geom:bbox": "-2.308563,51.334182,-2.308563,51.334182",
    "geom:latitude": 51.334182,
    "geom:longitude": -2.308563,
    "iso:country": "GB",
    "mz:hierarchy_label": 1,
    "mz:is_current": 0,
    "os:country_code": "E92000001",
    "os:county_code": "E99999999",
    "os:district_code": "E06000022",
    "os:positional_quality_indicator": "8",
    "os:region_code": "E12000009",
    "src:geom": "os",
    "wof:belongsto": [
      85633159,
      102191581,
      136253055,
      1864205677,
      1360698775,
      404440845,
      1125775569,
      1880762071,
      404227469,
      1880773145
    ],
    "wof:breaches": [],
    "wof:country": "GB",
    "wof:created": 1583793556,
    "wof:geomhash": "51eeca7f436732d28fbcb5c2268b0680",
    "wof:hierarchy": [
      {
        "continent_id": 102191581,
        "country_id": 85633159,
        "county_id": 1360698775,
        "empire_id": 136253055,
        "localadmin_id": 404440845,
        "locality_id": 1125775569,
        "macrocounty_id": 1880762071,
        "macroregion_id": 404227469,
        "postalcode_id": 1712561761,
        "region_id": 1880773145
      },
      {
        "continent_id": 102191581,
        "country_id": 85633159,
        "empire_id": 136253055,
        "postalcode_id": 1712561761,
        "postalregion_id": 1864205677
      }
    ],
    "wof:id": 1712561761,
    "wof:lastmodified": 1763548706,
    "wof:name": "BA3 6EH",
    "wof:parent_id": 1125775569,
    "wof:placetype": "postalcode",
    "wof:repo": "whosonfirst-data-postalcode-gb",
    "wof:superseded_by": [],
    "wof:supersedes": [],
    "wof:tags": []
  },
  "bbox": [
    -2.308563,
    51.334182,
    -2.308563,
    51.334182
  ],
  "geometry": {"coordinates":[-2.308563,51.334182],"type":"Point"}
}
