{
  "id": 1160716522,
  "type": "Feature",
  "properties": {
    "date:cessation_lower": "1999-06-01",
    "date:cessation_upper": "1999-06-01",
    "date:inception_lower": "1980-01-01",
    "date:inception_upper": "1980-01-01",
    "edtf:cessation": "1999-06-01",
    "edtf:inception": "1980-01-01",
    "geom:area": 0,
    "geom:bbox": "-2.940319,51.552016,-2.940319,51.552016",
    "geom:latitude": 51.552016,
    "geom:longitude": -2.940319,
    "iso:country": "GB",
    "mz:hierarchy_label": 1,
    "mz:is_current": 0,
    "os:country_code": "W92000004",
    "os:county_code": "W99999999",
    "os:district_code": "W06000022",
    "os:positional_quality_indicator": "8",
    "os:region_code": "W99999999",
    "src:geom": "os",
    "wof:belongsto": [
      102191581,
      85633159,
      1360698735,
      136253055,
      404439851,
      1125877619,
      1880762173,
      404227475,
      1880773189
    ],
    "wof:breaches": [],
    "wof:country": "GB",
    "wof:created": 1583786925,
    "wof:geomhash": "7a6bd93162be256ccf441e90d734cb59",
    "wof:hierarchy": [
      {
        "continent_id": 102191581,
        "country_id": 85633159,
        "county_id": 1360698735,
        "empire_id": 136253055,
        "localadmin_id": 404439851,
        "locality_id": 1125877619,
        "macrocounty_id": 1880762173,
        "macroregion_id": 404227475,
        "postalcode_id": 1160716522,
        "region_id": 1880773189
      }
    ],
    "wof:id": 1160716522,
    "wof:lastmodified": 1763548224,
    "wof:name": "NP6 2BY",
    "wof:parent_id": 1125877619,
    "wof:placetype": "postalcode",
    "wof:repo": "whosonfirst-data-postalcode-gb",
    "wof:superseded_by": [],
    "wof:supersedes": [],
    "wof:tags": []
  },
  "bbox": [
    -2.940319,
    51.552016,
    -2.940319,
    51.552016
  ],
  "geometry": {"coordinates":[-2.940319,51.552016],"type":"Point"}
}
