{
  "id": 504603749,
  "type": "Feature",
  "properties": {
    "date:inception_lower": "1980-01-01",
    "date:inception_upper": "1980-01-01",
    "edtf:cessation": "",
    "edtf:inception": "1980-01-01",
    "geom:area": 0,
    "geom:bbox": "-3.934353,51.657030,-3.934353,51.657030",
    "geom:latitude": 51.65703,
    "geom:longitude": -3.934353,
    "gp:parent_id": "29365",
    "iso:country": "GB",
    "mz:hierarchy_label": 1,
    "mz:is_current": 1,
    "os:country_code": "W92000004",
    "os:county_code": "W99999999",
    "os:district_code": "W06000011",
    "os:positional_quality_indicator": "1",
    "os:region_code": "W99999999",
    "src:geom": "os",
    "wof:belongsto": [
      85633159,
      102191581,
      136253055,
      1864210363,
      1360699095,
      404439281,
      1360711729,
      1880762113,
      404227475,
      1880773177
    ],
    "wof:breaches": [],
    "wof:concordances": {
      "gp:id": "27884014"
    },
    "wof:country": "GB",
    "wof:created": 1583701472,
    "wof:geomhash": "ddab0bcc9ea50a300590371fa6318828",
    "wof:hierarchy": [
      {
        "continent_id": 102191581,
        "country_id": 85633159,
        "county_id": 1360699095,
        "empire_id": 136253055,
        "localadmin_id": 404439281,
        "locality_id": 1360711729,
        "macrocounty_id": 1880762113,
        "macroregion_id": 404227475,
        "postalcode_id": 504603749,
        "region_id": 1880773177
      },
      {
        "continent_id": 102191581,
        "country_id": 85633159,
        "empire_id": 136253055,
        "postalcode_id": 504603749,
        "postalregion_id": 1864210363
      }
    ],
    "wof:id": 504603749,
    "wof:lastmodified": 1763548010,
    "wof:name": "SA6 8PF",
    "wof:parent_id": 1360711729,
    "wof:placetype": "postalcode",
    "wof:repo": "whosonfirst-data-postalcode-gb",
    "wof:superseded_by": [],
    "wof:supersedes": [],
    "wof:tags": []
  },
  "bbox": [
    -3.934353,
    51.65703,
    -3.934353,
    51.65703
  ],
  "geometry": {"coordinates":[-3.934353,51.65703],"type":"Point"}
}
