{
  "id": 39346704,
  "type": "Feature",
  "properties": {
    "date:cessation_lower": "1998-12-01",
    "date:cessation_upper": "1998-12-01",
    "date:inception_lower": "1980-01-01",
    "date:inception_upper": "1980-01-01",
    "edtf:cessation": "1998-12-01",
    "edtf:inception": "1980-01-01",
    "geom:area": 0,
    "geom:bbox": "-1.518247,54.914794,-1.518247,54.914794",
    "geom:latitude": 54.914794,
    "geom:longitude": -1.518247,
    "iso:country": "GB",
    "mz:hierarchy_label": 1,
    "mz:is_current": 0,
    "os:country_code": "E92000001",
    "os:county_code": "E99999999",
    "os:district_code": "E08000024",
    "os:positional_quality_indicator": "3",
    "os:region_code": "E12000001",
    "src:geom": "os",
    "wof:belongsto": [
      85633159,
      102191581,
      136253055,
      1864209067,
      1360698987,
      1360817213,
      1259612545,
      1880762063,
      404227469,
      1880773053
    ],
    "wof:breaches": [],
    "wof:country": "GB",
    "wof:created": 1583800460,
    "wof:geomhash": "dd27c33c45449ab08519817954cf681c",
    "wof:hierarchy": [
      {
        "continent_id": 102191581,
        "country_id": 85633159,
        "county_id": 1360698987,
        "empire_id": 136253055,
        "localadmin_id": 1360817213,
        "locality_id": 1259612545,
        "macrocounty_id": 1880762063,
        "macroregion_id": 404227469,
        "postalcode_id": 39346704,
        "region_id": 1880773053
      },
      {
        "continent_id": 102191581,
        "country_id": 85633159,
        "empire_id": 136253055,
        "postalcode_id": 39346704,
        "postalregion_id": 1864209067
      }
    ],
    "wof:id": 39346704,
    "wof:lastmodified": 1763548397,
    "wof:name": "NE37 2BY",
    "wof:parent_id": 1259612545,
    "wof:placetype": "postalcode",
    "wof:repo": "whosonfirst-data-postalcode-gb",
    "wof:superseded_by": [],
    "wof:supersedes": [],
    "wof:tags": []
  },
  "bbox": [
    -1.518247,
    54.914794,
    -1.518247,
    54.914794
  ],
  "geometry": {"coordinates":[-1.518247,54.914794],"type":"Point"}
}
