{
  "id": 487605233,
  "type": "Feature",
  "properties": {
    "date:inception_lower": "1980-01-01",
    "date:inception_upper": "1980-01-01",
    "edtf:cessation": "",
    "edtf:inception": "1980-01-01",
    "geom:area": 0,
    "geom:bbox": "-1.291625,51.093600,-1.291625,51.093600",
    "geom:latitude": 51.0936,
    "geom:longitude": -1.291625,
    "gp:parent_id": "25132",
    "iso:country": "GB",
    "mz:hierarchy_label": 1,
    "mz:is_current": 1,
    "os:country_code": "E92000001",
    "os:county_code": "E10000014",
    "os:district_code": "E07000094",
    "os:positional_quality_indicator": "1",
    "os:region_code": "E12000008",
    "src:geom": "os",
    "wof:belongsto": [
      85633159,
      102191581,
      136253055,
      1864210659,
      1880771467,
      404446421,
      1125846599,
      1880762155,
      404227469,
      1880762717
    ],
    "wof:breaches": [],
    "wof:concordances": {
      "gp:id": "27954090"
    },
    "wof:country": "GB",
    "wof:created": 1583701081,
    "wof:geomhash": "a3eb37f3a7139976a3c46272ae1076f2",
    "wof:hierarchy": [
      {
        "continent_id": 102191581,
        "country_id": 85633159,
        "county_id": 1880771467,
        "empire_id": 136253055,
        "localadmin_id": 404446421,
        "locality_id": 1125846599,
        "macrocounty_id": 1880762155,
        "macroregion_id": 404227469,
        "postalcode_id": 487605233,
        "region_id": 1880762717
      },
      {
        "continent_id": 102191581,
        "country_id": 85633159,
        "empire_id": 136253055,
        "postalcode_id": 487605233,
        "postalregion_id": 1864210659
      }
    ],
    "wof:id": 487605233,
    "wof:lastmodified": 1763548651,
    "wof:name": "SO21 1AA",
    "wof:parent_id": 1125846599,
    "wof:placetype": "postalcode",
    "wof:repo": "whosonfirst-data-postalcode-gb",
    "wof:superseded_by": [],
    "wof:supersedes": [],
    "wof:tags": []
  },
  "bbox": [
    -1.291625,
    51.0936,
    -1.291625,
    51.0936
  ],
  "geometry": {"coordinates":[-1.291625,51.0936],"type":"Point"}
}
