{
  "id": 38347074,
  "type": "Feature",
  "properties": {
    "date:cessation_lower": "1995-07-01",
    "date:cessation_upper": "1995-07-01",
    "date:inception_lower": "1980-01-01",
    "date:inception_upper": "1980-01-01",
    "edtf:cessation": "1995-07-01",
    "edtf:inception": "1980-01-01",
    "geom:area": 0,
    "geom:bbox": "0.708588,51.730675,0.708588,51.730675",
    "geom:latitude": 51.730675,
    "geom:longitude": 0.708588,
    "iso:country": "GB",
    "mz:hierarchy_label": 1,
    "mz:is_current": 0,
    "os:country_code": "E92000001",
    "os:county_code": "E10000012",
    "os:district_code": "E07000074",
    "os:positional_quality_indicator": "1",
    "os:region_code": "E12000006",
    "src:geom": "os",
    "wof:belongsto": [
      85633159,
      102191581,
      136253055,
      1864206377,
      1880771435,
      404443149,
      1126028161,
      1880762159,
      404227469,
      1880762723
    ],
    "wof:breaches": [],
    "wof:country": "GB",
    "wof:created": 1583789310,
    "wof:geomhash": "2c8394c26de423939934a32cc731949d",
    "wof:hierarchy": [
      {
        "continent_id": 102191581,
        "country_id": 85633159,
        "county_id": 1880771435,
        "empire_id": 136253055,
        "localadmin_id": 404443149,
        "locality_id": 1126028161,
        "macrocounty_id": 1880762159,
        "macroregion_id": 404227469,
        "postalcode_id": 38347074,
        "region_id": 1880762723
      },
      {
        "continent_id": 102191581,
        "country_id": 85633159,
        "empire_id": 136253055,
        "postalcode_id": 38347074,
        "postalregion_id": 1864206377
      }
    ],
    "wof:id": 38347074,
    "wof:lastmodified": 1763548160,
    "wof:name": "CM9 7RW",
    "wof:parent_id": 1126028161,
    "wof:placetype": "postalcode",
    "wof:repo": "whosonfirst-data-postalcode-gb",
    "wof:superseded_by": [],
    "wof:supersedes": [],
    "wof:tags": []
  },
  "bbox": [
    0.708588,
    51.730675,
    0.708588,
    51.730675
  ],
  "geometry": {"coordinates":[0.708588,51.730675],"type":"Point"}
}
