{
  "id": 488479307,
  "type": "Feature",
  "properties": {
    "date:inception_lower": "1983-02-01",
    "date:inception_upper": "1983-02-01",
    "edtf:cessation": "",
    "edtf:inception": "1983-02-01",
    "geom:area": 0,
    "geom:bbox": "-4.366181,55.863120,-4.366181,55.863120",
    "geom:latitude": 55.86312,
    "geom:longitude": -4.366181,
    "gp:parent_id": "12696207",
    "iso:country": "GB",
    "mz:hierarchy_label": 1,
    "mz:is_current": 1,
    "os:country_code": "S92000003",
    "os:county_code": "S99999999",
    "os:district_code": "S12000038",
    "os:positional_quality_indicator": "1",
    "os:region_code": "S99999999",
    "src:geom": "os",
    "wof:belongsto": [
      85633159,
      102191581,
      136253055,
      1864207375,
      1360699097,
      1880762039,
      404227471,
      1880773179
    ],
    "wof:breaches": [],
    "wof:concordances": {
      "gp:id": "26594500"
    },
    "wof:country": "GB",
    "wof:created": 1583701491,
    "wof:geomhash": "cc56c77ae1b16ce2b40f0505cdad2b57",
    "wof:hierarchy": [
      {
        "continent_id": 102191581,
        "country_id": 85633159,
        "county_id": 1360699097,
        "empire_id": 136253055,
        "macrocounty_id": 1880762039,
        "macroregion_id": 404227471,
        "postalcode_id": 488479307,
        "region_id": 1880773179
      },
      {
        "continent_id": 102191581,
        "country_id": 85633159,
        "empire_id": 136253055,
        "postalcode_id": 488479307,
        "postalregion_id": 1864207375
      }
    ],
    "wof:id": 488479307,
    "wof:lastmodified": 1763548455,
    "wof:name": "G52 4DR",
    "wof:parent_id": 1360699097,
    "wof:placetype": "postalcode",
    "wof:repo": "whosonfirst-data-postalcode-gb",
    "wof:superseded_by": [],
    "wof:supersedes": [],
    "wof:tags": []
  },
  "bbox": [
    -4.366181,
    55.86312,
    -4.366181,
    55.86312
  ],
  "geometry": {"coordinates":[-4.366181,55.86312],"type":"Point"}
}
