{
  "id": 38525427,
  "type": "Feature",
  "properties": {
    "date:cessation_lower": "1983-12-01",
    "date:cessation_upper": "1983-12-01",
    "date:inception_lower": "1983-03-01",
    "date:inception_upper": "1983-03-01",
    "edtf:cessation": "1983-12-01",
    "edtf:inception": "1983-03-01",
    "geom:area": 0,
    "geom:bbox": "-3.182431,51.488681,-3.182431,51.488681",
    "geom:latitude": 51.488681,
    "geom:longitude": -3.182431,
    "iso:country": "GB",
    "mz:hierarchy_label": 1,
    "mz:is_current": 0,
    "os:country_code": "W92000004",
    "os:county_code": "W99999999",
    "os:district_code": "W06000015",
    "os:positional_quality_indicator": "8",
    "os:region_code": "W99999999",
    "src:geom": "os",
    "wof:belongsto": [
      102191581,
      85633159,
      1360699107,
      136253055,
      101750397,
      1880762115,
      404227475,
      1880773187
    ],
    "wof:breaches": [],
    "wof:country": "GB",
    "wof:created": 1583791369,
    "wof:geomhash": "1cd75fe7562cd569dfe6080baeea0cb5",
    "wof:hierarchy": [
      {
        "continent_id": 102191581,
        "country_id": 85633159,
        "county_id": 1360699107,
        "empire_id": 136253055,
        "locality_id": 101750397,
        "macrocounty_id": 1880762115,
        "macroregion_id": 404227475,
        "postalcode_id": 38525427,
        "region_id": 1880773187
      }
    ],
    "wof:id": 38525427,
    "wof:lastmodified": 1763548357,
    "wof:name": "CF1 3LY",
    "wof:parent_id": 101750397,
    "wof:placetype": "postalcode",
    "wof:repo": "whosonfirst-data-postalcode-gb",
    "wof:superseded_by": [],
    "wof:supersedes": [],
    "wof:tags": []
  },
  "bbox": [
    -3.182431,
    51.488681,
    -3.182431,
    51.488681
  ],
  "geometry": {"coordinates":[-3.182431,51.488681],"type":"Point"}
}
