{
  "id": 504582073,
  "type": "Feature",
  "properties": {
    "date:inception_lower": "1980-01-01",
    "date:inception_upper": "1980-01-01",
    "edtf:cessation": "",
    "edtf:inception": "1980-01-01",
    "geom:area": 0,
    "geom:bbox": "-3.612229,51.751688,-3.612229,51.751688",
    "geom:latitude": 51.751688,
    "geom:longitude": -3.612229,
    "gp:parent_id": "12696122",
    "iso:country": "GB",
    "mz:hierarchy_label": 1,
    "mz:is_current": 1,
    "os:country_code": "W92000004",
    "os:county_code": "W99999999",
    "os:district_code": "W06000012",
    "os:positional_quality_indicator": "1",
    "os:region_code": "W99999999",
    "src:geom": "os",
    "wof:belongsto": [
      85633159,
      102191581,
      136253055,
      1864210291,
      1360698825,
      404429201,
      1360113467,
      1880762113,
      404227475,
      1880773177
    ],
    "wof:breaches": [],
    "wof:concordances": {
      "gp:id": "27870902"
    },
    "wof:country": "GB",
    "wof:created": 1583701456,
    "wof:geomhash": "f70aaed660dd2c0e19e024e637b90862",
    "wof:hierarchy": [
      {
        "continent_id": 102191581,
        "country_id": 85633159,
        "county_id": 1360698825,
        "empire_id": 136253055,
        "localadmin_id": 404429201,
        "locality_id": 1360113467,
        "macrocounty_id": 1880762113,
        "macroregion_id": 404227475,
        "postalcode_id": 504582073,
        "region_id": 1880773177
      },
      {
        "continent_id": 102191581,
        "country_id": 85633159,
        "empire_id": 136253055,
        "postalcode_id": 504582073,
        "postalregion_id": 1864210291
      }
    ],
    "wof:id": 504582073,
    "wof:lastmodified": 1763548153,
    "wof:name": "SA11 5TU",
    "wof:parent_id": 1360113467,
    "wof:placetype": "postalcode",
    "wof:repo": "whosonfirst-data-postalcode-gb",
    "wof:superseded_by": [],
    "wof:supersedes": [],
    "wof:tags": []
  },
  "bbox": [
    -3.612229,
    51.751688,
    -3.612229,
    51.751688
  ],
  "geometry": {"coordinates":[-3.612229,51.751688],"type":"Point"}
}
