{
  "id": 1712528299,
  "type": "Feature",
  "properties": {
    "date:inception_lower": "2019-04-01",
    "date:inception_upper": "2019-04-01",
    "edtf:cessation": "",
    "edtf:inception": "2019-04-01",
    "geom:area": 0,
    "geom:bbox": "-3.618670,57.332347,-3.618670,57.332347",
    "geom:latitude": 57.332347,
    "geom:longitude": -3.61867,
    "iso:country": "GB",
    "mz:hierarchy_label": 1,
    "mz:is_current": 1,
    "os:country_code": "S92000003",
    "os:county_code": "S99999999",
    "os:district_code": "S12000017",
    "os:positional_quality_indicator": "1",
    "os:region_code": "S99999999",
    "src:geom": "os",
    "wof:belongsto": [
      85633159,
      102191581,
      136253055,
      1864209775,
      1360699045,
      1880762005,
      404227471,
      1880773131
    ],
    "wof:breaches": [],
    "wof:country": "GB",
    "wof:created": 1583792054,
    "wof:geomhash": "7c4313448222856cf09214c57d2d43c2",
    "wof:hierarchy": [
      {
        "continent_id": 102191581,
        "country_id": 85633159,
        "county_id": 1360699045,
        "empire_id": 136253055,
        "macrocounty_id": 1880762005,
        "macroregion_id": 404227471,
        "postalcode_id": 1712528299,
        "region_id": 1880773131
      },
      {
        "continent_id": 102191581,
        "country_id": 85633159,
        "empire_id": 136253055,
        "postalcode_id": 1712528299,
        "postalregion_id": 1864209775
      }
    ],
    "wof:id": 1712528299,
    "wof:lastmodified": 1763548759,
    "wof:name": "PH26 3AB",
    "wof:parent_id": 1360699045,
    "wof:placetype": "postalcode",
    "wof:repo": "whosonfirst-data-postalcode-gb",
    "wof:superseded_by": [],
    "wof:supersedes": [],
    "wof:tags": []
  },
  "bbox": [
    -3.61867,
    57.332347,
    -3.61867,
    57.332347
  ],
  "geometry": {"coordinates":[-3.61867,57.332347],"type":"Point"}
}
