{
  "id": 504570543,
  "type": "Feature",
  "properties": {
    "date:inception_lower": "1983-09-01",
    "date:inception_upper": "1983-09-01",
    "edtf:cessation": "",
    "edtf:inception": "1983-09-01",
    "geom:area": 0,
    "geom:bbox": "-3.331922,56.591790,-3.331922,56.591790",
    "geom:latitude": 56.59179,
    "geom:longitude": -3.331922,
    "gp:parent_id": "32954",
    "iso:country": "GB",
    "mz:hierarchy_label": 1,
    "mz:is_current": 1,
    "os:country_code": "S92000003",
    "os:county_code": "S99999999",
    "os:district_code": "S12000048",
    "os:positional_quality_indicator": "1",
    "os:region_code": "S99999999",
    "src:geom": "os",
    "wof:belongsto": [
      85633159,
      102191581,
      136253055,
      1864209737,
      1360698829,
      1880762043,
      404227471,
      1880772947
    ],
    "wof:breaches": [],
    "wof:concordances": {
      "gp:id": "27760057"
    },
    "wof:country": "GB",
    "wof:created": 1583701442,
    "wof:geomhash": "b8714b7c36d7532cef01ff2d75bd6133",
    "wof:hierarchy": [
      {
        "continent_id": 102191581,
        "country_id": 85633159,
        "county_id": 1360698829,
        "empire_id": 136253055,
        "macrocounty_id": 1880762043,
        "macroregion_id": 404227471,
        "postalcode_id": 504570543,
        "region_id": 1880772947
      },
      {
        "continent_id": 102191581,
        "country_id": 85633159,
        "empire_id": 136253055,
        "postalcode_id": 504570543,
        "postalregion_id": 1864209737
      }
    ],
    "wof:id": 504570543,
    "wof:lastmodified": 1763548179,
    "wof:name": "PH10 7EG",
    "wof:parent_id": 1360698829,
    "wof:placetype": "postalcode",
    "wof:repo": "whosonfirst-data-postalcode-gb",
    "wof:superseded_by": [],
    "wof:supersedes": [],
    "wof:tags": []
  },
  "bbox": [
    -3.331922,
    56.59179,
    -3.331922,
    56.59179
  ],
  "geometry": {"coordinates":[-3.331922,56.59179],"type":"Point"}
}
