{
  "id": 1947772145,
  "type": "Feature",
  "properties": {
    "date:inception_lower": "2024-04-01",
    "date:inception_upper": "2024-04-01",
    "edtf:cessation": "",
    "edtf:inception": "2024-04-01",
    "geom:area": 0,
    "geom:bbox": "-0.779105,50.741517,-0.779105,50.741517",
    "geom:latitude": 50.741517,
    "geom:longitude": -0.779105,
    "iso:country": "GB",
    "mz:hierarchy_label": 1,
    "mz:is_current": 1,
    "os:country_code": "E92000001",
    "os:county_code": "E10000032",
    "os:district_code": "E07000225",
    "os:positional_quality_indicator": "1",
    "os:region_code": "E12000008",
    "src:geom": "os",
    "wof:belongsto": [
      102191581,
      85633159,
      1880771685,
      136253055,
      404448703,
      101852327,
      1880762061,
      404227469,
      1880762709,
      1864209939
    ],
    "wof:breaches": [],
    "wof:country": "GB",
    "wof:created": 1736335059,
    "wof:geomhash": "b7a9fab4a7c2ce8fcf3fd1b872cf73bd",
    "wof:hierarchy": [
      {
        "continent_id": 102191581,
        "country_id": 85633159,
        "county_id": 1880771685,
        "empire_id": 136253055,
        "localadmin_id": 404448703,
        "locality_id": 101852327,
        "macrocounty_id": 1880762061,
        "macroregion_id": 404227469,
        "postalcode_id": 1947772145,
        "region_id": 1880762709
      },
      {
        "continent_id": 102191581,
        "country_id": 85633159,
        "empire_id": 136253055,
        "postalcode_id": 1947772145,
        "postalregion_id": 1864209939
      }
    ],
    "wof:id": 1947772145,
    "wof:lastmodified": 1763547896,
    "wof:name": "PO20 0FW",
    "wof:parent_id": 101852327,
    "wof:placetype": "postalcode",
    "wof:repo": "whosonfirst-data-postalcode-gb",
    "wof:superseded_by": [],
    "wof:supersedes": [],
    "wof:tags": []
  },
  "bbox": [
    -0.779105,
    50.741517,
    -0.779105,
    50.741517
  ],
  "geometry": {"coordinates":[-0.779105,50.741517],"type":"Point"}
}
