{
  "id": 471318699,
  "type": "Feature",
  "properties": {
    "date:inception_lower": "2004-01-01",
    "date:inception_upper": "2004-01-01",
    "edtf:cessation": "",
    "edtf:inception": "2004-01-01",
    "geom:area": 0,
    "geom:bbox": "-1.343925,52.080501,-1.343925,52.080501",
    "geom:latitude": 52.080501,
    "geom:longitude": -1.343925,
    "iso:country": "GB",
    "mz:hierarchy_label": 1,
    "mz:is_current": 1,
    "os:country_code": "E92000001",
    "os:county_code": "E10000025",
    "os:district_code": "E07000177",
    "os:positional_quality_indicator": "1",
    "os:region_code": "E12000008",
    "src:geom": "os",
    "wof:belongsto": [
      85633159,
      102191581,
      136253055,
      1864209459,
      1880771613,
      404436741,
      101875471,
      1880762079,
      404227469,
      1880762695
    ],
    "wof:breaches": [],
    "wof:concordances": {
      "gp:id": "27719694"
    },
    "wof:country": "GB",
    "wof:created": 1583701494,
    "wof:geomhash": "60ef93ec047ffd578cc1f4a79de7c05c",
    "wof:hierarchy": [
      {
        "continent_id": 102191581,
        "country_id": 85633159,
        "county_id": 1880771613,
        "empire_id": 136253055,
        "localadmin_id": 404436741,
        "locality_id": 101875471,
        "macrocounty_id": 1880762079,
        "macroregion_id": 404227469,
        "postalcode_id": 471318699,
        "region_id": 1880762695
      },
      {
        "continent_id": 102191581,
        "country_id": 85633159,
        "empire_id": 136253055,
        "postalcode_id": 471318699,
        "postalregion_id": 1864209459
      }
    ],
    "wof:id": 471318699,
    "wof:lastmodified": 1763548396,
    "wof:name": "OX16 1ET",
    "wof:parent_id": 101875471,
    "wof:placetype": "postalcode",
    "wof:repo": "whosonfirst-data-postalcode-gb",
    "wof:superseded_by": [],
    "wof:supersedes": [],
    "wof:tags": []
  },
  "bbox": [
    -1.343925,
    52.080501,
    -1.343925,
    52.080501
  ],
  "geometry": {"coordinates":[-1.343925,52.080501],"type":"Point"}
}
