{
  "id": 1998348961,
  "type": "Feature",
  "properties": {
    "date:cessation_lower": "2025-03-01",
    "date:cessation_upper": "2025-03-01",
    "date:inception_lower": "2025-01-01",
    "date:inception_upper": "2025-01-01",
    "edtf:cessation": "2025-03-01",
    "edtf:inception": "2025-01-01",
    "geom:area": 0,
    "geom:bbox": "-1.552297,54.517169,-1.552297,54.517169",
    "geom:latitude": 54.517169,
    "geom:longitude": -1.552297,
    "iso:country": "GB",
    "mz:hierarchy_label": 1,
    "mz:is_current": 0,
    "os:country_code": "E92000001",
    "os:county_code": "E99999999",
    "os:district_code": "E06000005",
    "os:positional_quality_indicator": "1",
    "os:region_code": "E12000001",
    "src:geom": "os",
    "wof:belongsto": [
      102191581,
      85633159,
      1360698889,
      136253055,
      101750605,
      1880762117,
      404227469,
      1880773141,
      1864206753
    ],
    "wof:breaches": [],
    "wof:country": "GB",
    "wof:created": 1763549235,
    "wof:geomhash": "cbbd17d37aa5e61cb82511c75daf6086",
    "wof:hierarchy": [
      {
        "continent_id": 102191581,
        "country_id": 85633159,
        "county_id": 1360698889,
        "empire_id": 136253055,
        "locality_id": 101750605,
        "macrocounty_id": 1880762117,
        "macroregion_id": 404227469,
        "postalcode_id": 1998348961,
        "region_id": 1880773141
      },
      {
        "continent_id": 102191581,
        "country_id": 85633159,
        "empire_id": 136253055,
        "postalcode_id": 1998348961,
        "postalregion_id": 1864206753
      }
    ],
    "wof:id": 1998348961,
    "wof:lastmodified": 1763549235,
    "wof:name": "DL1 5DD",
    "wof:parent_id": 101750605,
    "wof:placetype": "postalcode",
    "wof:repo": "whosonfirst-data-postalcode-gb",
    "wof:superseded_by": [],
    "wof:supersedes": [],
    "wof:tags": []
  },
  "bbox": [
    -1.552297,
    54.517169,
    -1.552297,
    54.517169
  ],
  "geometry": {"coordinates":[-1.552297,54.517169],"type":"Point"}
}
