{
  "id": 455009473,
  "type": "Feature",
  "properties": {
    "date:inception_lower": "1996-06-01",
    "date:inception_upper": "1996-06-01",
    "edtf:cessation": "",
    "edtf:inception": "1996-06-01",
    "geom:area": 0,
    "geom:bbox": "-1.207690,52.772624,-1.207690,52.772624",
    "geom:latitude": 52.772624,
    "geom:longitude": -1.20769,
    "iso:country": "GB",
    "mz:hierarchy_label": 1,
    "mz:is_current": 1,
    "os:country_code": "E92000001",
    "os:county_code": "E10000018",
    "os:district_code": "E07000130",
    "os:positional_quality_indicator": "1",
    "os:region_code": "E12000004",
    "src:geom": "os",
    "wof:belongsto": [
      85633159,
      102191581,
      136253055,
      1864208395,
      1880771567,
      101750487,
      1880762051,
      404227469,
      1880773085
    ],
    "wof:breaches": [],
    "wof:concordances": {
      "gp:id": "27470943"
    },
    "wof:country": "GB",
    "wof:created": 1583701071,
    "wof:geomhash": "73c5ff2da078b526e47ba747f598d0a7",
    "wof:hierarchy": [
      {
        "continent_id": 102191581,
        "country_id": 85633159,
        "county_id": 1880771567,
        "empire_id": 136253055,
        "locality_id": 101750487,
        "macrocounty_id": 1880762051,
        "macroregion_id": 404227469,
        "postalcode_id": 455009473,
        "region_id": 1880773085
      },
      {
        "continent_id": 102191581,
        "country_id": 85633159,
        "empire_id": 136253055,
        "postalcode_id": 455009473,
        "postalregion_id": 1864208395
      }
    ],
    "wof:id": 455009473,
    "wof:lastmodified": 1763547934,
    "wof:name": "LE11 5BL",
    "wof:parent_id": 101750487,
    "wof:placetype": "postalcode",
    "wof:repo": "whosonfirst-data-postalcode-gb",
    "wof:superseded_by": [],
    "wof:supersedes": [],
    "wof:tags": []
  },
  "bbox": [
    -1.20769,
    52.772624,
    -1.20769,
    52.772624
  ],
  "geometry": {"coordinates":[-1.20769,52.772624],"type":"Point"}
}
