{
  "id": 1712745163,
  "type": "Feature",
  "properties": {
    "date:cessation_lower": "1997-12-01",
    "date:cessation_upper": "1997-12-01",
    "date:inception_lower": "1980-01-01",
    "date:inception_upper": "1980-01-01",
    "edtf:cessation": "1997-12-01",
    "edtf:inception": "1980-01-01",
    "geom:area": 0,
    "geom:bbox": "-2.795327,50.885310,-2.795327,50.885310",
    "geom:latitude": 50.88531,
    "geom:longitude": -2.795327,
    "iso:country": "GB",
    "mz:hierarchy_label": 1,
    "mz:is_current": 0,
    "os:country_code": "E92000001",
    "os:county_code": "E99999999",
    "os:district_code": "E06000066",
    "os:positional_quality_indicator": "8",
    "os:region_code": "E12000009",
    "src:geom": "os",
    "wof:belongsto": [
      85633159,
      102191581,
      136253055,
      1864210969,
      1360699059,
      404440291,
      101852495,
      1880762071,
      404227469,
      1880773145
    ],
    "wof:breaches": [],
    "wof:country": "GB",
    "wof:created": 1583801692,
    "wof:geomhash": "bd1e73ed8adb103d43c7582dff244c0f",
    "wof:hierarchy": [
      {
        "continent_id": 102191581,
        "country_id": 85633159,
        "county_id": 1360699059,
        "empire_id": 136253055,
        "localadmin_id": 404440291,
        "locality_id": 101852495,
        "macrocounty_id": 1880762071,
        "macroregion_id": 404227469,
        "postalcode_id": 1712745163,
        "region_id": 1880773145
      },
      {
        "continent_id": 102191581,
        "country_id": 85633159,
        "empire_id": 136253055,
        "postalcode_id": 1712745163,
        "postalregion_id": 1864210969
      }
    ],
    "wof:id": 1712745163,
    "wof:lastmodified": 1763548658,
    "wof:name": "TA18 7LJ",
    "wof:parent_id": 101852495,
    "wof:placetype": "postalcode",
    "wof:repo": "whosonfirst-data-postalcode-gb",
    "wof:superseded_by": [],
    "wof:supersedes": [],
    "wof:tags": []
  },
  "bbox": [
    -2.795327,
    50.88531,
    -2.795327,
    50.88531
  ],
  "geometry": {"coordinates":[-2.795327,50.88531],"type":"Point"}
}
