{
  "id": 38384460,
  "type": "Feature",
  "properties": {
    "date:cessation_lower": "1999-12-01",
    "date:cessation_upper": "1999-12-01",
    "date:inception_lower": "1997-12-01",
    "date:inception_upper": "1997-12-01",
    "edtf:cessation": "1999-12-01",
    "edtf:inception": "1997-12-01",
    "geom:area": 0,
    "geom:bbox": "-2.738401,52.060894,-2.738401,52.060894",
    "geom:latitude": 52.060894,
    "geom:longitude": -2.738401,
    "iso:country": "GB",
    "mz:hierarchy_label": 1,
    "mz:is_current": 0,
    "os:country_code": "E92000001",
    "os:county_code": "E99999999",
    "os:district_code": "E06000019",
    "os:positional_quality_indicator": "6",
    "os:region_code": "E12000005",
    "src:geom": "os",
    "wof:belongsto": [
      85633159,
      102191581,
      136253055,
      1864207703,
      1360699053,
      404449477,
      101750451,
      1880762015,
      404227469,
      1880773139
    ],
    "wof:breaches": [],
    "wof:country": "GB",
    "wof:created": 1583789805,
    "wof:geomhash": "c9e239cf88423b6ccab7cca9c82e0629",
    "wof:hierarchy": [
      {
        "continent_id": 102191581,
        "country_id": 85633159,
        "county_id": 1360699053,
        "empire_id": 136253055,
        "localadmin_id": 404449477,
        "locality_id": 101750451,
        "macrocounty_id": 1880762015,
        "macroregion_id": 404227469,
        "postalcode_id": 38384460,
        "region_id": 1880773139
      },
      {
        "continent_id": 102191581,
        "country_id": 85633159,
        "empire_id": 136253055,
        "postalcode_id": 38384460,
        "postalregion_id": 1864207703
      }
    ],
    "wof:id": 38384460,
    "wof:lastmodified": 1763548161,
    "wof:name": "HR4 0XQ",
    "wof:parent_id": 101750451,
    "wof:placetype": "postalcode",
    "wof:repo": "whosonfirst-data-postalcode-gb",
    "wof:superseded_by": [],
    "wof:supersedes": [],
    "wof:tags": []
  },
  "bbox": [
    -2.738401,
    52.060894,
    -2.738401,
    52.060894
  ],
  "geometry": {"coordinates":[-2.738401,52.060894],"type":"Point"}
}
