{
  "id": 1160976944,
  "type": "Feature",
  "properties": {
    "date:cessation_lower": "1995-07-01",
    "date:cessation_upper": "1995-07-01",
    "date:inception_lower": "1993-01-01",
    "date:inception_upper": "1993-01-01",
    "edtf:cessation": "1995-07-01",
    "edtf:inception": "1993-01-01",
    "geom:area": 0,
    "geom:bbox": "-3.265481,51.598262,-3.265481,51.598262",
    "geom:latitude": 51.598262,
    "geom:longitude": -3.265481,
    "iso:country": "GB",
    "mz:hierarchy_label": 1,
    "mz:is_current": 0,
    "os:country_code": "W92000004",
    "os:county_code": "W99999999",
    "os:district_code": "W06000018",
    "os:positional_quality_indicator": "1",
    "os:region_code": "W99999999",
    "src:geom": "os",
    "wof:belongsto": [
      102191581,
      85633159,
      1360698925,
      136253055,
      404444047,
      1360711757,
      1880762173,
      404227475,
      1880773189
    ],
    "wof:breaches": [],
    "wof:country": "GB",
    "wof:created": 1583798404,
    "wof:geomhash": "fd137c38e22ba9c8293ed4c9353a04c3",
    "wof:hierarchy": [
      {
        "continent_id": 102191581,
        "country_id": 85633159,
        "county_id": 1360698925,
        "empire_id": 136253055,
        "localadmin_id": 404444047,
        "locality_id": 1360711757,
        "macrocounty_id": 1880762173,
        "macroregion_id": 404227475,
        "postalcode_id": 1160976944,
        "region_id": 1880773189
      }
    ],
    "wof:id": 1160976944,
    "wof:lastmodified": 1763548272,
    "wof:name": "CF8 2EW",
    "wof:parent_id": 1360711757,
    "wof:placetype": "postalcode",
    "wof:repo": "whosonfirst-data-postalcode-gb",
    "wof:superseded_by": [],
    "wof:supersedes": [],
    "wof:tags": []
  },
  "bbox": [
    -3.265481,
    51.598262,
    -3.265481,
    51.598262
  ],
  "geometry": {"coordinates":[-3.265481,51.598262],"type":"Point"}
}
