{
  "id": 1160957278,
  "type": "Feature",
  "properties": {
    "date:cessation_lower": "2000-10-01",
    "date:cessation_upper": "2000-10-01",
    "date:inception_lower": "1997-08-01",
    "date:inception_upper": "1997-08-01",
    "edtf:cessation": "2000-10-01",
    "edtf:inception": "1997-08-01",
    "geom:area": 0,
    "geom:bbox": "-0.337668,51.927078,-0.337668,51.927078",
    "geom:latitude": 51.927078,
    "geom:longitude": -0.337668,
    "iso:country": "GB",
    "mz:hierarchy_label": 1,
    "mz:is_current": 0,
    "os:country_code": "E92000001",
    "os:county_code": "E10000015",
    "os:district_code": "E07000099",
    "os:positional_quality_indicator": "8",
    "os:region_code": "E12000006",
    "src:geom": "os",
    "wof:belongsto": [
      85633159,
      102191581,
      136253055,
      1864210503,
      1880771497,
      404438991,
      1360755107,
      1880762153,
      404227469,
      1880762721
    ],
    "wof:breaches": [],
    "wof:country": "GB",
    "wof:created": 1583797538,
    "wof:geomhash": "e81b831ca9eda49fc09775cce8dd60cc",
    "wof:hierarchy": [
      {
        "continent_id": 102191581,
        "country_id": 85633159,
        "county_id": 1880771497,
        "empire_id": 136253055,
        "localadmin_id": 404438991,
        "locality_id": 1360755107,
        "macrocounty_id": 1880762153,
        "macroregion_id": 404227469,
        "postalcode_id": 1160957278,
        "region_id": 1880762721
      },
      {
        "continent_id": 102191581,
        "country_id": 85633159,
        "empire_id": 136253055,
        "postalcode_id": 1160957278,
        "postalregion_id": 1864210503
      }
    ],
    "wof:id": 1160957278,
    "wof:lastmodified": 1763548343,
    "wof:name": "SG5 3FB",
    "wof:parent_id": 1360755107,
    "wof:placetype": "postalcode",
    "wof:repo": "whosonfirst-data-postalcode-gb",
    "wof:superseded_by": [],
    "wof:supersedes": [],
    "wof:tags": []
  },
  "bbox": [
    -0.337668,
    51.927078,
    -0.337668,
    51.927078
  ],
  "geometry": {"coordinates":[-0.337668,51.927078],"type":"Point"}
}
