{
  "id": 470894671,
  "type": "Feature",
  "properties": {
    "date:inception_lower": "2004-09-01",
    "date:inception_upper": "2004-09-01",
    "edtf:cessation": "",
    "edtf:inception": "2004-09-01",
    "geom:area": 0,
    "geom:bbox": "-2.367339,53.475291,-2.367339,53.475291",
    "geom:latitude": 53.475291,
    "geom:longitude": -2.367339,
    "iso:country": "GB",
    "mz:hierarchy_label": 1,
    "mz:is_current": 1,
    "os:country_code": "E92000001",
    "os:county_code": "E99999999",
    "os:district_code": "E08000006",
    "os:positional_quality_indicator": "1",
    "os:region_code": "E12000002",
    "src:geom": "os",
    "wof:belongsto": [
      85633159,
      102191581,
      136253055,
      1864208765,
      1360699005,
      1175612693,
      1880762163,
      404227469,
      1880773095
    ],
    "wof:breaches": [],
    "wof:concordances": {
      "gp:id": "27545389"
    },
    "wof:country": "GB",
    "wof:created": 1583701232,
    "wof:geomhash": "41e8fb7c0e30518f88900df66db3eb54",
    "wof:hierarchy": [
      {
        "continent_id": 102191581,
        "country_id": 85633159,
        "county_id": 1360699005,
        "empire_id": 136253055,
        "locality_id": 1175612693,
        "macrocounty_id": 1880762163,
        "macroregion_id": 404227469,
        "postalcode_id": 470894671,
        "region_id": 1880773095
      },
      {
        "continent_id": 102191581,
        "country_id": 85633159,
        "empire_id": 136253055,
        "postalcode_id": 470894671,
        "postalregion_id": 1864208765
      }
    ],
    "wof:id": 470894671,
    "wof:lastmodified": 1763547970,
    "wof:name": "M30 7QJ",
    "wof:parent_id": 1175612693,
    "wof:placetype": "postalcode",
    "wof:repo": "whosonfirst-data-postalcode-gb",
    "wof:superseded_by": [],
    "wof:supersedes": [],
    "wof:tags": []
  },
  "bbox": [
    -2.367339,
    53.475291,
    -2.367339,
    53.475291
  ],
  "geometry": {"coordinates":[-2.367339,53.475291],"type":"Point"}
}
