{
  "id": 471651061,
  "type": "Feature",
  "properties": {
    "date:cessation_lower": "2025-01-01",
    "date:cessation_upper": "2025-01-01",
    "date:inception_lower": "1992-01-01",
    "date:inception_upper": "1992-01-01",
    "edtf:cessation": "2025-01-01",
    "edtf:inception": "1992-01-01",
    "geom:area": 0,
    "geom:bbox": "-1.350164,53.193300,-1.350164,53.193300",
    "geom:latitude": 53.1933,
    "geom:longitude": -1.350164,
    "gp:parent_id": "23729",
    "iso:country": "GB",
    "mz:hierarchy_label": 1,
    "mz:is_current": 0,
    "os:country_code": "E92000001",
    "os:county_code": "E10000007",
    "os:district_code": "E07000038",
    "os:positional_quality_indicator": "1",
    "os:region_code": "E12000004",
    "src:geom": "os",
    "wof:belongsto": [
      85633159,
      102191581,
      136253055,
      1864210219,
      1880771383,
      404451883,
      1360757427,
      1880762133,
      404227469,
      1880762707
    ],
    "wof:breaches": [],
    "wof:concordances": {
      "gp:id": "27853019"
    },
    "wof:country": "GB",
    "wof:created": 1583701690,
    "wof:geomhash": "05d1fb8861dfc6957ac59414ca7e9baf",
    "wof:hierarchy": [
      {
        "continent_id": 102191581,
        "country_id": 85633159,
        "county_id": 1880771383,
        "empire_id": 136253055,
        "localadmin_id": 404451883,
        "locality_id": 1360757427,
        "macrocounty_id": 1880762133,
        "macroregion_id": 404227469,
        "postalcode_id": 471651061,
        "region_id": 1880762707
      },
      {
        "continent_id": 102191581,
        "country_id": 85633159,
        "empire_id": 136253055,
        "postalcode_id": 471651061,
        "postalregion_id": 1864210219
      }
    ],
    "wof:id": 471651061,
    "wof:lastmodified": 1763548092,
    "wof:name": "S42 5UT",
    "wof:parent_id": 1360757427,
    "wof:placetype": "postalcode",
    "wof:repo": "whosonfirst-data-postalcode-gb",
    "wof:superseded_by": [],
    "wof:supersedes": [],
    "wof:tags": []
  },
  "bbox": [
    -1.350164,
    53.1933,
    -1.350164,
    53.1933
  ],
  "geometry": {"coordinates":[-1.350164,53.1933],"type":"Point"}
}
