{
  "id": 39204072,
  "type": "Feature",
  "properties": {
    "date:cessation_lower": "1999-06-01",
    "date:cessation_upper": "1999-06-01",
    "date:inception_lower": "1980-01-01",
    "date:inception_upper": "1980-01-01",
    "edtf:cessation": "1999-06-01",
    "edtf:inception": "1980-01-01",
    "geom:area": 0,
    "geom:bbox": "-2.984552,51.596613,-2.984552,51.596613",
    "geom:latitude": 51.596613,
    "geom:longitude": -2.984552,
    "iso:country": "GB",
    "mz:hierarchy_label": 1,
    "mz:is_current": 0,
    "os:country_code": "W92000004",
    "os:county_code": "W99999999",
    "os:district_code": "W06000022",
    "os:positional_quality_indicator": "8",
    "os:region_code": "W99999999",
    "src:geom": "os",
    "wof:belongsto": [
      102191581,
      85633159,
      1360698735,
      136253055,
      404432509,
      1125774683,
      1880762173,
      404227475,
      1880773189
    ],
    "wof:breaches": [],
    "wof:country": "GB",
    "wof:created": 1583798864,
    "wof:geomhash": "d11b55e0c2779655f21484de906f1c2a",
    "wof:hierarchy": [
      {
        "continent_id": 102191581,
        "country_id": 85633159,
        "county_id": 1360698735,
        "empire_id": 136253055,
        "localadmin_id": 404432509,
        "locality_id": 1125774683,
        "macrocounty_id": 1880762173,
        "macroregion_id": 404227475,
        "postalcode_id": 39204072,
        "region_id": 1880773189
      }
    ],
    "wof:id": 39204072,
    "wof:lastmodified": 1763548379,
    "wof:name": "NP9 7DJ",
    "wof:parent_id": 1125774683,
    "wof:placetype": "postalcode",
    "wof:repo": "whosonfirst-data-postalcode-gb",
    "wof:superseded_by": [],
    "wof:supersedes": [],
    "wof:tags": []
  },
  "bbox": [
    -2.984552,
    51.596613,
    -2.984552,
    51.596613
  ],
  "geometry": {"coordinates":[-2.984552,51.596613],"type":"Point"}
}
