{
  "id": 1161040300,
  "type": "Feature",
  "properties": {
    "date:cessation_lower": "1992-07-01",
    "date:cessation_upper": "1992-07-01",
    "date:inception_lower": "1973-08-01",
    "date:inception_upper": "1973-08-01",
    "edtf:cessation": "1992-07-01",
    "edtf:inception": "1973-08-01",
    "geom:area": 0,
    "geom:bbox": "-4.499139,55.607845,-4.499139,55.607845",
    "geom:latitude": 55.607845,
    "geom:longitude": -4.499139,
    "iso:country": "GB",
    "mz:hierarchy_label": 1,
    "mz:is_current": 0,
    "os:country_code": "S92000003",
    "os:county_code": "S99999999",
    "os:district_code": "S12000008",
    "os:positional_quality_indicator": "8",
    "os:region_code": "S99999999",
    "src:geom": "os",
    "wof:belongsto": [
      85633159,
      102191581,
      136253055,
      1864208017,
      1360698779,
      1880762041,
      404227471,
      1880772907
    ],
    "wof:breaches": [],
    "wof:country": "GB",
    "wof:created": 1583801237,
    "wof:geomhash": "cf1c131a38815ac1b47badf5aa8e77a1",
    "wof:hierarchy": [
      {
        "continent_id": 102191581,
        "country_id": 85633159,
        "county_id": 1360698779,
        "empire_id": 136253055,
        "macrocounty_id": 1880762041,
        "macroregion_id": 404227471,
        "postalcode_id": 1161040300,
        "region_id": 1880772907
      },
      {
        "continent_id": 102191581,
        "country_id": 85633159,
        "empire_id": 136253055,
        "postalcode_id": 1161040300,
        "postalregion_id": 1864208017
      }
    ],
    "wof:id": 1161040300,
    "wof:lastmodified": 1763548185,
    "wof:name": "KA1 1EB",
    "wof:parent_id": 1360698779,
    "wof:placetype": "postalcode",
    "wof:repo": "whosonfirst-data-postalcode-gb",
    "wof:superseded_by": [],
    "wof:supersedes": [],
    "wof:tags": []
  },
  "bbox": [
    -4.499139,
    55.607845,
    -4.499139,
    55.607845
  ],
  "geometry": {"coordinates":[-4.499139,55.607845],"type":"Point"}
}
