{
  "id": 1998339587,
  "type": "Feature",
  "properties": {
    "date:inception_lower": "2024-11-01",
    "date:inception_upper": "2024-11-01",
    "edtf:cessation": "",
    "edtf:inception": "2024-11-01",
    "geom:area": 0,
    "geom:bbox": "-0.452414,52.214746,-0.452414,52.214746",
    "geom:latitude": 52.214746,
    "geom:longitude": -0.452414,
    "iso:country": "GB",
    "mz:hierarchy_label": 1,
    "mz:is_current": 1,
    "os:country_code": "E92000001",
    "os:county_code": "E99999999",
    "os:district_code": "E06000055",
    "os:positional_quality_indicator": "1",
    "os:region_code": "E12000006",
    "src:geom": "os",
    "wof:belongsto": [
      102191581,
      85633159,
      1360699073,
      136253055,
      404431611,
      1125998071,
      1880762167,
      404227469,
      1880773157,
      1864208903
    ],
    "wof:breaches": [],
    "wof:country": "GB",
    "wof:created": 1763548818,
    "wof:geomhash": "f48a9b2c00820eb45c3e9162b6bf03ca",
    "wof:hierarchy": [
      {
        "continent_id": 102191581,
        "country_id": 85633159,
        "county_id": 1360699073,
        "empire_id": 136253055,
        "localadmin_id": 404431611,
        "locality_id": 1125998071,
        "macrocounty_id": 1880762167,
        "macroregion_id": 404227469,
        "postalcode_id": 1998339587,
        "region_id": 1880773157
      },
      {
        "continent_id": 102191581,
        "country_id": 85633159,
        "empire_id": 136253055,
        "postalcode_id": 1998339587,
        "postalregion_id": 1864208903
      }
    ],
    "wof:id": 1998339587,
    "wof:lastmodified": 1763548818,
    "wof:name": "MK44 2FX",
    "wof:parent_id": 1125998071,
    "wof:placetype": "postalcode",
    "wof:repo": "whosonfirst-data-postalcode-gb",
    "wof:superseded_by": [],
    "wof:supersedes": [],
    "wof:tags": []
  },
  "bbox": [
    -0.452414,
    52.214746,
    -0.452414,
    52.214746
  ],
  "geometry": {"coordinates":[-0.452414,52.214746],"type":"Point"}
}
