{
  "id": 1712666685,
  "type": "Feature",
  "properties": {
    "date:cessation_lower": "1997-06-01",
    "date:cessation_upper": "1997-06-01",
    "date:inception_lower": "1984-10-01",
    "date:inception_upper": "1984-10-01",
    "edtf:cessation": "1997-06-01",
    "edtf:inception": "1984-10-01",
    "geom:area": 0,
    "geom:bbox": "-2.277674,53.780421,-2.277674,53.780421",
    "geom:latitude": 53.780421,
    "geom:longitude": -2.277674,
    "iso:country": "GB",
    "mz:hierarchy_label": 1,
    "mz:is_current": 0,
    "os:country_code": "E92000001",
    "os:county_code": "E10000017",
    "os:district_code": "E07000117",
    "os:positional_quality_indicator": "8",
    "os:region_code": "E12000002",
    "src:geom": "os",
    "wof:belongsto": [
      85633159,
      102191581,
      136253055,
      1864205697,
      1880771555,
      404430765,
      1360754927,
      1880762053,
      404227469,
      1880762711
    ],
    "wof:breaches": [],
    "wof:country": "GB",
    "wof:created": 1583798204,
    "wof:geomhash": "1ef4518138b0d6736c14d859d71c11d1",
    "wof:hierarchy": [
      {
        "continent_id": 102191581,
        "country_id": 85633159,
        "county_id": 1880771555,
        "empire_id": 136253055,
        "localadmin_id": 404430765,
        "locality_id": 1360754927,
        "macrocounty_id": 1880762053,
        "macroregion_id": 404227469,
        "postalcode_id": 1712666685,
        "region_id": 1880762711
      },
      {
        "continent_id": 102191581,
        "country_id": 85633159,
        "empire_id": 136253055,
        "postalcode_id": 1712666685,
        "postalregion_id": 1864205697
      }
    ],
    "wof:id": 1712666685,
    "wof:lastmodified": 1763548686,
    "wof:name": "BB11 5SZ",
    "wof:parent_id": 1360754927,
    "wof:placetype": "postalcode",
    "wof:repo": "whosonfirst-data-postalcode-gb",
    "wof:superseded_by": [],
    "wof:supersedes": [],
    "wof:tags": []
  },
  "bbox": [
    -2.277674,
    53.780421,
    -2.277674,
    53.780421
  ],
  "geometry": {"coordinates":[-2.277674,53.780421],"type":"Point"}
}
