{
  "id": 455066425,
  "type": "Feature",
  "properties": {
    "date:inception_lower": "1980-01-01",
    "date:inception_upper": "1980-01-01",
    "edtf:cessation": "",
    "edtf:inception": "1980-01-01",
    "geom:area": 0,
    "geom:bbox": "-0.685230,53.110403,-0.685230,53.110403",
    "geom:latitude": 53.110403,
    "geom:longitude": -0.68523,
    "gp:parent_id": "35985",
    "iso:country": "GB",
    "mz:hierarchy_label": 1,
    "mz:is_current": 1,
    "os:country_code": "E92000001",
    "os:county_code": "E10000019",
    "os:district_code": "E07000139",
    "os:positional_quality_indicator": "1",
    "os:region_code": "E12000004",
    "src:geom": "os",
    "wof:belongsto": [
      85633159,
      102191581,
      136253055,
      1864208617,
      1880771579,
      404445323,
      1125987987,
      1880762033,
      404227469,
      1880762701
    ],
    "wof:breaches": [],
    "wof:concordances": {
      "gp:id": "27509656"
    },
    "wof:country": "GB",
    "wof:created": 1583701176,
    "wof:geomhash": "93e91b48d636d36abd8ca8586238718d",
    "wof:hierarchy": [
      {
        "continent_id": 102191581,
        "country_id": 85633159,
        "county_id": 1880771579,
        "empire_id": 136253055,
        "localadmin_id": 404445323,
        "locality_id": 1125987987,
        "macrocounty_id": 1880762033,
        "macroregion_id": 404227469,
        "postalcode_id": 455066425,
        "region_id": 1880762701
      },
      {
        "continent_id": 102191581,
        "country_id": 85633159,
        "empire_id": 136253055,
        "postalcode_id": 455066425,
        "postalregion_id": 1864208617
      }
    ],
    "wof:id": 455066425,
    "wof:lastmodified": 1763547963,
    "wof:name": "LN6 9LA",
    "wof:parent_id": 1125987987,
    "wof:placetype": "postalcode",
    "wof:repo": "whosonfirst-data-postalcode-gb",
    "wof:superseded_by": [],
    "wof:supersedes": [],
    "wof:tags": []
  },
  "bbox": [
    -0.68523,
    53.110403,
    -0.68523,
    53.110403
  ],
  "geometry": {"coordinates":[-0.68523,53.110403],"type":"Point"}
}
