{
  "id": 39604896,
  "type": "Feature",
  "properties": {
    "date:cessation_lower": "1995-07-01",
    "date:cessation_upper": "1995-07-01",
    "date:inception_lower": "1991-09-01",
    "date:inception_upper": "1991-09-01",
    "edtf:cessation": "1995-07-01",
    "edtf:inception": "1991-09-01",
    "geom:area": 0,
    "geom:bbox": "-3.390924,51.524160,-3.390924,51.524160",
    "geom:latitude": 51.52416,
    "geom:longitude": -3.390924,
    "iso:country": "GB",
    "mz:hierarchy_label": 1,
    "mz:is_current": 0,
    "os:country_code": "W92000004",
    "os:county_code": "W99999999",
    "os:district_code": "W06000016",
    "os:positional_quality_indicator": "8",
    "os:region_code": "W99999999",
    "src:geom": "os",
    "wof:belongsto": [
      102191581,
      85633159,
      1360699025,
      136253055,
      404454425,
      1125913163,
      1880762185,
      404227475,
      1880773115
    ],
    "wof:breaches": [],
    "wof:country": "GB",
    "wof:created": 1583803276,
    "wof:geomhash": "8d26975f818bbb93164fe1ad13806369",
    "wof:hierarchy": [
      {
        "continent_id": 102191581,
        "country_id": 85633159,
        "county_id": 1360699025,
        "empire_id": 136253055,
        "localadmin_id": 404454425,
        "locality_id": 1125913163,
        "macrocounty_id": 1880762185,
        "macroregion_id": 404227475,
        "postalcode_id": 39604896,
        "region_id": 1880773115
      }
    ],
    "wof:id": 39604896,
    "wof:lastmodified": 1763547894,
    "wof:name": "CF7 9YA",
    "wof:parent_id": 1125913163,
    "wof:placetype": "postalcode",
    "wof:repo": "whosonfirst-data-postalcode-gb",
    "wof:superseded_by": [],
    "wof:supersedes": [],
    "wof:tags": []
  },
  "bbox": [
    -3.390924,
    51.52416,
    -3.390924,
    51.52416
  ],
  "geometry": {"coordinates":[-3.390924,51.52416],"type":"Point"}
}
