{
  "id": 471782077,
  "type": "Feature",
  "properties": {
    "date:inception_lower": "1996-12-01",
    "date:inception_upper": "1996-12-01",
    "edtf:cessation": "",
    "edtf:inception": "1996-12-01",
    "geom:area": 0,
    "geom:bbox": "-2.023570,53.368557,-2.023570,53.368557",
    "geom:latitude": 53.368557,
    "geom:longitude": -2.02357,
    "gp:parent_id": "29963",
    "iso:country": "GB",
    "mz:hierarchy_label": 1,
    "mz:is_current": 1,
    "os:country_code": "E92000001",
    "os:county_code": "E10000007",
    "os:district_code": "E07000037",
    "os:positional_quality_indicator": "1",
    "os:region_code": "E12000004",
    "src:geom": "os",
    "wof:belongsto": [
      85633159,
      102191581,
      136253055,
      1864210537,
      1880771377,
      404432563,
      1360757737,
      1880762133,
      404227469,
      1880762707
    ],
    "wof:breaches": [],
    "wof:concordances": {
      "gp:id": "27921138"
    },
    "wof:country": "GB",
    "wof:created": 1583701737,
    "wof:geomhash": "c43ef028f0a2afa6b1da24e4f4950741",
    "wof:hierarchy": [
      {
        "continent_id": 102191581,
        "country_id": 85633159,
        "county_id": 1880771377,
        "empire_id": 136253055,
        "localadmin_id": 404432563,
        "locality_id": 1360757737,
        "macrocounty_id": 1880762133,
        "macroregion_id": 404227469,
        "postalcode_id": 471782077,
        "region_id": 1880762707
      },
      {
        "continent_id": 102191581,
        "country_id": 85633159,
        "empire_id": 136253055,
        "postalcode_id": 471782077,
        "postalregion_id": 1864210537
      }
    ],
    "wof:id": 471782077,
    "wof:lastmodified": 1763548168,
    "wof:name": "SK22 3AR",
    "wof:parent_id": 1360757737,
    "wof:placetype": "postalcode",
    "wof:repo": "whosonfirst-data-postalcode-gb",
    "wof:superseded_by": [],
    "wof:supersedes": [],
    "wof:tags": []
  },
  "bbox": [
    -2.02357,
    53.368557,
    -2.02357,
    53.368557
  ],
  "geometry": {"coordinates":[-2.02357,53.368557],"type":"Point"}
}
