{
  "id": 1712790799,
  "type": "Feature",
  "properties": {
    "date:cessation_lower": "1995-07-01",
    "date:cessation_upper": "1995-07-01",
    "date:inception_lower": "1980-01-01",
    "date:inception_upper": "1980-01-01",
    "edtf:cessation": "1995-07-01",
    "edtf:inception": "1980-01-01",
    "geom:area": 0,
    "geom:bbox": "-1.205981,51.468058,-1.205981,51.468058",
    "geom:latitude": 51.468058,
    "geom:longitude": -1.205981,
    "iso:country": "GB",
    "mz:hierarchy_label": 1,
    "mz:is_current": 0,
    "os:country_code": "E92000001",
    "os:county_code": "E99999999",
    "os:district_code": "E06000037",
    "os:positional_quality_indicator": "1",
    "os:region_code": "E12000008",
    "src:geom": "os",
    "wof:belongsto": [
      102191581,
      85633159,
      1360698857,
      136253055,
      404447267,
      1126060321,
      1880762165,
      404227469,
      1880772969
    ],
    "wof:breaches": [],
    "wof:country": "GB",
    "wof:created": 1583803722,
    "wof:geomhash": "b8828fb110b836b41c16a5c80171c1ed",
    "wof:hierarchy": [
      {
        "continent_id": 102191581,
        "country_id": 85633159,
        "county_id": 1360698857,
        "empire_id": 136253055,
        "localadmin_id": 404447267,
        "locality_id": 1126060321,
        "macrocounty_id": 1880762165,
        "macroregion_id": 404227469,
        "postalcode_id": 1712790799,
        "region_id": 1880772969
      }
    ],
    "wof:id": 1712790799,
    "wof:lastmodified": 1763548721,
    "wof:name": "RG16 0UH",
    "wof:parent_id": 1126060321,
    "wof:placetype": "postalcode",
    "wof:repo": "whosonfirst-data-postalcode-gb",
    "wof:superseded_by": [],
    "wof:supersedes": [],
    "wof:tags": []
  },
  "bbox": [
    -1.205981,
    51.468058,
    -1.205981,
    51.468058
  ],
  "geometry": {"coordinates":[-1.205981,51.468058],"type":"Point"}
}
