{
  "id": 488115077,
  "type": "Feature",
  "properties": {
    "date:inception_lower": "1980-01-01",
    "date:inception_upper": "1980-01-01",
    "edtf:cessation": "",
    "edtf:inception": "1980-01-01",
    "geom:area": 0,
    "geom:bbox": "-0.283261,51.659350,-0.283261,51.659350",
    "geom:latitude": 51.65935,
    "geom:longitude": -0.283261,
    "gp:parent_id": "13267",
    "iso:country": "GB",
    "mz:hierarchy_label": 1,
    "mz:is_current": 1,
    "os:country_code": "E92000001",
    "os:county_code": "E10000015",
    "os:district_code": "E07000098",
    "os:positional_quality_indicator": "1",
    "os:region_code": "E12000006",
    "src:geom": "os",
    "wof:belongsto": [
      85633159,
      102191581,
      136253055,
      1864211541,
      1880771485,
      404432875,
      1360753397,
      1880762153,
      404227469,
      1880762721
    ],
    "wof:breaches": [],
    "wof:concordances": {
      "gp:id": "26537274"
    },
    "wof:country": "GB",
    "wof:created": 1583701252,
    "wof:geomhash": "baccdfdb4fc6740ff83928b638394b96",
    "wof:hierarchy": [
      {
        "continent_id": 102191581,
        "country_id": 85633159,
        "county_id": 1880771485,
        "empire_id": 136253055,
        "localadmin_id": 404432875,
        "locality_id": 1360753397,
        "macrocounty_id": 1880762153,
        "macroregion_id": 404227469,
        "postalcode_id": 488115077,
        "region_id": 1880762721
      },
      {
        "continent_id": 102191581,
        "country_id": 85633159,
        "empire_id": 136253055,
        "postalcode_id": 488115077,
        "postalregion_id": 1864211541
      }
    ],
    "wof:id": 488115077,
    "wof:lastmodified": 1763548595,
    "wof:name": "WD6 4SU",
    "wof:parent_id": 1360753397,
    "wof:placetype": "postalcode",
    "wof:repo": "whosonfirst-data-postalcode-gb",
    "wof:superseded_by": [],
    "wof:supersedes": [],
    "wof:tags": []
  },
  "bbox": [
    -0.283261,
    51.65935,
    -0.283261,
    51.65935
  ],
  "geometry": {"coordinates":[-0.283261,51.65935],"type":"Point"}
}
