{
  "id": 471318583,
  "type": "Feature",
  "properties": {
    "date:inception_lower": "2000-06-01",
    "date:inception_upper": "2000-06-01",
    "edtf:cessation": "",
    "edtf:inception": "2000-06-01",
    "geom:area": 0,
    "geom:bbox": "-1.358463,52.068030,-1.358463,52.068030",
    "geom:latitude": 52.06803,
    "geom:longitude": -1.358463,
    "iso:country": "GB",
    "mz:hierarchy_label": 1,
    "mz:is_current": 1,
    "os:country_code": "E92000001",
    "os:county_code": "E10000025",
    "os:district_code": "E07000177",
    "os:positional_quality_indicator": "1",
    "os:region_code": "E12000008",
    "src:geom": "os",
    "wof:belongsto": [
      85633159,
      102191581,
      136253055,
      1864209459,
      1880771613,
      404436741,
      101875471,
      1880762079,
      404227469,
      1880762695
    ],
    "wof:breaches": [],
    "wof:concordances": {
      "gp:id": "26432229"
    },
    "wof:country": "GB",
    "wof:created": 1583701494,
    "wof:geomhash": "2090074e0028dde41d3698015392340d",
    "wof:hierarchy": [
      {
        "continent_id": 102191581,
        "country_id": 85633159,
        "county_id": 1880771613,
        "empire_id": 136253055,
        "localadmin_id": 404436741,
        "locality_id": 101875471,
        "macrocounty_id": 1880762079,
        "macroregion_id": 404227469,
        "postalcode_id": 471318583,
        "region_id": 1880762695
      },
      {
        "continent_id": 102191581,
        "country_id": 85633159,
        "empire_id": 136253055,
        "postalcode_id": 471318583,
        "postalregion_id": 1864209459
      }
    ],
    "wof:id": 471318583,
    "wof:lastmodified": 1763548397,
    "wof:name": "OX16 1AY",
    "wof:parent_id": 101875471,
    "wof:placetype": "postalcode",
    "wof:repo": "whosonfirst-data-postalcode-gb",
    "wof:superseded_by": [],
    "wof:supersedes": [],
    "wof:tags": []
  },
  "bbox": [
    -1.358463,
    52.06803,
    -1.358463,
    52.06803
  ],
  "geometry": {"coordinates":[-1.358463,52.06803],"type":"Point"}
}
