{
  "id": 471137905,
  "type": "Feature",
  "properties": {
    "date:inception_lower": "1980-01-01",
    "date:inception_upper": "1980-01-01",
    "edtf:cessation": "",
    "edtf:inception": "1980-01-01",
    "geom:area": 0,
    "geom:bbox": "-1.121690,52.981558,-1.121690,52.981558",
    "geom:latitude": 52.981558,
    "geom:longitude": -1.12169,
    "gp:parent_id": "30720",
    "iso:country": "GB",
    "mz:hierarchy_label": 1,
    "mz:is_current": 1,
    "os:country_code": "E92000001",
    "os:county_code": "E10000024",
    "os:district_code": "E07000173",
    "os:positional_quality_indicator": "1",
    "os:region_code": "E12000004",
    "src:geom": "os",
    "wof:belongsto": [
      85633159,
      102191581,
      136253055,
      1864209187,
      1880771599,
      1360817357,
      1125946055,
      1880762077,
      404227469,
      1880762689
    ],
    "wof:breaches": [],
    "wof:concordances": {
      "gp:id": "26469884"
    },
    "wof:country": "GB",
    "wof:created": 1583701331,
    "wof:geomhash": "64f4779eb9506ad45313f333715e4853",
    "wof:hierarchy": [
      {
        "continent_id": 102191581,
        "country_id": 85633159,
        "county_id": 1880771599,
        "empire_id": 136253055,
        "localadmin_id": 1360817357,
        "locality_id": 1125946055,
        "macrocounty_id": 1880762077,
        "macroregion_id": 404227469,
        "postalcode_id": 471137905,
        "region_id": 1880762689
      },
      {
        "continent_id": 102191581,
        "country_id": 85633159,
        "empire_id": 136253055,
        "postalcode_id": 471137905,
        "postalregion_id": 1864209187
      }
    ],
    "wof:id": 471137905,
    "wof:lastmodified": 1763548253,
    "wof:name": "NG3 6AJ",
    "wof:parent_id": 1125946055,
    "wof:placetype": "postalcode",
    "wof:repo": "whosonfirst-data-postalcode-gb",
    "wof:superseded_by": [],
    "wof:supersedes": [],
    "wof:tags": []
  },
  "bbox": [
    -1.12169,
    52.981558,
    -1.12169,
    52.981558
  ],
  "geometry": {"coordinates":[-1.12169,52.981558],"type":"Point"}
}
