{
  "id": 874496317,
  "type": "Feature",
  "properties": {
    "date:inception_lower": "2010-09-01",
    "date:inception_upper": "2010-09-01",
    "edtf:cessation": "",
    "edtf:inception": "2010-09-01",
    "geom:area": 0,
    "geom:bbox": "-1.007531,53.199364,-1.007531,53.199364",
    "geom:latitude": 53.199364,
    "geom:longitude": -1.007531,
    "iso:country": "GB",
    "mz:hierarchy_label": 1,
    "mz:is_current": 1,
    "os:country_code": "E92000001",
    "os:county_code": "E10000024",
    "os:district_code": "E07000175",
    "os:positional_quality_indicator": "1",
    "os:region_code": "E12000004",
    "src:geom": "os",
    "wof:belongsto": [
      85633159,
      102191581,
      136253055,
      1864209179,
      1880771361,
      404434483,
      1360755859,
      1880762077,
      404227469,
      1880762689
    ],
    "wof:breaches": [],
    "wof:country": "GB",
    "wof:created": 1468890275,
    "wof:geomhash": "dc29368e9acf0f4e97fd69578a168425",
    "wof:hierarchy": [
      {
        "continent_id": 102191581,
        "country_id": 85633159,
        "county_id": 1880771361,
        "empire_id": 136253055,
        "localadmin_id": 404434483,
        "locality_id": 1360755859,
        "macrocounty_id": 1880762077,
        "macroregion_id": 404227469,
        "postalcode_id": 874496317,
        "region_id": 1880762689
      },
      {
        "continent_id": 102191581,
        "country_id": 85633159,
        "empire_id": 136253055,
        "postalcode_id": 874496317,
        "postalregion_id": 1864209179
      }
    ],
    "wof:id": 874496317,
    "wof:lastmodified": 1763547954,
    "wof:name": "NG22 9FH",
    "wof:parent_id": 1360755859,
    "wof:placetype": "postalcode",
    "wof:repo": "whosonfirst-data-postalcode-gb",
    "wof:superseded_by": [],
    "wof:supersedes": [],
    "wof:tags": []
  },
  "bbox": [
    -1.007531,
    53.199364,
    -1.007531,
    53.199364
  ],
  "geometry": {"coordinates":[-1.007531,53.199364],"type":"Point"}
}
