{
  "id": 471186647,
  "type": "Feature",
  "properties": {
    "date:inception_lower": "1987-04-01",
    "date:inception_upper": "1987-04-01",
    "edtf:cessation": "",
    "edtf:inception": "1987-04-01",
    "geom:area": 0,
    "geom:bbox": "-0.921942,52.210934,-0.921942,52.210934",
    "geom:latitude": 52.210934,
    "geom:longitude": -0.921942,
    "gp:parent_id": "30599",
    "iso:country": "GB",
    "mz:hierarchy_label": 1,
    "mz:is_current": 1,
    "os:country_code": "E92000001",
    "os:county_code": "E99999999",
    "os:district_code": "E06000062",
    "os:positional_quality_indicator": "1",
    "os:region_code": "E12000004",
    "src:geom": "os",
    "wof:belongsto": [
      85633159,
      102191581,
      136253055,
      1864209245,
      1880773231,
      101750459,
      1880762029,
      404227469,
      1880773265
    ],
    "wof:breaches": [],
    "wof:concordances": {
      "gp:id": "27659625"
    },
    "wof:country": "GB",
    "wof:created": 1583701386,
    "wof:geomhash": "209339b798a3c9bf519a3dedb6dcf62b",
    "wof:hierarchy": [
      {
        "continent_id": 102191581,
        "country_id": 85633159,
        "county_id": 1880773231,
        "empire_id": 136253055,
        "locality_id": 101750459,
        "macrocounty_id": 1880762029,
        "macroregion_id": 404227469,
        "postalcode_id": 471186647,
        "region_id": 1880773265
      },
      {
        "continent_id": 102191581,
        "country_id": 85633159,
        "empire_id": 136253055,
        "postalcode_id": 471186647,
        "postalregion_id": 1864209245
      }
    ],
    "wof:id": 471186647,
    "wof:lastmodified": 1763548185,
    "wof:name": "NN4 9YD",
    "wof:parent_id": 101750459,
    "wof:placetype": "postalcode",
    "wof:repo": "whosonfirst-data-postalcode-gb",
    "wof:superseded_by": [],
    "wof:supersedes": [],
    "wof:tags": []
  },
  "bbox": [
    -0.921942,
    52.210934,
    -0.921942,
    52.210934
  ],
  "geometry": {"coordinates":[-0.921942,52.210934],"type":"Point"}
}
