{
  "id": 454170099,
  "type": "Feature",
  "properties": {
    "date:inception_lower": "1980-01-01",
    "date:inception_upper": "1980-01-01",
    "edtf:cessation": "",
    "edtf:inception": "1980-01-01",
    "geom:area": 0,
    "geom:bbox": "0.777509,52.058760,0.777509,52.058760",
    "geom:latitude": 52.05876,
    "geom:longitude": 0.777509,
    "gp:parent_id": "21744",
    "iso:country": "GB",
    "mz:hierarchy_label": 1,
    "mz:is_current": 1,
    "os:country_code": "E92000001",
    "os:county_code": "E10000029",
    "os:district_code": "E07000200",
    "os:positional_quality_indicator": "1",
    "os:region_code": "E12000006",
    "src:geom": "os",
    "wof:belongsto": [
      85633159,
      102191581,
      136253055,
      1864206385,
      1880771637,
      404446073,
      1125886953,
      1880762001,
      404227469,
      1880762685
    ],
    "wof:breaches": [],
    "wof:concordances": {
      "gp:id": "27079871"
    },
    "wof:country": "GB",
    "wof:created": 1583701329,
    "wof:geomhash": "2d47c1392bea8a77adf6cd9008083b9c",
    "wof:hierarchy": [
      {
        "continent_id": 102191581,
        "country_id": 85633159,
        "county_id": 1880771637,
        "empire_id": 136253055,
        "localadmin_id": 404446073,
        "locality_id": 1125886953,
        "macrocounty_id": 1880762001,
        "macroregion_id": 404227469,
        "postalcode_id": 454170099,
        "region_id": 1880762685
      },
      {
        "continent_id": 102191581,
        "country_id": 85633159,
        "empire_id": 136253055,
        "postalcode_id": 454170099,
        "postalregion_id": 1864206385
      }
    ],
    "wof:id": 454170099,
    "wof:lastmodified": 1763548545,
    "wof:name": "CO10 0TX",
    "wof:parent_id": 1125886953,
    "wof:placetype": "postalcode",
    "wof:repo": "whosonfirst-data-postalcode-gb",
    "wof:superseded_by": [],
    "wof:supersedes": [],
    "wof:tags": []
  },
  "bbox": [
    0.777509,
    52.05876,
    0.777509,
    52.05876
  ],
  "geometry": {"coordinates":[0.777509,52.05876],"type":"Point"}
}
