{
  "id": 438060027,
  "type": "Feature",
  "properties": {
    "date:inception_lower": "1980-01-01",
    "date:inception_upper": "1980-01-01",
    "edtf:cessation": "",
    "edtf:inception": "1980-01-01",
    "geom:area": 0,
    "geom:bbox": "-2.740831,51.115569,-2.740831,51.115569",
    "geom:latitude": 51.115569,
    "geom:longitude": -2.740831,
    "iso:country": "GB",
    "mz:hierarchy_label": 1,
    "mz:is_current": 1,
    "os:country_code": "E92000001",
    "os:county_code": "E99999999",
    "os:district_code": "E06000066",
    "os:positional_quality_indicator": "1",
    "os:region_code": "E12000009",
    "src:geom": "os",
    "wof:belongsto": [
      85633159,
      102191581,
      136253055,
      1864205665,
      1360699059,
      404439545,
      1326865381,
      1880762071,
      404227469,
      1880773145
    ],
    "wof:breaches": [],
    "wof:concordances": {
      "gp:id": "26775733"
    },
    "wof:country": "GB",
    "wof:created": 1583701173,
    "wof:geomhash": "6e2db0642df419172c1eb2c107b51c31",
    "wof:hierarchy": [
      {
        "continent_id": 102191581,
        "country_id": 85633159,
        "county_id": 1360699059,
        "empire_id": 136253055,
        "localadmin_id": 404439545,
        "locality_id": 1326865381,
        "macrocounty_id": 1880762071,
        "macroregion_id": 404227469,
        "postalcode_id": 438060027,
        "region_id": 1880773145
      },
      {
        "continent_id": 102191581,
        "country_id": 85633159,
        "empire_id": 136253055,
        "postalcode_id": 438060027,
        "postalregion_id": 1864205665
      }
    ],
    "wof:id": 438060027,
    "wof:lastmodified": 1763548139,
    "wof:name": "BA16 0TS",
    "wof:parent_id": 1326865381,
    "wof:placetype": "postalcode",
    "wof:repo": "whosonfirst-data-postalcode-gb",
    "wof:superseded_by": [],
    "wof:supersedes": [],
    "wof:tags": []
  },
  "bbox": [
    -2.740831,
    51.115569,
    -2.740831,
    51.115569
  ],
  "geometry": {"coordinates":[-2.740831,51.115569],"type":"Point"}
}
