{
  "id": 438052459,
  "type": "Feature",
  "properties": {
    "date:inception_lower": "1980-01-01",
    "date:inception_upper": "1980-01-01",
    "edtf:cessation": "",
    "edtf:inception": "1980-01-01",
    "geom:area": 0,
    "geom:bbox": "-2.007018,51.140910,-2.007018,51.140910",
    "geom:latitude": 51.14091,
    "geom:longitude": -2.007018,
    "gp:parent_id": "11799",
    "iso:country": "GB",
    "mz:hierarchy_label": 1,
    "mz:is_current": 1,
    "os:country_code": "E92000001",
    "os:county_code": "E99999999",
    "os:district_code": "E06000054",
    "os:positional_quality_indicator": "1",
    "os:region_code": "E12000009",
    "src:geom": "os",
    "wof:belongsto": [
      85633159,
      102191581,
      136253055,
      1864205657,
      1360698937,
      404447217,
      1209644079,
      1880762017,
      404227469,
      1880773035
    ],
    "wof:breaches": [],
    "wof:concordances": {
      "gp:id": "26875460"
    },
    "wof:country": "GB",
    "wof:created": 1583701156,
    "wof:geomhash": "e0d899f7cfeafcc65432ef0f454f9ada",
    "wof:hierarchy": [
      {
        "continent_id": 102191581,
        "country_id": 85633159,
        "county_id": 1360698937,
        "empire_id": 136253055,
        "localadmin_id": 404447217,
        "locality_id": 1209644079,
        "macrocounty_id": 1880762017,
        "macroregion_id": 404227469,
        "postalcode_id": 438052459,
        "region_id": 1880773035
      },
      {
        "continent_id": 102191581,
        "country_id": 85633159,
        "empire_id": 136253055,
        "postalcode_id": 438052459,
        "postalregion_id": 1864205657
      }
    ],
    "wof:id": 438052459,
    "wof:lastmodified": 1763548039,
    "wof:name": "BA12 0SA",
    "wof:parent_id": 1209644079,
    "wof:placetype": "postalcode",
    "wof:repo": "whosonfirst-data-postalcode-gb",
    "wof:superseded_by": [],
    "wof:supersedes": [],
    "wof:tags": []
  },
  "bbox": [
    -2.007018,
    51.14091,
    -2.007018,
    51.14091
  ],
  "geometry": {"coordinates":[-2.007018,51.14091],"type":"Point"}
}
