{
  "id": 1712438251,
  "type": "Feature",
  "properties": {
    "date:cessation_lower": "1996-12-01",
    "date:cessation_upper": "1996-12-01",
    "date:inception_lower": "1994-05-01",
    "date:inception_upper": "1994-05-01",
    "edtf:cessation": "1996-12-01",
    "edtf:inception": "1994-05-01",
    "geom:area": 0,
    "geom:bbox": "0.665726,51.972480,0.665726,51.972480",
    "geom:latitude": 51.97248,
    "geom:longitude": 0.665726,
    "iso:country": "GB",
    "mz:hierarchy_label": 1,
    "mz:is_current": 0,
    "os:country_code": "E92000001",
    "os:county_code": "E10000012",
    "os:district_code": "E07000067",
    "os:positional_quality_indicator": "8",
    "os:region_code": "E12000006",
    "src:geom": "os",
    "wof:belongsto": [
      85633159,
      102191581,
      136253055,
      1864206417,
      1880771437,
      404454845,
      1126053137,
      1880762159,
      404227469,
      1880762723
    ],
    "wof:breaches": [],
    "wof:country": "GB",
    "wof:created": 1583788048,
    "wof:geomhash": "c0f3e3a35c94a5f5ae52a9286781c60a",
    "wof:hierarchy": [
      {
        "continent_id": 102191581,
        "country_id": 85633159,
        "county_id": 1880771437,
        "empire_id": 136253055,
        "localadmin_id": 404454845,
        "locality_id": 1126053137,
        "macrocounty_id": 1880762159,
        "macroregion_id": 404227469,
        "postalcode_id": 1712438251,
        "region_id": 1880762723
      },
      {
        "continent_id": 102191581,
        "country_id": 85633159,
        "empire_id": 136253055,
        "postalcode_id": 1712438251,
        "postalregion_id": 1864206417
      }
    ],
    "wof:id": 1712438251,
    "wof:lastmodified": 1763548671,
    "wof:name": "CO9 2SA",
    "wof:parent_id": 1126053137,
    "wof:placetype": "postalcode",
    "wof:repo": "whosonfirst-data-postalcode-gb",
    "wof:superseded_by": [],
    "wof:supersedes": [],
    "wof:tags": []
  },
  "bbox": [
    0.665726,
    51.97248,
    0.665726,
    51.97248
  ],
  "geometry": {"coordinates":[0.665726,51.97248],"type":"Point"}
}
