{
  "id": 454420775,
  "type": "Feature",
  "properties": {
    "date:inception_lower": "2001-12-01",
    "date:inception_upper": "2001-12-01",
    "edtf:cessation": "",
    "edtf:inception": "2001-12-01",
    "geom:area": 0,
    "geom:bbox": "-0.606565,53.641930,-0.606565,53.641930",
    "geom:latitude": 53.64193,
    "geom:longitude": -0.606565,
    "gp:parent_id": "33685",
    "iso:country": "GB",
    "mz:hierarchy_label": 1,
    "mz:is_current": 1,
    "os:country_code": "E92000001",
    "os:county_code": "E99999999",
    "os:district_code": "E06000013",
    "os:positional_quality_indicator": "1",
    "os:region_code": "E12000003",
    "src:geom": "os",
    "wof:belongsto": [
      85633159,
      102191581,
      136253055,
      1864206803,
      1360698901,
      404430479,
      1360754473,
      1880762033,
      404227469,
      1880762701
    ],
    "wof:breaches": [],
    "wof:concordances": {
      "gp:id": "27181832"
    },
    "wof:country": "GB",
    "wof:created": 1583701558,
    "wof:geomhash": "aa1298bde55ee4829abea9a97b3be157",
    "wof:hierarchy": [
      {
        "continent_id": 102191581,
        "country_id": 85633159,
        "county_id": 1360698901,
        "empire_id": 136253055,
        "localadmin_id": 404430479,
        "locality_id": 1360754473,
        "macrocounty_id": 1880762033,
        "macroregion_id": 404227469,
        "postalcode_id": 454420775,
        "region_id": 1880762701
      },
      {
        "continent_id": 102191581,
        "country_id": 85633159,
        "empire_id": 136253055,
        "postalcode_id": 454420775,
        "postalregion_id": 1864206803
      }
    ],
    "wof:id": 454420775,
    "wof:lastmodified": 1763548487,
    "wof:name": "DN15 0DJ",
    "wof:parent_id": 1360754473,
    "wof:placetype": "postalcode",
    "wof:repo": "whosonfirst-data-postalcode-gb",
    "wof:superseded_by": [],
    "wof:supersedes": [],
    "wof:tags": []
  },
  "bbox": [
    -0.606565,
    53.64193,
    -0.606565,
    53.64193
  ],
  "geometry": {"coordinates":[-0.606565,53.64193],"type":"Point"}
}
