{
  "id": 1712541253,
  "type": "Feature",
  "properties": {
    "date:cessation_lower": "2001-07-01",
    "date:cessation_upper": "2001-07-01",
    "date:inception_lower": "2001-06-01",
    "date:inception_upper": "2001-06-01",
    "edtf:cessation": "2001-07-01",
    "edtf:inception": "2001-06-01",
    "geom:area": 0,
    "geom:bbox": "-0.849896,51.402270,-0.849896,51.402270",
    "geom:latitude": 51.40227,
    "geom:longitude": -0.849896,
    "iso:country": "GB",
    "mz:hierarchy_label": 1,
    "mz:is_current": 0,
    "os:country_code": "E92000001",
    "os:county_code": "E99999999",
    "os:district_code": "E06000041",
    "os:positional_quality_indicator": "5",
    "os:region_code": "E12000008",
    "src:geom": "os",
    "wof:belongsto": [
      85633159,
      102191581,
      136253055,
      1864210065,
      1360698967,
      404441171,
      101852547,
      1880762165,
      404227469,
      1880772969
    ],
    "wof:breaches": [],
    "wof:country": "GB",
    "wof:created": 1583792629,
    "wof:geomhash": "a856e4534063cf2b7a080e8f83a5c8ae",
    "wof:hierarchy": [
      {
        "continent_id": 102191581,
        "country_id": 85633159,
        "county_id": 1360698967,
        "empire_id": 136253055,
        "localadmin_id": 404441171,
        "locality_id": 101852547,
        "macrocounty_id": 1880762165,
        "macroregion_id": 404227469,
        "postalcode_id": 1712541253,
        "region_id": 1880772969
      },
      {
        "continent_id": 102191581,
        "country_id": 85633159,
        "empire_id": 136253055,
        "postalcode_id": 1712541253,
        "postalregion_id": 1864210065
      }
    ],
    "wof:id": 1712541253,
    "wof:lastmodified": 1763548746,
    "wof:name": "RG41 2GU",
    "wof:parent_id": 101852547,
    "wof:placetype": "postalcode",
    "wof:repo": "whosonfirst-data-postalcode-gb",
    "wof:superseded_by": [],
    "wof:supersedes": [],
    "wof:tags": []
  },
  "bbox": [
    -0.849896,
    51.40227,
    -0.849896,
    51.40227
  ],
  "geometry": {"coordinates":[-0.849896,51.40227],"type":"Point"}
}
