{
  "id": 1797019735,
  "type": "Feature",
  "properties": {
    "date:inception_lower": "2022-08-01",
    "date:inception_upper": "2022-08-01",
    "edtf:cessation": "",
    "edtf:inception": "2022-08-01",
    "geom:area": 0,
    "geom:bbox": "-2.269307,51.031004,-2.269307,51.031004",
    "geom:latitude": 51.031004,
    "geom:longitude": -2.269307,
    "iso:country": "GB",
    "mz:hierarchy_label": 1,
    "mz:is_current": 1,
    "os:country_code": "E92000001",
    "os:county_code": "E99999999",
    "os:district_code": "E06000059",
    "os:positional_quality_indicator": "1",
    "os:region_code": "E12000009",
    "src:geom": "os",
    "wof:belongsto": [
      102191581,
      85633159,
      136253055,
      1864210717,
      1360698745,
      404444831,
      1277104009,
      1880762151,
      404227469,
      1880772881
    ],
    "wof:breaches": [],
    "wof:country": "GB",
    "wof:created": 1673354580,
    "wof:geomhash": "87435ff02e7bc0438cd73ca178b03c91",
    "wof:hierarchy": [
      {
        "continent_id": 102191581,
        "country_id": 85633159,
        "county_id": 1360698745,
        "empire_id": 136253055,
        "localadmin_id": 404444831,
        "locality_id": 1277104009,
        "macrocounty_id": 1880762151,
        "macroregion_id": 404227469,
        "postalcode_id": 1797019735,
        "region_id": 1880772881
      },
      {
        "continent_id": 102191581,
        "country_id": 85633159,
        "empire_id": 136253055,
        "postalcode_id": 1797019735,
        "postalregion_id": 1864210717
      }
    ],
    "wof:id": 1797019735,
    "wof:lastmodified": 1763548635,
    "wof:name": "SP8 4YP",
    "wof:parent_id": 1277104009,
    "wof:placetype": "postalcode",
    "wof:repo": "whosonfirst-data-postalcode-gb",
    "wof:superseded_by": [],
    "wof:supersedes": [],
    "wof:tags": []
  },
  "bbox": [
    -2.269307,
    51.031004,
    -2.269307,
    51.031004
  ],
  "geometry": {"coordinates":[-2.269307,51.031004],"type":"Point"}
}
