{
  "id": 488438347,
  "type": "Feature",
  "properties": {
    "date:inception_lower": "1998-12-01",
    "date:inception_upper": "1998-12-01",
    "edtf:cessation": "",
    "edtf:inception": "1998-12-01",
    "geom:area": 0,
    "geom:bbox": "-4.156226,57.474055,-4.156226,57.474055",
    "geom:latitude": 57.474055,
    "geom:longitude": -4.156226,
    "iso:country": "GB",
    "mz:hierarchy_label": 1,
    "mz:is_current": 1,
    "os:country_code": "S92000003",
    "os:county_code": "S99999999",
    "os:district_code": "S12000017",
    "os:positional_quality_indicator": "1",
    "os:region_code": "S99999999",
    "src:geom": "os",
    "wof:belongsto": [
      85633159,
      102191581,
      136253055,
      1864207923,
      1360699045,
      1880762005,
      404227471,
      1880773131
    ],
    "wof:breaches": [],
    "wof:concordances": {
      "gp:id": "27409568"
    },
    "wof:country": "GB",
    "wof:created": 1583701450,
    "wof:geomhash": "b96d0a70a01bdb43090d64d52a02ec02",
    "wof:hierarchy": [
      {
        "continent_id": 102191581,
        "country_id": 85633159,
        "county_id": 1360699045,
        "empire_id": 136253055,
        "macrocounty_id": 1880762005,
        "macroregion_id": 404227471,
        "postalcode_id": 488438347,
        "region_id": 1880773131
      },
      {
        "continent_id": 102191581,
        "country_id": 85633159,
        "empire_id": 136253055,
        "postalcode_id": 488438347,
        "postalregion_id": 1864207923
      }
    ],
    "wof:id": 488438347,
    "wof:lastmodified": 1763548486,
    "wof:name": "IV2 5GB",
    "wof:parent_id": 1360699045,
    "wof:placetype": "postalcode",
    "wof:repo": "whosonfirst-data-postalcode-gb",
    "wof:superseded_by": [],
    "wof:supersedes": [],
    "wof:tags": []
  },
  "bbox": [
    -4.156226,
    57.474055,
    -4.156226,
    57.474055
  ],
  "geometry": {"coordinates":[-4.156226,57.474055],"type":"Point"}
}
