{
  "id": 454033783,
  "type": "Feature",
  "properties": {
    "date:inception_lower": "2004-06-01",
    "date:inception_upper": "2004-06-01",
    "edtf:cessation": "",
    "edtf:inception": "2004-06-01",
    "geom:area": 0,
    "geom:bbox": "-2.557556,51.431264,-2.557556,51.431264",
    "geom:latitude": 51.431264,
    "geom:longitude": -2.557556,
    "iso:country": "GB",
    "mz:hierarchy_label": 1,
    "mz:is_current": 1,
    "os:country_code": "E92000001",
    "os:county_code": "E99999999",
    "os:district_code": "E06000023",
    "os:positional_quality_indicator": "1",
    "os:region_code": "E12000009",
    "src:geom": "os",
    "wof:belongsto": [
      85633159,
      102191581,
      136253055,
      1864206029,
      1360698747,
      1175612699,
      1880762137,
      404227469,
      1880772883
    ],
    "wof:breaches": [],
    "wof:concordances": {
      "gp:id": "28205608"
    },
    "wof:country": "GB",
    "wof:created": 1583701073,
    "wof:geomhash": "982da9eee8c32dc2c451dc1bf90aa75c",
    "wof:hierarchy": [
      {
        "continent_id": 102191581,
        "country_id": 85633159,
        "county_id": 1360698747,
        "empire_id": 136253055,
        "locality_id": 1175612699,
        "macrocounty_id": 1880762137,
        "macroregion_id": 404227469,
        "postalcode_id": 454033783,
        "region_id": 1880772883
      },
      {
        "continent_id": 102191581,
        "country_id": 85633159,
        "empire_id": 136253055,
        "postalcode_id": 454033783,
        "postalregion_id": 1864206029
      }
    ],
    "wof:id": 454033783,
    "wof:lastmodified": 1763548517,
    "wof:name": "BS4 5BJ",
    "wof:parent_id": 1175612699,
    "wof:placetype": "postalcode",
    "wof:repo": "whosonfirst-data-postalcode-gb",
    "wof:superseded_by": [],
    "wof:supersedes": [],
    "wof:tags": []
  },
  "bbox": [
    -2.557556,
    51.431264,
    -2.557556,
    51.431264
  ],
  "geometry": {"coordinates":[-2.557556,51.431264],"type":"Point"}
}
