{
  "id": 471515671,
  "type": "Feature",
  "properties": {
    "date:inception_lower": "1980-01-01",
    "date:inception_upper": "1980-01-01",
    "edtf:cessation": "",
    "edtf:inception": "1980-01-01",
    "geom:area": 0,
    "geom:bbox": "-3.014732,53.626421,-3.014732,53.626421",
    "geom:latitude": 53.626421,
    "geom:longitude": -3.014732,
    "gp:parent_id": "35398",
    "iso:country": "GB",
    "mz:hierarchy_label": 1,
    "mz:is_current": 1,
    "os:country_code": "E92000001",
    "os:county_code": "E99999999",
    "os:district_code": "E08000014",
    "os:positional_quality_indicator": "1",
    "os:region_code": "E12000002",
    "src:geom": "os",
    "wof:belongsto": [
      85633159,
      102191581,
      136253055,
      1864210011,
      1360698771,
      101750595,
      1880762035,
      404227469,
      1880773063
    ],
    "wof:breaches": [],
    "wof:concordances": {
      "gp:id": "27803807"
    },
    "wof:country": "GB",
    "wof:created": 1583701653,
    "wof:geomhash": "8a31b9660127e2c7c7b796b65c09641e",
    "wof:hierarchy": [
      {
        "continent_id": 102191581,
        "country_id": 85633159,
        "county_id": 1360698771,
        "empire_id": 136253055,
        "locality_id": 101750595,
        "macrocounty_id": 1880762035,
        "macroregion_id": 404227469,
        "postalcode_id": 471515671,
        "region_id": 1880773063
      },
      {
        "continent_id": 102191581,
        "country_id": 85633159,
        "empire_id": 136253055,
        "postalcode_id": 471515671,
        "postalregion_id": 1864210011
      }
    ],
    "wof:id": 471515671,
    "wof:lastmodified": 1763548433,
    "wof:name": "PR8 4SQ",
    "wof:parent_id": 101750595,
    "wof:placetype": "postalcode",
    "wof:repo": "whosonfirst-data-postalcode-gb",
    "wof:superseded_by": [],
    "wof:supersedes": [],
    "wof:tags": []
  },
  "bbox": [
    -3.014732,
    53.626421,
    -3.014732,
    53.626421
  ],
  "geometry": {"coordinates":[-3.014732,53.626421],"type":"Point"}
}
