{
  "id": 1880447923,
  "type": "Feature",
  "properties": {
    "date:inception_lower": "2023-07-01",
    "date:inception_upper": "2023-07-01",
    "edtf:cessation": "",
    "edtf:inception": "2023-07-01",
    "geom:area": 0,
    "geom:bbox": "-0.224952,51.763603,-0.224952,51.763603",
    "geom:latitude": 51.763603,
    "geom:longitude": -0.224952,
    "iso:country": "GB",
    "mz:hierarchy_label": 1,
    "mz:is_current": 1,
    "os:country_code": "E92000001",
    "os:county_code": "E10000015",
    "os:district_code": "E07000241",
    "os:positional_quality_indicator": "1",
    "os:region_code": "E12000006",
    "src:geom": "os",
    "wof:belongsto": [
      102191581,
      85633159,
      136253055,
      1864205455,
      1880771495,
      404446407,
      101854781,
      1880762153,
      404227469,
      1880762721
    ],
    "wof:breaches": [],
    "wof:country": "GB",
    "wof:created": 1695222550,
    "wof:geomhash": "7c28895a2f9f111f0a9f515b2f7c12f3",
    "wof:hierarchy": [
      {
        "continent_id": 102191581,
        "country_id": 85633159,
        "county_id": 1880771495,
        "empire_id": 136253055,
        "localadmin_id": 404446407,
        "locality_id": 101854781,
        "macrocounty_id": 1880762153,
        "macroregion_id": 404227469,
        "postalcode_id": 1880447923,
        "region_id": 1880762721
      },
      {
        "continent_id": 102191581,
        "country_id": 85633159,
        "empire_id": 136253055,
        "postalcode_id": 1880447923,
        "postalregion_id": 1864205455
      }
    ],
    "wof:id": 1880447923,
    "wof:lastmodified": 1763548362,
    "wof:name": "AL10 0FR",
    "wof:parent_id": 101854781,
    "wof:placetype": "postalcode",
    "wof:repo": "whosonfirst-data-postalcode-gb",
    "wof:superseded_by": [],
    "wof:supersedes": [],
    "wof:tags": []
  },
  "bbox": [
    -0.224952,
    51.763603,
    -0.224952,
    51.763603
  ],
  "geometry": {"coordinates":[-0.224952,51.763603],"type":"Point"}
}
