{
  "id": 471660339,
  "type": "Feature",
  "properties": {
    "date:cessation_lower": "2019-07-01",
    "date:cessation_upper": "2019-07-01",
    "date:inception_lower": "1994-12-01",
    "date:inception_upper": "1994-12-01",
    "edtf:cessation": "2019-07-01",
    "edtf:inception": "1994-12-01",
    "geom:area": 0,
    "geom:bbox": "-1.509694,53.400040,-1.509694,53.400040",
    "geom:latitude": 53.40004,
    "geom:longitude": -1.509694,
    "gp:parent_id": "34503",
    "iso:country": "GB",
    "mz:hierarchy_label": 1,
    "mz:is_current": 0,
    "os:country_code": "E92000001",
    "os:county_code": "E99999999",
    "os:district_code": "E08000039",
    "os:positional_quality_indicator": "1",
    "os:region_code": "E12000003",
    "src:geom": "os",
    "wof:belongsto": [
      85633159,
      102191581,
      136253055,
      1864210233,
      1360699075,
      101750529,
      1880761997,
      404227469,
      1880772963
    ],
    "wof:breaches": [],
    "wof:concordances": {
      "gp:id": "27856189"
    },
    "wof:country": "GB",
    "wof:created": 1583701686,
    "wof:geomhash": "9cd228d47633a64ad0cf5709095f1fcd",
    "wof:hierarchy": [
      {
        "continent_id": 102191581,
        "country_id": 85633159,
        "county_id": 1360699075,
        "empire_id": 136253055,
        "locality_id": 101750529,
        "macrocounty_id": 1880761997,
        "macroregion_id": 404227469,
        "postalcode_id": 471660339,
        "region_id": 1880772963
      },
      {
        "continent_id": 102191581,
        "country_id": 85633159,
        "empire_id": 136253055,
        "postalcode_id": 471660339,
        "postalregion_id": 1864210233
      }
    ],
    "wof:id": 471660339,
    "wof:lastmodified": 1763548102,
    "wof:name": "S6 4JY",
    "wof:parent_id": 101750529,
    "wof:placetype": "postalcode",
    "wof:repo": "whosonfirst-data-postalcode-gb",
    "wof:superseded_by": [],
    "wof:supersedes": [],
    "wof:tags": []
  },
  "bbox": [
    -1.509694,
    53.40004,
    -1.509694,
    53.40004
  ],
  "geometry": {"coordinates":[-1.509694,53.40004],"type":"Point"}
}
