{
  "id": 1160999536,
  "type": "Feature",
  "properties": {
    "date:cessation_lower": "1994-12-01",
    "date:cessation_upper": "1994-12-01",
    "date:inception_lower": "1987-04-01",
    "date:inception_upper": "1987-04-01",
    "edtf:cessation": "1994-12-01",
    "edtf:inception": "1987-04-01",
    "geom:area": 0,
    "geom:bbox": "-1.388002,50.970129,-1.388002,50.970129",
    "geom:latitude": 50.970129,
    "geom:longitude": -1.388002,
    "iso:country": "GB",
    "mz:hierarchy_label": 1,
    "mz:is_current": 0,
    "os:country_code": "E92000001",
    "os:county_code": "E10000014",
    "os:district_code": "E07000086",
    "os:positional_quality_indicator": "1",
    "os:region_code": "E12000008",
    "src:geom": "os",
    "wof:belongsto": [
      102191581,
      85633159,
      1880771461,
      136253055,
      404453323,
      1327163441,
      1880762155,
      404227469,
      1880762717
    ],
    "wof:breaches": [],
    "wof:country": "GB",
    "wof:created": 1583799404,
    "wof:geomhash": "0bd3c239c33be4ccaee7160b2019a5d7",
    "wof:hierarchy": [
      {
        "continent_id": 102191581,
        "country_id": 85633159,
        "county_id": 1880771461,
        "empire_id": 136253055,
        "localadmin_id": 404453323,
        "locality_id": 1327163441,
        "macrocounty_id": 1880762155,
        "macroregion_id": 404227469,
        "postalcode_id": 1160999536,
        "region_id": 1880762717
      }
    ],
    "wof:id": 1160999536,
    "wof:lastmodified": 1763548262,
    "wof:name": "SO5 3RS",
    "wof:parent_id": 1327163441,
    "wof:placetype": "postalcode",
    "wof:repo": "whosonfirst-data-postalcode-gb",
    "wof:superseded_by": [],
    "wof:supersedes": [],
    "wof:tags": []
  },
  "bbox": [
    -1.388002,
    50.970129,
    -1.388002,
    50.970129
  ],
  "geometry": {"coordinates":[-1.388002,50.970129],"type":"Point"}
}
