{
  "id": 454490495,
  "type": "Feature",
  "properties": {
    "date:inception_lower": "1995-12-01",
    "date:inception_upper": "1995-12-01",
    "edtf:cessation": "",
    "edtf:inception": "1995-12-01",
    "geom:area": 0,
    "geom:bbox": "-2.050376,52.527209,-2.050376,52.527209",
    "geom:latitude": 52.527209,
    "geom:longitude": -2.050376,
    "gp:parent_id": "37655",
    "iso:country": "GB",
    "mz:hierarchy_label": 1,
    "mz:is_current": 1,
    "os:country_code": "E92000001",
    "os:county_code": "E99999999",
    "os:district_code": "E08000028",
    "os:positional_quality_indicator": "1",
    "os:region_code": "E12000005",
    "src:geom": "os",
    "wof:belongsto": [
      85633159,
      102191581,
      136253055,
      1864206905,
      1360699035,
      1360817335,
      1125833493,
      1880762069
    ],
    "wof:breaches": [],
    "wof:concordances": {
      "gp:id": "27207760"
    },
    "wof:country": "GB",
    "wof:created": 1583701602,
    "wof:geomhash": "ba4cbe03e4b0a11235886d5e6d9050a9",
    "wof:hierarchy": [
      {
        "continent_id": -1,
        "country_id": -1,
        "county_id": 1360699035,
        "localadmin_id": 1360817335,
        "locality_id": 1125833493,
        "macrocounty_id": 1880762069,
        "postalcode_id": 454490495,
        "region_id": -1
      },
      {
        "continent_id": 102191581,
        "country_id": 85633159,
        "empire_id": 136253055,
        "postalcode_id": 454490495,
        "postalregion_id": 1864206905
      }
    ],
    "wof:id": 454490495,
    "wof:lastmodified": 1763548338,
    "wof:name": "DY4 8UJ",
    "wof:parent_id": 1125833493,
    "wof:placetype": "postalcode",
    "wof:repo": "whosonfirst-data-postalcode-gb",
    "wof:superseded_by": [],
    "wof:supersedes": [],
    "wof:tags": []
  },
  "bbox": [
    -2.050376,
    52.527209,
    -2.050376,
    52.527209
  ],
  "geometry": {"coordinates":[-2.050376,52.527209],"type":"Point"}
}
