{
  "id": 38294298,
  "type": "Feature",
  "properties": {
    "date:cessation_lower": "1994-05-01",
    "date:cessation_upper": "1994-05-01",
    "date:inception_lower": "1990-02-01",
    "date:inception_upper": "1990-02-01",
    "edtf:cessation": "1994-05-01",
    "edtf:inception": "1990-02-01",
    "geom:area": 0,
    "geom:bbox": "0.444100,51.564506,0.444100,51.564506",
    "geom:latitude": 51.564506,
    "geom:longitude": 0.4441,
    "iso:country": "GB",
    "mz:hierarchy_label": 1,
    "mz:is_current": 0,
    "os:country_code": "E92000001",
    "os:county_code": "E10000012",
    "os:district_code": "E07000066",
    "os:positional_quality_indicator": "8",
    "os:region_code": "E12000006",
    "src:geom": "os",
    "wof:belongsto": [
      85633159,
      102191581,
      136253055,
      1864210755,
      1880771441,
      1360817079,
      101750407,
      1880762159,
      404227469,
      1880762723
    ],
    "wof:breaches": [],
    "wof:country": "GB",
    "wof:created": 1583788747,
    "wof:geomhash": "6d16434193a8b2f819df318ea2440fa2",
    "wof:hierarchy": [
      {
        "continent_id": 102191581,
        "country_id": 85633159,
        "county_id": 1880771441,
        "empire_id": 136253055,
        "localadmin_id": 1360817079,
        "locality_id": 101750407,
        "macrocounty_id": 1880762159,
        "macroregion_id": 404227469,
        "postalcode_id": 38294298,
        "region_id": 1880762723
      },
      {
        "continent_id": 102191581,
        "country_id": 85633159,
        "empire_id": 136253055,
        "postalcode_id": 38294298,
        "postalregion_id": 1864210755
      }
    ],
    "wof:id": 38294298,
    "wof:lastmodified": 1763548371,
    "wof:name": "SS16 5RP",
    "wof:parent_id": 101750407,
    "wof:placetype": "postalcode",
    "wof:repo": "whosonfirst-data-postalcode-gb",
    "wof:superseded_by": [],
    "wof:supersedes": [],
    "wof:tags": []
  },
  "bbox": [
    0.4441,
    51.564506,
    0.4441,
    51.564506
  ],
  "geometry": {"coordinates":[0.4441,51.564506],"type":"Point"}
}
