{
  "id": 471326747,
  "type": "Feature",
  "properties": {
    "date:inception_lower": "1991-09-01",
    "date:inception_upper": "1991-09-01",
    "edtf:cessation": "",
    "edtf:inception": "1991-09-01",
    "geom:area": 0,
    "geom:bbox": "-1.365752,51.831918,-1.365752,51.831918",
    "geom:latitude": 51.831918,
    "geom:longitude": -1.365752,
    "iso:country": "GB",
    "mz:hierarchy_label": 1,
    "mz:is_current": 1,
    "os:country_code": "E92000001",
    "os:county_code": "E10000025",
    "os:district_code": "E07000181",
    "os:positional_quality_indicator": "1",
    "os:region_code": "E12000008",
    "src:geom": "os",
    "wof:belongsto": [
      85633159,
      102191581,
      136253055,
      1864209469,
      1880771615,
      404446693,
      1360754189,
      1880762079,
      404227469,
      1880762695
    ],
    "wof:breaches": [],
    "wof:concordances": {
      "gp:id": "27722628"
    },
    "wof:country": "GB",
    "wof:created": 1583701503,
    "wof:geomhash": "65f983b1017b4ede82b713b18d964b24",
    "wof:hierarchy": [
      {
        "continent_id": 102191581,
        "country_id": 85633159,
        "county_id": 1880771615,
        "empire_id": 136253055,
        "localadmin_id": 404446693,
        "locality_id": 1360754189,
        "macrocounty_id": 1880762079,
        "macroregion_id": 404227469,
        "postalcode_id": 471326747,
        "region_id": 1880762695
      },
      {
        "continent_id": 102191581,
        "country_id": 85633159,
        "empire_id": 136253055,
        "postalcode_id": 471326747,
        "postalregion_id": 1864209469
      }
    ],
    "wof:id": 471326747,
    "wof:lastmodified": 1763548423,
    "wof:name": "OX20 1QA",
    "wof:parent_id": 1360754189,
    "wof:placetype": "postalcode",
    "wof:repo": "whosonfirst-data-postalcode-gb",
    "wof:superseded_by": [],
    "wof:supersedes": [],
    "wof:tags": []
  },
  "bbox": [
    -1.365752,
    51.831918,
    -1.365752,
    51.831918
  ],
  "geometry": {"coordinates":[-1.365752,51.831918],"type":"Point"}
}
