{
  "id": 1712763483,
  "type": "Feature",
  "properties": {
    "date:cessation_lower": "1995-01-01",
    "date:cessation_upper": "1995-01-01",
    "date:inception_lower": "1993-01-01",
    "date:inception_upper": "1993-01-01",
    "edtf:cessation": "1995-01-01",
    "edtf:inception": "1993-01-01",
    "geom:area": 0,
    "geom:bbox": "-2.980523,53.332692,-2.980523,53.332692",
    "geom:latitude": 53.332692,
    "geom:longitude": -2.980523,
    "iso:country": "GB",
    "mz:hierarchy_label": 1,
    "mz:is_current": 0,
    "os:country_code": "E92000001",
    "os:county_code": "E99999999",
    "os:district_code": "E08000015",
    "os:positional_quality_indicator": "8",
    "os:region_code": "E12000002",
    "src:geom": "os",
    "wof:belongsto": [
      102191581,
      85633159,
      1360699049,
      136253055,
      101750549,
      1880762035,
      404227469,
      1880773063
    ],
    "wof:breaches": [],
    "wof:country": "GB",
    "wof:created": 1583802514,
    "wof:geomhash": "090756906745272296f40fb548b68dd5",
    "wof:hierarchy": [
      {
        "continent_id": 102191581,
        "country_id": 85633159,
        "county_id": 1360699049,
        "empire_id": 136253055,
        "locality_id": 101750549,
        "macrocounty_id": 1880762035,
        "macroregion_id": 404227469,
        "postalcode_id": 1712763483,
        "region_id": 1880773063
      }
    ],
    "wof:id": 1712763483,
    "wof:lastmodified": 1763548732,
    "wof:name": "L62 2HB",
    "wof:parent_id": 101750549,
    "wof:placetype": "postalcode",
    "wof:repo": "whosonfirst-data-postalcode-gb",
    "wof:superseded_by": [],
    "wof:supersedes": [],
    "wof:tags": []
  },
  "bbox": [
    -2.980523,
    53.332692,
    -2.980523,
    53.332692
  ],
  "geometry": {"coordinates":[-2.980523,53.332692],"type":"Point"}
}
