{
  "id": 471753901,
  "type": "Feature",
  "properties": {
    "date:inception_lower": "1980-01-01",
    "date:inception_upper": "1980-01-01",
    "edtf:cessation": "",
    "edtf:inception": "1980-01-01",
    "geom:area": 0,
    "geom:bbox": "-0.293160,51.851234,-0.293160,51.851234",
    "geom:latitude": 51.851234,
    "geom:longitude": -0.29316,
    "iso:country": "GB",
    "mz:hierarchy_label": 1,
    "mz:is_current": 1,
    "os:country_code": "E92000001",
    "os:county_code": "E10000015",
    "os:district_code": "E07000099",
    "os:positional_quality_indicator": "1",
    "os:region_code": "E12000006",
    "src:geom": "os",
    "wof:belongsto": [
      85633159,
      102191581,
      136253055,
      1864210501,
      1880771497,
      404451921,
      101853543,
      1880762153,
      404227469,
      1880762721
    ],
    "wof:breaches": [],
    "wof:concordances": {
      "gp:id": "26724704"
    },
    "wof:country": "GB",
    "wof:created": 1583701729,
    "wof:geomhash": "bfa378da04a3cc5f37d7b498af5cab12",
    "wof:hierarchy": [
      {
        "continent_id": 102191581,
        "country_id": 85633159,
        "county_id": 1880771497,
        "empire_id": 136253055,
        "localadmin_id": 404451921,
        "locality_id": 101853543,
        "macrocounty_id": 1880762153,
        "macroregion_id": 404227469,
        "postalcode_id": 471753901,
        "region_id": 1880762721
      },
      {
        "continent_id": 102191581,
        "country_id": 85633159,
        "empire_id": 136253055,
        "postalcode_id": 471753901,
        "postalregion_id": 1864210501
      }
    ],
    "wof:id": 471753901,
    "wof:lastmodified": 1763547962,
    "wof:name": "SG4 8RA",
    "wof:parent_id": 101853543,
    "wof:placetype": "postalcode",
    "wof:repo": "whosonfirst-data-postalcode-gb",
    "wof:superseded_by": [],
    "wof:supersedes": [],
    "wof:tags": []
  },
  "bbox": [
    -0.29316,
    51.851234,
    -0.29316,
    51.851234
  ],
  "geometry": {"coordinates":[-0.29316,51.851234],"type":"Point"}
}
