{
  "id": 454790681,
  "type": "Feature",
  "properties": {
    "date:inception_lower": "1980-01-01",
    "date:inception_upper": "1980-01-01",
    "edtf:cessation": "",
    "edtf:inception": "1980-01-01",
    "geom:area": 0,
    "geom:bbox": "-0.639411,51.729945,-0.639411,51.729945",
    "geom:latitude": 51.729945,
    "geom:longitude": -0.639411,
    "gp:parent_id": "11150",
    "iso:country": "GB",
    "mz:hierarchy_label": 1,
    "mz:is_current": 1,
    "os:country_code": "E92000001",
    "os:county_code": "E99999999",
    "os:district_code": "E06000060",
    "os:positional_quality_indicator": "1",
    "os:region_code": "E12000008",
    "src:geom": "os",
    "wof:belongsto": [
      85633159,
      102191581,
      136253055,
      1864207685,
      1360698997,
      404434767,
      1125779381,
      1880762141,
      404227469,
      1880773087
    ],
    "wof:breaches": [],
    "wof:concordances": {
      "gp:id": "26607451"
    },
    "wof:country": "GB",
    "wof:created": 1583701716,
    "wof:geomhash": "33da548fb16f0c72b2a974f1de9d7375",
    "wof:hierarchy": [
      {
        "continent_id": 102191581,
        "country_id": 85633159,
        "county_id": 1360698997,
        "empire_id": 136253055,
        "localadmin_id": 404434767,
        "locality_id": 1125779381,
        "macrocounty_id": 1880762141,
        "macroregion_id": 404227469,
        "postalcode_id": 454790681,
        "region_id": 1880773087
      },
      {
        "continent_id": 102191581,
        "country_id": 85633159,
        "empire_id": 136253055,
        "postalcode_id": 454790681,
        "postalregion_id": 1864207685
      }
    ],
    "wof:id": 454790681,
    "wof:lastmodified": 1763548166,
    "wof:name": "HP5 2XA",
    "wof:parent_id": 1125779381,
    "wof:placetype": "postalcode",
    "wof:repo": "whosonfirst-data-postalcode-gb",
    "wof:superseded_by": [],
    "wof:supersedes": [],
    "wof:tags": []
  },
  "bbox": [
    -0.639411,
    51.729945,
    -0.639411,
    51.729945
  ],
  "geometry": {"coordinates":[-0.639411,51.729945],"type":"Point"}
}
