{
  "id": 470983859,
  "type": "Feature",
  "properties": {
    "date:inception_lower": "1988-03-01",
    "date:inception_upper": "1988-03-01",
    "edtf:cessation": "",
    "edtf:inception": "1988-03-01",
    "geom:area": 0,
    "geom:bbox": "-0.305051,52.198308,-0.305051,52.198308",
    "geom:latitude": 52.198308,
    "geom:longitude": -0.305051,
    "gp:parent_id": "41248",
    "iso:country": "GB",
    "mz:hierarchy_label": 1,
    "mz:is_current": 1,
    "os:country_code": "E92000001",
    "os:county_code": "E99999999",
    "os:district_code": "E06000055",
    "os:positional_quality_indicator": "1",
    "os:region_code": "E12000006",
    "src:geom": "os",
    "wof:belongsto": [
      85633159,
      102191581,
      136253055,
      1864208903,
      1360699073,
      404432713,
      1360753117,
      1880762167,
      404227469,
      1880773157
    ],
    "wof:breaches": [],
    "wof:concordances": {
      "gp:id": "26405134"
    },
    "wof:country": "GB",
    "wof:created": 1583701368,
    "wof:geomhash": "c109dabbe1d1c1db689b8e73b7cd1794",
    "wof:hierarchy": [
      {
        "continent_id": 102191581,
        "country_id": 85633159,
        "county_id": 1360699073,
        "empire_id": 136253055,
        "localadmin_id": 404432713,
        "locality_id": 1360753117,
        "macrocounty_id": 1880762167,
        "macroregion_id": 404227469,
        "postalcode_id": 470983859,
        "region_id": 1880773157
      },
      {
        "continent_id": 102191581,
        "country_id": 85633159,
        "empire_id": 136253055,
        "postalcode_id": 470983859,
        "postalregion_id": 1864208903
      }
    ],
    "wof:id": 470983859,
    "wof:lastmodified": 1763547976,
    "wof:name": "MK44 3AD",
    "wof:parent_id": 1360753117,
    "wof:placetype": "postalcode",
    "wof:repo": "whosonfirst-data-postalcode-gb",
    "wof:superseded_by": [],
    "wof:supersedes": [],
    "wof:tags": []
  },
  "bbox": [
    -0.305051,
    52.198308,
    -0.305051,
    52.198308
  ],
  "geometry": {"coordinates":[-0.305051,52.198308],"type":"Point"}
}
