{
  "id": 1998338843,
  "type": "Feature",
  "properties": {
    "date:inception_lower": "2025-02-01",
    "date:inception_upper": "2025-02-01",
    "edtf:cessation": "",
    "edtf:inception": "2025-02-01",
    "geom:area": 0,
    "geom:bbox": "-1.683979,55.152938,-1.683979,55.152938",
    "geom:latitude": 55.152938,
    "geom:longitude": -1.683979,
    "iso:country": "GB",
    "mz:hierarchy_label": 1,
    "mz:is_current": 1,
    "os:country_code": "E92000001",
    "os:county_code": "E99999999",
    "os:district_code": "E06000057",
    "os:positional_quality_indicator": "5",
    "os:region_code": "E12000001",
    "src:geom": "os",
    "wof:belongsto": [
      102191581,
      85633159,
      1360698769,
      136253055,
      404449843,
      101873459,
      1880761987,
      404227469,
      1880772897,
      1864209103
    ],
    "wof:breaches": [],
    "wof:country": "GB",
    "wof:created": 1763548785,
    "wof:geomhash": "333d8814255ba0c5bad17fcc5731afc7",
    "wof:hierarchy": [
      {
        "continent_id": 102191581,
        "country_id": 85633159,
        "county_id": 1360698769,
        "empire_id": 136253055,
        "localadmin_id": 404449843,
        "locality_id": 101873459,
        "macrocounty_id": 1880761987,
        "macroregion_id": 404227469,
        "postalcode_id": 1998338843,
        "region_id": 1880772897
      },
      {
        "continent_id": 102191581,
        "country_id": 85633159,
        "empire_id": 136253055,
        "postalcode_id": 1998338843,
        "postalregion_id": 1864209103
      }
    ],
    "wof:id": 1998338843,
    "wof:lastmodified": 1763548785,
    "wof:name": "NE61 9XT",
    "wof:parent_id": 101873459,
    "wof:placetype": "postalcode",
    "wof:repo": "whosonfirst-data-postalcode-gb",
    "wof:superseded_by": [],
    "wof:supersedes": [],
    "wof:tags": []
  },
  "bbox": [
    -1.683979,
    55.152938,
    -1.683979,
    55.152938
  ],
  "geometry": {"coordinates":[-1.683979,55.152938],"type":"Point"}
}
