{
  "id": 1712841707,
  "type": "Feature",
  "properties": {
    "date:cessation_lower": "2000-11-01",
    "date:cessation_upper": "2000-11-01",
    "date:inception_lower": "1980-01-01",
    "date:inception_upper": "1980-01-01",
    "edtf:cessation": "2000-11-01",
    "edtf:inception": "1980-01-01",
    "geom:area": 0,
    "geom:bbox": "-2.950318,56.486070,-2.950318,56.486070",
    "geom:latitude": 56.48607,
    "geom:longitude": -2.950318,
    "iso:country": "GB",
    "mz:hierarchy_label": 1,
    "mz:is_current": 0,
    "os:country_code": "S92000003",
    "os:county_code": "S99999999",
    "os:district_code": "S12000042",
    "os:positional_quality_indicator": "1",
    "os:region_code": "S99999999",
    "src:geom": "os",
    "wof:belongsto": [
      85633159,
      102191581,
      136253055,
      1864206625,
      1360698883,
      1880762045,
      404227471,
      1880772989
    ],
    "wof:breaches": [],
    "wof:country": "GB",
    "wof:created": 1583805991,
    "wof:geomhash": "198897594b507d87db835793d3d52c53",
    "wof:hierarchy": [
      {
        "continent_id": 102191581,
        "country_id": 85633159,
        "county_id": 1360698883,
        "empire_id": 136253055,
        "macrocounty_id": 1880762045,
        "macroregion_id": 404227471,
        "postalcode_id": 1712841707,
        "region_id": 1880772989
      },
      {
        "continent_id": 102191581,
        "country_id": 85633159,
        "empire_id": 136253055,
        "postalcode_id": 1712841707,
        "postalregion_id": 1864206625
      }
    ],
    "wof:id": 1712841707,
    "wof:lastmodified": 1763548715,
    "wof:name": "DD4 8BH",
    "wof:parent_id": 1360698883,
    "wof:placetype": "postalcode",
    "wof:repo": "whosonfirst-data-postalcode-gb",
    "wof:superseded_by": [],
    "wof:supersedes": [],
    "wof:tags": []
  },
  "bbox": [
    -2.950318,
    56.48607,
    -2.950318,
    56.48607
  ],
  "geometry": {"coordinates":[-2.950318,56.48607],"type":"Point"}
}
