{
  "id": 470950055,
  "type": "Feature",
  "properties": {
    "date:inception_lower": "1980-01-01",
    "date:inception_upper": "1980-01-01",
    "edtf:cessation": "",
    "edtf:inception": "1980-01-01",
    "geom:area": 0,
    "geom:bbox": "0.650224,51.473844,0.650224,51.473844",
    "geom:latitude": 51.473844,
    "geom:longitude": 0.650224,
    "gp:parent_id": "10643",
    "iso:country": "GB",
    "mz:hierarchy_label": 1,
    "mz:is_current": 1,
    "os:country_code": "E92000001",
    "os:county_code": "E99999999",
    "os:district_code": "E06000035",
    "os:positional_quality_indicator": "1",
    "os:region_code": "E12000008",
    "src:geom": "os",
    "wof:belongsto": [
      85633159,
      102191581,
      136253055,
      1864208847,
      1360699105,
      404450935,
      1126021375,
      1880762057,
      404227469,
      1880762705
    ],
    "wof:breaches": [],
    "wof:concordances": {
      "gp:id": "27566678"
    },
    "wof:country": "GB",
    "wof:created": 1583701329,
    "wof:geomhash": "13550aa1400530842dd8bad6d0b3f399",
    "wof:hierarchy": [
      {
        "continent_id": 102191581,
        "country_id": 85633159,
        "county_id": 1360699105,
        "empire_id": 136253055,
        "localadmin_id": 404450935,
        "locality_id": 1126021375,
        "macrocounty_id": 1880762057,
        "macroregion_id": 404227469,
        "postalcode_id": 470950055,
        "region_id": 1880762705
      },
      {
        "continent_id": 102191581,
        "country_id": 85633159,
        "empire_id": 136253055,
        "postalcode_id": 470950055,
        "postalregion_id": 1864208847
      }
    ],
    "wof:id": 470950055,
    "wof:lastmodified": 1763547991,
    "wof:name": "ME3 9QN",
    "wof:parent_id": 1126021375,
    "wof:placetype": "postalcode",
    "wof:repo": "whosonfirst-data-postalcode-gb",
    "wof:superseded_by": [],
    "wof:supersedes": [],
    "wof:tags": []
  },
  "bbox": [
    0.650224,
    51.473844,
    0.650224,
    51.473844
  ],
  "geometry": {"coordinates":[0.650224,51.473844],"type":"Point"}
}
