{
  "id": 1998346285,
  "type": "Feature",
  "properties": {
    "date:inception_lower": "2025-05-01",
    "date:inception_upper": "2025-05-01",
    "edtf:cessation": "",
    "edtf:inception": "2025-05-01",
    "geom:area": 0,
    "geom:bbox": "0.909124,52.240570,0.909124,52.240570",
    "geom:latitude": 52.24057,
    "geom:longitude": 0.909124,
    "iso:country": "GB",
    "mz:hierarchy_label": 1,
    "mz:is_current": 1,
    "os:country_code": "E92000001",
    "os:county_code": "E10000029",
    "os:district_code": "E07000203",
    "os:positional_quality_indicator": "1",
    "os:region_code": "E12000006",
    "src:geom": "os",
    "wof:belongsto": [
      102191581,
      85633159,
      1880771641,
      136253055,
      404453539,
      1125822777,
      1880762001,
      404227469,
      1880762685,
      1864207873
    ],
    "wof:breaches": [],
    "wof:country": "GB",
    "wof:created": 1763549116,
    "wof:geomhash": "c9b054981f3692359aa0b0b2528b7152",
    "wof:hierarchy": [
      {
        "continent_id": 102191581,
        "country_id": 85633159,
        "county_id": 1880771641,
        "empire_id": 136253055,
        "localadmin_id": 404453539,
        "locality_id": 1125822777,
        "macrocounty_id": 1880762001,
        "macroregion_id": 404227469,
        "postalcode_id": 1998346285,
        "region_id": 1880762685
      },
      {
        "continent_id": 102191581,
        "country_id": 85633159,
        "empire_id": 136253055,
        "postalcode_id": 1998346285,
        "postalregion_id": 1864207873
      }
    ],
    "wof:id": 1998346285,
    "wof:lastmodified": 1763549116,
    "wof:name": "IP30 9XX",
    "wof:parent_id": 1125822777,
    "wof:placetype": "postalcode",
    "wof:repo": "whosonfirst-data-postalcode-gb",
    "wof:superseded_by": [],
    "wof:supersedes": [],
    "wof:tags": []
  },
  "bbox": [
    0.909124,
    52.24057,
    0.909124,
    52.24057
  ],
  "geometry": {"coordinates":[0.909124,52.24057],"type":"Point"}
}
