{
  "id": 504771461,
  "type": "Feature",
  "properties": {
    "date:inception_lower": "2009-09-01",
    "date:inception_upper": "2009-09-01",
    "edtf:cessation": "",
    "edtf:inception": "2009-09-01",
    "geom:area": 0,
    "geom:bbox": "-4.256068,53.210768,-4.256068,53.210768",
    "geom:latitude": 53.210768,
    "geom:longitude": -4.256068,
    "gp:parent_id": "12696117",
    "iso:country": "GB",
    "mz:hierarchy_label": 1,
    "mz:is_current": 1,
    "os:country_code": "W92000004",
    "os:county_code": "W99999999",
    "os:district_code": "W06000001",
    "os:positional_quality_indicator": "1",
    "os:region_code": "W99999999",
    "src:geom": "os",
    "wof:belongsto": [
      85633159,
      102191581,
      136253055,
      1864208555,
      1360698787,
      404453677,
      1125844691,
      1880762187,
      404227475,
      1880773051
    ],
    "wof:breaches": [],
    "wof:concordances": {
      "gp:id": "56156921"
    },
    "wof:country": "GB",
    "wof:created": 1583701567,
    "wof:geomhash": "613cc74f03ec48eca11cad44a92044c9",
    "wof:hierarchy": [
      {
        "continent_id": 102191581,
        "country_id": 85633159,
        "county_id": 1360698787,
        "empire_id": 136253055,
        "localadmin_id": 404453677,
        "locality_id": 1125844691,
        "macrocounty_id": 1880762187,
        "macroregion_id": 404227475,
        "postalcode_id": 504771461,
        "region_id": 1880773051
      },
      {
        "continent_id": 102191581,
        "country_id": 85633159,
        "empire_id": 136253055,
        "postalcode_id": 504771461,
        "postalregion_id": 1864208555
      }
    ],
    "wof:id": 504771461,
    "wof:lastmodified": 1763548047,
    "wof:name": "LL60 6DZ",
    "wof:parent_id": 1125844691,
    "wof:placetype": "postalcode",
    "wof:repo": "whosonfirst-data-postalcode-gb",
    "wof:superseded_by": [],
    "wof:supersedes": [],
    "wof:tags": []
  },
  "bbox": [
    -4.256068,
    53.210768,
    -4.256068,
    53.210768
  ],
  "geometry": {"coordinates":[-4.256068,53.210768],"type":"Point"}
}
