{
  "id": 454350511,
  "type": "Feature",
  "properties": {
    "date:inception_lower": "1986-04-01",
    "date:inception_upper": "1986-04-01",
    "edtf:cessation": "",
    "edtf:inception": "1986-04-01",
    "geom:area": 0,
    "geom:bbox": "-1.412323,53.048584,-1.412323,53.048584",
    "geom:latitude": 53.048584,
    "geom:longitude": -1.412323,
    "iso:country": "GB",
    "mz:hierarchy_label": 1,
    "mz:is_current": 1,
    "os:country_code": "E92000001",
    "os:county_code": "E10000007",
    "os:district_code": "E07000032",
    "os:positional_quality_indicator": "1",
    "os:region_code": "E12000004",
    "src:geom": "os",
    "wof:belongsto": [
      85633159,
      102191581,
      136253055,
      1864206667,
      1880771385,
      404438739,
      1243291125,
      1880762133,
      404227469,
      1880762707
    ],
    "wof:breaches": [],
    "wof:concordances": {
      "gp:id": "27147753"
    },
    "wof:country": "GB",
    "wof:created": 1583701508,
    "wof:geomhash": "965afc7e370a9c0859826b0d0414fbc9",
    "wof:hierarchy": [
      {
        "continent_id": 102191581,
        "country_id": 85633159,
        "county_id": 1880771385,
        "empire_id": 136253055,
        "localadmin_id": 404438739,
        "locality_id": 1243291125,
        "macrocounty_id": 1880762133,
        "macroregion_id": 404227469,
        "postalcode_id": 454350511,
        "region_id": 1880762707
      },
      {
        "continent_id": 102191581,
        "country_id": 85633159,
        "empire_id": 136253055,
        "postalcode_id": 454350511,
        "postalregion_id": 1864206667
      }
    ],
    "wof:id": 454350511,
    "wof:lastmodified": 1763548437,
    "wof:name": "DE5 3TD",
    "wof:parent_id": 1243291125,
    "wof:placetype": "postalcode",
    "wof:repo": "whosonfirst-data-postalcode-gb",
    "wof:superseded_by": [],
    "wof:supersedes": [],
    "wof:tags": []
  },
  "bbox": [
    -1.412323,
    53.048584,
    -1.412323,
    53.048584
  ],
  "geometry": {"coordinates":[-1.412323,53.048584],"type":"Point"}
}
