{
  "id": 437768095,
  "type": "Feature",
  "properties": {
    "date:inception_lower": "2013-07-01",
    "date:inception_upper": "2013-07-01",
    "edtf:cessation": "",
    "edtf:inception": "2013-07-01",
    "geom:area": 0,
    "geom:bbox": "-1.601830,52.269603,-1.601830,52.269603",
    "geom:latitude": 52.269603,
    "geom:longitude": -1.60183,
    "gp:parent_id": "39228",
    "iso:country": "GB",
    "mz:hierarchy_label": 1,
    "mz:is_current": 1,
    "os:country_code": "E92000001",
    "os:county_code": "E10000031",
    "os:district_code": "E07000222",
    "os:positional_quality_indicator": "1",
    "os:region_code": "E12000005",
    "src:geom": "os",
    "wof:belongsto": [
      85633159,
      102191581,
      136253055,
      1864206519,
      1880771673,
      404441251,
      1125994457,
      1880762065
    ],
    "wof:breaches": [],
    "wof:concordances": {
      "gp:id": "28861757"
    },
    "wof:country": "GB",
    "wof:created": 1583701542,
    "wof:geomhash": "f00fa00e7bc3606b695dff45bb65d838",
    "wof:hierarchy": [
      {
        "continent_id": -1,
        "country_id": -1,
        "county_id": 1880771673,
        "localadmin_id": 404441251,
        "locality_id": 1125994457,
        "macrocounty_id": 1880762065,
        "postalcode_id": 437768095,
        "region_id": -1
      },
      {
        "continent_id": 102191581,
        "country_id": 85633159,
        "empire_id": 136253055,
        "postalcode_id": 437768095,
        "postalregion_id": 1864206519
      }
    ],
    "wof:id": 437768095,
    "wof:lastmodified": 1763548163,
    "wof:name": "CV34 6XR",
    "wof:parent_id": 1125994457,
    "wof:placetype": "postalcode",
    "wof:repo": "whosonfirst-data-postalcode-gb",
    "wof:superseded_by": [],
    "wof:supersedes": [],
    "wof:tags": []
  },
  "bbox": [
    -1.60183,
    52.269603,
    -1.60183,
    52.269603
  ],
  "geometry": {"coordinates":[-1.60183,52.269603],"type":"Point"}
}
