{
  "id": 1947760251,
  "type": "Feature",
  "properties": {
    "date:inception_lower": "2024-06-01",
    "date:inception_upper": "2024-06-01",
    "edtf:cessation": "",
    "edtf:inception": "2024-06-01",
    "geom:area": 0,
    "geom:bbox": "0.586785,51.864913,0.586785,51.864913",
    "geom:latitude": 51.864913,
    "geom:longitude": 0.586785,
    "iso:country": "GB",
    "mz:hierarchy_label": 1,
    "mz:is_current": 1,
    "os:country_code": "E92000001",
    "os:county_code": "E10000012",
    "os:district_code": "E07000067",
    "os:positional_quality_indicator": "1",
    "os:region_code": "E12000006",
    "src:geom": "os",
    "wof:belongsto": [
      102191581,
      85633159,
      1880771437,
      136253055,
      404452747,
      1125800507,
      1880762159,
      404227469,
      1880762723,
      1864206373
    ],
    "wof:breaches": [],
    "wof:country": "GB",
    "wof:created": 1736334498,
    "wof:geomhash": "37e804845f2e2371f408c2d5136eeccc",
    "wof:hierarchy": [
      {
        "continent_id": 102191581,
        "country_id": 85633159,
        "county_id": 1880771437,
        "empire_id": 136253055,
        "localadmin_id": 404452747,
        "locality_id": 1125800507,
        "macrocounty_id": 1880762159,
        "macroregion_id": 404227469,
        "postalcode_id": 1947760251,
        "region_id": 1880762723
      },
      {
        "continent_id": 102191581,
        "country_id": 85633159,
        "empire_id": 136253055,
        "postalcode_id": 1947760251,
        "postalregion_id": 1864206373
      }
    ],
    "wof:id": 1947760251,
    "wof:lastmodified": 1763547892,
    "wof:name": "CM77 8QH",
    "wof:parent_id": 1125800507,
    "wof:placetype": "postalcode",
    "wof:repo": "whosonfirst-data-postalcode-gb",
    "wof:superseded_by": [],
    "wof:supersedes": [],
    "wof:tags": []
  },
  "bbox": [
    0.586785,
    51.864913,
    0.586785,
    51.864913
  ],
  "geometry": {"coordinates":[0.586785,51.864913],"type":"Point"}
}
