{
  "id": 437852055,
  "type": "Feature",
  "properties": {
    "date:inception_lower": "2011-06-01",
    "date:inception_upper": "2011-06-01",
    "edtf:cessation": "",
    "edtf:inception": "2011-06-01",
    "geom:area": 0,
    "geom:bbox": "-3.220700,51.795377,-3.220700,51.795377",
    "geom:latitude": 51.795377,
    "geom:longitude": -3.2207,
    "gp:parent_id": "12168",
    "iso:country": "GB",
    "mz:hierarchy_label": 1,
    "mz:is_current": 1,
    "os:country_code": "W92000004",
    "os:county_code": "W99999999",
    "os:district_code": "W06000019",
    "os:positional_quality_indicator": "1",
    "os:region_code": "W99999999",
    "src:geom": "os",
    "wof:belongsto": [
      85633159,
      102191581,
      136253055,
      1864209281,
      1360698985,
      404432583,
      1126050043,
      1880762123,
      404227475,
      1880773075
    ],
    "wof:breaches": [],
    "wof:concordances": {
      "gp:id": "28910269"
    },
    "wof:country": "GB",
    "wof:created": 1583701596,
    "wof:geomhash": "84d09d64aefe32cf91642c1c14083085",
    "wof:hierarchy": [
      {
        "continent_id": 102191581,
        "country_id": 85633159,
        "county_id": 1360698985,
        "empire_id": 136253055,
        "localadmin_id": 404432583,
        "locality_id": 1126050043,
        "macrocounty_id": 1880762123,
        "macroregion_id": 404227475,
        "postalcode_id": 437852055,
        "region_id": 1880773075
      },
      {
        "continent_id": 102191581,
        "country_id": 85633159,
        "empire_id": 136253055,
        "postalcode_id": 437852055,
        "postalregion_id": 1864209281
      }
    ],
    "wof:id": 437852055,
    "wof:lastmodified": 1763548260,
    "wof:name": "NP23 5BZ",
    "wof:parent_id": 1126050043,
    "wof:placetype": "postalcode",
    "wof:repo": "whosonfirst-data-postalcode-gb",
    "wof:superseded_by": [],
    "wof:supersedes": [],
    "wof:tags": []
  },
  "bbox": [
    -3.2207,
    51.795377,
    -3.2207,
    51.795377
  ],
  "geometry": {"coordinates":[-3.2207,51.795377],"type":"Point"}
}
