{
  "id": 454895927,
  "type": "Feature",
  "properties": {
    "date:inception_lower": "2006-03-01",
    "date:inception_upper": "2006-03-01",
    "edtf:cessation": "",
    "edtf:inception": "2006-03-01",
    "geom:area": 0,
    "geom:bbox": "1.242286,52.057485,1.242286,52.057485",
    "geom:latitude": 52.057485,
    "geom:longitude": 1.242286,
    "gp:parent_id": "24850",
    "iso:country": "GB",
    "mz:hierarchy_label": 1,
    "mz:is_current": 1,
    "os:country_code": "E92000001",
    "os:county_code": "E10000029",
    "os:district_code": "E07000244",
    "os:positional_quality_indicator": "1",
    "os:region_code": "E12000006",
    "src:geom": "os",
    "wof:belongsto": [
      85633159,
      102191581,
      136253055,
      1864207885,
      1880771635,
      404431653,
      1126060383,
      1880762001
    ],
    "wof:breaches": [],
    "wof:concordances": {
      "gp:id": "28887700"
    },
    "wof:country": "GB",
    "wof:created": 1583701748,
    "wof:geomhash": "7ca8fec0537e6f591ca0bf201953b667",
    "wof:hierarchy": [
      {
        "continent_id": -1,
        "country_id": -1,
        "county_id": 1880771635,
        "localadmin_id": 404431653,
        "locality_id": 1126060383,
        "macrocounty_id": 1880762001,
        "postalcode_id": 454895927,
        "region_id": -1
      },
      {
        "continent_id": 102191581,
        "country_id": 85633159,
        "empire_id": 136253055,
        "postalcode_id": 454895927,
        "postalregion_id": 1864207885
      }
    ],
    "wof:id": 454895927,
    "wof:lastmodified": 1763548319,
    "wof:name": "IP5 2BX",
    "wof:parent_id": 1126060383,
    "wof:placetype": "postalcode",
    "wof:repo": "whosonfirst-data-postalcode-gb",
    "wof:superseded_by": [],
    "wof:supersedes": [],
    "wof:tags": []
  },
  "bbox": [
    1.242286,
    52.057485,
    1.242286,
    52.057485
  ],
  "geometry": {"coordinates":[1.242286,52.057485],"type":"Point"}
}
