{
  "id": 454864133,
  "type": "Feature",
  "properties": {
    "date:inception_lower": "1980-01-01",
    "date:inception_upper": "1980-01-01",
    "edtf:cessation": "",
    "edtf:inception": "1980-01-01",
    "geom:area": 0,
    "geom:bbox": "1.363382,52.145266,1.363382,52.145266",
    "geom:latitude": 52.145266,
    "geom:longitude": 1.363382,
    "gp:parent_id": "31956",
    "iso:country": "GB",
    "mz:hierarchy_label": 1,
    "mz:is_current": 1,
    "os:country_code": "E92000001",
    "os:county_code": "E10000029",
    "os:district_code": "E07000244",
    "os:positional_quality_indicator": "1",
    "os:region_code": "E12000006",
    "src:geom": "os",
    "wof:belongsto": [
      85633159,
      102191581,
      136253055,
      1864207831,
      1880771635,
      404449365,
      1259612101,
      1880762001,
      404227469,
      1880762685
    ],
    "wof:breaches": [],
    "wof:concordances": {
      "gp:id": "27392536"
    },
    "wof:country": "GB",
    "wof:created": 1583701742,
    "wof:geomhash": "c9d6a786bb0a1ddf53dd4bd480a1cb76",
    "wof:hierarchy": [
      {
        "continent_id": 102191581,
        "country_id": 85633159,
        "county_id": 1880771635,
        "empire_id": 136253055,
        "localadmin_id": 404449365,
        "locality_id": 1259612101,
        "macrocounty_id": 1880762001,
        "macroregion_id": 404227469,
        "postalcode_id": 454864133,
        "region_id": 1880762685
      },
      {
        "continent_id": 102191581,
        "country_id": 85633159,
        "empire_id": 136253055,
        "postalcode_id": 454864133,
        "postalregion_id": 1864207831
      }
    ],
    "wof:id": 454864133,
    "wof:lastmodified": 1763548527,
    "wof:name": "IP13 0HH",
    "wof:parent_id": 1259612101,
    "wof:placetype": "postalcode",
    "wof:repo": "whosonfirst-data-postalcode-gb",
    "wof:superseded_by": [],
    "wof:supersedes": [],
    "wof:tags": []
  },
  "bbox": [
    1.363382,
    52.145266,
    1.363382,
    52.145266
  ],
  "geometry": {"coordinates":[1.363382,52.145266],"type":"Point"}
}
