{
  "id": 470900481,
  "type": "Feature",
  "properties": {
    "date:inception_lower": "1994-05-01",
    "date:inception_upper": "1994-05-01",
    "edtf:cessation": "",
    "edtf:inception": "1994-05-01",
    "geom:area": 0,
    "geom:bbox": "-2.325616,53.431278,-2.325616,53.431278",
    "geom:latitude": 53.431278,
    "geom:longitude": -2.325616,
    "gp:parent_id": "33875",
    "iso:country": "GB",
    "mz:hierarchy_label": 1,
    "mz:is_current": 1,
    "os:country_code": "E92000001",
    "os:county_code": "E99999999",
    "os:district_code": "E08000009",
    "os:positional_quality_indicator": "1",
    "os:region_code": "E12000002",
    "src:geom": "os",
    "wof:belongsto": [
      85633159,
      102191581,
      136253055,
      1864208771,
      1360698935,
      1360817437,
      1125985817,
      1880762163,
      404227469,
      1880773095
    ],
    "wof:breaches": [],
    "wof:concordances": {
      "gp:id": "27547764"
    },
    "wof:country": "GB",
    "wof:created": 1583701246,
    "wof:geomhash": "ed50ef92359386e942d445c798c29677",
    "wof:hierarchy": [
      {
        "continent_id": 102191581,
        "country_id": 85633159,
        "county_id": 1360698935,
        "empire_id": 136253055,
        "localadmin_id": 1360817437,
        "locality_id": 1125985817,
        "macrocounty_id": 1880762163,
        "macroregion_id": 404227469,
        "postalcode_id": 470900481,
        "region_id": 1880773095
      },
      {
        "continent_id": 102191581,
        "country_id": 85633159,
        "empire_id": 136253055,
        "postalcode_id": 470900481,
        "postalregion_id": 1864208771
      }
    ],
    "wof:id": 470900481,
    "wof:lastmodified": 1763547918,
    "wof:name": "M33 6JH",
    "wof:parent_id": 1125985817,
    "wof:placetype": "postalcode",
    "wof:repo": "whosonfirst-data-postalcode-gb",
    "wof:superseded_by": [],
    "wof:supersedes": [],
    "wof:tags": []
  },
  "bbox": [
    -2.325616,
    53.431278,
    -2.325616,
    53.431278
  ],
  "geometry": {"coordinates":[-2.325616,53.431278],"type":"Point"}
}
