{
  "id": 454886045,
  "type": "Feature",
  "properties": {
    "date:inception_lower": "1980-01-01",
    "date:inception_upper": "1980-01-01",
    "edtf:cessation": "",
    "edtf:inception": "1980-01-01",
    "geom:area": 0,
    "geom:bbox": "0.636404,52.172410,0.636404,52.172410",
    "geom:latitude": 52.17241,
    "geom:longitude": 0.636404,
    "gp:parent_id": "33036",
    "iso:country": "GB",
    "mz:hierarchy_label": 1,
    "mz:is_current": 1,
    "os:country_code": "E92000001",
    "os:county_code": "E10000029",
    "os:district_code": "E07000245",
    "os:positional_quality_indicator": "1",
    "os:region_code": "E12000006",
    "src:geom": "os",
    "wof:belongsto": [
      85633159,
      102191581,
      136253055,
      1864207869,
      1880771639,
      404438767,
      1125832859,
      1880762001
    ],
    "wof:breaches": [],
    "wof:concordances": {
      "gp:id": "27401357"
    },
    "wof:country": "GB",
    "wof:created": 1583701745,
    "wof:geomhash": "6687a3ff577dd471248db84557b1ca2a",
    "wof:hierarchy": [
      {
        "continent_id": -1,
        "country_id": -1,
        "county_id": 1880771639,
        "localadmin_id": 404438767,
        "locality_id": 1125832859,
        "macrocounty_id": 1880762001,
        "postalcode_id": 454886045,
        "region_id": -1
      },
      {
        "continent_id": 102191581,
        "country_id": 85633159,
        "empire_id": 136253055,
        "postalcode_id": 454886045,
        "postalregion_id": 1864207869
      }
    ],
    "wof:id": 454886045,
    "wof:lastmodified": 1763548299,
    "wof:name": "IP29 4BG",
    "wof:parent_id": 1125832859,
    "wof:placetype": "postalcode",
    "wof:repo": "whosonfirst-data-postalcode-gb",
    "wof:superseded_by": [],
    "wof:supersedes": [],
    "wof:tags": []
  },
  "bbox": [
    0.636404,
    52.17241,
    0.636404,
    52.17241
  ],
  "geometry": {"coordinates":[0.636404,52.17241],"type":"Point"}
}
