{
  "id": 38357136,
  "type": "Feature",
  "properties": {
    "date:cessation_lower": "1992-12-01",
    "date:cessation_upper": "1992-12-01",
    "date:inception_lower": "1981-09-01",
    "date:inception_upper": "1981-09-01",
    "edtf:cessation": "1992-12-01",
    "edtf:inception": "1981-09-01",
    "geom:area": 0,
    "geom:bbox": "-2.310497,51.407909,-2.310497,51.407909",
    "geom:latitude": 51.407909,
    "geom:longitude": -2.310497,
    "iso:country": "GB",
    "mz:hierarchy_label": 1,
    "mz:is_current": 0,
    "os:country_code": "E92000001",
    "os:county_code": "E99999999",
    "os:district_code": "E06000022",
    "os:positional_quality_indicator": "8",
    "os:region_code": "E12000009",
    "src:geom": "os",
    "wof:belongsto": [
      85633159,
      102191581,
      136253055,
      1864205651,
      1360698775,
      404433587,
      1125988509,
      1880762071,
      404227469,
      1880773145
    ],
    "wof:breaches": [],
    "wof:country": "GB",
    "wof:created": 1583789448,
    "wof:geomhash": "157eb4584b7877221d21c98fc86133e5",
    "wof:hierarchy": [
      {
        "continent_id": 102191581,
        "country_id": 85633159,
        "county_id": 1360698775,
        "empire_id": 136253055,
        "localadmin_id": 404433587,
        "locality_id": 1125988509,
        "macrocounty_id": 1880762071,
        "macroregion_id": 404227469,
        "postalcode_id": 38357136,
        "region_id": 1880773145
      },
      {
        "continent_id": 102191581,
        "country_id": 85633159,
        "empire_id": 136253055,
        "postalcode_id": 38357136,
        "postalregion_id": 1864205651
      }
    ],
    "wof:id": 38357136,
    "wof:lastmodified": 1763548173,
    "wof:name": "BA1 7JP",
    "wof:parent_id": 1125988509,
    "wof:placetype": "postalcode",
    "wof:repo": "whosonfirst-data-postalcode-gb",
    "wof:superseded_by": [],
    "wof:supersedes": [],
    "wof:tags": []
  },
  "bbox": [
    -2.310497,
    51.407909,
    -2.310497,
    51.407909
  ],
  "geometry": {"coordinates":[-2.310497,51.407909],"type":"Point"}
}
