{
  "id": 1998347155,
  "type": "Feature",
  "properties": {
    "date:inception_lower": "2024-12-01",
    "date:inception_upper": "2024-12-01",
    "edtf:cessation": "",
    "edtf:inception": "2024-12-01",
    "geom:area": 0,
    "geom:bbox": "-1.155847,53.707400,-1.155847,53.707400",
    "geom:latitude": 53.7074,
    "geom:longitude": -1.155847,
    "iso:country": "GB",
    "mz:hierarchy_label": 1,
    "mz:is_current": 1,
    "os:country_code": "E92000001",
    "os:county_code": "E99999999",
    "os:district_code": "E06000065",
    "os:positional_quality_indicator": "1",
    "os:region_code": "E12000003",
    "src:geom": "os",
    "wof:belongsto": [
      102191581,
      85633159,
      1360698753,
      136253055,
      404453963,
      1125978403,
      1880762011,
      404227469,
      1880772891,
      1864206799
    ],
    "wof:breaches": [],
    "wof:country": "GB",
    "wof:created": 1763549155,
    "wof:geomhash": "b9620084257e25a378a3976f52a377e2",
    "wof:hierarchy": [
      {
        "continent_id": 102191581,
        "country_id": 85633159,
        "county_id": 1360698753,
        "empire_id": 136253055,
        "localadmin_id": 404453963,
        "locality_id": 1125978403,
        "macrocounty_id": 1880762011,
        "macroregion_id": 404227469,
        "postalcode_id": 1998347155,
        "region_id": 1880772891
      },
      {
        "continent_id": 102191581,
        "country_id": 85633159,
        "empire_id": 136253055,
        "postalcode_id": 1998347155,
        "postalregion_id": 1864206799
      }
    ],
    "wof:id": 1998347155,
    "wof:lastmodified": 1763549155,
    "wof:name": "DN14 0GR",
    "wof:parent_id": 1125978403,
    "wof:placetype": "postalcode",
    "wof:repo": "whosonfirst-data-postalcode-gb",
    "wof:superseded_by": [],
    "wof:supersedes": [],
    "wof:tags": []
  },
  "bbox": [
    -1.155847,
    53.7074,
    -1.155847,
    53.7074
  ],
  "geometry": {"coordinates":[-1.155847,53.7074],"type":"Point"}
}
