{
  "id": 437489509,
  "type": "Feature",
  "properties": {
    "date:cessation_lower": "2008-01-01",
    "date:cessation_upper": "2008-01-01",
    "date:inception_lower": "2002-06-01",
    "date:inception_upper": "2002-06-01",
    "edtf:cessation": "2008-01-01",
    "edtf:inception": "2002-06-01",
    "geom:area": 0,
    "geom:bbox": "-4.454230,50.354286,-4.454230,50.354286",
    "geom:latitude": 50.354286,
    "geom:longitude": -4.45423,
    "gp:parent_id": "27470",
    "iso:country": "GB",
    "mz:hierarchy_label": 1,
    "mz:is_current": 0,
    "os:country_code": "E92000001",
    "os:county_code": "E99999999",
    "os:district_code": "E06000052",
    "os:positional_quality_indicator": "1",
    "os:region_code": "E12000009",
    "src:geom": "os",
    "wof:belongsto": [
      85633159,
      102191581,
      136253055,
      1864209839,
      1360699085,
      404441063,
      1126033919,
      1880762119,
      404227469,
      1880773165
    ],
    "wof:breaches": [],
    "wof:concordances": {
      "gp:id": "27765933"
    },
    "wof:country": "GB",
    "wof:created": 1583701291,
    "wof:geomhash": "4454b8f7a49212e73b00df3a99638b14",
    "wof:hierarchy": [
      {
        "continent_id": 102191581,
        "country_id": 85633159,
        "county_id": 1360699085,
        "empire_id": 136253055,
        "localadmin_id": 404441063,
        "locality_id": 1126033919,
        "macrocounty_id": 1880762119,
        "macroregion_id": 404227469,
        "postalcode_id": 437489509,
        "region_id": 1880773165
      },
      {
        "continent_id": 102191581,
        "country_id": 85633159,
        "empire_id": 136253055,
        "postalcode_id": 437489509,
        "postalregion_id": 1864209839
      }
    ],
    "wof:id": 437489509,
    "wof:lastmodified": 1763548221,
    "wof:name": "PL13 2WD",
    "wof:parent_id": 1126033919,
    "wof:placetype": "postalcode",
    "wof:repo": "whosonfirst-data-postalcode-gb",
    "wof:superseded_by": [],
    "wof:supersedes": [],
    "wof:tags": []
  },
  "bbox": [
    -4.45423,
    50.354286,
    -4.45423,
    50.354286
  ],
  "geometry": {"coordinates":[-4.45423,50.354286],"type":"Point"}
}
