{
  "id": 454694721,
  "type": "Feature",
  "properties": {
    "date:inception_lower": "1980-01-01",
    "date:inception_upper": "1980-01-01",
    "edtf:cessation": "",
    "edtf:inception": "1980-01-01",
    "geom:area": 0,
    "geom:bbox": "-0.672742,50.987585,-0.672742,50.987585",
    "geom:latitude": 50.987585,
    "geom:longitude": -0.672742,
    "gp:parent_id": "34346",
    "iso:country": "GB",
    "mz:hierarchy_label": 1,
    "mz:is_current": 1,
    "os:country_code": "E92000001",
    "os:county_code": "E10000032",
    "os:district_code": "E07000225",
    "os:positional_quality_indicator": "1",
    "os:region_code": "E12000008",
    "src:geom": "os",
    "wof:belongsto": [
      85633159,
      102191581,
      136253055,
      1864207545,
      1880771685,
      404435055,
      1125802231,
      1880762061,
      404227469,
      1880762709
    ],
    "wof:breaches": [],
    "wof:concordances": {
      "gp:id": "27330175"
    },
    "wof:country": "GB",
    "wof:created": 1583701700,
    "wof:geomhash": "6acdc8d9957bfc8c38cccb0f0d3b25d6",
    "wof:hierarchy": [
      {
        "continent_id": 102191581,
        "country_id": 85633159,
        "county_id": 1880771685,
        "empire_id": 136253055,
        "localadmin_id": 404435055,
        "locality_id": 1125802231,
        "macrocounty_id": 1880762061,
        "macroregion_id": 404227469,
        "postalcode_id": 454694721,
        "region_id": 1880762709
      },
      {
        "continent_id": 102191581,
        "country_id": 85633159,
        "empire_id": 136253055,
        "postalcode_id": 454694721,
        "postalregion_id": 1864207545
      }
    ],
    "wof:id": 454694721,
    "wof:lastmodified": 1763548343,
    "wof:name": "GU28 0PJ",
    "wof:parent_id": 1125802231,
    "wof:placetype": "postalcode",
    "wof:repo": "whosonfirst-data-postalcode-gb",
    "wof:superseded_by": [],
    "wof:supersedes": [],
    "wof:tags": []
  },
  "bbox": [
    -0.672742,
    50.987585,
    -0.672742,
    50.987585
  ],
  "geometry": {"coordinates":[-0.672742,50.987585],"type":"Point"}
}
