{
  "id": 454979213,
  "type": "Feature",
  "properties": {
    "date:inception_lower": "1980-01-01",
    "date:inception_upper": "1980-01-01",
    "edtf:cessation": "",
    "edtf:inception": "1980-01-01",
    "geom:area": 0,
    "geom:bbox": "-2.785983,54.036801,-2.785983,54.036801",
    "geom:latitude": 54.036801,
    "geom:longitude": -2.785983,
    "iso:country": "GB",
    "mz:hierarchy_label": 1,
    "mz:is_current": 1,
    "os:country_code": "E92000001",
    "os:county_code": "E10000017",
    "os:district_code": "E07000121",
    "os:positional_quality_indicator": "1",
    "os:region_code": "E12000002",
    "src:geom": "os",
    "wof:belongsto": [
      85633159,
      102191581,
      136253055,
      1864208321,
      1880771531,
      101873271,
      1880762053,
      404227469,
      1880762711
    ],
    "wof:breaches": [],
    "wof:concordances": {
      "gp:id": "26690392"
    },
    "wof:country": "GB",
    "wof:created": 1583701765,
    "wof:geomhash": "efde869f94894b98a18f1ef1e9de2732",
    "wof:hierarchy": [
      {
        "continent_id": 102191581,
        "country_id": 85633159,
        "county_id": 1880771531,
        "empire_id": 136253055,
        "locality_id": 101873271,
        "macrocounty_id": 1880762053,
        "macroregion_id": 404227469,
        "postalcode_id": 454979213,
        "region_id": 1880762711
      },
      {
        "continent_id": 102191581,
        "country_id": 85633159,
        "empire_id": 136253055,
        "postalcode_id": 454979213,
        "postalregion_id": 1864208321
      }
    ],
    "wof:id": 454979213,
    "wof:lastmodified": 1763548385,
    "wof:name": "LA1 4BA",
    "wof:parent_id": 101873271,
    "wof:placetype": "postalcode",
    "wof:repo": "whosonfirst-data-postalcode-gb",
    "wof:superseded_by": [],
    "wof:supersedes": [],
    "wof:tags": []
  },
  "bbox": [
    -2.785983,
    54.036801,
    -2.785983,
    54.036801
  ],
  "geometry": {"coordinates":[-2.785983,54.036801],"type":"Point"}
}
