{
  "id": 488232347,
  "type": "Feature",
  "properties": {
    "date:inception_lower": "1980-01-01",
    "date:inception_upper": "1980-01-01",
    "edtf:cessation": "",
    "edtf:inception": "1980-01-01",
    "geom:area": 0,
    "geom:bbox": "-0.215370,54.080892,-0.215370,54.080892",
    "geom:latitude": 54.080892,
    "geom:longitude": -0.21537,
    "iso:country": "GB",
    "mz:hierarchy_label": 1,
    "mz:is_current": 1,
    "os:country_code": "E92000001",
    "os:county_code": "E99999999",
    "os:district_code": "E06000011",
    "os:positional_quality_indicator": "1",
    "os:region_code": "E12000003",
    "src:geom": "os",
    "wof:belongsto": [
      85633159,
      102191581,
      136253055,
      1864211729,
      1360699001,
      404439969,
      101874169,
      1880762147,
      404227469,
      1880773091
    ],
    "wof:breaches": [],
    "wof:concordances": {
      "gp:id": "26759017"
    },
    "wof:country": "GB",
    "wof:created": 1583701174,
    "wof:geomhash": "5727b7339b857076aff69e8b361c9512",
    "wof:hierarchy": [
      {
        "continent_id": 102191581,
        "country_id": 85633159,
        "county_id": 1360699001,
        "empire_id": 136253055,
        "localadmin_id": 404439969,
        "locality_id": 101874169,
        "macrocounty_id": 1880762147,
        "macroregion_id": 404227469,
        "postalcode_id": 488232347,
        "region_id": 1880773091
      },
      {
        "continent_id": 102191581,
        "country_id": 85633159,
        "empire_id": 136253055,
        "postalcode_id": 488232347,
        "postalregion_id": 1864211729
      }
    ],
    "wof:id": 488232347,
    "wof:lastmodified": 1763548477,
    "wof:name": "YO16 4SX",
    "wof:parent_id": 101874169,
    "wof:placetype": "postalcode",
    "wof:repo": "whosonfirst-data-postalcode-gb",
    "wof:superseded_by": [],
    "wof:supersedes": [],
    "wof:tags": []
  },
  "bbox": [
    -0.21537,
    54.080892,
    -0.21537,
    54.080892
  ],
  "geometry": {"coordinates":[-0.21537,54.080892],"type":"Point"}
}
