{
  "id": 454053319,
  "type": "Feature",
  "properties": {
    "date:inception_lower": "2002-11-01",
    "date:inception_upper": "2002-11-01",
    "edtf:cessation": "",
    "edtf:inception": "2002-11-01",
    "geom:area": 0,
    "geom:bbox": "-2.745305,54.658409,-2.745305,54.658409",
    "geom:latitude": 54.658409,
    "geom:longitude": -2.745305,
    "iso:country": "GB",
    "mz:hierarchy_label": 1,
    "mz:is_current": 1,
    "os:country_code": "E92000001",
    "os:county_code": "E99999999",
    "os:district_code": "E06000064",
    "os:positional_quality_indicator": "1",
    "os:region_code": "E12000002",
    "src:geom": "os",
    "wof:belongsto": [
      85633159,
      102191581,
      136253055,
      1864206057,
      1880773235,
      101873419,
      1880761989,
      404227469,
      1880773269
    ],
    "wof:breaches": [],
    "wof:concordances": {
      "gp:id": "27014347"
    },
    "wof:country": "GB",
    "wof:created": 1583701091,
    "wof:geomhash": "ca0cef7ef87af0e6ed8e776aa1bbd62b",
    "wof:hierarchy": [
      {
        "continent_id": 102191581,
        "country_id": 85633159,
        "county_id": 1880773235,
        "empire_id": 136253055,
        "locality_id": 101873419,
        "macrocounty_id": 1880761989,
        "macroregion_id": 404227469,
        "postalcode_id": 454053319,
        "region_id": 1880773269
      },
      {
        "continent_id": 102191581,
        "country_id": 85633159,
        "empire_id": 136253055,
        "postalcode_id": 454053319,
        "postalregion_id": 1864206057
      }
    ],
    "wof:id": 454053319,
    "wof:lastmodified": 1763548325,
    "wof:name": "CA11 8QU",
    "wof:parent_id": 101873419,
    "wof:placetype": "postalcode",
    "wof:repo": "whosonfirst-data-postalcode-gb",
    "wof:superseded_by": [],
    "wof:supersedes": [],
    "wof:tags": []
  },
  "bbox": [
    -2.745305,
    54.658409,
    -2.745305,
    54.658409
  ],
  "geometry": {"coordinates":[-2.745305,54.658409],"type":"Point"}
}
