{
  "id": 471216689,
  "type": "Feature",
  "properties": {
    "date:inception_lower": "1980-01-01",
    "date:inception_upper": "1980-01-01",
    "edtf:cessation": "",
    "edtf:inception": "1980-01-01",
    "geom:area": 0,
    "geom:bbox": "0.905440,52.853901,0.905440,52.853901",
    "geom:latitude": 52.853901,
    "geom:longitude": 0.90544,
    "gp:parent_id": "26622",
    "iso:country": "GB",
    "mz:hierarchy_label": 1,
    "mz:is_current": 1,
    "os:country_code": "E92000001",
    "os:county_code": "E10000020",
    "os:district_code": "E07000147",
    "os:positional_quality_indicator": "1",
    "os:region_code": "E12000006",
    "src:geom": "os",
    "wof:belongsto": [
      85633159,
      102191581,
      136253055,
      1864209329,
      1880771711,
      404440903,
      1125909881,
      1880762037,
      404227469,
      1880762699
    ],
    "wof:breaches": [],
    "wof:concordances": {
      "gp:id": "27683435"
    },
    "wof:country": "GB",
    "wof:created": 1583701407,
    "wof:geomhash": "595ca2c09157d1211e966fdbfff5f1b9",
    "wof:hierarchy": [
      {
        "continent_id": 102191581,
        "country_id": 85633159,
        "county_id": 1880771711,
        "empire_id": 136253055,
        "localadmin_id": 404440903,
        "locality_id": 1125909881,
        "macrocounty_id": 1880762037,
        "macroregion_id": 404227469,
        "postalcode_id": 471216689,
        "region_id": 1880762699
      },
      {
        "continent_id": 102191581,
        "country_id": 85633159,
        "empire_id": 136253055,
        "postalcode_id": 471216689,
        "postalregion_id": 1864209329
      }
    ],
    "wof:id": 471216689,
    "wof:lastmodified": 1763547995,
    "wof:name": "NR21 0JN",
    "wof:parent_id": 1125909881,
    "wof:placetype": "postalcode",
    "wof:repo": "whosonfirst-data-postalcode-gb",
    "wof:superseded_by": [],
    "wof:supersedes": [],
    "wof:tags": []
  },
  "bbox": [
    0.90544,
    52.853901,
    0.90544,
    52.853901
  ],
  "geometry": {"coordinates":[0.90544,52.853901],"type":"Point"}
}
