{
  "id": 1998350105,
  "type": "Feature",
  "properties": {
    "date:inception_lower": "2025-03-01",
    "date:inception_upper": "2025-03-01",
    "edtf:cessation": "",
    "edtf:inception": "2025-03-01",
    "geom:area": 0,
    "geom:bbox": "-3.006967,52.269606,-3.006967,52.269606",
    "geom:latitude": 52.269606,
    "geom:longitude": -3.006967,
    "iso:country": "GB",
    "mz:hierarchy_label": 1,
    "mz:is_current": 1,
    "os:country_code": "W92000004",
    "os:county_code": "W99999999",
    "os:district_code": "W06000023",
    "os:positional_quality_indicator": "1",
    "os:region_code": "W99999999",
    "src:geom": "os",
    "wof:belongsto": [
      102191581,
      85633159,
      1360698985,
      136253055,
      404445509,
      101853121,
      1880762123,
      404227475,
      1880773075,
      1864208389
    ],
    "wof:breaches": [],
    "wof:country": "GB",
    "wof:created": 1763549286,
    "wof:geomhash": "e194d204a448461236b9e05ae4a35376",
    "wof:hierarchy": [
      {
        "continent_id": 102191581,
        "country_id": 85633159,
        "county_id": 1360698985,
        "empire_id": 136253055,
        "localadmin_id": 404445509,
        "locality_id": 101853121,
        "macrocounty_id": 1880762123,
        "macroregion_id": 404227475,
        "postalcode_id": 1998350105,
        "region_id": 1880773075
      },
      {
        "continent_id": 102191581,
        "country_id": 85633159,
        "empire_id": 136253055,
        "postalcode_id": 1998350105,
        "postalregion_id": 1864208389
      }
    ],
    "wof:id": 1998350105,
    "wof:lastmodified": 1763549286,
    "wof:name": "LD8 2BQ",
    "wof:parent_id": 101853121,
    "wof:placetype": "postalcode",
    "wof:repo": "whosonfirst-data-postalcode-gb",
    "wof:superseded_by": [],
    "wof:supersedes": [],
    "wof:tags": []
  },
  "bbox": [
    -3.006967,
    52.269606,
    -3.006967,
    52.269606
  ],
  "geometry": {"coordinates":[-3.006967,52.269606],"type":"Point"}
}
