{
  "id": 504495719,
  "type": "Feature",
  "properties": {
    "date:inception_lower": "1980-01-01",
    "date:inception_upper": "1980-01-01",
    "edtf:cessation": "",
    "edtf:inception": "1980-01-01",
    "geom:area": 0,
    "geom:bbox": "-3.500194,53.247568,-3.500194,53.247568",
    "geom:latitude": 53.247568,
    "geom:longitude": -3.500194,
    "gp:parent_id": "21938",
    "iso:country": "GB",
    "mz:hierarchy_label": 1,
    "mz:is_current": 1,
    "os:country_code": "W92000004",
    "os:county_code": "W99999999",
    "os:district_code": "W06000004",
    "os:positional_quality_indicator": "1",
    "os:region_code": "W99999999",
    "src:geom": "os",
    "wof:belongsto": [
      85633159,
      102191581,
      136253055,
      1864208471,
      1360698781,
      404453957,
      1360711885,
      1880762183,
      404227475,
      1880772909
    ],
    "wof:breaches": [],
    "wof:concordances": {
      "gp:id": "27492450"
    },
    "wof:country": "GB",
    "wof:created": 1583701375,
    "wof:geomhash": "97121b42510ab99ca4ced014dad4b8e0",
    "wof:hierarchy": [
      {
        "continent_id": 102191581,
        "country_id": 85633159,
        "county_id": 1360698781,
        "empire_id": 136253055,
        "localadmin_id": 404453957,
        "locality_id": 1360711885,
        "macrocounty_id": 1880762183,
        "macroregion_id": 404227475,
        "postalcode_id": 504495719,
        "region_id": 1880772909
      },
      {
        "continent_id": 102191581,
        "country_id": 85633159,
        "empire_id": 136253055,
        "postalcode_id": 504495719,
        "postalregion_id": 1864208471
      }
    ],
    "wof:id": 504495719,
    "wof:lastmodified": 1763548146,
    "wof:name": "LL22 9DS",
    "wof:parent_id": 1360711885,
    "wof:placetype": "postalcode",
    "wof:repo": "whosonfirst-data-postalcode-gb",
    "wof:superseded_by": [],
    "wof:supersedes": [],
    "wof:tags": []
  },
  "bbox": [
    -3.500194,
    53.247568,
    -3.500194,
    53.247568
  ],
  "geometry": {"coordinates":[-3.500194,53.247568],"type":"Point"}
}
