{
  "id": 1797024815,
  "type": "Feature",
  "properties": {
    "date:cessation_lower": "2025-04-01",
    "date:cessation_upper": "2025-04-01",
    "date:inception_lower": "2022-10-01",
    "date:inception_upper": "2022-10-01",
    "edtf:cessation": "2025-04-01",
    "edtf:inception": "2022-10-01",
    "geom:area": 0,
    "geom:bbox": "-1.780848,52.632523,-1.780848,52.632523",
    "geom:latitude": 52.632523,
    "geom:longitude": -1.780848,
    "iso:country": "GB",
    "mz:hierarchy_label": 1,
    "mz:is_current": 0,
    "os:country_code": "E92000001",
    "os:county_code": "E10000028",
    "os:district_code": "E07000194",
    "os:positional_quality_indicator": "1",
    "os:region_code": "E12000005",
    "src:geom": "os",
    "wof:belongsto": [
      102191581,
      85633159,
      136253055,
      1864211651,
      1880771621,
      1880761999,
      404227469,
      1880762719,
      404441373,
      1125915085
    ],
    "wof:breaches": [],
    "wof:country": "GB",
    "wof:created": 1673354805,
    "wof:geomhash": "e75065ac76ff61447e280c7f210dbf1e",
    "wof:hierarchy": [
      {
        "continent_id": 102191581,
        "country_id": 85633159,
        "county_id": 1880771621,
        "empire_id": 136253055,
        "localadmin_id": 404441373,
        "locality_id": 1125915085,
        "macrocounty_id": 1880761999,
        "macroregion_id": 404227469,
        "postalcode_id": 1797024815,
        "region_id": 1880762719
      },
      {
        "continent_id": 102191581,
        "country_id": 85633159,
        "empire_id": 136253055,
        "postalcode_id": 1797024815,
        "postalregion_id": 1864211651
      }
    ],
    "wof:id": 1797024815,
    "wof:lastmodified": 1763548637,
    "wof:name": "WS14 0PG",
    "wof:parent_id": 1125915085,
    "wof:placetype": "postalcode",
    "wof:repo": "whosonfirst-data-postalcode-gb",
    "wof:superseded_by": [],
    "wof:supersedes": [],
    "wof:tags": []
  },
  "bbox": [
    -1.780848,
    52.632523,
    -1.780848,
    52.632523
  ],
  "geometry": {"coordinates":[-1.780848,52.632523],"type":"Point"}
}
