{
  "id": 471511815,
  "type": "Feature",
  "properties": {
    "date:inception_lower": "2003-05-01",
    "date:inception_upper": "2003-05-01",
    "edtf:cessation": "",
    "edtf:inception": "2003-05-01",
    "geom:area": 0,
    "geom:bbox": "-2.654846,53.641031,-2.654846,53.641031",
    "geom:latitude": 53.641031,
    "geom:longitude": -2.654846,
    "gp:parent_id": "16006",
    "iso:country": "GB",
    "mz:hierarchy_label": 1,
    "mz:is_current": 1,
    "os:country_code": "E92000001",
    "os:county_code": "E10000017",
    "os:district_code": "E07000118",
    "os:positional_quality_indicator": "1",
    "os:region_code": "E12000002",
    "src:geom": "os",
    "wof:belongsto": [
      85633159,
      102191581,
      136253055,
      1864210009,
      1880771533,
      1243102715,
      1880762053,
      404227469,
      1880762711
    ],
    "wof:breaches": [],
    "wof:concordances": {
      "gp:id": "27802674"
    },
    "wof:country": "GB",
    "wof:created": 1583701653,
    "wof:geomhash": "f3864a98de4b45847181bc7d49778774",
    "wof:hierarchy": [
      {
        "continent_id": 102191581,
        "country_id": 85633159,
        "county_id": 1880771533,
        "empire_id": 136253055,
        "locality_id": 1243102715,
        "macrocounty_id": 1880762053,
        "macroregion_id": 404227469,
        "postalcode_id": 471511815,
        "region_id": 1880762711
      },
      {
        "continent_id": 102191581,
        "country_id": 85633159,
        "empire_id": 136253055,
        "postalcode_id": 471511815,
        "postalregion_id": 1864210009
      }
    ],
    "wof:id": 471511815,
    "wof:lastmodified": 1763548188,
    "wof:name": "PR7 2RB",
    "wof:parent_id": 1243102715,
    "wof:placetype": "postalcode",
    "wof:repo": "whosonfirst-data-postalcode-gb",
    "wof:superseded_by": [],
    "wof:supersedes": [],
    "wof:tags": []
  },
  "bbox": [
    -2.654846,
    53.641031,
    -2.654846,
    53.641031
  ],
  "geometry": {"coordinates":[-2.654846,53.641031],"type":"Point"}
}
