{
  "id": 39436983,
  "type": "Feature",
  "properties": {
    "date:cessation_lower": "1995-07-01",
    "date:cessation_upper": "1995-07-01",
    "date:inception_lower": "1983-01-01",
    "date:inception_upper": "1983-01-01",
    "edtf:cessation": "1995-07-01",
    "edtf:inception": "1983-01-01",
    "geom:area": 0,
    "geom:bbox": "-0.792988,51.367097,-0.792988,51.367097",
    "geom:latitude": 51.367097,
    "geom:longitude": -0.792988,
    "iso:country": "GB",
    "mz:hierarchy_label": 1,
    "mz:is_current": 0,
    "os:country_code": "E92000001",
    "os:county_code": "E99999999",
    "os:district_code": "E06000036",
    "os:positional_quality_indicator": "8",
    "os:region_code": "E12000008",
    "src:geom": "os",
    "wof:belongsto": [
      102191581,
      85633159,
      1360699013,
      136253055,
      404440895,
      101875425,
      1880762165,
      404227469,
      1880772969
    ],
    "wof:breaches": [],
    "wof:country": "GB",
    "wof:created": 1583801440,
    "wof:geomhash": "e422d8def48e4fdd65f4f9cbc7bd06b2",
    "wof:hierarchy": [
      {
        "continent_id": 102191581,
        "country_id": 85633159,
        "county_id": 1360699013,
        "empire_id": 136253055,
        "localadmin_id": 404440895,
        "locality_id": 101875425,
        "macrocounty_id": 1880762165,
        "macroregion_id": 404227469,
        "postalcode_id": 39436983,
        "region_id": 1880772969
      }
    ],
    "wof:id": 39436983,
    "wof:lastmodified": 1763548407,
    "wof:name": "RG11 7HN",
    "wof:parent_id": 101875425,
    "wof:placetype": "postalcode",
    "wof:repo": "whosonfirst-data-postalcode-gb",
    "wof:superseded_by": [],
    "wof:supersedes": [],
    "wof:tags": []
  },
  "bbox": [
    -0.792988,
    51.367097,
    -0.792988,
    51.367097
  ],
  "geometry": {"coordinates":[-0.792988,51.367097],"type":"Point"}
}
