{
  "id": 438144529,
  "type": "Feature",
  "properties": {
    "date:inception_lower": "2005-06-01",
    "date:inception_upper": "2005-06-01",
    "edtf:cessation": "",
    "edtf:inception": "2005-06-01",
    "geom:area": 0,
    "geom:bbox": "-1.852310,50.727327,-1.852310,50.727327",
    "geom:latitude": 50.727327,
    "geom:longitude": -1.85231,
    "gp:parent_id": "13383",
    "iso:country": "GB",
    "mz:hierarchy_label": 1,
    "mz:is_current": 1,
    "os:country_code": "E92000001",
    "os:county_code": "E99999999",
    "os:district_code": "E06000058",
    "os:positional_quality_indicator": "1",
    "os:region_code": "E12000009",
    "src:geom": "os",
    "wof:belongsto": [
      85633159,
      102191581,
      136253055,
      1864205785,
      1880773233,
      101750305,
      1880762151,
      404227469,
      1880772881
    ],
    "wof:breaches": [],
    "wof:concordances": {
      "gp:id": "26907697"
    },
    "wof:country": "GB",
    "wof:created": 1583701339,
    "wof:geomhash": "a6680d03fc01b22db51acbe38e176875",
    "wof:hierarchy": [
      {
        "continent_id": 102191581,
        "country_id": 85633159,
        "county_id": 1880773233,
        "empire_id": 136253055,
        "locality_id": 101750305,
        "macrocounty_id": 1880762151,
        "macroregion_id": 404227469,
        "postalcode_id": 438144529,
        "region_id": 1880772881
      },
      {
        "continent_id": 102191581,
        "country_id": 85633159,
        "empire_id": 136253055,
        "postalcode_id": 438144529,
        "postalregion_id": 1864205785
      }
    ],
    "wof:id": 438144529,
    "wof:lastmodified": 1763548064,
    "wof:name": "BH1 3SB",
    "wof:parent_id": 101750305,
    "wof:placetype": "postalcode",
    "wof:repo": "whosonfirst-data-postalcode-gb",
    "wof:superseded_by": [],
    "wof:supersedes": [],
    "wof:tags": []
  },
  "bbox": [
    -1.85231,
    50.727327,
    -1.85231,
    50.727327
  ],
  "geometry": {"coordinates":[-1.85231,50.727327],"type":"Point"}
}
