{
  "id": 488281323,
  "type": "Feature",
  "properties": {
    "date:inception_lower": "2009-10-01",
    "date:inception_upper": "2009-10-01",
    "edtf:cessation": "",
    "edtf:inception": "2009-10-01",
    "geom:area": 0,
    "geom:bbox": "0.195476,51.896094,0.195476,51.896094",
    "geom:latitude": 51.896094,
    "geom:longitude": 0.195476,
    "gp:parent_id": "12695951",
    "iso:country": "GB",
    "mz:hierarchy_label": 1,
    "mz:is_current": 1,
    "os:country_code": "E92000001",
    "os:county_code": "E10000012",
    "os:district_code": "E07000077",
    "os:positional_quality_indicator": "1",
    "os:region_code": "E12000006",
    "src:geom": "os",
    "wof:belongsto": [
      85633159,
      102191581,
      136253055,
      1864206359,
      1880771429,
      404452717,
      1225973629,
      1880762159,
      404227469,
      1880762723
    ],
    "wof:breaches": [],
    "wof:concordances": {
      "gp:id": "56135687"
    },
    "wof:country": "GB",
    "wof:created": 1583701292,
    "wof:geomhash": "e90b548aef6f5025be94432c4a3e8000",
    "wof:hierarchy": [
      {
        "continent_id": 102191581,
        "country_id": 85633159,
        "county_id": 1880771429,
        "empire_id": 136253055,
        "localadmin_id": 404452717,
        "locality_id": 1225973629,
        "macrocounty_id": 1880762159,
        "macroregion_id": 404227469,
        "postalcode_id": 488281323,
        "region_id": 1880762723
      },
      {
        "continent_id": 102191581,
        "country_id": 85633159,
        "empire_id": 136253055,
        "postalcode_id": 488281323,
        "postalregion_id": 1864206359
      }
    ],
    "wof:id": 488281323,
    "wof:lastmodified": 1763548466,
    "wof:name": "CM24 8FP",
    "wof:parent_id": 1225973629,
    "wof:placetype": "postalcode",
    "wof:repo": "whosonfirst-data-postalcode-gb",
    "wof:superseded_by": [],
    "wof:supersedes": [],
    "wof:tags": []
  },
  "bbox": [
    0.195476,
    51.896094,
    0.195476,
    51.896094
  ],
  "geometry": {"coordinates":[0.195476,51.896094],"type":"Point"}
}
