{
  "id": 504455447,
  "type": "Feature",
  "properties": {
    "date:inception_lower": "1994-10-01",
    "date:inception_upper": "1994-10-01",
    "edtf:cessation": "",
    "edtf:inception": "1994-10-01",
    "geom:area": 0,
    "geom:bbox": "-5.093386,55.481513,-5.093386,55.481513",
    "geom:latitude": 55.481513,
    "geom:longitude": -5.093386,
    "gp:parent_id": "12696203",
    "iso:country": "GB",
    "mz:hierarchy_label": 1,
    "mz:is_current": 1,
    "os:country_code": "S92000003",
    "os:county_code": "S99999999",
    "os:district_code": "S12000021",
    "os:positional_quality_indicator": "1",
    "os:region_code": "S99999999",
    "src:geom": "os",
    "wof:belongsto": [
      85633159,
      102191581,
      136253055,
      1864208059,
      1360698855,
      1880762041,
      404227471,
      1880772907
    ],
    "wof:breaches": [],
    "wof:concordances": {
      "gp:id": "27419025"
    },
    "wof:country": "GB",
    "wof:created": 1583701328,
    "wof:geomhash": "4c650c21a8579b26933e0258a48e176b",
    "wof:hierarchy": [
      {
        "continent_id": 102191581,
        "country_id": 85633159,
        "county_id": 1360698855,
        "empire_id": 136253055,
        "macrocounty_id": 1880762041,
        "macroregion_id": 404227471,
        "postalcode_id": 504455447,
        "region_id": 1880772907
      },
      {
        "continent_id": 102191581,
        "country_id": 85633159,
        "empire_id": 136253055,
        "postalcode_id": 504455447,
        "postalregion_id": 1864208059
      }
    ],
    "wof:id": 504455447,
    "wof:lastmodified": 1763547999,
    "wof:name": "KA27 8QX",
    "wof:parent_id": 1360698855,
    "wof:placetype": "postalcode",
    "wof:repo": "whosonfirst-data-postalcode-gb",
    "wof:superseded_by": [],
    "wof:supersedes": [],
    "wof:tags": []
  },
  "bbox": [
    -5.093386,
    55.481513,
    -5.093386,
    55.481513
  ],
  "geometry": {"coordinates":[-5.093386,55.481513],"type":"Point"}
}
