{
  "id": 874474379,
  "type": "Feature",
  "properties": {
    "date:inception_lower": "2012-02-01",
    "date:inception_upper": "2012-02-01",
    "edtf:cessation": "",
    "edtf:inception": "2012-02-01",
    "geom:area": 0,
    "geom:bbox": "-2.887824,54.062311,-2.887824,54.062311",
    "geom:latitude": 54.062311,
    "geom:longitude": -2.887824,
    "iso:country": "GB",
    "mz:hierarchy_label": 1,
    "mz:is_current": 1,
    "os:country_code": "E92000001",
    "os:county_code": "E10000017",
    "os:district_code": "E07000121",
    "os:positional_quality_indicator": "1",
    "os:region_code": "E12000002",
    "src:geom": "os",
    "wof:belongsto": [
      85633159,
      102191581,
      136253055,
      1864208357,
      1880771531,
      404430699,
      1125770537,
      1880762053,
      404227469,
      1880762711
    ],
    "wof:breaches": [],
    "wof:country": "GB",
    "wof:created": 1468886568,
    "wof:geomhash": "fe9c9451a862fc3370dd9d10e035e6b6",
    "wof:hierarchy": [
      {
        "continent_id": 102191581,
        "country_id": 85633159,
        "county_id": 1880771531,
        "empire_id": 136253055,
        "localadmin_id": 404430699,
        "locality_id": 1125770537,
        "macrocounty_id": 1880762053,
        "macroregion_id": 404227469,
        "postalcode_id": 874474379,
        "region_id": 1880762711
      },
      {
        "continent_id": 102191581,
        "country_id": 85633159,
        "empire_id": 136253055,
        "postalcode_id": 874474379,
        "postalregion_id": 1864208357
      }
    ],
    "wof:id": 874474379,
    "wof:lastmodified": 1763547972,
    "wof:name": "LA3 1FS",
    "wof:parent_id": 1125770537,
    "wof:placetype": "postalcode",
    "wof:repo": "whosonfirst-data-postalcode-gb",
    "wof:superseded_by": [],
    "wof:supersedes": [],
    "wof:tags": []
  },
  "bbox": [
    -2.887824,
    54.062311,
    -2.887824,
    54.062311
  ],
  "geometry": {"coordinates":[-2.887824,54.062311],"type":"Point"}
}
