{
  "id": 38496447,
  "type": "Feature",
  "properties": {
    "date:cessation_lower": "1997-06-01",
    "date:cessation_upper": "1997-06-01",
    "date:inception_lower": "1980-01-01",
    "date:inception_upper": "1980-01-01",
    "edtf:cessation": "1997-06-01",
    "edtf:inception": "1980-01-01",
    "geom:area": 0,
    "geom:bbox": "-1.723658,53.342902,-1.723658,53.342902",
    "geom:latitude": 53.342902,
    "geom:longitude": -1.723658,
    "iso:country": "GB",
    "mz:hierarchy_label": 1,
    "mz:is_current": 0,
    "os:country_code": "E92000001",
    "os:county_code": "E10000007",
    "os:district_code": "E07000037",
    "os:positional_quality_indicator": "1",
    "os:region_code": "E12000004",
    "src:geom": "os",
    "wof:belongsto": [
      102191581,
      85633159,
      1880771377,
      136253055,
      404438707,
      1125981731,
      1880762133,
      404227469,
      1880762707
    ],
    "wof:breaches": [],
    "wof:country": "GB",
    "wof:created": 1583790971,
    "wof:geomhash": "adb233cae8a96516601761e8441af651",
    "wof:hierarchy": [
      {
        "continent_id": 102191581,
        "country_id": 85633159,
        "county_id": 1880771377,
        "empire_id": 136253055,
        "localadmin_id": 404438707,
        "locality_id": 1125981731,
        "macrocounty_id": 1880762133,
        "macroregion_id": 404227469,
        "postalcode_id": 38496447,
        "region_id": 1880762707
      }
    ],
    "wof:id": 38496447,
    "wof:lastmodified": 1763548178,
    "wof:name": "S30 2RB",
    "wof:parent_id": 1125981731,
    "wof:placetype": "postalcode",
    "wof:repo": "whosonfirst-data-postalcode-gb",
    "wof:superseded_by": [],
    "wof:supersedes": [],
    "wof:tags": []
  },
  "bbox": [
    -1.723658,
    53.342902,
    -1.723658,
    53.342902
  ],
  "geometry": {"coordinates":[-1.723658,53.342902],"type":"Point"}
}
