{
  "id": 471687011,
  "type": "Feature",
  "properties": {
    "date:inception_lower": "1980-01-01",
    "date:inception_upper": "1980-01-01",
    "edtf:cessation": "",
    "edtf:inception": "1980-01-01",
    "geom:area": 0,
    "geom:bbox": "-1.532276,53.583271,-1.532276,53.583271",
    "geom:latitude": 53.583271,
    "geom:longitude": -1.532276,
    "gp:parent_id": "17957",
    "iso:country": "GB",
    "mz:hierarchy_label": 1,
    "mz:is_current": 1,
    "os:country_code": "E92000001",
    "os:county_code": "E99999999",
    "os:district_code": "E08000038",
    "os:positional_quality_indicator": "1",
    "os:region_code": "E12000003",
    "src:geom": "os",
    "wof:belongsto": [
      85633159,
      102191581,
      136253055,
      1864210265,
      1360699091,
      1880761997,
      404227469,
      1880772963,
      1125860113
    ],
    "wof:breaches": [],
    "wof:concordances": {
      "gp:id": "27865343"
    },
    "wof:country": "GB",
    "wof:created": 1583701698,
    "wof:geomhash": "34ffe4c60363af040291b0c40b2e4eda",
    "wof:hierarchy": [
      {
        "continent_id": 102191581,
        "country_id": 85633159,
        "county_id": 1360699091,
        "empire_id": 136253055,
        "locality_id": 1125860113,
        "macrocounty_id": 1880761997,
        "macroregion_id": 404227469,
        "postalcode_id": 471687011,
        "region_id": 1880772963
      },
      {
        "continent_id": 102191581,
        "country_id": 85633159,
        "empire_id": 136253055,
        "postalcode_id": 471687011,
        "postalregion_id": 1864210265
      }
    ],
    "wof:id": 471687011,
    "wof:lastmodified": 1763548048,
    "wof:name": "S75 5NW",
    "wof:parent_id": 1125860113,
    "wof:placetype": "postalcode",
    "wof:repo": "whosonfirst-data-postalcode-gb",
    "wof:superseded_by": [],
    "wof:supersedes": [],
    "wof:tags": []
  },
  "bbox": [
    -1.532276,
    53.583271,
    -1.532276,
    53.583271
  ],
  "geometry": {"coordinates":[-1.532276,53.583271],"type":"Point"}
}
