{
  "id": 471838271,
  "type": "Feature",
  "properties": {
    "date:inception_lower": "1980-01-01",
    "date:inception_upper": "1980-01-01",
    "edtf:cessation": "",
    "edtf:inception": "1980-01-01",
    "geom:area": 0,
    "geom:bbox": "-2.084360,51.348900,-2.084360,51.348900",
    "geom:latitude": 51.3489,
    "geom:longitude": -2.08436,
    "gp:parent_id": "34328",
    "iso:country": "GB",
    "mz:hierarchy_label": 1,
    "mz:is_current": 1,
    "os:country_code": "E92000001",
    "os:county_code": "E99999999",
    "os:district_code": "E06000054",
    "os:positional_quality_indicator": "1",
    "os:region_code": "E12000009",
    "src:geom": "os",
    "wof:belongsto": [
      85633159,
      102191581,
      136253055,
      1864210607,
      1360698937,
      404440811,
      1125899845,
      1880762017,
      404227469,
      1880773035
    ],
    "wof:breaches": [],
    "wof:concordances": {
      "gp:id": "26494205"
    },
    "wof:country": "GB",
    "wof:created": 1583701753,
    "wof:geomhash": "874491ef6864e3c398a61fa4baf69ef0",
    "wof:hierarchy": [
      {
        "continent_id": 102191581,
        "country_id": 85633159,
        "county_id": 1360698937,
        "empire_id": 136253055,
        "localadmin_id": 404440811,
        "locality_id": 1125899845,
        "macrocounty_id": 1880762017,
        "macroregion_id": 404227469,
        "postalcode_id": 471838271,
        "region_id": 1880773035
      },
      {
        "continent_id": 102191581,
        "country_id": 85633159,
        "empire_id": 136253055,
        "postalcode_id": 471838271,
        "postalregion_id": 1864210607
      }
    ],
    "wof:id": 471838271,
    "wof:lastmodified": 1763548344,
    "wof:name": "SN12 6NP",
    "wof:parent_id": 1125899845,
    "wof:placetype": "postalcode",
    "wof:repo": "whosonfirst-data-postalcode-gb",
    "wof:superseded_by": [],
    "wof:supersedes": [],
    "wof:tags": []
  },
  "bbox": [
    -2.08436,
    51.3489,
    -2.08436,
    51.3489
  ],
  "geometry": {"coordinates":[-2.08436,51.3489],"type":"Point"}
}
