{
  "id": 39810177,
  "type": "Feature",
  "properties": {
    "date:cessation_lower": "1999-06-01",
    "date:cessation_upper": "1999-06-01",
    "date:inception_lower": "1980-01-01",
    "date:inception_upper": "1980-01-01",
    "edtf:cessation": "1999-06-01",
    "edtf:inception": "1980-01-01",
    "geom:area": 0,
    "geom:bbox": "-2.761468,51.724153,-2.761468,51.724153",
    "geom:latitude": 51.724153,
    "geom:longitude": -2.761468,
    "iso:country": "GB",
    "mz:hierarchy_label": 1,
    "mz:is_current": 0,
    "os:country_code": "W92000004",
    "os:county_code": "W99999999",
    "os:district_code": "W06000021",
    "os:positional_quality_indicator": "8",
    "os:region_code": "W99999999",
    "src:geom": "os",
    "wof:belongsto": [
      102191581,
      85633159,
      1360699109,
      136253055,
      404446099,
      1360711617,
      1880762173,
      404227475,
      1880773189
    ],
    "wof:breaches": [],
    "wof:country": "GB",
    "wof:created": 1583805638,
    "wof:geomhash": "f435e795a4700dfb66ff3a31e89caa5f",
    "wof:hierarchy": [
      {
        "continent_id": 102191581,
        "country_id": 85633159,
        "county_id": 1360699109,
        "empire_id": 136253055,
        "localadmin_id": 404446099,
        "locality_id": 1360711617,
        "macrocounty_id": 1880762173,
        "macroregion_id": 404227475,
        "postalcode_id": 39810177,
        "region_id": 1880773189
      }
    ],
    "wof:id": 39810177,
    "wof:lastmodified": 1763547900,
    "wof:name": "NP6 6QL",
    "wof:parent_id": 1360711617,
    "wof:placetype": "postalcode",
    "wof:repo": "whosonfirst-data-postalcode-gb",
    "wof:superseded_by": [],
    "wof:supersedes": [],
    "wof:tags": []
  },
  "bbox": [
    -2.761468,
    51.724153,
    -2.761468,
    51.724153
  ],
  "geometry": {"coordinates":[-2.761468,51.724153],"type":"Point"}
}
