{
  "id": 471232859,
  "type": "Feature",
  "properties": {
    "date:inception_lower": "2001-06-01",
    "date:inception_upper": "2001-06-01",
    "edtf:cessation": "",
    "edtf:inception": "2001-06-01",
    "geom:area": 0,
    "geom:bbox": "1.723285,52.499836,1.723285,52.499836",
    "geom:latitude": 52.499836,
    "geom:longitude": 1.723285,
    "iso:country": "GB",
    "mz:hierarchy_label": 1,
    "mz:is_current": 1,
    "os:country_code": "E92000001",
    "os:county_code": "E10000029",
    "os:district_code": "E07000244",
    "os:positional_quality_indicator": "1",
    "os:region_code": "E12000006",
    "src:geom": "os",
    "wof:belongsto": [
      85633159,
      102191581,
      136253055,
      1864209355,
      1880771635,
      1125912167,
      1880762001
    ],
    "wof:breaches": [],
    "wof:concordances": {
      "gp:id": "27689163"
    },
    "wof:country": "GB",
    "wof:created": 1583701420,
    "wof:geomhash": "a7147396ff1dc31d251b052170b1a0bd",
    "wof:hierarchy": [
      {
        "continent_id": -1,
        "country_id": -1,
        "county_id": 1880771635,
        "locality_id": 1125912167,
        "macrocounty_id": 1880762001,
        "postalcode_id": 471232859,
        "region_id": -1
      },
      {
        "continent_id": 102191581,
        "country_id": 85633159,
        "empire_id": 136253055,
        "postalcode_id": 471232859,
        "postalregion_id": 1864209355
      }
    ],
    "wof:id": 471232859,
    "wof:lastmodified": 1763548096,
    "wof:name": "NR32 4WT",
    "wof:parent_id": 1125912167,
    "wof:placetype": "postalcode",
    "wof:repo": "whosonfirst-data-postalcode-gb",
    "wof:superseded_by": [],
    "wof:supersedes": [],
    "wof:tags": []
  },
  "bbox": [
    1.723285,
    52.499836,
    1.723285,
    52.499836
  ],
  "geometry": {"coordinates":[1.723285,52.499836],"type":"Point"}
}
