{
  "id": 454837487,
  "type": "Feature",
  "properties": {
    "date:inception_lower": "1981-09-01",
    "date:inception_upper": "1981-09-01",
    "edtf:cessation": "",
    "edtf:inception": "1981-09-01",
    "geom:area": 0,
    "geom:bbox": "-1.832455,53.739390,-1.832455,53.739390",
    "geom:latitude": 53.73939,
    "geom:longitude": -1.832455,
    "gp:parent_id": "22179",
    "iso:country": "GB",
    "mz:hierarchy_label": 1,
    "mz:is_current": 1,
    "os:country_code": "E92000001",
    "os:county_code": "E99999999",
    "os:district_code": "E08000033",
    "os:positional_quality_indicator": "1",
    "os:region_code": "E12000003",
    "src:geom": "os",
    "wof:belongsto": [
      85633159,
      102191581,
      136253055,
      1864207785,
      1360698833,
      1360817303,
      101750577,
      1880762059,
      404227469,
      1880773017
    ],
    "wof:breaches": [],
    "wof:concordances": {
      "gp:id": "27383325"
    },
    "wof:country": "GB",
    "wof:created": 1583701730,
    "wof:geomhash": "b1992a6afd45e91a5afee45ce03d6eaa",
    "wof:hierarchy": [
      {
        "continent_id": 102191581,
        "country_id": 85633159,
        "county_id": 1360698833,
        "empire_id": 136253055,
        "localadmin_id": 1360817303,
        "locality_id": 101750577,
        "macrocounty_id": 1880762059,
        "macroregion_id": 404227469,
        "postalcode_id": 454837487,
        "region_id": 1880773017
      },
      {
        "continent_id": 102191581,
        "country_id": 85633159,
        "empire_id": 136253055,
        "postalcode_id": 454837487,
        "postalregion_id": 1864207785
      }
    ],
    "wof:id": 454837487,
    "wof:lastmodified": 1763548515,
    "wof:name": "HX3 7ED",
    "wof:parent_id": 101750577,
    "wof:placetype": "postalcode",
    "wof:repo": "whosonfirst-data-postalcode-gb",
    "wof:superseded_by": [],
    "wof:supersedes": [],
    "wof:tags": []
  },
  "bbox": [
    -1.832455,
    53.73939,
    -1.832455,
    53.73939
  ],
  "geometry": {"coordinates":[-1.832455,53.73939],"type":"Point"}
}
