{
  "id": 454617815,
  "type": "Feature",
  "properties": {
    "date:inception_lower": "1992-08-01",
    "date:inception_upper": "1992-08-01",
    "edtf:cessation": "",
    "edtf:inception": "1992-08-01",
    "geom:area": 0,
    "geom:bbox": "-3.016211,53.881472,-3.016211,53.881472",
    "geom:latitude": 53.881472,
    "geom:longitude": -3.016211,
    "gp:parent_id": "37385",
    "iso:country": "GB",
    "mz:hierarchy_label": 1,
    "mz:is_current": 1,
    "os:country_code": "E92000001",
    "os:county_code": "E10000017",
    "os:district_code": "E07000128",
    "os:positional_quality_indicator": "1",
    "os:region_code": "E12000002",
    "src:geom": "os",
    "wof:belongsto": [
      85633159,
      102191581,
      136253055,
      1864207309,
      1880771545,
      1360817225,
      1125786323,
      1880762053,
      404227469,
      1880762711
    ],
    "wof:breaches": [],
    "wof:concordances": {
      "gp:id": "26777070"
    },
    "wof:country": "GB",
    "wof:created": 1583701663,
    "wof:geomhash": "75e9b2411c71912b459825038af40f01",
    "wof:hierarchy": [
      {
        "continent_id": 102191581,
        "country_id": 85633159,
        "county_id": 1880771545,
        "empire_id": 136253055,
        "localadmin_id": 1360817225,
        "locality_id": 1125786323,
        "macrocounty_id": 1880762053,
        "macroregion_id": 404227469,
        "postalcode_id": 454617815,
        "region_id": 1880762711
      },
      {
        "continent_id": 102191581,
        "country_id": 85633159,
        "empire_id": 136253055,
        "postalcode_id": 454617815,
        "postalregion_id": 1864207309
      }
    ],
    "wof:id": 454617815,
    "wof:lastmodified": 1763548265,
    "wof:name": "FY5 2UA",
    "wof:parent_id": 1125786323,
    "wof:placetype": "postalcode",
    "wof:repo": "whosonfirst-data-postalcode-gb",
    "wof:superseded_by": [],
    "wof:supersedes": [],
    "wof:tags": []
  },
  "bbox": [
    -3.016211,
    53.881472,
    -3.016211,
    53.881472
  ],
  "geometry": {"coordinates":[-3.016211,53.881472],"type":"Point"}
}
