{
  "id": 504606475,
  "type": "Feature",
  "properties": {
    "date:inception_lower": "1980-01-01",
    "date:inception_upper": "1980-01-01",
    "edtf:cessation": "",
    "edtf:inception": "1980-01-01",
    "geom:area": 0,
    "geom:bbox": "-4.833855,51.856348,-4.833855,51.856348",
    "geom:latitude": 51.856348,
    "geom:longitude": -4.833855,
    "gp:parent_id": "16167",
    "iso:country": "GB",
    "mz:hierarchy_label": 1,
    "mz:is_current": 1,
    "os:country_code": "W92000004",
    "os:county_code": "W99999999",
    "os:district_code": "W06000009",
    "os:positional_quality_indicator": "1",
    "os:region_code": "W99999999",
    "src:geom": "os",
    "wof:belongsto": [
      85633159,
      102191581,
      136253055,
      1864210371,
      1360698843,
      404436849,
      1125930837,
      1880762181,
      404227475,
      1880772913
    ],
    "wof:breaches": [],
    "wof:concordances": {
      "gp:id": "27885457"
    },
    "wof:country": "GB",
    "wof:created": 1583701475,
    "wof:geomhash": "f116f73f7f91a7903e646a65fba1d9de",
    "wof:hierarchy": [
      {
        "continent_id": 102191581,
        "country_id": 85633159,
        "county_id": 1360698843,
        "empire_id": 136253055,
        "localadmin_id": 404436849,
        "locality_id": 1125930837,
        "macrocounty_id": 1880762181,
        "macroregion_id": 404227475,
        "postalcode_id": 504606475,
        "region_id": 1880772913
      },
      {
        "continent_id": 102191581,
        "country_id": 85633159,
        "empire_id": 136253055,
        "postalcode_id": 504606475,
        "postalregion_id": 1864210371
      }
    ],
    "wof:id": 504606475,
    "wof:lastmodified": 1763548138,
    "wof:name": "SA63 4QY",
    "wof:parent_id": 1125930837,
    "wof:placetype": "postalcode",
    "wof:repo": "whosonfirst-data-postalcode-gb",
    "wof:superseded_by": [],
    "wof:supersedes": [],
    "wof:tags": []
  },
  "bbox": [
    -4.833855,
    51.856348,
    -4.833855,
    51.856348
  ],
  "geometry": {"coordinates":[-4.833855,51.856348],"type":"Point"}
}
